<?xml version="1.0" encoding="UTF-8"?><kml xmlns="http://www.opengis.net/kml/2.2"><Document><Placemark><name>Breede Valley</name><description>Local Municipality 168</description><ExtendedData><Data name="code"><value>168</value></Data><Data name="name"><value>Breede Valley</value></Data><Data name="description"><value>Local Municipality 168</value></Data></ExtendedData><MultiGeometry><Polygon><outerBoundaryIs><LinearRing><coordinates>19.1881,-33.75387 19.18605,-33.72372 19.18536,-33.72094 19.18524,-33.72044 19.18521,-33.7203 19.18517,-33.72018 19.18399,-33.71539 19.14875,-33.70221 19.14875,-33.7021 19.14749,-33.6561 19.14737,-33.656 19.12682,-33.63912 19.10514,-33.6109 19.10196,-33.60676 19.10647,-33.59008 19.10647,-33.59002 19.10451,-33.5586 19.10759,-33.54419 19.10704,-33.54114 19.14018,-33.5647 19.16939,-33.59749 19.1854,-33.56199 19.1987,-33.55717 19.20621,-33.55817 19.20799,-33.55841 19.21472,-33.55932 19.22185,-33.56238 19.22792,-33.56116 19.22887,-33.56097 19.22899,-33.56095 19.23291,-33.56015 19.23947,-33.55884 19.24461,-33.56732 19.24623,-33.56999 19.24729,-33.57175 19.25015,-33.57647 19.25211,-33.57971 19.25611,-33.58228 19.25633,-33.5819 19.25655,-33.58151 19.26022,-33.58301 19.26536,-33.58509 19.26565,-33.5852 19.27013,-33.58702 19.27075,-33.58727 19.27741,-33.58998 19.27767,-33.58941 19.27864,-33.58719 19.28037,-33.58907 19.28073,-33.58947 19.28253,-33.59143 19.28849,-33.5979 19.28279,-33.60382 19.27662,-33.61024 19.28001,-33.61387 19.28671,-33.60672 19.28897,-33.60675 19.29471,-33.60683 19.29622,-33.60686 19.30497,-33.60699 19.30594,-33.60702 19.30989,-33.60708 19.31132,-33.6071 19.31132,-33.60632 19.31133,-33.60628 19.31133,-33.60603 19.31261,-33.60644 19.31277,-33.60605 19.31281,-33.60595 19.31318,-33.60505 19.3133,-33.60477 19.31364,-33.60393 19.31479,-33.60117 19.31666,-33.59747 19.32108,-33.59875 19.32301,-33.5993 19.32307,-33.59932 19.32305,-33.59937 19.32257,-33.60048 19.32146,-33.60309 19.32265,-33.60343 19.3227,-33.60345 19.32271,-33.60341 19.32426,-33.59966 19.3238,-33.5994 19.32545,-33.59987 19.32629,-33.60011 19.32864,-33.60078 19.32803,-33.59903 19.33676,-33.60022 19.34246,-33.601 19.34329,-33.60111 19.34676,-33.60158 19.34712,-33.60116 19.34769,-33.60101 19.34806,-33.6008 19.34832,-33.60108 19.34938,-33.60227 19.34913,-33.60256 19.34947,-33.60298 19.34895,-33.6042 19.34886,-33.60441 19.35159,-33.60633 19.35402,-33.61035 19.35412,-33.6105 19.35428,-33.61077 19.35531,-33.61247 19.35539,-33.61261 19.35821,-33.61728 19.3584,-33.61759 19.3603,-33.62073 19.36213,-33.62376 19.36226,-33.62401 19.36728,-33.62249 19.36852,-33.62208 19.36889,-33.62197 19.37269,-33.62085 19.37397,-33.62047 19.37406,-33.62045 19.37417,-33.62042 19.37432,-33.62038 19.37859,-33.61909 19.37856,-33.61826 19.37847,-33.61553 19.37847,-33.61537 19.37816,-33.60609 19.37765,-33.59051 19.37706,-33.58914 19.37694,-33.58888 19.37669,-33.58829 19.37413,-33.58237 19.3723,-33.57762 19.3672,-33.56779 19.39539,-33.55743 19.40014,-33.5235 19.40015,-33.52339 19.4053,-33.48051 19.4732,-33.46165 19.52088,-33.43743 19.53064,-33.43113 19.53791,-33.42644 19.54972,-33.39527 19.56706,-33.38201 19.57331,-33.37399 19.57365,-33.37356 19.58069,-33.36452 19.58763,-33.36589 19.60072,-33.36847 19.60104,-33.36854 19.66867,-33.38186 19.66874,-33.38185 19.7545,-33.37264 19.78843,-33.37677 19.81991,-33.37692 19.82979,-33.38099 19.82984,-33.3809 19.83004,-33.3805 19.83058,-33.37942 19.87533,-33.37136 19.90847,-33.3627 19.9264,-33.35252 19.93193,-33.34938 19.93313,-33.3487 19.93439,-33.34799 19.95537,-33.31769 19.97204,-33.31678 19.98912,-33.28722 19.99125,-33.28027 19.99137,-33.27985 19.99761,-33.25906 20.01377,-33.23879 20.07309,-33.20192 20.08698,-33.19328 20.1111,-33.19205 20.11318,-33.19195 20.11366,-33.19192 20.12025,-33.19159 20.14607,-33.17349 20.16498,-33.1722 20.18247,-33.171 20.20218,-33.17011 20.2183,-33.17389 20.25797,-33.18845 20.25442,-33.19855 20.24871,-33.21481 20.24398,-33.23648 20.24712,-33.24579 20.23792,-33.2591 20.23771,-33.2594 20.23562,-33.26242 20.25118,-33.29151 20.20351,-33.30274 20.23946,-33.30992 20.2245,-33.34598 20.20917,-33.3798 20.20971,-33.37977 20.22439,-33.37896 20.24866,-33.37756 20.27493,-33.37414 20.2986,-33.37213 20.324,-33.36998 20.36771,-33.36629 20.36804,-33.36627 20.36794,-33.36703 20.36726,-33.37298 20.36659,-33.37917 20.36629,-33.38164 20.36615,-33.38181 20.36294,-33.38493 20.35388,-33.39393 20.35374,-33.39406 20.3456,-33.39432 20.34571,-33.39468 20.34874,-33.40446 20.34886,-33.40487 20.33581,-33.42533 20.33561,-33.42564 20.34703,-33.42533 20.38928,-33.42407 20.38979,-33.42405 20.40744,-33.43391 20.40809,-33.43427 20.41669,-33.43552 20.42755,-33.44892 20.41982,-33.45297 20.38608,-33.45917 20.33622,-33.48782 20.33614,-33.48783 20.33566,-33.48816 20.31573,-33.50199 20.26785,-33.51289 20.24153,-33.53805 20.21492,-33.54133 20.17306,-33.52625 20.16929,-33.52919 20.16119,-33.53635 20.15157,-33.54043 20.12548,-33.55623 20.1056,-33.55 20.07786,-33.55299 20.06242,-33.5421 20.06204,-33.54187 20.0569,-33.54635 20.04839,-33.55015 20.04619,-33.55053 20.04549,-33.55058 20.02065,-33.55254 20.0111,-33.55455 20.00416,-33.55507 19.99305,-33.55694 19.98328,-33.5333 19.97142,-33.52426 19.9587,-33.51761 19.92572,-33.53329 19.92402,-33.53054 19.92399,-33.5305 19.92295,-33.5288 19.9171,-33.51927 19.8701,-33.54207 19.86896,-33.54863 19.86765,-33.55608 19.86523,-33.56998 19.83879,-33.56595 19.82469,-33.55644 19.79847,-33.5379 19.77504,-33.53332 19.75518,-33.53668 19.7502,-33.53437 19.74771,-33.53028 19.73626,-33.53728 19.70556,-33.53085 19.70402,-33.53052 19.69074,-33.52774 19.63759,-33.53655 19.63092,-33.54138 19.60259,-33.56185 19.60256,-33.56188 19.61825,-33.56618 19.62437,-33.56786 19.63942,-33.5827 19.63999,-33.58326 19.65038,-33.5935 19.64519,-33.6046 19.651,-33.60957 19.66693,-33.61573 19.69963,-33.63793 19.74115,-33.64963 19.71755,-33.66018 19.71476,-33.67504 19.71476,-33.67516 19.70603,-33.6756 19.7014,-33.67727 19.69731,-33.67888 19.69508,-33.67963 19.695,-33.67966 19.69003,-33.70428 19.69486,-33.70995 19.69852,-33.71426 19.70207,-33.71843 19.70068,-33.7211 19.69117,-33.73936 19.69121,-33.73938 19.70204,-33.74613 19.70228,-33.74627 19.70205,-33.74639 19.70081,-33.747 19.69866,-33.74806 19.69845,-33.74816 19.69829,-33.74824 19.69808,-33.74834 19.69792,-33.74842 19.68985,-33.7524 19.68855,-33.7516 19.68563,-33.74983 19.68279,-33.74877 19.66081,-33.77375 19.65964,-33.77509 19.66073,-33.7756 19.66154,-33.77571 19.66218,-33.77571 19.66264,-33.77629 19.66357,-33.77722 19.66502,-33.77838 19.66681,-33.77983 19.66684,-33.77985 19.66855,-33.78139 19.66924,-33.78174 19.67014,-33.78196 19.6704,-33.78203 19.6711,-33.78295 19.67124,-33.78322 19.67191,-33.78446 19.67272,-33.78556 19.67291,-33.78569 19.67365,-33.7862 19.67434,-33.78712 19.67477,-33.78809 19.67498,-33.78857 19.67527,-33.79019 19.67567,-33.79164 19.67648,-33.79216 19.67794,-33.79293 19.67845,-33.7932 19.67897,-33.79401 19.68054,-33.79552 19.681,-33.796 19.68199,-33.79702 19.68245,-33.79795 19.68285,-33.79888 19.683,-33.79952 19.68275,-33.79946 19.68269,-33.79945 19.68237,-33.79943 19.68184,-33.7994 19.68139,-33.79937 19.65221,-33.81365 19.6527,-33.83456 19.6492,-33.8346 19.62848,-33.83482 19.62729,-33.83551 19.62703,-33.83565 19.62677,-33.8358 19.60446,-33.84853 19.59454,-33.85419 19.59794,-33.87816 19.58841,-33.87405 19.56597,-33.86371 19.56421,-33.8605 19.56646,-33.85788 19.56615,-33.85349 19.56758,-33.84933 19.56641,-33.84922 19.56581,-33.84917 19.56402,-33.85139 19.5618,-33.8595 19.56261,-33.86644 19.54975,-33.87114 19.53228,-33.87843 19.53231,-33.87848 19.53689,-33.88617 19.53958,-33.89548 19.54525,-33.91512 19.5453,-33.9153 19.54535,-33.91547 19.5454,-33.91565 19.51909,-33.95379 19.51899,-33.95393 19.51341,-33.96203 19.51335,-33.96212 19.50689,-33.9717 19.5063,-33.97202 19.48655,-33.98281 19.4558,-33.99988 19.42674,-33.99318 19.40051,-33.98546 19.40047,-33.98544 19.40024,-33.98536 19.38923,-33.9814 19.37098,-33.97485 19.36178,-33.97154 19.35627,-33.96485 19.34856,-33.9552 19.33587,-33.95824 19.32996,-33.95489 19.32805,-33.95382 19.32578,-33.95254 19.32505,-33.95208 19.32176,-33.94948 19.31982,-33.94795 19.31886,-33.94719 19.3138,-33.937 19.3128,-33.93498 19.31212,-33.92856 19.31201,-33.92758 19.31055,-33.91373 19.2974,-33.88968 19.27819,-33.87946 19.26828,-33.88118 19.25839,-33.88311 19.26525,-33.90029 19.24388,-33.89746 19.2438,-33.89745 19.22754,-33.8755 19.21405,-33.85707 19.21403,-33.85694 19.18813,-33.75398 19.1881,-33.75387</coordinates></LinearRing></outerBoundaryIs></Polygon></MultiGeometry></Placemark></Document></kml>