<?xml version="1.0" encoding="UTF-8"?><kml xmlns="http://www.opengis.net/kml/2.2"><Document><Placemark><name>Worcester</name><description>Main Place 168007</description><ExtendedData><Data name="code"><value>168007</value></Data><Data name="name"><value>Worcester</value></Data><Data name="description"><value>Main Place 168007</value></Data></ExtendedData><MultiGeometry><Polygon><outerBoundaryIs><LinearRing><coordinates>19.4829,-33.60913 19.48368,-33.61501 19.48418,-33.61879 19.48294,-33.61914 19.481,-33.61987 19.48145,-33.62031 19.48268,-33.62119 19.48443,-33.6225 19.48597,-33.62366 19.48642,-33.62401 19.4867,-33.62426 19.48712,-33.62434 19.48725,-33.62436 19.48749,-33.62439 19.48763,-33.62455 19.48772,-33.62465 19.48777,-33.6248 19.48789,-33.6249 19.48815,-33.6251 19.48873,-33.62554 19.48917,-33.62587 19.48959,-33.62618 19.48975,-33.6263 19.49005,-33.62652 19.49032,-33.62672 19.49051,-33.62685 19.49064,-33.62697 19.49072,-33.62702 19.49086,-33.62709 19.49094,-33.62717 19.49112,-33.62731 19.49127,-33.62743 19.49142,-33.62752 19.49155,-33.6276 19.49171,-33.62774 19.49207,-33.62801 19.49228,-33.62817 19.49249,-33.62833 19.49268,-33.62847 19.49278,-33.62854 19.49299,-33.62866 19.4931,-33.62873 19.49331,-33.6289 19.49347,-33.62903 19.49365,-33.62916 19.49375,-33.62926 19.49393,-33.62938 19.49415,-33.62953 19.49429,-33.62962 19.49442,-33.62973 19.49452,-33.6298 19.49483,-33.63004 19.49495,-33.63013 19.49507,-33.63024 19.49518,-33.63032 19.49543,-33.63049 19.49559,-33.63058 19.49571,-33.63067 19.49582,-33.63076 19.49593,-33.63085 19.49682,-33.6315 19.49752,-33.6321 19.49925,-33.63336 19.50197,-33.63526 19.5008,-33.63555 19.49911,-33.63589 19.49792,-33.6361 19.49728,-33.6362 19.49698,-33.63631 19.49676,-33.63672 19.49644,-33.63703 19.49643,-33.63703 19.4961,-33.63732 19.49562,-33.63764 19.4952,-33.63789 19.49445,-33.6384 19.49402,-33.63879 19.4933,-33.63944 19.49325,-33.63948 19.49283,-33.63981 19.49216,-33.64016 19.49156,-33.64072 19.48958,-33.64256 19.48938,-33.64259 19.48868,-33.64327 19.48836,-33.64368 19.48719,-33.64511 19.48599,-33.64652 19.48552,-33.64624 19.485,-33.64598 19.4847,-33.64598 19.48435,-33.64602 19.4839,-33.64654 19.48377,-33.64655 19.48363,-33.64657 19.48351,-33.64663 19.48311,-33.64709 19.48284,-33.64699 19.48255,-33.64702 19.4819,-33.64727 19.48137,-33.6478 19.48107,-33.6481 19.48132,-33.64828 19.48112,-33.64852 19.48164,-33.64887 19.48167,-33.64903 19.48172,-33.64916 19.48182,-33.64925 19.48188,-33.6493 19.48151,-33.64966 19.48078,-33.65034 19.4806,-33.65063 19.48169,-33.65093 19.48247,-33.65111 19.48386,-33.65145 19.48486,-33.65167 19.48572,-33.65185 19.48661,-33.65206 19.48882,-33.65258 19.4891,-33.65265 19.49027,-33.65292 19.49052,-33.65298 19.49139,-33.65318 19.49203,-33.65333 19.49381,-33.65374 19.49476,-33.65395 19.49515,-33.65404 19.49738,-33.65455 19.49926,-33.65499 19.50319,-33.65587 19.50619,-33.65658 19.51145,-33.65779 19.51585,-33.65882 19.51971,-33.65968 19.52143,-33.6602 19.52137,-33.66084 19.52124,-33.66167 19.52082,-33.66414 19.52042,-33.66597 19.51982,-33.66588 19.51923,-33.66576 19.51899,-33.66567 19.51875,-33.66651 19.51855,-33.66707 19.51817,-33.66696 19.5181,-33.667 19.51777,-33.66804 19.51821,-33.66813 19.51802,-33.66874 19.51791,-33.66898 19.51743,-33.67076 19.51703,-33.67067 19.51682,-33.67142 19.51647,-33.67255 19.5154,-33.67192 19.51455,-33.67142 19.51301,-33.67051 19.51127,-33.66947 19.51023,-33.66883 19.50783,-33.66739 19.50586,-33.66626 19.50394,-33.66509 19.50122,-33.66344 19.49919,-33.66224 19.49753,-33.66124 19.4964,-33.66057 19.49476,-33.65959 19.49436,-33.65933 19.4943,-33.65937 19.49253,-33.66018 19.49218,-33.66036 19.48857,-33.66211 19.48813,-33.66233 19.48636,-33.66315 19.4845,-33.66403 19.48389,-33.66436 19.48347,-33.66469 19.48475,-33.66688 19.48497,-33.66727 19.4865,-33.66966 19.48755,-33.67135 19.48822,-33.67242 19.49004,-33.67542 19.49075,-33.67656 19.49108,-33.6771 19.49101,-33.67729 19.49084,-33.67751 19.49052,-33.67771 19.48949,-33.67826 19.48821,-33.67899 19.48766,-33.6793 19.48705,-33.67963 19.48594,-33.68022 19.48532,-33.6806 19.48507,-33.68078 19.48435,-33.68118 19.48353,-33.68164 19.48257,-33.68216 19.48076,-33.68319 19.48002,-33.6836 19.47987,-33.68367 19.47946,-33.6833 19.4791,-33.68299 19.47851,-33.68244 19.47799,-33.68194 19.47744,-33.68143 19.47711,-33.68111 19.47678,-33.6808 19.47624,-33.68029 19.47566,-33.67972 19.47494,-33.67904 19.47428,-33.67843 19.47404,-33.67821 19.4734,-33.67759 19.47312,-33.67748 19.47289,-33.67749 19.47282,-33.67754 19.47286,-33.67787 19.47272,-33.67839 19.47228,-33.67975 19.47211,-33.68051 19.47195,-33.68106 19.47136,-33.68303 19.47103,-33.68417 19.47063,-33.68551 19.47043,-33.68627 19.47032,-33.68659 19.47008,-33.68714 19.46964,-33.68801 19.46936,-33.68859 19.46893,-33.68946 19.46837,-33.6906 19.46778,-33.69179 19.4671,-33.69321 19.46656,-33.69434 19.46624,-33.69489 19.466,-33.69505 19.46594,-33.69512 19.46518,-33.69668 19.46338,-33.70042 19.46264,-33.70012 19.46176,-33.69957 19.46063,-33.69857 19.45985,-33.69818 19.45932,-33.698 19.45814,-33.69844 19.45701,-33.69857 19.45591,-33.69813 19.45542,-33.69758 19.45368,-33.69584 19.45149,-33.69396 19.44871,-33.69172 19.44742,-33.69093 19.44603,-33.69053 19.44499,-33.69048 19.4433,-33.69068 19.44112,-33.69088 19.43993,-33.69088 19.43879,-33.69083 19.43766,-33.69052 19.43661,-33.69058 19.43538,-33.69052 19.43467,-33.69046 19.43362,-33.68987 19.43297,-33.68946 19.43239,-33.6887 19.43186,-33.68776 19.43095,-33.6866 19.43093,-33.68559 19.42197,-33.6832 19.41235,-33.68064 19.41318,-33.6734 19.41185,-33.67305 19.41052,-33.67242 19.40945,-33.67218 19.40767,-33.67131 19.40712,-33.67006 19.40619,-33.66944 19.40507,-33.66864 19.40405,-33.66748 19.40389,-33.66689 19.40349,-33.66637 19.40229,-33.66552 19.39999,-33.66492 19.39862,-33.66431 19.39798,-33.66417 19.39725,-33.66378 19.39633,-33.66314 19.39536,-33.66258 19.39346,-33.66123 19.39184,-33.66062 19.39021,-33.66038 19.39097,-33.65972 19.39228,-33.65868 19.39529,-33.65623 19.39764,-33.65416 19.3995,-33.65258 19.40112,-33.65124 19.40191,-33.65061 19.40291,-33.64984 19.40437,-33.64836 19.40591,-33.64679 19.40707,-33.64561 19.40917,-33.64337 19.41175,-33.64081 19.41444,-33.63805 19.41488,-33.63761 19.41672,-33.63567 19.41903,-33.63324 19.41897,-33.63312 19.41888,-33.63285 19.41877,-33.63233 19.41854,-33.63142 19.41722,-33.63158 19.41298,-33.63211 19.40921,-33.63255 19.40745,-33.63276 19.40712,-33.63268 19.40691,-33.63246 19.4061,-33.63159 19.40561,-33.63122 19.40516,-33.63096 19.40416,-33.63059 19.4028,-33.63008 19.40156,-33.6296 19.40064,-33.62927 19.40171,-33.62703 19.40354,-33.62299 19.40404,-33.62222 19.40444,-33.62177 19.40508,-33.62158 19.40563,-33.6213 19.40597,-33.62071 19.40644,-33.61986 19.40672,-33.61955 19.40713,-33.6193 19.40768,-33.61911 19.40926,-33.61912 19.40969,-33.61882 19.40935,-33.61775 19.40947,-33.61733 19.40961,-33.61688 19.41074,-33.61666 19.41145,-33.61651 19.41314,-33.61619 19.41362,-33.6161 19.41383,-33.61677 19.41437,-33.61856 19.41475,-33.61979 19.4152,-33.6213 19.4154,-33.62197 19.41566,-33.62282 19.4157,-33.62296 19.41585,-33.62318 19.41607,-33.62346 19.41637,-33.62384 19.4169,-33.6244 19.41731,-33.62482 19.41862,-33.62624 19.41999,-33.62774 19.42137,-33.62924 19.42213,-33.63005 19.42843,-33.62552 19.43463,-33.62097 19.43554,-33.61988 19.4375,-33.61908 19.43774,-33.61884 19.43721,-33.61882 19.43687,-33.61867 19.43696,-33.6182 19.43721,-33.61801 19.43742,-33.6178 19.43784,-33.61765 19.43788,-33.61754 19.43782,-33.61744 19.43787,-33.61715 19.43843,-33.61654 19.43854,-33.61641 19.43858,-33.61619 19.43849,-33.61592 19.43859,-33.6157 19.4388,-33.61571 19.43893,-33.61589 19.43911,-33.61622 19.43937,-33.61644 19.43979,-33.61666 19.4402,-33.61679 19.44073,-33.61701 19.4411,-33.61711 19.44151,-33.61727 19.44182,-33.6174 19.44193,-33.61743 19.44232,-33.61651 19.44277,-33.61558 19.44141,-33.61499 19.44148,-33.61482 19.44174,-33.61462 19.44198,-33.61451 19.4435,-33.61405 19.44495,-33.61359 19.4456,-33.61338 19.4457,-33.61353 19.44609,-33.61438 19.44625,-33.61474 19.44653,-33.61453 19.44716,-33.61424 19.44772,-33.61394 19.44754,-33.61373 19.44738,-33.61355 19.44728,-33.61343 19.44721,-33.61335 19.44714,-33.61325 19.44702,-33.61303 19.44813,-33.6127 19.44877,-33.61257 19.44896,-33.61247 19.4497,-33.61236 19.45009,-33.61231 19.45023,-33.61236 19.45032,-33.61243 19.45043,-33.61251 19.4515,-33.61194 19.45189,-33.61173 19.46007,-33.60743 19.45981,-33.60634 19.4591,-33.60323 19.45905,-33.60306 19.45705,-33.59474 19.45764,-33.58975 19.45869,-33.58137 19.45948,-33.57548 19.45988,-33.57598 19.465,-33.58271 19.46681,-33.58465 19.46898,-33.58689 19.47006,-33.58807 19.47256,-33.58961 19.47923,-33.59408 19.48038,-33.59438 19.48735,-33.59606 19.49188,-33.59721 19.49491,-33.59793 19.49747,-33.59849 19.50082,-33.59957 19.49938,-33.60076 19.49619,-33.6023 19.49145,-33.60465 19.49077,-33.60502 19.48841,-33.6063 19.48755,-33.60685 19.48695,-33.60712 19.48564,-33.60769 19.48419,-33.60847 19.48382,-33.60866 19.4829,-33.60913</coordinates></LinearRing></outerBoundaryIs></Polygon></MultiGeometry></Placemark></Document></kml>