<?xml version="1.0" encoding="UTF-8"?><kml xmlns="http://www.opengis.net/kml/2.2"><Document><Placemark><name>Bonnievale</name><description>Main Place 169007</description><ExtendedData><Data name="code"><value>169007</value></Data><Data name="name"><value>Bonnievale</value></Data><Data name="description"><value>Main Place 169007</value></Data></ExtendedData><MultiGeometry><Polygon><outerBoundaryIs><LinearRing><coordinates>20.12155,-33.91155 20.12079,-33.91323 20.11978,-33.91543 20.1186,-33.91759 20.11848,-33.91797 20.11825,-33.91839 20.11759,-33.91982 20.11673,-33.92163 20.11572,-33.92378 20.11437,-33.92663 20.11284,-33.92971 20.1129,-33.9298 20.11328,-33.93022 20.11342,-33.93046 20.11349,-33.93076 20.1137,-33.93154 20.11365,-33.9321 20.11346,-33.93266 20.11322,-33.93327 20.11312,-33.93366 20.11304,-33.93402 20.11284,-33.93438 20.11255,-33.9348 20.11187,-33.93525 20.11142,-33.93593 20.11094,-33.93655 20.11061,-33.93745 20.11058,-33.93784 20.11058,-33.93813 20.11045,-33.93897 20.11022,-33.93972 20.10993,-33.94033 20.10987,-33.94066 20.10984,-33.9414 20.11006,-33.94312 20.11006,-33.94376 20.10984,-33.94418 20.10932,-33.94464 20.10864,-33.94502 20.10851,-33.94528 20.10854,-33.94551 20.10893,-33.94632 20.10896,-33.94719 20.10893,-33.94777 20.10874,-33.94836 20.10877,-33.94887 20.10857,-33.94871 20.10566,-33.947 20.10409,-33.94642 20.10159,-33.94594 20.09861,-33.94578 20.09555,-33.94642 20.09321,-33.94747 20.09184,-33.94851 20.09023,-33.94964 20.08862,-33.94996 20.08693,-33.94996 20.08588,-33.94972 20.08444,-33.94892 20.08327,-33.94808 20.08258,-33.94754 20.08165,-33.94681 20.08055,-33.94588 20.07983,-33.94521 20.07928,-33.94456 20.07824,-33.94344 20.0776,-33.94317 20.07576,-33.94242 20.07432,-33.9416 20.0734,-33.94138 20.07275,-33.9414 20.07216,-33.94142 20.07057,-33.94145 20.06904,-33.94144 20.06791,-33.94151 20.06727,-33.94163 20.06646,-33.94185 20.06566,-33.94207 20.06472,-33.94232 20.06418,-33.94237 20.06374,-33.94232 20.0633,-33.94235 20.06267,-33.9426 20.06201,-33.94278 20.06123,-33.94291 20.06035,-33.94318 20.05927,-33.9439 20.05863,-33.94451 20.05786,-33.94525 20.0572,-33.94525 20.05714,-33.94503 20.05657,-33.94112 20.05704,-33.94105 20.05703,-33.94091 20.05693,-33.93996 20.05664,-33.93773 20.05646,-33.93624 20.0565,-33.93545 20.05651,-33.93526 20.05678,-33.93164 20.05695,-33.92924 20.05774,-33.91858 20.05823,-33.91208 20.05959,-33.91242 20.06532,-33.90794 20.07251,-33.90242 20.07652,-33.89931 20.07752,-33.8987 20.08244,-33.89662 20.08371,-33.89631 20.08748,-33.89537 20.09105,-33.89449 20.09414,-33.89373 20.09749,-33.89293 20.10088,-33.89213 20.11482,-33.90617 20.12326,-33.90744 20.12353,-33.90748 20.12279,-33.90892 20.12155,-33.91155</coordinates></LinearRing></outerBoundaryIs></Polygon></MultiGeometry></Placemark></Document></kml>