<?xml version="1.0" encoding="UTF-8"?><kml xmlns="http://www.opengis.net/kml/2.2"><Document><Placemark><name>Theewaterskloof</name><description>Local Municipality 171</description><ExtendedData><Data name="code"><value>171</value></Data><Data name="name"><value>Theewaterskloof</value></Data><Data name="description"><value>Local Municipality 171</value></Data></ExtendedData><MultiGeometry><Polygon><outerBoundaryIs><LinearRing><coordinates>19.93581,-34.07593 19.98654,-34.07817 19.98927,-34.0855 20.00201,-34.09143 20.00746,-34.09392 20.00188,-34.09816 19.9924,-34.10513 19.98961,-34.11531 19.99537,-34.12062 20.00279,-34.12833 20.00287,-34.12842 20.00284,-34.12844 20.00279,-34.12847 20.00273,-34.12849 20.00259,-34.12858 20.00251,-34.12861 20.00242,-34.12863 20.00236,-34.12864 20.00229,-34.12869 20.00229,-34.12873 20.00226,-34.12878 20.00221,-34.1288 20.00212,-34.12881 20.0019,-34.12888 20.00179,-34.12894 20.00165,-34.12897 20.00161,-34.129 20.00152,-34.12905 20.00137,-34.12908 20.00124,-34.12913 20.00113,-34.12917 20.00108,-34.12925 20.00103,-34.1293 20.00097,-34.12933 20.00084,-34.12939 20.0008,-34.12942 20.00064,-34.12942 20.00057,-34.12947 20.00047,-34.12959 20.00046,-34.12965 20.00047,-34.12972 20.00043,-34.12981 20.00036,-34.12989 20.00017,-34.12999 20.00012,-34.13001 20.00006,-34.13009 19.99997,-34.13009 19.99996,-34.13005 19.99987,-34.13005 19.99983,-34.13009 19.99981,-34.13014 19.99981,-34.13019 19.99975,-34.13023 19.99967,-34.13023 19.99957,-34.13021 19.99943,-34.13021 19.99935,-34.13023 19.99926,-34.13025 19.99901,-34.1302 19.99887,-34.13015 19.99881,-34.13013 19.99874,-34.13016 19.99872,-34.13019 19.99866,-34.1302 19.99862,-34.13017 19.9986,-34.13013 19.99858,-34.13009 19.99854,-34.13011 19.99851,-34.13015 19.9985,-34.1302 19.99846,-34.13023 19.99844,-34.13026 19.99836,-34.13026 19.99832,-34.13027 19.99828,-34.13031 19.99822,-34.13031 19.99814,-34.13032 19.99808,-34.13033 19.99805,-34.13036 19.998,-34.13038 19.99793,-34.13036 19.9979,-34.13039 19.99786,-34.13041 19.9978,-34.13043 19.9977,-34.13044 19.99762,-34.13045 19.99758,-34.13045 19.99751,-34.13047 19.99743,-34.13053 19.99735,-34.13057 19.99728,-34.13061 19.99716,-34.13065 19.99712,-34.1307 19.99702,-34.13072 19.99686,-34.13078 19.99677,-34.13082 19.99663,-34.13086 19.99642,-34.13088 19.99626,-34.13091 19.99614,-34.13095 19.99595,-34.13102 19.99591,-34.13103 19.9958,-34.13103 19.9957,-34.13105 19.99563,-34.13105 19.99557,-34.13104 19.99548,-34.13107 19.99544,-34.13113 19.99536,-34.1312 19.9953,-34.13122 19.99525,-34.13123 19.99517,-34.13116 19.99515,-34.13111 19.99511,-34.13108 19.99496,-34.13108 19.9949,-34.13111 19.99487,-34.13112 19.99483,-34.13112 19.99475,-34.13115 19.99459,-34.13119 19.99456,-34.13119 19.99451,-34.13118 19.99447,-34.13113 19.99443,-34.13109 19.99437,-34.13109 19.99428,-34.13112 19.99417,-34.1312 19.99412,-34.13122 19.99401,-34.13129 19.99392,-34.13132 19.99373,-34.13136 19.99354,-34.13138 19.99337,-34.13141 19.99322,-34.13142 19.99296,-34.13143 19.99271,-34.13148 19.99252,-34.13152 19.99238,-34.13153 19.99213,-34.1316 19.99199,-34.13165 19.99191,-34.13165 19.99174,-34.13164 19.9916,-34.13164 19.99149,-34.13165 19.9914,-34.13171 19.99136,-34.13175 19.99128,-34.13177 19.9912,-34.13178 19.99109,-34.13178 19.99098,-34.13174 19.99089,-34.13173 19.99071,-34.13173 19.99063,-34.13172 19.99059,-34.13172 19.9905,-34.13168 19.99045,-34.13164 19.99042,-34.1316 19.99039,-34.13158 19.99034,-34.13153 19.99026,-34.13153 19.99017,-34.13156 19.99011,-34.13162 19.99003,-34.13169 19.98992,-34.13171 19.98986,-34.13171 19.98977,-34.1317 19.98969,-34.13169 19.9896,-34.13168 19.98957,-34.13168 19.98943,-34.1316 19.98934,-34.13156 19.98926,-34.13155 19.98922,-34.13151 19.98917,-34.13141 19.98911,-34.13137 19.98907,-34.13131 19.98899,-34.13128 19.98895,-34.13127 19.98888,-34.13126 19.98882,-34.13127 19.98871,-34.13127 19.98868,-34.13126 19.9885,-34.13126 19.98848,-34.13125 19.98845,-34.13124 19.98842,-34.13123 19.98834,-34.13123 19.9882,-34.13127 19.98814,-34.13127 19.98807,-34.13126 19.98802,-34.13127 19.98797,-34.13132 19.98796,-34.13137 19.98791,-34.13139 19.98783,-34.13143 19.9878,-34.13145 19.98777,-34.1315 19.98774,-34.13156 19.9877,-34.13161 19.98767,-34.13165 19.98762,-34.13169 19.98757,-34.13172 19.98752,-34.13173 19.98745,-34.13173 19.98742,-34.13174 19.98736,-34.1318 19.98732,-34.13185 19.98728,-34.13185 19.98726,-34.13183 19.98722,-34.13181 19.98721,-34.13178 19.98719,-34.13176 19.98718,-34.13173 19.98716,-34.13178 19.98713,-34.13182 19.98712,-34.13188 19.98709,-34.1319 19.98706,-34.1319 19.98701,-34.13192 19.9869,-34.13191 19.98686,-34.13191 19.98681,-34.13193 19.98675,-34.13194 19.98671,-34.13194 19.98662,-34.13196 19.98659,-34.132 19.98659,-34.13204 19.98657,-34.13208 19.98655,-34.13211 19.9865,-34.13214 19.98645,-34.13214 19.9864,-34.13212 19.98636,-34.13213 19.98632,-34.13215 19.98625,-34.13215 19.9862,-34.13214 19.98615,-34.13212 19.98614,-34.13209 19.98615,-34.13206 19.98618,-34.13203 19.98618,-34.13198 19.98614,-34.13191 19.98609,-34.13186 19.98604,-34.13184 19.98596,-34.13186 19.9859,-34.1319 19.98584,-34.13196 19.98579,-34.132 19.9857,-34.13202 19.98566,-34.13202 19.98557,-34.13199 19.98548,-34.13194 19.98539,-34.13189 19.98535,-34.13193 19.98531,-34.13199 19.98528,-34.13201 19.98524,-34.132 19.98523,-34.13197 19.9852,-34.13194 19.98522,-34.13188 19.98523,-34.13183 19.98523,-34.13178 19.98521,-34.13175 19.98516,-34.13168 19.98507,-34.13166 19.98502,-34.13166 19.9849,-34.13168 19.9848,-34.13166 19.98473,-34.13165 19.98462,-34.13166 19.98456,-34.1317 19.98453,-34.13171 19.98443,-34.13173 19.98434,-34.13175 19.98427,-34.13177 19.9842,-34.1318 19.9841,-34.1318 19.98396,-34.13181 19.98383,-34.13182 19.98376,-34.13187 19.98367,-34.13192 19.9836,-34.13194 19.98342,-34.13194 19.98338,-34.13191 19.98329,-34.13188 19.98311,-34.13185 19.98301,-34.13183 19.98295,-34.13184 19.98292,-34.13183 19.98286,-34.13184 19.98281,-34.13188 19.98268,-34.1319 19.98257,-34.13196 19.9825,-34.13197 19.98245,-34.13198 19.98241,-34.13201 19.98234,-34.13206 19.98219,-34.13209 19.98214,-34.13209 19.98205,-34.1321 19.98199,-34.13214 19.98192,-34.13217 19.9818,-34.13225 19.9816,-34.13232 19.98152,-34.13235 19.98145,-34.13238 19.98138,-34.13244 19.9813,-34.13249 19.98109,-34.1326 19.98122,-34.13272 19.98141,-34.13289 19.98283,-34.13454 19.98486,-34.13764 19.98625,-34.14042 19.98736,-34.14352 19.98789,-34.14696 19.9848,-34.15744 19.98341,-34.15979 19.97976,-34.16634 19.97346,-34.17099 19.97221,-34.17186 19.97145,-34.1724 19.96572,-34.17627 19.95495,-34.17493 19.95109,-34.17452 19.94757,-34.17402 19.94681,-34.17392 19.93867,-34.17286 19.93829,-34.17281 19.93738,-34.18186 19.93248,-34.18102 19.93475,-34.17133 19.93392,-34.16928 19.93203,-34.16344 19.93128,-34.16246 19.92814,-34.17155 19.92308,-34.17177 19.9226,-34.17182 19.91761,-34.17234 19.91562,-34.17255 19.9106,-34.17307 19.9069,-34.17345 19.90636,-34.17351 19.89324,-34.17475 19.89242,-34.18262 19.89175,-34.18891 19.89138,-34.19245 19.8989,-34.19304 19.90594,-34.1936 19.90543,-34.19624 19.90269,-34.20646 19.90088,-34.21471 19.88986,-34.20698 19.88951,-34.21116 19.889,-34.21562 19.88043,-34.22011 19.85608,-34.23364 19.85024,-34.25876 19.84959,-34.25894 19.84851,-34.26037 19.84727,-34.26122 19.8458,-34.26154 19.84451,-34.26122 19.84237,-34.26049 19.84028,-34.2601 19.8375,-34.26025 19.83744,-34.26073 19.8374,-34.26101 19.83861,-34.26085 19.84069,-34.26085 19.84252,-34.26118 19.84509,-34.26206 19.84685,-34.26202 19.84851,-34.2614 19.84997,-34.25961 19.85012,-34.25956 19.84691,-34.27387 19.8454,-34.28044 19.83422,-34.28005 19.83217,-34.27998 19.82209,-34.27949 19.82101,-34.27943 19.82092,-34.27943 19.81089,-34.27893 19.80518,-34.27865 19.80132,-34.28173 19.80126,-34.28179 19.79771,-34.28462 19.79444,-34.32072 19.77462,-34.33279 19.76059,-34.33058 19.74094,-34.31262 19.73424,-34.31658 19.70517,-34.35006 19.7048,-34.35022 19.69181,-34.34892 19.68075,-34.35334 19.68033,-34.35386 19.67501,-34.36041 19.67236,-34.35911 19.6684,-34.35718 19.66835,-34.35716 19.66617,-34.3497 19.66474,-34.3448 19.66448,-34.34394 19.66448,-34.34393 19.66494,-34.34337 19.66756,-34.34015 19.66758,-34.34012 19.668,-34.34013 19.673,-34.34027 19.67346,-34.33993 19.67347,-34.33992 19.67347,-34.33992 19.67344,-34.33988 19.67285,-34.33903 19.6772,-34.33754 19.6772,-34.33754 19.67318,-34.32925 19.67318,-34.32924 19.66915,-34.32112 19.66476,-34.31958 19.65463,-34.34909 19.65117,-34.35918 19.64784,-34.35841 19.63507,-34.35625 19.61743,-34.35279 19.61733,-34.35333 19.6154,-34.38111 19.62372,-34.37992 19.62426,-34.37862 19.63035,-34.36514 19.63137,-34.36517 19.63238,-34.3648 19.63328,-34.36394 19.63439,-34.36322 19.63565,-34.36314 19.63652,-34.36361 19.63732,-34.36438 19.63768,-34.36499 19.63686,-34.36512 19.64072,-34.37205 19.64011,-34.37263 19.63963,-34.3732 19.63932,-34.37416 19.6394,-34.37475 19.64017,-34.37548 19.64023,-34.3761 19.63966,-34.37643 19.63928,-34.37717 19.639,-34.37751 19.63833,-34.37809 19.63772,-34.37854 19.63727,-34.37872 19.63631,-34.37889 19.63521,-34.37895 19.6341,-34.37903 19.63316,-34.37928 19.63264,-34.3795 19.63202,-34.38 19.63201,-34.38034 19.62867,-34.38025 19.62613,-34.3849 19.62427,-34.38819 19.62303,-34.3905 19.62082,-34.3944 19.61721,-34.39937 19.61861,-34.40009 19.6246,-34.4032 19.62694,-34.41689 19.62422,-34.41872 19.61597,-34.42427 19.60077,-34.42679 19.58312,-34.42969 19.58312,-34.42968 19.58291,-34.42547 19.58991,-34.41875 19.6005,-34.40861 19.6031,-34.40612 19.60314,-34.40607 19.6032,-34.40602 19.60322,-34.406 19.60323,-34.40599 19.58224,-34.40406 19.59039,-34.39054 19.54893,-34.39577 19.55599,-34.38974 19.52447,-34.39032 19.51484,-34.39353 19.49941,-34.3985 19.49513,-34.39983 19.45629,-34.39274 19.44619,-34.39089 19.40216,-34.37655 19.39218,-34.38 19.3801,-34.38222 19.37238,-34.38364 19.35164,-34.38756 19.32315,-34.38087 19.30058,-34.37529 19.29341,-34.36709 19.30524,-34.356 19.29737,-34.34574 19.30268,-34.34281 19.30682,-34.34025 19.30384,-34.32881 19.29108,-34.3251 19.27243,-34.31958 19.27237,-34.31956 19.25785,-34.31626 19.25686,-34.31791 19.2452,-34.32026 19.21488,-34.32638 19.21203,-34.32696 19.211,-34.32665 19.21096,-34.32669 19.21077,-34.32521 19.20888,-34.31084 19.20872,-34.29442 19.20459,-34.2978 19.20451,-34.29778 19.18715,-34.28246 19.187,-34.28232 19.18507,-34.28062 19.18504,-34.2806 19.18569,-34.28006 19.18558,-34.27994 19.18553,-34.27987 19.18519,-34.2794 19.18482,-34.27904 19.18422,-34.2785 19.184,-34.27829 19.18314,-34.27755 19.18207,-34.27668 19.18194,-34.27662 19.18174,-34.27643 19.18166,-34.27636 19.1815,-34.27619 19.18126,-34.27604 19.18071,-34.27568 19.18031,-34.27536 19.17997,-34.27513 19.1797,-34.27477 19.17955,-34.27468 19.17922,-34.27432 19.17887,-34.27403 19.1786,-34.27392 19.17824,-34.27366 19.17783,-34.27343 19.17743,-34.27327 19.17717,-34.27319 19.17685,-34.27306 19.17666,-34.27289 19.17634,-34.27271 19.176,-34.27232 19.17545,-34.27176 19.17522,-34.27151 19.17512,-34.27136 19.175,-34.27108 19.17465,-34.27063 19.1741,-34.2698 19.17396,-34.26971 19.1738,-34.26956 19.17352,-34.26935 19.1734,-34.26929 19.17329,-34.26927 19.17319,-34.26923 19.17256,-34.26921 19.17244,-34.2692 19.17222,-34.26911 19.17155,-34.26861 19.1715,-34.26856 19.17145,-34.2685 19.17134,-34.26844 19.17125,-34.26841 19.17115,-34.26837 19.17104,-34.26834 19.16835,-34.26834 19.16789,-34.26825 19.16739,-34.26815 19.16695,-34.2681 19.16658,-34.26796 19.16607,-34.26785 19.16583,-34.26779 19.16527,-34.26778 19.16437,-34.26775 19.16406,-34.26769 19.16386,-34.26762 19.16362,-34.26749 19.16322,-34.26709 19.16252,-34.26642 19.16195,-34.26587 19.16136,-34.26555 19.16083,-34.26534 19.16034,-34.26516 19.15969,-34.26499 19.15936,-34.26484 19.15903,-34.26475 19.15861,-34.26466 19.15825,-34.26459 19.15807,-34.26457 19.15795,-34.26453 19.15776,-34.2644 19.15746,-34.2641 19.15727,-34.26389 19.15722,-34.2638 19.17197,-34.25441 19.1811,-34.26364 19.18247,-34.26499 19.18251,-34.26503 19.18252,-34.265 19.18254,-34.26492 19.18342,-34.26136 19.18362,-34.26052 19.184,-34.25912 19.18488,-34.25781 19.18587,-34.25691 19.1855,-34.25678 19.17463,-34.25274 19.16447,-34.24894 19.16081,-34.24289 19.17177,-34.23707 19.18015,-34.2314 19.18513,-34.23302 19.18455,-34.23159 19.18434,-34.22978 19.18431,-34.22861 19.18425,-34.22797 19.18422,-34.22786 19.18422,-34.22687 19.18455,-34.22296 19.18459,-34.22248 19.18464,-34.22227 19.18467,-34.22213 19.18499,-34.22069 19.18109,-34.21937 19.14897,-34.21715 19.15206,-34.20716 19.15267,-34.20674 19.15283,-34.20663 19.1521,-34.20673 19.15234,-34.20635 19.15238,-34.20631 19.15295,-34.20562 19.15368,-34.20533 19.15494,-34.2039 19.15324,-34.20285 19.15362,-34.20246 19.15332,-34.20229 19.15153,-34.2013 19.14999,-34.20081 19.14597,-34.19951 19.13981,-34.19752 19.13715,-34.19765 19.13689,-34.19767 19.13668,-34.19768 19.13634,-34.1977 19.13619,-34.1977 19.13368,-34.19694 19.13114,-34.19503 19.12951,-34.19448 19.12758,-34.19384 19.1273,-34.19375 19.10878,-34.18776 19.10266,-34.1858 19.10151,-34.18893 19.10425,-34.19541 19.10274,-34.19582 19.09999,-34.18897 19.10112,-34.18529 19.09622,-34.18365 19.0871,-34.18032 19.08565,-34.18347 19.08556,-34.18366 19.08495,-34.18498 19.08462,-34.18568 19.08462,-34.18571 19.08534,-34.18808 19.08835,-34.19548 19.08895,-34.19693 19.08975,-34.19898 19.09032,-34.19929 19.09088,-34.19959 19.09145,-34.1999 19.09202,-34.2002 19.09259,-34.20051 19.09315,-34.20081 19.09372,-34.20112 19.09429,-34.20142 19.09478,-34.20168 19.09527,-34.20195 19.09538,-34.202 19.09548,-34.20206 19.09559,-34.20212 19.09569,-34.20218 19.0958,-34.20223 19.09591,-34.20229 19.09601,-34.20235 19.09612,-34.2024 19.09636,-34.20255 19.09693,-34.20273 19.09712,-34.20278 19.0973,-34.20284 19.09825,-34.20314 19.10082,-34.20399 19.10455,-34.20526 19.1072,-34.20615 19.1047,-34.21179 19.10331,-34.215 19.10166,-34.21894 19.09966,-34.22361 19.12236,-34.23118 19.12373,-34.23207 19.12735,-34.23446 19.13041,-34.23647 19.13009,-34.24312 19.11869,-34.24681 19.10882,-34.24998 19.09979,-34.25291 19.09914,-34.25312 19.09056,-34.25606 19.08099,-34.25935 19.08094,-34.25937 19.07225,-34.26248 19.05702,-34.26786 19.03912,-34.27423 19.02792,-34.2726 19.02396,-34.272 19.02209,-34.27173 19.02188,-34.27138 19.02182,-34.27129 19.02179,-34.27141 19.02173,-34.27151 19.02151,-34.27191 19.02129,-34.27215 19.02105,-34.27237 19.02087,-34.27239 19.02067,-34.27233 19.02056,-34.27224 19.02055,-34.27209 19.02046,-34.272 19.02029,-34.27188 19.02015,-34.27184 19.02004,-34.27181 19.01992,-34.27177 19.01982,-34.27177 19.01977,-34.27176 19.01964,-34.27174 19.01939,-34.27174 19.01931,-34.27176 19.01913,-34.27179 19.01889,-34.27184 19.01871,-34.27187 19.01861,-34.27189 19.01855,-34.27191 19.01847,-34.27193 19.01835,-34.27195 19.01832,-34.27195 19.0182,-34.27198 19.01804,-34.27203 19.01787,-34.27205 19.01758,-34.27212 19.0173,-34.2722 19.01683,-34.27235 19.01654,-34.27246 19.01629,-34.27258 19.01609,-34.27267 19.01553,-34.27286 19.01475,-34.27307 19.01463,-34.2731 19.01393,-34.27327 19.01367,-34.27336 19.0135,-34.27344 19.01244,-34.27392 19.01176,-34.27423 19.01157,-34.27411 19.01155,-34.2741 19.00964,-34.2729 18.96185,-34.24914 18.95988,-34.24816 18.94786,-34.24491 18.94776,-34.24488 18.94773,-34.24488 18.94771,-34.24468 18.94597,-34.22771 18.95604,-34.21054 18.94608,-34.20874 18.94359,-34.2083 18.94111,-34.20785 18.93862,-34.2074 18.9322,-34.20422 18.93052,-34.20374 18.9305,-34.20365 18.93071,-34.20353 18.93069,-34.20346 18.93027,-34.20148 18.92913,-34.20153 18.92948,-34.19955 18.9295,-34.19942 18.92978,-34.19764 18.93062,-34.19714 18.93105,-34.19589 18.93423,-34.19661 18.9344,-34.19665 18.93594,-34.19505 18.94027,-34.19054 18.94185,-34.18889 18.94508,-34.18759 18.94891,-34.18604 18.95443,-34.18381 18.95439,-34.18153 18.95437,-34.18063 18.95431,-34.17703 18.95426,-34.17363 18.95717,-34.17507 18.96248,-34.17772 18.97083,-34.16706 18.98027,-34.15499 18.96652,-34.15327 18.96382,-34.15294 18.96383,-34.15285 18.96386,-34.15262 18.96389,-34.15246 18.96606,-34.14072 18.9652,-34.14 18.9624,-34.1397 18.96236,-34.1397 18.96168,-34.13961 18.94544,-34.13836 18.9439,-34.13824 18.94512,-34.13646 18.94666,-34.1342 18.95435,-34.12294 18.95596,-34.12058 18.95682,-34.11933 18.95689,-34.11921 18.95735,-34.11843 18.95784,-34.11759 18.96001,-34.11392 18.96534,-34.10491 18.96681,-34.10242 18.96684,-34.10237 18.96954,-34.1004 18.97573,-34.0959 18.97765,-34.0945 18.98192,-34.09139 18.9881,-34.08688 18.98849,-34.0866 18.99429,-34.08238 18.99445,-34.08226 18.99472,-34.08206 19.00467,-34.07481 18.9846,-34.0359 18.98725,-34.03524 18.99935,-34.03068 19.02639,-34.02059 19.04242,-34.0083 19.07311,-33.99081 19.09866,-33.97595 19.12606,-33.96172 19.14555,-33.95595 19.15632,-33.9647 19.16459,-33.97142 19.16714,-33.96908 19.16734,-33.9689 19.17865,-33.95854 19.191,-33.94722 19.20658,-33.95041 19.2438,-33.89745 19.24388,-33.89746 19.26525,-33.90029 19.25839,-33.88311 19.26828,-33.88118 19.27819,-33.87946 19.2974,-33.88968 19.31055,-33.91373 19.31201,-33.92758 19.31212,-33.92856 19.3128,-33.93498 19.3138,-33.937 19.31886,-33.94719 19.31982,-33.94795 19.32176,-33.94948 19.32505,-33.95208 19.32578,-33.95254 19.32805,-33.95382 19.32996,-33.95489 19.33587,-33.95824 19.34856,-33.9552 19.35627,-33.96485 19.36178,-33.97154 19.37098,-33.97485 19.38923,-33.9814 19.40024,-33.98536 19.40047,-33.98544 19.40051,-33.98546 19.42674,-33.99318 19.4558,-33.99988 19.48655,-33.98281 19.5063,-33.97202 19.50689,-33.9717 19.5333,-33.96953 19.56614,-34.00189 19.56624,-34.00198 19.58212,-34.00984 19.58983,-34.01236 19.60837,-34.00742 19.64116,-34.0017 19.6766,-34.00808 19.67674,-34.00811 19.68066,-34.00914 19.70014,-34.0464 19.70851,-34.04788 19.71478,-34.04898 19.72602,-34.04463 19.73498,-34.04116 19.75522,-34.05441 19.81032,-34.05543 19.85358,-34.06331 19.8855,-34.06616 19.90622,-34.07616 19.93577,-34.07593 19.93581,-34.07593</coordinates></LinearRing></outerBoundaryIs></Polygon></MultiGeometry></Placemark></Document></kml>