<?xml version="1.0" encoding="UTF-8"?><kml xmlns="http://www.opengis.net/kml/2.2"><Document><Placemark><name>Villiersdorp</name><description>Main Place 171001</description><ExtendedData><Data name="code"><value>171001</value></Data><Data name="name"><value>Villiersdorp</value></Data><Data name="description"><value>Main Place 171001</value></Data></ExtendedData><MultiGeometry><Polygon><outerBoundaryIs><LinearRing><coordinates>19.29689,-33.97997 19.29696,-33.98043 19.29744,-33.98222 19.29747,-33.98287 19.29751,-33.9834 19.2974,-33.98386 19.29722,-33.98427 19.29697,-33.98469 19.29691,-33.9853 19.29697,-33.98569 19.29701,-33.98574 19.29702,-33.98576 19.29717,-33.98595 19.29735,-33.9864 19.29743,-33.98674 19.29736,-33.98717 19.29727,-33.98745 19.29733,-33.98801 19.29731,-33.98833 19.29722,-33.98871 19.29702,-33.989 19.29684,-33.98916 19.29677,-33.98943 19.29699,-33.98971 19.29745,-33.99018 19.29774,-33.99074 19.29792,-33.99121 19.29813,-33.99164 19.29829,-33.992 19.29831,-33.99205 19.29849,-33.99241 19.2986,-33.99282 19.2986,-33.99318 19.29865,-33.99376 19.29868,-33.99423 19.29868,-33.99426 19.29858,-33.99539 19.29844,-33.99621 19.29831,-33.99662 19.29808,-33.99688 19.29803,-33.99693 19.29795,-33.99703 19.29767,-33.99734 19.29732,-33.99769 19.29665,-33.99721 19.29593,-33.9978 19.29515,-33.9977 19.29502,-33.99768 19.29412,-33.99786 19.29412,-33.99785 19.29412,-33.9978 19.29413,-33.99778 19.29412,-33.99777 19.29411,-33.99774 19.29406,-33.99772 19.294,-33.99773 19.29391,-33.99776 19.29375,-33.99777 19.29351,-33.9978 19.29347,-33.99781 19.29257,-33.998 19.29242,-33.9979 19.29101,-33.99694 19.29054,-33.9966 19.29015,-33.99637 19.29007,-33.9963 19.28941,-33.99585 19.28842,-33.99519 19.28804,-33.99492 19.28803,-33.99492 19.28757,-33.99461 19.28737,-33.9945 19.28711,-33.99485 19.28695,-33.99505 19.28693,-33.99503 19.28659,-33.99482 19.28602,-33.99447 19.283,-33.99245 19.28278,-33.99231 19.28205,-33.99185 19.28181,-33.99173 19.28179,-33.99172 19.28158,-33.99161 19.28138,-33.99152 19.28117,-33.9914 19.28102,-33.99127 19.28102,-33.99112 19.28095,-33.99105 19.28085,-33.99098 19.28066,-33.99086 19.28032,-33.99065 19.27998,-33.99042 19.27977,-33.99028 19.27971,-33.99019 19.27962,-33.99014 19.27953,-33.99007 19.27948,-33.99001 19.27945,-33.98986 19.27938,-33.98971 19.27929,-33.98956 19.27922,-33.98937 19.27911,-33.98922 19.27903,-33.98912 19.27894,-33.98903 19.27886,-33.98896 19.27876,-33.98887 19.27873,-33.98878 19.27879,-33.9887 19.27862,-33.98858 19.27744,-33.98776 19.27701,-33.98747 19.27668,-33.98724 19.27637,-33.98703 19.27615,-33.98693 19.27573,-33.98669 19.27565,-33.98664 19.27565,-33.98664 19.27562,-33.98661 19.27548,-33.98652 19.27537,-33.98641 19.27534,-33.98638 19.27512,-33.98618 19.27511,-33.98617 19.27503,-33.98608 19.27501,-33.98606 19.275,-33.98605 19.27477,-33.9859 19.27477,-33.98589 19.27472,-33.98573 19.27458,-33.98558 19.27443,-33.98548 19.27419,-33.98539 19.274,-33.98526 19.27384,-33.9852 19.27372,-33.98514 19.27384,-33.98495 19.27416,-33.98469 19.27533,-33.98374 19.27539,-33.98368 19.27546,-33.98363 19.27574,-33.98338 19.27595,-33.98324 19.27596,-33.98322 19.27597,-33.98322 19.27689,-33.98259 19.27718,-33.98234 19.27719,-33.98234 19.27719,-33.98233 19.27754,-33.98203 19.27782,-33.98183 19.27787,-33.98179 19.27837,-33.98143 19.27862,-33.98127 19.2787,-33.98134 19.27875,-33.98139 19.27909,-33.9817 19.27916,-33.98176 19.27962,-33.98219 19.27963,-33.9822 19.28001,-33.98256 19.28011,-33.98227 19.28006,-33.98206 19.27998,-33.98179 19.28004,-33.98147 19.27994,-33.9812 19.28019,-33.98098 19.28029,-33.98107 19.28058,-33.98104 19.28107,-33.98111 19.28164,-33.98111 19.28188,-33.98105 19.28221,-33.98082 19.28233,-33.98079 19.28245,-33.98078 19.28327,-33.9811 19.28371,-33.98117 19.28408,-33.98108 19.28462,-33.98081 19.28523,-33.98097 19.28595,-33.98167 19.28639,-33.98181 19.28722,-33.98185 19.28793,-33.98178 19.2891,-33.98126 19.29017,-33.98075 19.29061,-33.98102 19.29106,-33.98139 19.29132,-33.98154 19.29159,-33.98124 19.29189,-33.98111 19.29232,-33.98094 19.29273,-33.98069 19.29306,-33.98048 19.29362,-33.98031 19.29386,-33.98026 19.29415,-33.98027 19.29464,-33.98034 19.29483,-33.98026 19.29578,-33.98021 19.29639,-33.97998 19.29689,-33.97997</coordinates></LinearRing></outerBoundaryIs></Polygon></MultiGeometry></Placemark></Document></kml>