<?xml version="1.0" encoding="UTF-8"?><kml xmlns="http://www.opengis.net/kml/2.2"><Document><Placemark><name>Genadendal</name><description>Main Place 171004</description><ExtendedData><Data name="code"><value>171004</value></Data><Data name="name"><value>Genadendal</value></Data><Data name="description"><value>Main Place 171004</value></Data></ExtendedData><MultiGeometry><Polygon><outerBoundaryIs><LinearRing><coordinates>19.53675,-34.04029 19.5372,-34.04033 19.53744,-34.03995 19.53778,-34.04009 19.53809,-34.04034 19.53847,-34.04069 19.53847,-34.04111 19.53844,-34.04137 19.53838,-34.04157 19.53828,-34.04176 19.53817,-34.0419 19.53804,-34.04203 19.538,-34.04214 19.53809,-34.04213 19.53838,-34.04217 19.53857,-34.04226 19.53869,-34.04233 19.5388,-34.04217 19.5389,-34.04203 19.53901,-34.04188 19.53916,-34.04195 19.5393,-34.04202 19.53937,-34.04206 19.53945,-34.04216 19.53954,-34.0423 19.53963,-34.04243 19.53969,-34.04259 19.53974,-34.04274 19.53977,-34.04289 19.5398,-34.04303 19.53982,-34.04316 19.53984,-34.04328 19.53987,-34.04341 19.53989,-34.04354 19.53991,-34.04367 19.53994,-34.04379 19.53996,-34.04392 19.53999,-34.04405 19.54,-34.04412 19.54002,-34.04422 19.54008,-34.04433 19.54014,-34.04439 19.54024,-34.0445 19.54033,-34.0446 19.54044,-34.04472 19.54051,-34.04482 19.54059,-34.04493 19.54066,-34.04504 19.54073,-34.04518 19.54078,-34.0453 19.54083,-34.04542 19.54084,-34.04544 19.54085,-34.04548 19.54085,-34.04557 19.54087,-34.0457 19.54088,-34.04582 19.54089,-34.04595 19.5409,-34.04608 19.54091,-34.04615 19.54092,-34.04628 19.54093,-34.0464 19.54094,-34.04652 19.54095,-34.04664 19.54096,-34.04677 19.54099,-34.04685 19.54103,-34.04697 19.54107,-34.04709 19.54111,-34.04722 19.54114,-34.04731 19.54121,-34.04746 19.54126,-34.04757 19.54131,-34.04769 19.54137,-34.04781 19.54142,-34.04793 19.54147,-34.04805 19.54153,-34.04816 19.54164,-34.0482 19.54175,-34.04839 19.5418,-34.04846 19.54185,-34.04854 19.54199,-34.04857 19.54213,-34.04861 19.54228,-34.04865 19.54257,-34.04873 19.5425,-34.04891 19.54244,-34.04906 19.54264,-34.04955 19.5428,-34.04992 19.54298,-34.0503 19.54304,-34.05045 19.54322,-34.05085 19.54336,-34.051 19.54425,-34.05124 19.5454,-34.05136 19.54698,-34.05129 19.54791,-34.05115 19.54839,-34.05105 19.54835,-34.0513 19.54819,-34.05143 19.54748,-34.0518 19.54687,-34.05216 19.54665,-34.0523 19.54658,-34.05238 19.54644,-34.05243 19.54622,-34.05248 19.54492,-34.05272 19.54461,-34.05258 19.54414,-34.0525 19.54379,-34.05251 19.54343,-34.05259 19.5432,-34.05276 19.54285,-34.0528 19.5425,-34.0528 19.5424,-34.05276 19.54215,-34.05268 19.54184,-34.05258 19.54139,-34.05238 19.54057,-34.05219 19.54007,-34.05189 19.53951,-34.0517 19.5391,-34.05176 19.53844,-34.05186 19.53774,-34.05187 19.53723,-34.0519 19.53681,-34.05162 19.53656,-34.05119 19.53643,-34.05052 19.53639,-34.05029 19.53635,-34.04998 19.53636,-34.04945 19.53635,-34.04888 19.53649,-34.04852 19.53644,-34.04844 19.53634,-34.04818 19.53631,-34.04802 19.53628,-34.04783 19.53664,-34.04777 19.53652,-34.04741 19.53632,-34.04738 19.5361,-34.04742 19.53574,-34.04751 19.53567,-34.04747 19.53545,-34.04731 19.53521,-34.04713 19.53535,-34.047 19.53526,-34.04681 19.53507,-34.04663 19.53483,-34.04641 19.53462,-34.0462 19.53461,-34.046 19.5346,-34.04569 19.53459,-34.0454 19.53458,-34.0451 19.53464,-34.04452 19.53469,-34.04441 19.53469,-34.04421 19.5347,-34.04402 19.5347,-34.04382 19.5347,-34.04362 19.5347,-34.04343 19.53461,-34.04339 19.5347,-34.04319 19.53478,-34.04301 19.53486,-34.04284 19.53494,-34.04266 19.5351,-34.04255 19.53528,-34.04243 19.5355,-34.04217 19.53547,-34.04198 19.53542,-34.04184 19.53537,-34.04148 19.5353,-34.04117 19.53523,-34.04103 19.53514,-34.04091 19.53504,-34.04076 19.53496,-34.04067 19.53478,-34.04063 19.53465,-34.0404 19.53492,-34.04015 19.53519,-34.04007 19.5355,-34.03983 19.53576,-34.03975 19.53621,-34.0398 19.53642,-34.04015 19.53675,-34.04029</coordinates></LinearRing></outerBoundaryIs></Polygon><Polygon><outerBoundaryIs><LinearRing><coordinates>19.51858,-34.04116 19.51844,-34.04145 19.51834,-34.04161 19.51836,-34.04194 19.51845,-34.04211 19.51855,-34.04228 19.51862,-34.04243 19.51867,-34.04257 19.51882,-34.04268 19.51925,-34.04338 19.5194,-34.04355 19.5197,-34.04381 19.51996,-34.04402 19.5203,-34.04432 19.52059,-34.0446 19.52074,-34.04497 19.52076,-34.0451 19.52074,-34.04557 19.52064,-34.04607 19.52054,-34.04638 19.52054,-34.04641 19.52059,-34.04694 19.52064,-34.04711 19.52085,-34.04717 19.52089,-34.04717 19.52113,-34.04727 19.52137,-34.04735 19.52158,-34.04745 19.52166,-34.04752 19.52284,-34.04734 19.52295,-34.04773 19.52317,-34.04881 19.52313,-34.04882 19.5227,-34.04888 19.52201,-34.04898 19.52143,-34.04907 19.52112,-34.04914 19.52089,-34.0492 19.52054,-34.04935 19.5205,-34.04936 19.52024,-34.04949 19.51977,-34.04975 19.5191,-34.0502 19.51855,-34.05057 19.51756,-34.05115 19.517,-34.05152 19.51702,-34.05155 19.51702,-34.05155 19.51718,-34.05178 19.51718,-34.05179 19.51733,-34.052 19.51755,-34.0524 19.51755,-34.0524 19.51757,-34.05244 19.51749,-34.05248 19.51715,-34.05263 19.51715,-34.05263 19.51714,-34.05263 19.51659,-34.05169 19.51626,-34.05121 19.51608,-34.05092 19.51594,-34.05053 19.51546,-34.04969 19.51457,-34.04796 19.514,-34.04698 19.51382,-34.04664 19.51368,-34.04639 19.51326,-34.04566 19.51269,-34.04467 19.51267,-34.04464 19.51194,-34.04341 19.51178,-34.04316 19.51184,-34.04313 19.51184,-34.04313 19.51254,-34.04278 19.51323,-34.04263 19.51333,-34.04289 19.51336,-34.04296 19.51362,-34.04282 19.51395,-34.04273 19.51417,-34.04262 19.5142,-34.04262 19.51431,-34.04256 19.5144,-34.04255 19.51468,-34.04108 19.51582,-34.04129 19.51594,-34.04109 19.51623,-34.04085 19.51654,-34.04054 19.5167,-34.04037 19.51708,-34.0402 19.51731,-34.04007 19.51738,-34.03984 19.51768,-34.03975 19.51772,-34.03973 19.51815,-34.04016 19.51841,-34.04039 19.51838,-34.04047 19.51857,-34.04054 19.51865,-34.04068 19.51874,-34.04081 19.51873,-34.04087 19.51863,-34.04103 19.51858,-34.04116</coordinates></LinearRing></outerBoundaryIs></Polygon><Polygon><outerBoundaryIs><LinearRing><coordinates>19.56095,-34.03132 19.56173,-34.03137 19.56187,-34.03116 19.56211,-34.03123 19.56239,-34.03133 19.56273,-34.03122 19.56318,-34.031 19.56337,-34.03096 19.56365,-34.03099 19.56413,-34.03106 19.56459,-34.03117 19.56515,-34.03134 19.56604,-34.03174 19.56635,-34.03181 19.56658,-34.03181 19.5675,-34.03209 19.56765,-34.03236 19.568,-34.03259 19.56795,-34.03279 19.56827,-34.03392 19.5682,-34.03417 19.56783,-34.03422 19.56774,-34.03436 19.56741,-34.03445 19.56722,-34.03451 19.56681,-34.03454 19.56652,-34.03457 19.56637,-34.03483 19.56615,-34.03533 19.56598,-34.03579 19.56478,-34.03608 19.56409,-34.03617 19.56416,-34.03714 19.56416,-34.03714 19.56444,-34.03832 19.56445,-34.0384 19.5645,-34.03877 19.56451,-34.03885 19.56453,-34.03986 19.56451,-34.04005 19.56458,-34.04041 19.5648,-34.0408 19.56488,-34.04097 19.56486,-34.04108 19.56499,-34.04127 19.56499,-34.04127 19.56503,-34.04133 19.56523,-34.04161 19.56539,-34.04177 19.56555,-34.04189 19.56572,-34.04196 19.5658,-34.04216 19.56603,-34.04239 19.56603,-34.04239 19.56631,-34.04254 19.56661,-34.04277 19.5668,-34.04291 19.567,-34.04306 19.56732,-34.04323 19.56773,-34.04348 19.56769,-34.0436 19.56806,-34.04368 19.56865,-34.04382 19.56912,-34.04394 19.57001,-34.04428 19.57086,-34.0429 19.57138,-34.04332 19.57168,-34.04389 19.57178,-34.04423 19.57221,-34.04428 19.57238,-34.04585 19.57241,-34.04596 19.57264,-34.0461 19.57264,-34.0464 19.57225,-34.04687 19.57178,-34.04748 19.5714,-34.04796 19.57062,-34.04829 19.57055,-34.04905 19.56886,-34.04901 19.56789,-34.049 19.56785,-34.049 19.5672,-34.04899 19.56639,-34.049 19.56576,-34.04908 19.56497,-34.04924 19.56483,-34.04929 19.56414,-34.0495 19.56301,-34.05009 19.56258,-34.05033 19.56206,-34.05077 19.56156,-34.05119 19.56131,-34.05101 19.56082,-34.05072 19.56008,-34.0505 19.55961,-34.05039 19.55921,-34.0503 19.55826,-34.05013 19.55508,-34.04959 19.5532,-34.04926 19.55292,-34.04922 19.55272,-34.04919 19.5526,-34.04907 19.55253,-34.04879 19.55252,-34.0486 19.55255,-34.04843 19.55271,-34.04822 19.55296,-34.04801 19.55335,-34.04775 19.55373,-34.04761 19.55417,-34.04747 19.55448,-34.04733 19.55479,-34.04713 19.5549,-34.04697 19.55491,-34.04682 19.55487,-34.04665 19.55478,-34.04633 19.5548,-34.04603 19.55478,-34.04593 19.55487,-34.04559 19.55498,-34.0452 19.55466,-34.04517 19.55466,-34.04497 19.55467,-34.04478 19.5546,-34.0447 19.55463,-34.04443 19.55465,-34.04419 19.55464,-34.04398 19.55474,-34.04359 19.55474,-34.04352 19.55472,-34.04334 19.55471,-34.04317 19.5547,-34.04305 19.55401,-34.0432 19.55391,-34.04315 19.55372,-34.04317 19.55362,-34.04317 19.55353,-34.04299 19.55344,-34.0428 19.55335,-34.04267 19.55325,-34.04253 19.55315,-34.04238 19.55306,-34.04226 19.55292,-34.04214 19.55278,-34.04201 19.55265,-34.0419 19.55287,-34.04177 19.55275,-34.0416 19.55274,-34.0415 19.55269,-34.04135 19.55265,-34.04125 19.55263,-34.04117 19.55259,-34.041 19.55259,-34.04085 19.55261,-34.04066 19.55262,-34.04062 19.55229,-34.04052 19.55241,-34.04023 19.55244,-34.04017 19.55289,-34.04015 19.55286,-34.0399 19.55317,-34.03984 19.5532,-34.03994 19.55332,-34.0399 19.55356,-34.03992 19.55377,-34.03993 19.554,-34.03995 19.5542,-34.03998 19.55445,-34.03999 19.55446,-34.03998 19.55493,-34.03953 19.55491,-34.03928 19.55488,-34.03891 19.55486,-34.03869 19.55485,-34.03857 19.55484,-34.03832 19.5549,-34.03812 19.55495,-34.03793 19.55495,-34.03778 19.55495,-34.03761 19.55482,-34.03761 19.55474,-34.03704 19.55425,-34.03687 19.55409,-34.03665 19.55407,-34.03653 19.55407,-34.03651 19.55402,-34.03647 19.5539,-34.03639 19.55381,-34.03632 19.55371,-34.03627 19.55362,-34.03623 19.55355,-34.03621 19.5534,-34.03617 19.55318,-34.03614 19.553,-34.0361 19.55282,-34.03607 19.55263,-34.03603 19.55243,-34.036 19.5522,-34.03594 19.55206,-34.03591 19.55192,-34.03589 19.55173,-34.03587 19.55156,-34.03586 19.55146,-34.03586 19.55133,-34.03587 19.55124,-34.03589 19.5511,-34.03596 19.551,-34.036 19.55093,-34.036 19.55086,-34.03597 19.55081,-34.03594 19.55076,-34.03589 19.55073,-34.03585 19.55067,-34.03576 19.55063,-34.03554 19.55062,-34.03546 19.55094,-34.03543 19.55097,-34.03543 19.55099,-34.03533 19.55101,-34.03522 19.55103,-34.03515 19.55105,-34.03509 19.55109,-34.03505 19.55119,-34.03497 19.55125,-34.03492 19.55136,-34.03487 19.55154,-34.0348 19.55167,-34.03478 19.55206,-34.03479 19.55211,-34.03438 19.55413,-34.03446 19.55464,-34.03447 19.5549,-34.03446 19.55491,-34.03446 19.55509,-34.03445 19.55509,-34.03344 19.55548,-34.03319 19.55575,-34.033 19.55634,-34.03238 19.55685,-34.03184 19.55724,-34.03168 19.5577,-34.03132 19.55772,-34.0313 19.55787,-34.03113 19.55813,-34.03108 19.55822,-34.03106 19.55866,-34.03092 19.55912,-34.03096 19.56074,-34.03122 19.56095,-34.03132</coordinates></LinearRing></outerBoundaryIs></Polygon></MultiGeometry></Placemark></Document></kml>