<?xml version="1.0" encoding="UTF-8"?><kml xmlns="http://www.opengis.net/kml/2.2"><Document><Placemark><name>Botrivier</name><description>Main Place 171012</description><ExtendedData><Data name="code"><value>171012</value></Data><Data name="name"><value>Botrivier</value></Data><Data name="description"><value>Main Place 171012</value></Data></ExtendedData><MultiGeometry><Polygon><outerBoundaryIs><LinearRing><coordinates>19.1937,-34.22003 19.19389,-34.22022 19.19408,-34.22019 19.19425,-34.22043 19.19442,-34.22065 19.19459,-34.22081 19.19485,-34.22103 19.19516,-34.22125 19.19541,-34.22138 19.19571,-34.22151 19.19573,-34.22152 19.19605,-34.22157 19.19625,-34.2217 19.19629,-34.22172 19.19679,-34.22197 19.19746,-34.22227 19.19851,-34.22272 19.19886,-34.22284 19.19913,-34.223 19.1997,-34.22328 19.20004,-34.22342 19.20016,-34.22346 19.20018,-34.22347 19.20036,-34.22351 19.20071,-34.22358 19.20084,-34.22357 19.201,-34.22354 19.20132,-34.22353 19.20155,-34.22359 19.20178,-34.22363 19.20215,-34.22366 19.20247,-34.22367 19.20278,-34.2237 19.20313,-34.22374 19.20361,-34.22378 19.204,-34.22381 19.2044,-34.22386 19.20471,-34.22392 19.20502,-34.22399 19.20543,-34.22412 19.2057,-34.22424 19.20589,-34.2244 19.20592,-34.22442 19.20624,-34.22472 19.20627,-34.22475 19.20658,-34.22513 19.20699,-34.22571 19.20725,-34.22603 19.20743,-34.22625 19.20751,-34.22644 19.2075,-34.22673 19.20742,-34.22689 19.20721,-34.22745 19.20704,-34.22783 19.20687,-34.2282 19.20674,-34.22853 19.20661,-34.22882 19.20644,-34.22922 19.2062,-34.22973 19.20604,-34.23008 19.20587,-34.23041 19.20573,-34.23075 19.20542,-34.23131 19.20565,-34.23151 19.20575,-34.2316 19.20583,-34.23174 19.20584,-34.23201 19.20581,-34.23249 19.20577,-34.23326 19.20575,-34.23342 19.20572,-34.23364 19.20567,-34.23381 19.20559,-34.23395 19.20547,-34.23422 19.20536,-34.23442 19.20524,-34.23454 19.20502,-34.23475 19.20465,-34.235 19.20445,-34.23497 19.20346,-34.2348 19.20324,-34.23475 19.2031,-34.23472 19.20297,-34.23471 19.20259,-34.23467 19.20208,-34.2347 19.2019,-34.23473 19.2013,-34.23484 19.20051,-34.23501 19.19994,-34.23507 19.19963,-34.23507 19.19887,-34.23509 19.19835,-34.23511 19.19712,-34.23514 19.19702,-34.23514 19.19552,-34.23506 19.19388,-34.23501 19.19354,-34.23496 19.19288,-34.23483 19.19271,-34.23479 19.19271,-34.23469 19.19271,-34.23462 19.19271,-34.23453 19.19271,-34.23431 19.19272,-34.23415 19.19272,-34.23396 19.19277,-34.23382 19.19278,-34.23377 19.19271,-34.23361 19.19253,-34.23333 19.19233,-34.23282 19.19216,-34.23239 19.192,-34.23203 19.19187,-34.23177 19.19174,-34.23146 19.1916,-34.23115 19.19126,-34.23057 19.19099,-34.23006 19.19084,-34.22969 19.19064,-34.22918 19.1905,-34.22872 19.19031,-34.22811 19.19014,-34.22752 19.18992,-34.22681 19.18989,-34.22671 19.18983,-34.22648 19.1898,-34.22604 19.1899,-34.22567 19.19006,-34.22534 19.19018,-34.22512 19.19026,-34.22497 19.19046,-34.22457 19.19068,-34.22416 19.19089,-34.22375 19.19115,-34.22326 19.19128,-34.22285 19.19129,-34.22279 19.19139,-34.22244 19.19153,-34.22192 19.19169,-34.22161 19.1919,-34.22125 19.19219,-34.22082 19.19222,-34.22078 19.19243,-34.22046 19.19258,-34.22022 19.19281,-34.21981 19.19298,-34.2198 19.19322,-34.2198 19.19352,-34.21989 19.1937,-34.22003</coordinates></LinearRing></outerBoundaryIs></Polygon></MultiGeometry></Placemark></Document></kml>