<?xml version="1.0" encoding="UTF-8"?><kml xmlns="http://www.opengis.net/kml/2.2"><Document><Placemark><name>Kleinmond</name><description>Main Place 172009</description><ExtendedData><Data name="code"><value>172009</value></Data><Data name="name"><value>Kleinmond</value></Data><Data name="description"><value>Main Place 172009</value></Data></ExtendedData><MultiGeometry><Polygon><outerBoundaryIs><LinearRing><coordinates>19.04256,-34.32723 19.04343,-34.33352 19.04599,-34.33269 19.05104,-34.33104 19.05414,-34.33399 19.04862,-34.33552 19.04857,-34.33553 19.04398,-34.3368 19.04279,-34.34113 19.04278,-34.34113 19.04262,-34.3411 19.04241,-34.34107 19.04213,-34.34107 19.04181,-34.3411 19.04133,-34.34115 19.04093,-34.34117 19.04033,-34.34122 19.03976,-34.34126 19.03932,-34.34128 19.0387,-34.34132 19.03828,-34.34138 19.03776,-34.34156 19.03748,-34.3417 19.03724,-34.34185 19.03734,-34.34211 19.03739,-34.34228 19.03738,-34.34238 19.03724,-34.34256 19.03714,-34.34266 19.03714,-34.3428 19.03715,-34.34282 19.03719,-34.34288 19.03712,-34.34301 19.03699,-34.34313 19.0369,-34.34332 19.03673,-34.34339 19.03664,-34.34348 19.03662,-34.34357 19.03657,-34.34368 19.03652,-34.3438 19.03629,-34.34394 19.03614,-34.34391 19.03593,-34.34389 19.03574,-34.34394 19.03561,-34.34404 19.03552,-34.34412 19.03538,-34.34432 19.03508,-34.3445 19.0348,-34.34473 19.0347,-34.34486 19.03469,-34.34508 19.0347,-34.34532 19.0347,-34.34584 19.03475,-34.34594 19.03489,-34.34607 19.03506,-34.34613 19.03513,-34.34627 19.03513,-34.34642 19.03487,-34.34646 19.03468,-34.34634 19.03449,-34.34623 19.03433,-34.34604 19.03424,-34.34584 19.03428,-34.34555 19.03428,-34.34523 19.03423,-34.34505 19.03403,-34.34485 19.03379,-34.34475 19.03356,-34.34473 19.03337,-34.3447 19.03333,-34.34471 19.03304,-34.34475 19.03278,-34.34483 19.03242,-34.34485 19.03213,-34.34485 19.0318,-34.34487 19.03174,-34.34487 19.03151,-34.34482 19.03137,-34.34475 19.03118,-34.34474 19.03097,-34.34475 19.03087,-34.34466 19.03072,-34.34461 19.03061,-34.34456 19.0305,-34.34455 19.03041,-34.34456 19.03035,-34.34464 19.03021,-34.34471 19.03021,-34.34471 19.03002,-34.34471 19.02986,-34.34467 19.02977,-34.34471 19.02973,-34.34481 19.02962,-34.34491 19.02944,-34.34496 19.02923,-34.345 19.02916,-34.34507 19.02911,-34.34514 19.02898,-34.34524 19.02883,-34.34529 19.02858,-34.34524 19.02845,-34.34517 19.02828,-34.34514 19.02816,-34.3451 19.02814,-34.345 19.02811,-34.34496 19.02797,-34.34498 19.02786,-34.34507 19.02768,-34.34505 19.02754,-34.34501 19.02746,-34.34498 19.02741,-34.34489 19.02735,-34.34481 19.02722,-34.34483 19.02713,-34.34489 19.0271,-34.34491 19.02695,-34.34488 19.02686,-34.34483 19.02674,-34.34486 19.02658,-34.34491 19.02641,-34.34489 19.02639,-34.34481 19.02621,-34.34481 19.02608,-34.34491 19.02586,-34.34496 19.02573,-34.34491 19.02555,-34.34492 19.02545,-34.34508 19.02526,-34.34512 19.02502,-34.34511 19.02469,-34.34511 19.02464,-34.34515 19.02467,-34.34527 19.02459,-34.34535 19.02445,-34.34539 19.02438,-34.34535 19.02438,-34.34535 19.02433,-34.34539 19.02435,-34.34556 19.02431,-34.34568 19.02396,-34.34568 19.02381,-34.34575 19.02364,-34.34568 19.02352,-34.3457 19.02333,-34.34582 19.02316,-34.34581 19.02302,-34.34576 19.02289,-34.34568 19.02277,-34.34568 19.02259,-34.34574 19.02245,-34.34573 19.02239,-34.34567 19.02231,-34.34551 19.02221,-34.34546 19.02209,-34.34549 19.02207,-34.34558 19.02195,-34.34563 19.02179,-34.34563 19.02174,-34.34558 19.02157,-34.34558 19.0215,-34.3455 19.0214,-34.34549 19.02135,-34.34554 19.02131,-34.34561 19.02116,-34.34565 19.02105,-34.34558 19.021,-34.34553 19.02097,-34.34549 19.02091,-34.34539 19.0208,-34.34535 19.02076,-34.34539 19.02074,-34.34549 19.02059,-34.34554 19.02046,-34.34549 19.02041,-34.34543 19.02033,-34.34537 19.02031,-34.34544 19.0203,-34.34554 19.02026,-34.34558 19.02015,-34.34556 19.02007,-34.34551 19.01994,-34.34549 19.01983,-34.34551 19.01977,-34.34561 19.01961,-34.34565 19.01949,-34.34561 19.01945,-34.34556 19.01939,-34.34546 19.01934,-34.3455 19.01934,-34.34561 19.01925,-34.34579 19.01903,-34.34576 19.01889,-34.3458 19.01878,-34.34594 19.01855,-34.34599 19.01839,-34.34602 19.0183,-34.34613 19.01815,-34.34618 19.01801,-34.34613 19.01797,-34.34615 19.01792,-34.34618 19.01787,-34.34627 19.01787,-34.34646 19.01786,-34.34658 19.01769,-34.34664 19.01754,-34.34665 19.01739,-34.34661 19.01729,-34.34661 19.0172,-34.34668 19.01715,-34.34682 19.01706,-34.34694 19.01696,-34.34699 19.01663,-34.34699 19.01649,-34.34713 19.01635,-34.34728 19.01613,-34.34736 19.01585,-34.34738 19.0157,-34.34743 19.01544,-34.34747 19.01528,-34.34747 19.0151,-34.34745 19.01494,-34.34738 19.01461,-34.34732 19.01441,-34.34728 19.01404,-34.34728 19.01385,-34.34731 19.01361,-34.34725 19.01335,-34.3472 19.01313,-34.34719 19.01301,-34.34719 19.01282,-34.34718 19.01268,-34.34714 19.01254,-34.34709 19.01246,-34.34695 19.01246,-34.34677 19.01256,-34.34668 19.01271,-34.34663 19.01285,-34.34661 19.01298,-34.34654 19.01306,-34.34645 19.01311,-34.34624 19.01306,-34.34609 19.01303,-34.34605 19.013,-34.34602 19.01287,-34.34598 19.01263,-34.34605 19.01247,-34.34608 19.01236,-34.34617 19.0122,-34.34627 19.01216,-34.3463 19.01184,-34.34645 19.01175,-34.34645 19.01168,-34.34648 19.01156,-34.3464 19.01146,-34.34633 19.01127,-34.34633 19.01116,-34.34629 19.01102,-34.34629 19.01094,-34.34638 19.01069,-34.3464 19.01053,-34.34642 19.0103,-34.34643 19.01014,-34.34642 19.01005,-34.34648 19.00981,-34.34649 19.00968,-34.34638 19.00954,-34.34633 19.00947,-34.34621 19.00916,-34.34584 19.00834,-34.34489 19.00762,-34.34406 19.00682,-34.34311 19.0063,-34.3425 19.00566,-34.34177 19.00536,-34.34143 19.00423,-34.34012 19.00395,-34.33979 19.00241,-34.33801 19.00188,-34.33739 19.00174,-34.33718 19.00154,-34.33711 19.00151,-34.33708 19.00144,-34.33699 18.99945,-34.33468 18.99779,-34.33277 18.99773,-34.33268 18.99994,-34.33252 19.00591,-34.33213 19.0091,-34.3319 19.00986,-34.33188 19.0303,-34.32645 19.04202,-34.32334 19.04256,-34.32723</coordinates></LinearRing></outerBoundaryIs></Polygon></MultiGeometry></Placemark></Document></kml>