<?xml version="1.0" encoding="UTF-8"?><kml xmlns="http://www.opengis.net/kml/2.2"><Document><Placemark><name>Groot Brakrivier</name><description>Main Place 176006</description><ExtendedData><Data name="code"><value>176006</value></Data><Data name="name"><value>Groot Brakrivier</value></Data><Data name="description"><value>Main Place 176006</value></Data></ExtendedData><MultiGeometry><Polygon><outerBoundaryIs><LinearRing><coordinates>22.19175,-34.02891 22.19183,-34.02893 22.19207,-34.02892 22.19225,-34.02892 22.19236,-34.02894 22.19248,-34.02898 22.19265,-34.029 22.19271,-34.02902 22.19275,-34.02905 22.19279,-34.02916 22.19283,-34.02927 22.19287,-34.02931 22.193,-34.0294 22.19314,-34.02948 22.19318,-34.02954 22.1932,-34.0296 22.19321,-34.02972 22.1932,-34.0299 22.19322,-34.03 22.19326,-34.03009 22.19331,-34.03014 22.19336,-34.03016 22.19343,-34.03015 22.19364,-34.03009 22.19376,-34.03007 22.19386,-34.03005 22.19393,-34.03006 22.19397,-34.03008 22.19397,-34.03011 22.19395,-34.03014 22.19389,-34.03017 22.19388,-34.03019 22.1939,-34.03022 22.19395,-34.03023 22.19411,-34.03028 22.19416,-34.03032 22.19419,-34.03036 22.19421,-34.03044 22.19422,-34.0305 22.19422,-34.03053 22.19425,-34.03056 22.19437,-34.03064 22.1945,-34.03071 22.19462,-34.03074 22.19481,-34.03078 22.19488,-34.0308 22.19495,-34.03084 22.19504,-34.0309 22.19513,-34.03094 22.19534,-34.03098 22.19543,-34.03101 22.19554,-34.03107 22.19565,-34.03117 22.19581,-34.03129 22.196,-34.0314 22.19605,-34.03144 22.19608,-34.03148 22.19611,-34.03155 22.19615,-34.03162 22.19623,-34.03169 22.19657,-34.03186 22.1967,-34.03192 22.19676,-34.03191 22.19677,-34.03191 22.19685,-34.03189 22.19691,-34.03187 22.19694,-34.03183 22.197,-34.03177 22.1971,-34.0317 22.19717,-34.03168 22.19723,-34.03166 22.19727,-34.03161 22.19753,-34.03106 22.19912,-34.03188 22.19942,-34.03205 22.19958,-34.03218 22.19968,-34.03226 22.19975,-34.03229 22.19982,-34.03229 22.2,-34.03225 22.20008,-34.03225 22.20021,-34.03226 22.20138,-34.03259 22.20153,-34.03264 22.20162,-34.03271 22.20171,-34.03281 22.20179,-34.03289 22.20189,-34.03295 22.20204,-34.03298 22.20212,-34.03302 22.20216,-34.03306 22.2022,-34.03315 22.20224,-34.03329 22.20229,-34.03339 22.20245,-34.03368 22.20255,-34.03379 22.20298,-34.03416 22.20302,-34.03418 22.20339,-34.03437 22.20356,-34.03443 22.20365,-34.03444 22.20382,-34.03444 22.20441,-34.0344 22.20454,-34.0344 22.20472,-34.03437 22.20485,-34.03433 22.205,-34.03422 22.20528,-34.03388 22.20558,-34.03352 22.20626,-34.03382 22.20861,-34.03472 22.20876,-34.03477 22.20883,-34.03477 22.20897,-34.03474 22.20908,-34.03473 22.20914,-34.03473 22.20918,-34.03475 22.20921,-34.0348 22.20924,-34.03491 22.20925,-34.03491 22.20951,-34.03501 22.21307,-34.03637 22.21346,-34.03652 22.21364,-34.03622 22.21378,-34.03606 22.21395,-34.03593 22.21425,-34.03573 22.2145,-34.03547 22.21461,-34.03527 22.21468,-34.03518 22.2148,-34.03506 22.21489,-34.03491 22.21502,-34.03463 22.21512,-34.03401 22.21566,-34.03392 22.21795,-34.03355 22.22224,-34.03268 22.22226,-34.03267 22.2229,-34.03254 22.22305,-34.03251 22.22393,-34.03233 22.2242,-34.03228 22.22469,-34.03216 22.22526,-34.03206 22.22542,-34.03201 22.2255,-34.03196 22.22557,-34.03189 22.22563,-34.03182 22.22566,-34.0317 22.22569,-34.03143 22.2257,-34.03126 22.22573,-34.0311 22.22584,-34.03083 22.22588,-34.03074 22.22594,-34.0305 22.22601,-34.03034 22.22607,-34.03027 22.22615,-34.03022 22.22643,-34.03007 22.22656,-34.03003 22.22713,-34.02993 22.22723,-34.02993 22.22729,-34.02993 22.2275,-34.03001 22.22759,-34.03003 22.22775,-34.03002 22.22799,-34.03 22.22812,-34.03 22.22834,-34.03002 22.22851,-34.03003 22.22864,-34.03003 22.229,-34.02995 22.22913,-34.02993 22.22924,-34.02989 22.22936,-34.02982 22.22947,-34.02976 22.22954,-34.02974 22.22961,-34.02975 22.22965,-34.02978 22.22973,-34.02987 22.22983,-34.03004 22.22989,-34.03008 22.22997,-34.0301 22.23004,-34.03008 22.2301,-34.03004 22.23038,-34.02975 22.23045,-34.02969 22.23053,-34.02964 22.23078,-34.02954 22.23099,-34.02942 22.23105,-34.02935 22.23108,-34.02928 22.23112,-34.02915 22.23116,-34.02908 22.2312,-34.02904 22.23126,-34.02902 22.23136,-34.02899 22.23184,-34.02889 22.23196,-34.02886 22.23205,-34.02881 22.23225,-34.02867 22.23232,-34.02864 22.2325,-34.02859 22.23259,-34.02855 22.23276,-34.02845 22.23282,-34.0284 22.23291,-34.02836 22.23307,-34.02829 22.23318,-34.02822 22.23336,-34.02805 22.23343,-34.02799 22.23349,-34.02795 22.23354,-34.02794 22.23394,-34.02791 22.23432,-34.0279 22.2345,-34.02792 22.23462,-34.02795 22.23469,-34.02798 22.23478,-34.02806 22.23494,-34.0282 22.235,-34.02822 22.23508,-34.02823 22.23518,-34.02822 22.23532,-34.02816 22.23557,-34.02803 22.23565,-34.02797 22.23578,-34.02784 22.23588,-34.02777 22.23622,-34.02763 22.23628,-34.02762 22.23635,-34.02764 22.23638,-34.02768 22.23652,-34.028 22.23661,-34.02819 22.23667,-34.02826 22.23674,-34.02831 22.23681,-34.02833 22.23688,-34.02834 22.23696,-34.02833 22.23705,-34.02828 22.2371,-34.02823 22.23716,-34.02813 22.23726,-34.02793 22.23733,-34.02783 22.2374,-34.02774 22.23752,-34.02765 22.23916,-34.03046 22.24063,-34.03283 22.24133,-34.03405 22.24142,-34.03421 22.24142,-34.03431 22.24099,-34.03722 22.24091,-34.03786 22.2409,-34.03794 22.24073,-34.03934 22.24064,-34.03956 22.24046,-34.03984 22.23973,-34.04103 22.23965,-34.04126 22.23963,-34.04143 22.23965,-34.04155 22.2501,-34.04629 22.25292,-34.04556 22.26287,-34.04849 22.2635,-34.04867 22.26335,-34.05012 22.26346,-34.05005 22.26357,-34.04998 22.26366,-34.04994 22.26375,-34.04991 22.26386,-34.04988 22.26395,-34.04986 22.26418,-34.04983 22.26438,-34.04981 22.26451,-34.04979 22.26463,-34.04977 22.26477,-34.04973 22.26486,-34.0497 22.265,-34.04964 22.26514,-34.04956 22.26517,-34.04955 22.26542,-34.04939 22.26571,-34.0492 22.26591,-34.04908 22.26602,-34.04901 22.26615,-34.0489 22.2664,-34.04868 22.26657,-34.0485 22.26671,-34.04838 22.26683,-34.04827 22.26687,-34.04824 22.26692,-34.04821 22.26705,-34.04819 22.26715,-34.04817 22.26727,-34.04815 22.26732,-34.04815 22.26738,-34.04814 22.2687,-34.0477 22.26987,-34.04664 22.27067,-34.04629 22.27078,-34.04624 22.27179,-34.04605 22.27349,-34.04658 22.27456,-34.04641 22.27478,-34.04623 22.27539,-34.04575 22.27547,-34.04565 22.27583,-34.04521 22.27673,-34.04503 22.27691,-34.045 22.27721,-34.04499 22.28016,-34.04493 22.28029,-34.04493 22.28123,-34.0451 22.28176,-34.04526 22.28252,-34.04548 22.28365,-34.04556 22.28389,-34.04558 22.28403,-34.04559 22.28403,-34.04559 22.28425,-34.04561 22.28434,-34.04561 22.2846,-34.04563 22.28502,-34.04566 22.28502,-34.04566 22.28542,-34.04568 22.28558,-34.04569 22.2862,-34.04573 22.2865,-34.04575 22.28657,-34.04576 22.28687,-34.04577 22.28727,-34.0458 22.28907,-34.04592 22.28934,-34.04603 22.28952,-34.0461 22.28991,-34.04626 22.29007,-34.04632 22.29034,-34.04643 22.29047,-34.04648 22.29052,-34.0465 22.29071,-34.04654 22.29106,-34.04663 22.29138,-34.04672 22.29175,-34.04681 22.29227,-34.04694 22.29232,-34.04696 22.29341,-34.04593 22.29347,-34.04587 22.2936,-34.04514 22.29466,-34.04509 22.29577,-34.0459 22.29589,-34.04591 22.29683,-34.0458 22.29695,-34.04575 22.29703,-34.04572 22.29749,-34.04555 22.29758,-34.04552 22.2976,-34.04551 22.29788,-34.04542 22.299,-34.04503 22.29906,-34.04583 22.29991,-34.04638 22.30078,-34.04642 22.30356,-34.04587 22.30558,-34.04631 22.30665,-34.04565 22.30622,-34.04805 22.30716,-34.0481 22.30755,-34.04812 22.3076,-34.04788 22.30777,-34.04713 22.30778,-34.04706 22.30785,-34.04675 22.30801,-34.04601 22.30859,-34.04342 22.31143,-34.04321 22.30969,-34.03966 22.31436,-34.04014 22.313,-34.04323 22.31544,-34.04352 22.31642,-34.04166 22.31857,-34.0424 22.3196,-34.04275 22.31886,-34.04478 22.31872,-34.04515 22.31871,-34.04518 22.31865,-34.04536 22.31846,-34.04588 22.31805,-34.04702 22.31799,-34.04718 22.31788,-34.04749 22.31779,-34.04772 22.31767,-34.04806 22.3176,-34.04825 22.31753,-34.04843 22.31744,-34.04868 22.31737,-34.04889 22.31729,-34.04912 22.31722,-34.04929 22.31755,-34.04939 22.31787,-34.04948 22.31805,-34.04954 22.31818,-34.04958 22.31822,-34.04959 22.31844,-34.04965 22.31886,-34.04977 22.31907,-34.04984 22.31911,-34.0497 22.31915,-34.04957 22.31922,-34.04959 22.31926,-34.0496 22.32033,-34.04992 22.32124,-34.05019 22.32147,-34.05026 22.32147,-34.05045 22.32146,-34.05083 22.32159,-34.05082 22.32177,-34.05087 22.32193,-34.05095 22.32207,-34.05104 22.32208,-34.05105 22.32217,-34.05115 22.32225,-34.05126 22.32237,-34.05136 22.32251,-34.05141 22.32272,-34.05138 22.3229,-34.0513 22.32309,-34.05117 22.3233,-34.05109 22.32357,-34.05107 22.32394,-34.05107 22.32445,-34.05117 22.32505,-34.05119 22.32551,-34.05134 22.32583,-34.05137 22.32611,-34.05132 22.32651,-34.05124 22.32685,-34.05119 22.32742,-34.05123 22.32802,-34.0514 22.32835,-34.0515 22.32849,-34.05149 22.32922,-34.05164 22.3299,-34.05164 22.33046,-34.05163 22.33096,-34.05162 22.33145,-34.05171 22.33175,-34.05164 22.3323,-34.05163 22.33302,-34.05166 22.33387,-34.0517 22.3347,-34.05174 22.33532,-34.05185 22.33592,-34.05192 22.33653,-34.05195 22.33674,-34.05195 22.33761,-34.05197 22.33787,-34.05202 22.33817,-34.05224 22.33857,-34.05256 22.33891,-34.05295 22.33913,-34.05321 22.33946,-34.05338 22.33956,-34.05342 22.33974,-34.05337 22.34015,-34.05325 22.34078,-34.05308 22.34109,-34.05292 22.34132,-34.05284 22.34176,-34.05287 22.34233,-34.05293 22.34268,-34.05296 22.34304,-34.05289 22.34365,-34.05263 22.34404,-34.05255 22.34448,-34.05261 22.3448,-34.05271 22.34506,-34.05293 22.34535,-34.05322 22.34548,-34.0534 22.34564,-34.05345 22.34581,-34.0534 22.3459,-34.0533 22.346,-34.05315 22.34614,-34.05304 22.34633,-34.05296 22.34657,-34.05304 22.34711,-34.05325 22.34765,-34.05348 22.34811,-34.05364 22.34872,-34.05384 22.34916,-34.05399 22.34953,-34.05397 22.34981,-34.05378 22.35014,-34.05367 22.3504,-34.05367 22.3507,-34.05382 22.35103,-34.05382 22.35128,-34.05372 22.35168,-34.05361 22.35202,-34.0536 22.35255,-34.05364 22.35308,-34.05377 22.35331,-34.05386 22.35351,-34.0539 22.35368,-34.05393 22.35383,-34.05393 22.35393,-34.05388 22.35399,-34.05383 22.35404,-34.05375 22.35402,-34.05347 22.354,-34.05272 22.35392,-34.05199 22.35386,-34.05177 22.35335,-34.05066 22.35305,-34.04982 22.35283,-34.0494 22.35279,-34.04889 22.35293,-34.04801 22.35303,-34.04703 22.35315,-34.04582 22.35314,-34.04555 22.35279,-34.04493 22.35215,-34.04411 22.35158,-34.04344 22.35112,-34.04278 22.35071,-34.04209 22.35057,-34.0417 22.35123,-34.04139 22.35127,-34.04164 22.35131,-34.04189 22.35165,-34.04241 22.35199,-34.04296 22.35271,-34.04384 22.35336,-34.04467 22.35379,-34.04563 22.35379,-34.0464 22.3536,-34.0473 22.3535,-34.04867 22.35347,-34.04928 22.3535,-34.04937 22.35425,-34.05095 22.35457,-34.05235 22.3547,-34.05361 22.35465,-34.05414 22.35464,-34.05425 22.35461,-34.05435 22.35457,-34.05443 22.35448,-34.05438 22.35437,-34.05434 22.35425,-34.05434 22.35407,-34.05436 22.35381,-34.05436 22.35375,-34.05439 22.35371,-34.05444 22.35367,-34.05448 22.35356,-34.05446 22.35351,-34.05437 22.3535,-34.05431 22.35349,-34.05424 22.35344,-34.05423 22.35332,-34.05423 22.35326,-34.05424 22.35326,-34.05428 22.35323,-34.05438 22.3532,-34.05443 22.35301,-34.05443 22.35298,-34.05436 22.35301,-34.05428 22.353,-34.05425 22.35292,-34.05423 22.35282,-34.05421 22.35276,-34.05425 22.35276,-34.05444 22.35268,-34.05452 22.35259,-34.05445 22.35259,-34.05434 22.35257,-34.05426 22.35253,-34.05421 22.35247,-34.05421 22.35242,-34.05418 22.35238,-34.05412 22.35233,-34.05406 22.3523,-34.05405 22.35225,-34.05405 22.35219,-34.05408 22.35217,-34.05417 22.35212,-34.05428 22.35207,-34.05437 22.35201,-34.05438 22.35193,-34.05433 22.35193,-34.05409 22.35183,-34.05408 22.35174,-34.05409 22.3517,-34.05417 22.35168,-34.05428 22.35168,-34.05436 22.3516,-34.05442 22.35152,-34.05437 22.35152,-34.05425 22.35149,-34.05414 22.35144,-34.05408 22.35134,-34.05414 22.35131,-34.05425 22.35129,-34.05434 22.35129,-34.05438 22.35124,-34.05444 22.35115,-34.05439 22.35115,-34.0543 22.35114,-34.05424 22.35112,-34.0542 22.351,-34.0542 22.35094,-34.05421 22.35088,-34.05424 22.35083,-34.05433 22.35076,-34.05434 22.35068,-34.05425 22.35066,-34.05415 22.35058,-34.05412 22.35044,-34.05412 22.3504,-34.05425 22.35039,-34.05433 22.35033,-34.05436 22.35028,-34.05434 22.35025,-34.05426 22.35021,-34.05418 22.35016,-34.05409 22.35009,-34.05403 22.35004,-34.05402 22.34997,-34.05412 22.34995,-34.05421 22.34992,-34.05428 22.34982,-34.05433 22.34972,-34.05426 22.34969,-34.05418 22.34967,-34.05409 22.34964,-34.05407 22.34953,-34.05407 22.34942,-34.05419 22.34941,-34.05426 22.34939,-34.05433 22.3493,-34.05436 22.34921,-34.05428 22.34919,-34.05417 22.34916,-34.05413 22.3491,-34.05413 22.34903,-34.05414 22.34897,-34.0542 22.34902,-34.05427 22.34901,-34.05434 22.34897,-34.05439 22.34882,-34.05437 22.34874,-34.05436 22.3487,-34.05428 22.34865,-34.05423 22.34863,-34.05418 22.34855,-34.05415 22.34849,-34.05419 22.34846,-34.05425 22.34845,-34.05432 22.34841,-34.05438 22.34836,-34.05442 22.34827,-34.05438 22.34826,-34.05432 22.34826,-34.05421 22.34816,-34.05415 22.34808,-34.05415 22.34802,-34.0542 22.34798,-34.05426 22.34796,-34.05431 22.34792,-34.05434 22.34789,-34.05437 22.34781,-34.05433 22.34778,-34.05431 22.34777,-34.05424 22.34767,-34.05419 22.3476,-34.05418 22.34754,-34.05418 22.3475,-34.05425 22.34749,-34.05431 22.34745,-34.05434 22.34733,-34.05434 22.34725,-34.0543 22.34722,-34.05421 22.34721,-34.05413 22.34718,-34.05411 22.34708,-34.05411 22.34704,-34.05419 22.34699,-34.0543 22.34689,-34.05424 22.34686,-34.05421 22.3468,-34.05414 22.34677,-34.05411 22.34667,-34.05413 22.34665,-34.05425 22.34659,-34.05428 22.34653,-34.05428 22.34643,-34.05423 22.34642,-34.05417 22.34637,-34.05412 22.34629,-34.05418 22.34627,-34.05423 22.34623,-34.05437 22.34618,-34.05442 22.34606,-34.05442 22.34597,-34.05437 22.34591,-34.05431 22.34578,-34.05431 22.34569,-34.05434 22.34563,-34.05439 22.34561,-34.05449 22.34556,-34.05457 22.34556,-34.05464 22.34549,-34.0547 22.34541,-34.05468 22.34535,-34.05456 22.34529,-34.05445 22.34522,-34.05439 22.34511,-34.05439 22.34506,-34.05446 22.34504,-34.05454 22.34504,-34.05465 22.345,-34.05474 22.34488,-34.05476 22.34478,-34.05476 22.34473,-34.05474 22.34469,-34.05469 22.34464,-34.05464 22.34449,-34.05464 22.34447,-34.05471 22.34447,-34.05475 22.34441,-34.05476 22.34436,-34.05476 22.34431,-34.05475 22.34425,-34.05468 22.34424,-34.05463 22.34422,-34.05459 22.34417,-34.05455 22.34411,-34.05452 22.34405,-34.05451 22.34398,-34.0545 22.34392,-34.05451 22.34387,-34.05451 22.34382,-34.05448 22.3438,-34.05442 22.3438,-34.05425 22.34379,-34.05415 22.34376,-34.05411 22.34374,-34.05408 22.34357,-34.05408 22.3435,-34.05402 22.3435,-34.05395 22.34348,-34.0539 22.34346,-34.05393 22.34342,-34.05396 22.34337,-34.05397 22.34333,-34.05394 22.3433,-34.05384 22.34332,-34.0538 22.34339,-34.05375 22.34338,-34.05369 22.34327,-34.05367 22.34321,-34.05368 22.34318,-34.05372 22.34315,-34.05377 22.34313,-34.05381 22.34306,-34.05384 22.34296,-34.05382 22.34295,-34.0537 22.34283,-34.05367 22.34273,-34.05367 22.34269,-34.05369 22.34269,-34.05372 22.34263,-34.05381 22.34258,-34.05382 22.34252,-34.05382 22.34246,-34.05377 22.34239,-34.05368 22.34233,-34.05363 22.34225,-34.05363 22.34213,-34.05368 22.34208,-34.05371 22.34206,-34.05376 22.34206,-34.05381 22.34197,-34.05382 22.34187,-34.05382 22.34182,-34.05378 22.34181,-34.05375 22.3418,-34.0537 22.34174,-34.05369 22.34162,-34.05374 22.34158,-34.0538 22.34155,-34.05386 22.34151,-34.05393 22.34139,-34.05393 22.34131,-34.05386 22.34127,-34.05381 22.34126,-34.05375 22.34122,-34.05374 22.34113,-34.05375 22.34106,-34.05375 22.34106,-34.05397 22.341,-34.05401 22.3409,-34.05403 22.34082,-34.05403 22.34075,-34.05396 22.34072,-34.05389 22.34068,-34.05383 22.34059,-34.05381 22.34051,-34.05388 22.34051,-34.05397 22.34047,-34.05403 22.34038,-34.05405 22.34032,-34.05402 22.34027,-34.05396 22.34027,-34.05393 22.34017,-34.05387 22.34012,-34.05387 22.34004,-34.05389 22.34002,-34.05393 22.34001,-34.054 22.33997,-34.05402 22.3399,-34.05405 22.33979,-34.05401 22.33978,-34.05396 22.33977,-34.05392 22.33969,-34.05387 22.33959,-34.05384 22.33953,-34.05384 22.33948,-34.05389 22.33946,-34.05397 22.3393,-34.05397 22.33925,-34.05395 22.33925,-34.0538 22.33923,-34.05375 22.33919,-34.05371 22.33908,-34.0537 22.33896,-34.05367 22.33894,-34.0537 22.33891,-34.05375 22.3389,-34.05384 22.33884,-34.05384 22.3388,-34.05382 22.33874,-34.05376 22.33874,-34.05364 22.33868,-34.05352 22.33858,-34.05353 22.33855,-34.05359 22.33845,-34.05367 22.33839,-34.05365 22.33832,-34.05364 22.33828,-34.05356 22.33827,-34.05346 22.33824,-34.0534 22.33815,-34.05338 22.33809,-34.05338 22.33801,-34.05337 22.33797,-34.05332 22.33796,-34.05327 22.3379,-34.0532 22.33778,-34.05316 22.33764,-34.0532 22.33727,-34.0532 22.33591,-34.05314 22.33583,-34.05314 22.33566,-34.0531 22.33548,-34.05308 22.33528,-34.05303 22.33502,-34.05302 22.33497,-34.05302 22.33491,-34.05302 22.33466,-34.05301 22.33439,-34.05297 22.33415,-34.05293 22.33392,-34.05289 22.33376,-34.05289 22.33358,-34.05279 22.33345,-34.05279 22.33323,-34.05274 22.33291,-34.05266 22.33273,-34.05265 22.33267,-34.05262 22.33256,-34.05254 22.33252,-34.0525 22.33247,-34.05246 22.33241,-34.05241 22.33218,-34.05241 22.33214,-34.05239 22.33208,-34.05235 22.33205,-34.05232 22.33202,-34.05228 22.33196,-34.05226 22.33189,-34.05225 22.33166,-34.05225 22.33159,-34.05227 22.33155,-34.05229 22.33148,-34.05234 22.3313,-34.05231 22.3313,-34.05219 22.33124,-34.05214 22.33111,-34.05213 22.33098,-34.05218 22.33088,-34.0522 22.33083,-34.05225 22.33075,-34.05223 22.33066,-34.05223 22.33056,-34.05222 22.3305,-34.05218 22.3305,-34.0521 22.33043,-34.0521 22.33025,-34.05213 22.33019,-34.05215 22.33006,-34.05215 22.33,-34.05212 22.32997,-34.05207 22.32987,-34.05207 22.32981,-34.05209 22.32978,-34.05213 22.3297,-34.05218 22.32964,-34.0522 22.32956,-34.05216 22.32949,-34.05214 22.32945,-34.05209 22.32938,-34.05209 22.3293,-34.05204 22.32927,-34.05198 22.3291,-34.05198 22.32907,-34.05202 22.32902,-34.05208 22.32901,-34.05214 22.32896,-34.05214 22.32886,-34.05213 22.32882,-34.05203 22.32882,-34.05197 22.32873,-34.05197 22.32863,-34.05201 22.3286,-34.05204 22.32858,-34.0521 22.32849,-34.05213 22.32847,-34.05207 22.32848,-34.05197 22.32833,-34.05192 22.32816,-34.05195 22.32814,-34.05198 22.32809,-34.052 22.32804,-34.052 22.32795,-34.05197 22.3279,-34.05195 22.32784,-34.0519 22.32779,-34.05188 22.32761,-34.05188 22.32756,-34.05191 22.32753,-34.05197 22.32753,-34.05203 22.32746,-34.05207 22.32737,-34.05206 22.32729,-34.05198 22.32727,-34.05194 22.32709,-34.05194 22.32702,-34.05195 22.32693,-34.05195 22.32685,-34.05202 22.32681,-34.05208 22.32673,-34.05216 22.32661,-34.05215 22.32655,-34.05208 22.32653,-34.05202 22.32638,-34.052 22.32628,-34.052 22.32623,-34.05201 22.32618,-34.05201 22.32617,-34.05208 22.32607,-34.05212 22.326,-34.0521 22.32594,-34.0521 22.32587,-34.05208 22.32584,-34.05206 22.3258,-34.052 22.32578,-34.05195 22.32575,-34.0519 22.32567,-34.05185 22.32562,-34.05183 22.32556,-34.05181 22.32549,-34.05179 22.3254,-34.05179 22.32529,-34.05176 22.3252,-34.05176 22.32505,-34.05177 22.32499,-34.05182 22.32492,-34.05185 22.3249,-34.05191 22.32486,-34.05194 22.3248,-34.05194 22.32472,-34.05189 22.32468,-34.05182 22.32462,-34.05175 22.32445,-34.05172 22.32425,-34.05172 22.32408,-34.05175 22.324,-34.05178 22.32397,-34.05184 22.32397,-34.05188 22.32393,-34.05191 22.32391,-34.05195 22.32385,-34.05196 22.32369,-34.05196 22.32366,-34.05191 22.32361,-34.05187 22.32345,-34.05187 22.32337,-34.05189 22.32335,-34.05192 22.32335,-34.05197 22.32329,-34.05201 22.32323,-34.05201 22.32315,-34.05202 22.32308,-34.05198 22.32307,-34.05194 22.32305,-34.05191 22.32299,-34.05189 22.32293,-34.05188 22.32287,-34.05188 22.32279,-34.05191 22.32275,-34.05195 22.32256,-34.05197 22.32251,-34.05194 22.32248,-34.05188 22.32248,-34.05184 22.32239,-34.05184 22.32234,-34.05181 22.32231,-34.05176 22.32224,-34.05173 22.32217,-34.05172 22.32207,-34.05171 22.32195,-34.05167 22.32188,-34.05164 22.32178,-34.0516 22.32164,-34.05157 22.32149,-34.05152 22.32127,-34.0515 22.32095,-34.05146 22.32072,-34.05146 22.32058,-34.05146 22.32044,-34.05147 22.32022,-34.05148 22.31997,-34.05147 22.31983,-34.05147 22.31969,-34.05146 22.31942,-34.05148 22.31926,-34.0515 22.31917,-34.0515 22.31907,-34.05148 22.31894,-34.05146 22.31888,-34.05144 22.3188,-34.05142 22.31871,-34.0514 22.31858,-34.05138 22.31778,-34.05138 22.31756,-34.05136 22.31747,-34.05135 22.31727,-34.05132 22.31704,-34.05127 22.3164,-34.05127 22.31621,-34.05128 22.31568,-34.05128 22.31559,-34.05129 22.31547,-34.05133 22.31537,-34.05134 22.31532,-34.05139 22.31529,-34.05141 22.31525,-34.05144 22.31517,-34.05147 22.31499,-34.05147 22.31488,-34.05151 22.31485,-34.05152 22.31464,-34.05156 22.31445,-34.05158 22.31422,-34.05157 22.31406,-34.05157 22.31393,-34.05154 22.31385,-34.05152 22.31376,-34.0515 22.3135,-34.05145 22.31338,-34.05141 22.31312,-34.05135 22.31296,-34.05133 22.31268,-34.05129 22.31248,-34.05127 22.31239,-34.05127 22.31218,-34.05126 22.31203,-34.05126 22.31162,-34.0512 22.31128,-34.05116 22.3103,-34.05116 22.31026,-34.05116 22.31006,-34.05114 22.30944,-34.05114 22.30917,-34.0512 22.30905,-34.05121 22.30883,-34.05126 22.30841,-34.05123 22.30813,-34.05123 22.30793,-34.05121 22.3078,-34.0512 22.30773,-34.0512 22.30756,-34.05117 22.30748,-34.05117 22.30733,-34.05116 22.30715,-34.05113 22.30707,-34.05113 22.30683,-34.05111 22.3064,-34.05111 22.30606,-34.0511 22.30594,-34.0511 22.30577,-34.05111 22.30557,-34.05115 22.3054,-34.05116 22.30518,-34.05122 22.305,-34.05125 22.30473,-34.05122 22.30457,-34.05125 22.30439,-34.05123 22.30431,-34.05125 22.30399,-34.05123 22.30387,-34.05125 22.30378,-34.05126 22.3037,-34.05126 22.30354,-34.05126 22.30341,-34.05127 22.30324,-34.05129 22.3031,-34.05128 22.30294,-34.05126 22.30213,-34.05126 22.30175,-34.05121 22.30156,-34.05121 22.30142,-34.0512 22.30108,-34.05122 22.30078,-34.05122 22.3007,-34.05121 22.30055,-34.05119 22.29815,-34.05119 22.29785,-34.0512 22.29734,-34.0512 22.29716,-34.05121 22.29712,-34.05121 22.2969,-34.05121 22.29689,-34.05121 22.29677,-34.05123 22.29662,-34.05126 22.2965,-34.05126 22.29641,-34.05127 22.2964,-34.05127 22.2964,-34.05127 22.29629,-34.05127 22.29625,-34.05127 22.29616,-34.05127 22.29599,-34.05126 22.29587,-34.05125 22.29575,-34.05123 22.29554,-34.05125 22.29538,-34.05126 22.29525,-34.05127 22.2951,-34.05129 22.29472,-34.05129 22.29457,-34.05128 22.29443,-34.05128 22.29429,-34.05127 22.2935,-34.05127 22.29319,-34.05134 22.29304,-34.05134 22.29282,-34.0514 22.29248,-34.0514 22.29236,-34.05141 22.29205,-34.05141 22.2919,-34.05142 22.29172,-34.05146 22.29165,-34.05146 22.29147,-34.05146 22.29128,-34.05145 22.29071,-34.05145 22.29053,-34.05151 22.2904,-34.05152 22.29028,-34.05156 22.29017,-34.05158 22.2901,-34.05158 22.28998,-34.05159 22.28982,-34.05165 22.28972,-34.05166 22.28954,-34.05165 22.28937,-34.05164 22.28912,-34.05162 22.289,-34.05162 22.28881,-34.05164 22.28839,-34.05169 22.28808,-34.0517 22.28789,-34.05175 22.28755,-34.05179 22.28747,-34.05181 22.28741,-34.05183 22.28724,-34.05184 22.28699,-34.05184 22.2869,-34.05185 22.28664,-34.05185 22.28652,-34.05187 22.28645,-34.05188 22.28617,-34.05188 22.28591,-34.05185 22.2858,-34.05185 22.28556,-34.05185 22.28537,-34.05184 22.28503,-34.05184 22.28479,-34.05183 22.28466,-34.05183 22.28448,-34.05184 22.28434,-34.05182 22.284,-34.0519 22.28311,-34.05196 22.28294,-34.05196 22.28257,-34.05198 22.28236,-34.05194 22.28223,-34.0519 22.28159,-34.0519 22.28146,-34.0519 22.28121,-34.0519 22.28111,-34.05191 22.28097,-34.05192 22.28089,-34.05194 22.28077,-34.05194 22.28066,-34.05197 22.28054,-34.05201 22.28041,-34.05203 22.28012,-34.05207 22.27972,-34.05212 22.27963,-34.05213 22.27953,-34.05214 22.27942,-34.05214 22.27923,-34.0522 22.27904,-34.0522 22.27885,-34.05221 22.27875,-34.05223 22.27863,-34.05225 22.27848,-34.05226 22.27826,-34.05231 22.27809,-34.05235 22.27748,-34.05235 22.27727,-34.05235 22.27697,-34.05238 22.27685,-34.05239 22.27674,-34.05239 22.27653,-34.0524 22.27651,-34.0524 22.27628,-34.05241 22.27617,-34.05243 22.27592,-34.05246 22.27533,-34.05246 22.27509,-34.05247 22.27502,-34.05249 22.27501,-34.05249 22.27485,-34.05251 22.27471,-34.05251 22.27409,-34.05257 22.27392,-34.05258 22.27381,-34.05259 22.27365,-34.05262 22.27326,-34.05258 22.27283,-34.05258 22.27271,-34.05259 22.27249,-34.0526 22.2722,-34.05264 22.27202,-34.05265 22.27195,-34.05266 22.27176,-34.05268 22.27154,-34.05268 22.27087,-34.05268 22.27077,-34.0527 22.27058,-34.05272 22.27037,-34.05277 22.2701,-34.05282 22.27003,-34.05283 22.26996,-34.05285 22.2699,-34.05287 22.26984,-34.0529 22.26972,-34.05293 22.26962,-34.05297 22.26952,-34.053 22.26933,-34.05301 22.26925,-34.05301 22.26909,-34.05302 22.26896,-34.05305 22.26885,-34.05306 22.26872,-34.05307 22.26865,-34.05308 22.2684,-34.05313 22.26828,-34.05314 22.26825,-34.05315 22.26786,-34.0532 22.26771,-34.05328 22.26759,-34.05332 22.26752,-34.05334 22.2672,-34.05337 22.26708,-34.05343 22.26692,-34.05345 22.2668,-34.05347 22.26648,-34.05347 22.26636,-34.05349 22.26632,-34.05349 22.26609,-34.05351 22.26606,-34.05351 22.26588,-34.05352 22.26555,-34.05352 22.26539,-34.05355 22.26532,-34.05356 22.26521,-34.05357 22.26507,-34.05357 22.26503,-34.05358 22.26485,-34.05359 22.26453,-34.05357 22.26434,-34.05361 22.26415,-34.05363 22.26398,-34.05367 22.26361,-34.05371 22.26353,-34.05371 22.26342,-34.05372 22.26308,-34.05375 22.26299,-34.05377 22.26288,-34.0538 22.2628,-34.05381 22.26279,-34.05381 22.26267,-34.05381 22.26257,-34.05382 22.26239,-34.05387 22.26238,-34.05387 22.26225,-34.05389 22.26207,-34.05389 22.26195,-34.05393 22.26169,-34.05401 22.26149,-34.05405 22.26133,-34.05409 22.26121,-34.05412 22.26116,-34.05414 22.26098,-34.05419 22.26092,-34.05421 22.26079,-34.05424 22.26067,-34.05427 22.26058,-34.05431 22.26046,-34.05433 22.26009,-34.0544 22.25993,-34.05442 22.25982,-34.05442 22.25974,-34.05443 22.25955,-34.05445 22.25931,-34.05445 22.25919,-34.05449 22.259,-34.05458 22.25872,-34.05463 22.25865,-34.05464 22.25854,-34.05467 22.25842,-34.05468 22.25829,-34.0547 22.25817,-34.05471 22.25802,-34.05474 22.25791,-34.05474 22.25782,-34.05475 22.25766,-34.05476 22.25755,-34.05479 22.25734,-34.05483 22.25708,-34.05489 22.25682,-34.05489 22.25667,-34.0549 22.25627,-34.05493 22.25619,-34.05493 22.25608,-34.05494 22.25595,-34.05495 22.25588,-34.05496 22.25583,-34.05498 22.25571,-34.05501 22.25563,-34.05504 22.25555,-34.05506 22.25534,-34.05512 22.25509,-34.05513 22.25499,-34.05517 22.2549,-34.0552 22.25484,-34.05521 22.25469,-34.05524 22.25458,-34.05526 22.25425,-34.05525 22.25408,-34.05527 22.25397,-34.0553 22.25382,-34.05535 22.2536,-34.05541 22.25341,-34.05545 22.25322,-34.05546 22.25308,-34.05549 22.25291,-34.05557 22.25257,-34.05562 22.25241,-34.05566 22.25232,-34.05568 22.25208,-34.05569 22.252,-34.05572 22.25189,-34.05575 22.25174,-34.05576 22.25149,-34.05581 22.25136,-34.05585 22.25117,-34.05586 22.25067,-34.05589 22.25059,-34.05589 22.25044,-34.05593 22.2503,-34.05594 22.25029,-34.05594 22.25025,-34.05595 22.25014,-34.05595 22.24994,-34.05599 22.24976,-34.05604 22.24965,-34.05605 22.2495,-34.05608 22.24934,-34.0561 22.24912,-34.05611 22.24894,-34.05611 22.24848,-34.05617 22.24806,-34.0562 22.24799,-34.0562 22.24788,-34.05625 22.24781,-34.05628 22.24773,-34.05629 22.24766,-34.0563 22.24751,-34.05633 22.24696,-34.05633 22.24675,-34.05635 22.24665,-34.05637 22.24659,-34.05637 22.24643,-34.05638 22.24617,-34.05642 22.24582,-34.05642 22.24577,-34.05645 22.24564,-34.05645 22.24563,-34.05645 22.24546,-34.05649 22.24536,-34.05653 22.24522,-34.05656 22.24509,-34.0566 22.24502,-34.05661 22.24488,-34.05661 22.24451,-34.0566 22.24407,-34.05663 22.24399,-34.05666 22.2439,-34.05667 22.24378,-34.05668 22.24368,-34.0567 22.24362,-34.05672 22.2435,-34.05673 22.24339,-34.05674 22.24326,-34.05676 22.24317,-34.05681 22.24293,-34.05686 22.24287,-34.0569 22.24279,-34.05691 22.24267,-34.05693 22.24247,-34.05693 22.24238,-34.05695 22.24232,-34.05697 22.24213,-34.05699 22.24206,-34.057 22.24198,-34.057 22.24197,-34.057 22.24175,-34.05703 22.24157,-34.05703 22.24144,-34.057 22.24117,-34.057 22.241,-34.05701 22.24092,-34.057 22.24083,-34.05699 22.2408,-34.05698 22.24068,-34.05697 22.24053,-34.05693 22.24044,-34.05692 22.24042,-34.05691 22.2404,-34.0569 22.2403,-34.0569 22.24027,-34.0569 22.24016,-34.05687 22.24015,-34.05687 22.23991,-34.05687 22.23984,-34.0569 22.23984,-34.0569 22.23964,-34.0569 22.23959,-34.05691 22.23952,-34.05692 22.23941,-34.05699 22.23928,-34.05707 22.23918,-34.05718 22.23913,-34.05719 22.23906,-34.05725 22.239,-34.05729 22.23892,-34.05735 22.23876,-34.05737 22.23869,-34.0574 22.2386,-34.05741 22.2385,-34.05744 22.23835,-34.05746 22.23823,-34.05751 22.23818,-34.05753 22.23809,-34.05757 22.23794,-34.0576 22.2378,-34.05761 22.23773,-34.05762 22.23768,-34.05763 22.23763,-34.05765 22.2375,-34.05769 22.23739,-34.05772 22.23735,-34.05773 22.2372,-34.05774 22.2368,-34.05774 22.23651,-34.05779 22.23639,-34.05779 22.23625,-34.05782 22.23612,-34.05788 22.23603,-34.0579 22.23589,-34.05793 22.23571,-34.05796 22.2354,-34.05798 22.23532,-34.05799 22.23525,-34.05803 22.23516,-34.05806 22.23506,-34.05809 22.23495,-34.05811 22.23483,-34.05812 22.23476,-34.05812 22.23471,-34.05815 22.23447,-34.05817 22.23443,-34.05819 22.23438,-34.05824 22.23429,-34.05827 22.23425,-34.0583 22.2341,-34.05835 22.23396,-34.05835 22.23383,-34.05836 22.23378,-34.0584 22.23366,-34.05843 22.23352,-34.05849 22.23339,-34.05849 22.23335,-34.0585 22.23325,-34.05853 22.23304,-34.05859 22.23294,-34.05864 22.23279,-34.05865 22.23273,-34.05866 22.23255,-34.05872 22.23242,-34.05875 22.23232,-34.05878 22.23213,-34.05881 22.23202,-34.05885 22.23186,-34.05885 22.23159,-34.05891 22.23153,-34.05895 22.23143,-34.05896 22.23136,-34.05897 22.23117,-34.05899 22.23103,-34.05902 22.2309,-34.05907 22.23089,-34.05908 22.23074,-34.05912 22.23056,-34.05917 22.23029,-34.05918 22.22975,-34.05921 22.22958,-34.05927 22.22947,-34.05928 22.22929,-34.05931 22.22921,-34.05933 22.22907,-34.05942 22.2289,-34.05943 22.22874,-34.05946 22.22859,-34.05948 22.22838,-34.05952 22.22825,-34.05955 22.22806,-34.05958 22.22795,-34.0596 22.22786,-34.05962 22.22782,-34.05966 22.22754,-34.05971 22.22742,-34.05973 22.22719,-34.05982 22.22689,-34.05992 22.22681,-34.05996 22.22667,-34.05998 22.22657,-34.06002 22.22649,-34.06005 22.22639,-34.06008 22.22617,-34.06011 22.22611,-34.06012 22.22602,-34.06015 22.22595,-34.06017 22.2259,-34.06021 22.22583,-34.06023 22.22575,-34.06026 22.22564,-34.0603 22.22555,-34.06034 22.2255,-34.06036 22.22537,-34.06042 22.22517,-34.06049 22.22513,-34.06053 22.22502,-34.06058 22.2248,-34.06067 22.22459,-34.0607 22.22445,-34.06074 22.22437,-34.06077 22.22431,-34.0608 22.22416,-34.06088 22.22406,-34.06086 22.22375,-34.06086 22.2237,-34.06086 22.22358,-34.06089 22.22334,-34.061 22.22327,-34.06102 22.22309,-34.06105 22.22303,-34.06108 22.22295,-34.0611 22.22286,-34.06114 22.22277,-34.06116 22.22265,-34.06121 22.2226,-34.06123 22.22252,-34.06125 22.22242,-34.06128 22.22233,-34.06129 22.22226,-34.0613 22.22214,-34.06133 22.22204,-34.06136 22.22195,-34.06139 22.22185,-34.06141 22.22172,-34.06142 22.22163,-34.06147 22.22153,-34.0615 22.22145,-34.06152 22.22127,-34.06157 22.22111,-34.06165 22.22076,-34.06172 22.22064,-34.06173 22.22034,-34.06177 22.2202,-34.06178 22.21992,-34.06184 22.21984,-34.06187 22.21969,-34.06194 22.21958,-34.06198 22.21943,-34.06203 22.21934,-34.06207 22.21915,-34.06209 22.21899,-34.06216 22.21887,-34.06219 22.21865,-34.06222 22.21859,-34.06222 22.2185,-34.06223 22.21847,-34.06223 22.21842,-34.06225 22.21834,-34.06225 22.21829,-34.06227 22.21828,-34.06233 22.21825,-34.06238 22.2182,-34.0624 22.21804,-34.0624 22.21795,-34.06235 22.21795,-34.06223 22.21797,-34.06217 22.21788,-34.06215 22.21781,-34.06215 22.21775,-34.06221 22.21773,-34.06228 22.21766,-34.06231 22.21743,-34.06238 22.21737,-34.06233 22.21729,-34.06227 22.21723,-34.06226 22.21716,-34.06228 22.21716,-34.06239 22.21717,-34.06244 22.2172,-34.06247 22.2172,-34.06253 22.21719,-34.06258 22.21713,-34.06263 22.21699,-34.06263 22.21695,-34.06262 22.21694,-34.06253 22.21693,-34.06246 22.21691,-34.06244 22.21683,-34.06245 22.21676,-34.06245 22.21671,-34.0625 22.21671,-34.06269 22.21669,-34.06272 22.21664,-34.06275 22.21655,-34.06279 22.2165,-34.06284 22.21638,-34.06284 22.21631,-34.06279 22.21627,-34.06276 22.21625,-34.06272 22.21623,-34.06269 22.21618,-34.0627 22.21613,-34.06276 22.21611,-34.06283 22.21611,-34.06291 22.21602,-34.06301 22.21594,-34.06302 22.21586,-34.06302 22.21584,-34.06299 22.21582,-34.06295 22.21582,-34.06289 22.21577,-34.06287 22.21571,-34.06289 22.21568,-34.06301 22.21567,-34.06307 22.21561,-34.0631 22.21546,-34.06314 22.21538,-34.06318 22.21531,-34.06316 22.21525,-34.06309 22.21521,-34.06302 22.21515,-34.06305 22.21515,-34.06305 22.21512,-34.06313 22.21508,-34.06322 22.21505,-34.0633 22.21492,-34.06332 22.21484,-34.06328 22.21483,-34.0632 22.21483,-34.06316 22.21483,-34.06315 22.2148,-34.06312 22.21471,-34.06312 22.21464,-34.06313 22.21461,-34.06318 22.21463,-34.06333 22.21459,-34.06343 22.21453,-34.06345 22.21394,-34.06177 22.21507,-34.06142 22.21495,-34.05901 22.21491,-34.05808 22.21489,-34.05785 22.21138,-34.05808 22.21081,-34.05812 22.21011,-34.05817 22.2096,-34.05821 22.20921,-34.05826 22.2084,-34.05836 22.20243,-34.05927 22.20235,-34.05928 22.20214,-34.05931 22.20078,-34.05952 22.20061,-34.05954 22.19704,-34.06009 22.19688,-34.06011 22.19395,-34.06054 22.18908,-34.06126 22.18959,-34.06018 22.18973,-34.05985 22.18979,-34.05963 22.18985,-34.05925 22.18995,-34.05759 22.18994,-34.05732 22.18989,-34.05705 22.18976,-34.05676 22.18967,-34.05664 22.18951,-34.05649 22.18935,-34.05638 22.18901,-34.05622 22.18856,-34.05598 22.18837,-34.05587 22.18821,-34.05575 22.18804,-34.05562 22.18782,-34.05541 22.18767,-34.05523 22.1875,-34.05497 22.18736,-34.05472 22.18727,-34.05447 22.1872,-34.05417 22.18718,-34.05396 22.18719,-34.05376 22.18726,-34.05337 22.18742,-34.05271 22.18747,-34.05244 22.18749,-34.05215 22.18752,-34.05166 22.18756,-34.0513 22.18762,-34.05034 22.18758,-34.05004 22.18748,-34.04971 22.18722,-34.0491 22.18676,-34.04819 22.18637,-34.04748 22.18585,-34.04649 22.18579,-34.04638 22.18482,-34.04454 22.18467,-34.0442 22.18461,-34.04405 22.18457,-34.04392 22.18453,-34.04379 22.18451,-34.04365 22.1845,-34.04354 22.1845,-34.04344 22.18451,-34.04335 22.18453,-34.04324 22.18455,-34.04311 22.18461,-34.04292 22.18473,-34.04261 22.18492,-34.04225 22.1853,-34.04168 22.18559,-34.04124 22.18579,-34.04094 22.18587,-34.04078 22.18596,-34.04062 22.18602,-34.04048 22.18608,-34.04031 22.18619,-34.03995 22.1865,-34.03881 22.18655,-34.03862 22.18667,-34.0382 22.18681,-34.03772 22.18708,-34.03657 22.18708,-34.03649 22.18708,-34.03643 22.18708,-34.03643 22.18707,-34.03626 22.18692,-34.03484 22.18686,-34.03442 22.18678,-34.03405 22.18671,-34.0338 22.18658,-34.03347 22.1863,-34.03271 22.18396,-34.02787 22.18389,-34.02773 22.18371,-34.02738 22.18362,-34.02716 22.18354,-34.02695 22.18349,-34.02678 22.18345,-34.02656 22.18343,-34.02637 22.18341,-34.02613 22.18343,-34.02586 22.18346,-34.02566 22.18351,-34.02542 22.18359,-34.02513 22.18371,-34.02483 22.18382,-34.02461 22.18398,-34.02434 22.18413,-34.02414 22.1843,-34.02394 22.18452,-34.02371 22.18473,-34.02352 22.18494,-34.02337 22.18526,-34.02317 22.18571,-34.02292 22.18779,-34.02178 22.1887,-34.0268 22.18874,-34.02701 22.18885,-34.02702 22.18907,-34.02705 22.1899,-34.02731 22.19073,-34.02756 22.19087,-34.02765 22.19101,-34.02788 22.19112,-34.02801 22.19127,-34.02809 22.19154,-34.02816 22.19166,-34.02822 22.19172,-34.02835 22.19171,-34.02849 22.19165,-34.0286 22.19163,-34.02867 22.19162,-34.02876 22.19165,-34.02883 22.19175,-34.02891</coordinates></LinearRing></outerBoundaryIs></Polygon></MultiGeometry></Placemark></Document></kml>