<?xml version="1.0" encoding="UTF-8"?><kml xmlns="http://www.opengis.net/kml/2.2"><Document><Placemark><name>George</name><description>Main Place 177006</description><ExtendedData><Data name="code"><value>177006</value></Data><Data name="name"><value>George</value></Data><Data name="description"><value>Main Place 177006</value></Data></ExtendedData><MultiGeometry><Polygon><outerBoundaryIs><LinearRing><coordinates>22.48401,-33.92041 22.48401,-33.92041 22.49042,-33.91981 22.49042,-33.91981 22.49066,-33.91987 22.49093,-33.91998 22.49114,-33.92011 22.49138,-33.92027 22.4915,-33.92035 22.49171,-33.92048 22.49197,-33.9206 22.49226,-33.92075 22.49251,-33.92088 22.49273,-33.921 22.49302,-33.92115 22.49331,-33.92131 22.49375,-33.92158 22.49399,-33.92175 22.4943,-33.922 22.49461,-33.92226 22.49481,-33.92243 22.49511,-33.92269 22.49536,-33.92291 22.49563,-33.92314 22.49592,-33.92336 22.49614,-33.92354 22.49646,-33.92382 22.49684,-33.9242 22.4972,-33.92453 22.49766,-33.92489 22.49803,-33.92518 22.49835,-33.92546 22.49868,-33.92573 22.49907,-33.92607 22.4993,-33.92628 22.49946,-33.92643 22.49956,-33.92652 22.49978,-33.92673 22.50013,-33.9271 22.50042,-33.92741 22.5006,-33.9276 22.50062,-33.92761 22.50078,-33.92778 22.50082,-33.92781 22.501,-33.92799 22.50126,-33.92823 22.50146,-33.92842 22.50164,-33.92861 22.50181,-33.92878 22.502,-33.92898 22.50215,-33.92918 22.50235,-33.92951 22.50251,-33.92979 22.50274,-33.93018 22.50276,-33.93022 22.50278,-33.93024 22.5028,-33.93028 22.50326,-33.93085 22.50363,-33.93126 22.50375,-33.9314 22.50389,-33.93156 22.50404,-33.93171 22.50418,-33.93186 22.50436,-33.93191 22.50455,-33.93199 22.50467,-33.93206 22.50481,-33.93216 22.50495,-33.93225 22.50512,-33.93234 22.50524,-33.9324 22.50535,-33.93247 22.50546,-33.93256 22.50555,-33.93264 22.50564,-33.93272 22.50577,-33.93282 22.50589,-33.93292 22.50601,-33.93301 22.50617,-33.93311 22.5063,-33.93318 22.50641,-33.93325 22.50652,-33.93332 22.50667,-33.93342 22.5068,-33.9335 22.50705,-33.9336 22.50723,-33.93366 22.50745,-33.93374 22.50773,-33.93384 22.50799,-33.93397 22.50823,-33.93413 22.5084,-33.9343 22.50855,-33.93447 22.50873,-33.93465 22.50901,-33.93489 22.50912,-33.935 22.50935,-33.93523 22.50955,-33.93545 22.50972,-33.93565 22.50985,-33.93581 22.50998,-33.93593 22.51021,-33.93613 22.5104,-33.93628 22.51059,-33.93646 22.51075,-33.93659 22.51096,-33.93675 22.5111,-33.93684 22.51124,-33.93691 22.5114,-33.93699 22.51159,-33.93709 22.51193,-33.93729 22.51209,-33.93741 22.51224,-33.93755 22.5123,-33.93765 22.51238,-33.93775 22.51244,-33.93788 22.51252,-33.93805 22.51257,-33.93817 22.51264,-33.93836 22.51267,-33.93849 22.51271,-33.93867 22.51273,-33.93896 22.51271,-33.93928 22.51268,-33.93949 22.51263,-33.93965 22.51254,-33.93982 22.51243,-33.94003 22.51234,-33.94019 22.51226,-33.94032 22.51215,-33.9405 22.51199,-33.94078 22.51188,-33.941 22.51174,-33.9413 22.51167,-33.94153 22.51163,-33.94175 22.51162,-33.94194 22.51161,-33.94213 22.5116,-33.94232 22.51164,-33.94252 22.51172,-33.94275 22.5118,-33.9429 22.51195,-33.94314 22.51205,-33.94336 22.5121,-33.94374 22.51209,-33.94394 22.51207,-33.94407 22.51205,-33.94424 22.51201,-33.94446 22.51194,-33.94474 22.51189,-33.94494 22.5118,-33.94519 22.51171,-33.9454 22.51166,-33.94553 22.51121,-33.94596 22.51108,-33.94613 22.51104,-33.94623 22.51095,-33.94655 22.51088,-33.94684 22.51085,-33.94721 22.51085,-33.94753 22.51087,-33.94786 22.51093,-33.94815 22.51098,-33.94833 22.51108,-33.9486 22.51119,-33.94875 22.5114,-33.94894 22.51164,-33.9491 22.51207,-33.94927 22.51235,-33.94936 22.51258,-33.9494 22.51297,-33.94941 22.5133,-33.9494 22.51369,-33.94935 22.51409,-33.94923 22.51432,-33.94914 22.51447,-33.94907 22.51472,-33.94892 22.51517,-33.94868 22.51568,-33.94846 22.51601,-33.94839 22.51632,-33.94843 22.51676,-33.94866 22.517,-33.94892 22.51709,-33.94915 22.51712,-33.94938 22.51712,-33.94966 22.5171,-33.9499 22.51707,-33.95004 22.517,-33.95037 22.51696,-33.95074 22.51696,-33.95102 22.51704,-33.95138 22.51719,-33.95173 22.51731,-33.95215 22.51733,-33.95247 22.5173,-33.9528 22.51721,-33.95317 22.51708,-33.95359 22.51686,-33.95405 22.51654,-33.95462 22.51623,-33.95512 22.51598,-33.95551 22.51568,-33.95597 22.51559,-33.95612 22.51545,-33.95634 22.51517,-33.95676 22.51471,-33.95742 22.51441,-33.95789 22.51421,-33.95831 22.51405,-33.95877 22.51393,-33.95919 22.51383,-33.95975 22.5138,-33.96027 22.5138,-33.96073 22.5138,-33.96111 22.5138,-33.96158 22.51379,-33.9619 22.51379,-33.96218 22.51383,-33.96241 22.51389,-33.96256 22.5139,-33.96259 22.51406,-33.96275 22.51414,-33.96289 22.51421,-33.96314 22.51429,-33.96332 22.51443,-33.96367 22.51453,-33.96387 22.51469,-33.96418 22.51476,-33.96438 22.51483,-33.96485 22.51484,-33.96517 22.51488,-33.96546 22.51504,-33.96585 22.51345,-33.96676 22.5134,-33.96679 22.51304,-33.967 22.50783,-33.97 22.5074,-33.97007 22.50657,-33.97017 22.50675,-33.97063 22.5069,-33.97101 22.50185,-33.97391 22.50123,-33.97427 22.4956,-33.97753 22.49527,-33.97772 22.49506,-33.97784 22.49421,-33.97833 22.49398,-33.97846 22.49233,-33.97938 22.49233,-33.97937 22.49228,-33.9794 22.49222,-33.97943 22.49213,-33.97948 22.49203,-33.97954 22.49165,-33.97975 22.49132,-33.97993 22.49131,-33.97994 22.48946,-33.98096 22.48927,-33.98106 22.48923,-33.98109 22.48886,-33.98129 22.48881,-33.98132 22.4868,-33.98243 22.4868,-33.98243 22.48679,-33.98243 22.48674,-33.98258 22.48679,-33.98265 22.48678,-33.98269 22.48672,-33.98272 22.48667,-33.98276 22.48663,-33.9829 22.48663,-33.98304 22.48663,-33.98322 22.48658,-33.98332 22.48648,-33.98344 22.48646,-33.98367 22.48649,-33.98379 22.48645,-33.98393 22.48646,-33.98414 22.48641,-33.98436 22.48644,-33.98481 22.48644,-33.98482 22.48645,-33.98509 22.48647,-33.98533 22.48643,-33.98603 22.48644,-33.98617 22.48646,-33.98626 22.48658,-33.9863 22.48673,-33.98638 22.48679,-33.98649 22.48687,-33.98661 22.48689,-33.98671 22.4869,-33.98676 22.48687,-33.98684 22.48682,-33.98691 22.48688,-33.98702 22.48698,-33.9871 22.48711,-33.98712 22.48722,-33.98708 22.48737,-33.98706 22.48753,-33.98702 22.48768,-33.98699 22.48788,-33.98692 22.488,-33.98691 22.48807,-33.98686 22.48832,-33.9868 22.48863,-33.98682 22.48887,-33.98695 22.48902,-33.98714 22.48919,-33.98738 22.4893,-33.98753 22.48941,-33.98763 22.48949,-33.9877 22.48959,-33.98775 22.48977,-33.98806 22.48993,-33.98811 22.49015,-33.98808 22.4903,-33.98813 22.49043,-33.9883 22.49053,-33.98849 22.49062,-33.98869 22.49062,-33.9887 22.49074,-33.98898 22.49085,-33.98925 22.49085,-33.98925 22.49089,-33.9893 22.49097,-33.9894 22.49121,-33.98943 22.49151,-33.98939 22.49179,-33.98938 22.49199,-33.98952 22.49209,-33.98973 22.49213,-33.98992 22.49218,-33.99014 22.49235,-33.99028 22.49264,-33.9903 22.49285,-33.99025 22.4931,-33.99025 22.49322,-33.99039 22.4933,-33.99059 22.49336,-33.99075 22.49344,-33.99086 22.49363,-33.99088 22.49385,-33.99062 22.49404,-33.9908 22.49407,-33.99083 22.49419,-33.99097 22.49432,-33.99111 22.49439,-33.99122 22.4944,-33.99127 22.49443,-33.99138 22.49446,-33.99145 22.49448,-33.99185 22.49449,-33.99235 22.49449,-33.99246 22.49449,-33.99259 22.49449,-33.9926 22.49463,-33.99263 22.49477,-33.99264 22.49484,-33.99267 22.49486,-33.99272 22.49484,-33.99281 22.49489,-33.99288 22.49494,-33.99293 22.49509,-33.99286 22.49512,-33.99306 22.49395,-33.99367 22.49302,-33.99416 22.49228,-33.99443 22.49153,-33.9947 22.48994,-33.995 22.48913,-33.99515 22.48885,-33.99516 22.48621,-33.99531 22.48418,-33.99542 22.48261,-33.9955 22.48088,-33.99559 22.48083,-33.9956 22.48079,-33.9956 22.47756,-33.99577 22.47679,-33.99582 22.47605,-33.99586 22.47562,-33.99586 22.47561,-33.99586 22.47459,-33.9959 22.47453,-33.9959 22.47386,-33.99589 22.47385,-33.99589 22.4712,-33.99585 22.47097,-33.99584 22.47044,-33.99584 22.47043,-33.99584 22.46993,-33.99583 22.46904,-33.99581 22.4688,-33.9958 22.46876,-33.9958 22.46669,-33.99576 22.46551,-33.99573 22.46393,-33.9957 22.4623,-33.9957 22.46237,-33.99615 22.46255,-33.99643 22.4627,-33.99663 22.46292,-33.9969 22.46295,-33.99694 22.46303,-33.99708 22.46307,-33.99725 22.46314,-33.99735 22.46312,-33.99753 22.46311,-33.99767 22.46263,-33.99792 22.46245,-33.99833 22.4623,-33.99901 22.46216,-33.9994 22.4624,-33.99979 22.4629,-33.99976 22.46336,-33.99934 22.46389,-33.99899 22.46418,-33.99911 22.4646,-33.99896 22.46498,-33.99885 22.4652,-33.99879 22.46541,-33.99879 22.4653,-33.99968 22.46576,-34.0004 22.46586,-34.00053 22.4659,-34.00058 22.46606,-34.00077 22.4663,-34.00155 22.4663,-34.00155 22.46604,-34.00227 22.46595,-34.00248 22.46618,-34.00269 22.46666,-34.00304 22.46685,-34.00316 22.46672,-34.00355 22.46621,-34.00436 22.46621,-34.00471 22.46624,-34.00493 22.46672,-34.00517 22.46714,-34.00535 22.46711,-34.00579 22.46716,-34.006 22.46794,-34.00581 22.46846,-34.00575 22.46881,-34.006 22.46941,-34.00605 22.46964,-34.00597 22.47099,-34.00605 22.47109,-34.00606 22.47217,-34.00618 22.47248,-34.00621 22.47284,-34.0063 22.47285,-34.0063 22.4731,-34.00634 22.47356,-34.00641 22.47392,-34.00656 22.47395,-34.00658 22.47505,-34.00705 22.47602,-34.00732 22.4762,-34.0066 22.47621,-34.00636 22.47608,-34.00608 22.47605,-34.006 22.47644,-34.0051 22.47665,-34.00454 22.47629,-34.00444 22.47639,-34.00406 22.4773,-34.00431 22.47748,-34.00436 22.47747,-34.00442 22.47767,-34.00447 22.47859,-34.00486 22.47893,-34.00492 22.47899,-34.00492 22.47907,-34.00484 22.47915,-34.00474 22.47934,-34.00446 22.47953,-34.00452 22.47946,-34.00474 22.47948,-34.00482 22.47948,-34.00491 22.47955,-34.00502 22.47962,-34.00509 22.48031,-34.00533 22.48032,-34.00534 22.48034,-34.00534 22.4808,-34.00551 22.48082,-34.00543 22.48084,-34.00543 22.48094,-34.00547 22.48104,-34.00553 22.48219,-34.00592 22.48219,-34.00596 22.48223,-34.00603 22.48264,-34.0062 22.48257,-34.00637 22.48307,-34.00652 22.48316,-34.00644 22.48353,-34.00607 22.48345,-34.00601 22.48316,-34.00586 22.48335,-34.00551 22.4837,-34.00558 22.48378,-34.00563 22.48395,-34.00577 22.48428,-34.00603 22.48435,-34.00594 22.48453,-34.00606 22.48464,-34.00617 22.48466,-34.00633 22.48467,-34.00667 22.48471,-34.00687 22.4845,-34.00725 22.48421,-34.00717 22.48411,-34.00724 22.48403,-34.00732 22.48389,-34.00734 22.4838,-34.00734 22.4837,-34.00734 22.4836,-34.00738 22.48352,-34.00744 22.48341,-34.00751 22.48337,-34.00759 22.48335,-34.00768 22.48337,-34.00777 22.48324,-34.00785 22.48318,-34.0079 22.48312,-34.00794 22.48305,-34.008 22.48292,-34.0081 22.48283,-34.00815 22.48277,-34.00822 22.48274,-34.00828 22.48274,-34.00837 22.48271,-34.00843 22.48261,-34.00847 22.4826,-34.00853 22.48262,-34.00862 22.4825,-34.00877 22.48242,-34.0089 22.48237,-34.00899 22.48226,-34.00907 22.48215,-34.00933 22.48204,-34.00944 22.48189,-34.00957 22.48184,-34.00965 22.48183,-34.00968 22.48178,-34.00984 22.48169,-34.00994 22.48165,-34.01002 22.48161,-34.01009 22.48154,-34.01039 22.48154,-34.01056 22.48157,-34.01072 22.48166,-34.01086 22.48176,-34.01101 22.48189,-34.01127 22.48194,-34.01144 22.48221,-34.01136 22.48253,-34.01123 22.48283,-34.0111 22.48312,-34.01121 22.48342,-34.01124 22.48352,-34.01152 22.48339,-34.01216 22.48312,-34.01303 22.48334,-34.01375 22.48367,-34.01408 22.4838,-34.01443 22.48389,-34.01517 22.48398,-34.01532 22.48458,-34.01555 22.4847,-34.01581 22.48458,-34.01618 22.48452,-34.01667 22.48461,-34.01742 22.48489,-34.01802 22.48536,-34.01836 22.48595,-34.01856 22.48655,-34.01899 22.48697,-34.01931 22.48725,-34.01932 22.48751,-34.01927 22.48781,-34.0193 22.48809,-34.01946 22.4882,-34.01966 22.4882,-34.01982 22.48804,-34.02009 22.48789,-34.02018 22.48744,-34.02006 22.48708,-34.01999 22.48675,-34.02016 22.48668,-34.02047 22.48666,-34.02055 22.48673,-34.02075 22.48739,-34.02106 22.48772,-34.02122 22.48793,-34.02141 22.48789,-34.02175 22.48796,-34.02208 22.48805,-34.0222 22.48802,-34.02235 22.48796,-34.02261 22.48784,-34.02282 22.48774,-34.02293 22.48756,-34.02298 22.4874,-34.02301 22.48718,-34.02295 22.48671,-34.02286 22.48645,-34.02284 22.4861,-34.02287 22.48574,-34.02284 22.48526,-34.02278 22.48484,-34.02275 22.48453,-34.02276 22.48428,-34.0228 22.48408,-34.02285 22.48391,-34.02293 22.48376,-34.02306 22.4835,-34.02326 22.4832,-34.02348 22.48301,-34.02365 22.48258,-34.02395 22.48248,-34.02405 22.48246,-34.02407 22.48239,-34.02417 22.48233,-34.02427 22.4823,-34.02435 22.4823,-34.02445 22.48233,-34.02453 22.48239,-34.02464 22.48244,-34.02476 22.4825,-34.02487 22.48253,-34.02497 22.48251,-34.02508 22.48244,-34.02528 22.48239,-34.02545 22.48234,-34.02552 22.48232,-34.02556 22.48225,-34.02563 22.48211,-34.02575 22.48191,-34.02591 22.4818,-34.02604 22.48176,-34.0261 22.48174,-34.02622 22.48176,-34.02634 22.48177,-34.02641 22.4818,-34.02654 22.48189,-34.02674 22.48195,-34.0269 22.48202,-34.02706 22.48207,-34.02716 22.48211,-34.02729 22.48217,-34.0274 22.48222,-34.02759 22.4823,-34.02786 22.48234,-34.02806 22.48238,-34.02842 22.48242,-34.02884 22.48237,-34.02914 22.48232,-34.02954 22.48229,-34.02974 22.48227,-34.02987 22.4822,-34.03015 22.4821,-34.03039 22.48196,-34.03069 22.48188,-34.03094 22.48183,-34.03109 22.48184,-34.03126 22.48188,-34.03134 22.48182,-34.03142 22.48172,-34.03143 22.48164,-34.03142 22.48161,-34.03141 22.4814,-34.03135 22.47616,-34.02989 22.47308,-34.02903 22.47009,-34.02819 22.46799,-34.02761 22.46773,-34.02754 22.46744,-34.02746 22.46713,-34.02737 22.46697,-34.02732 22.46684,-34.02729 22.46681,-34.02728 22.46665,-34.02724 22.46649,-34.02719 22.46634,-34.02715 22.46618,-34.02711 22.46592,-34.02703 22.4658,-34.027 22.46366,-34.0264 22.46186,-34.0259 22.46159,-34.02582 22.46134,-34.02576 22.4611,-34.02569 22.46097,-34.02565 22.46085,-34.02562 22.46052,-34.02553 22.46047,-34.02551 22.46045,-34.02551 22.46036,-34.02548 22.45999,-34.02538 22.45984,-34.02534 22.45978,-34.02532 22.45942,-34.02522 22.45929,-34.02518 22.45918,-34.02515 22.45893,-34.02508 22.4588,-34.02505 22.45868,-34.02501 22.4585,-34.02496 22.45844,-34.02495 22.45836,-34.02492 22.45819,-34.02488 22.45811,-34.02485 22.45794,-34.02481 22.4578,-34.02477 22.4577,-34.02474 22.45753,-34.0247 22.45745,-34.02467 22.4572,-34.0246 22.45696,-34.02453 22.45685,-34.0245 22.45671,-34.02447 22.45664,-34.02444 22.45656,-34.02442 22.4564,-34.02438 22.45633,-34.02436 22.4563,-34.02435 22.45605,-34.02428 22.45597,-34.02426 22.45587,-34.02423 22.4558,-34.02421 22.45551,-34.02413 22.4554,-34.0241 22.45507,-34.02495 22.45322,-34.02442 22.45184,-34.02404 22.45067,-34.02379 22.45064,-34.02377 22.45061,-34.02374 22.45082,-34.02295 22.45084,-34.02285 22.45069,-34.02284 22.45021,-34.02279 22.44967,-34.02274 22.44964,-34.02274 22.4496,-34.02274 22.44912,-34.02269 22.4488,-34.02266 22.44793,-34.02258 22.44383,-34.0222 22.44369,-34.02219 22.4434,-34.02217 22.44311,-34.02214 22.4429,-34.02212 22.44279,-34.02211 22.44268,-34.0221 22.44246,-34.02208 22.44235,-34.02207 22.44224,-34.02206 22.44203,-34.02204 22.44182,-34.02202 22.4416,-34.022 22.44139,-34.02198 22.44117,-34.02196 22.44106,-34.02195 22.44095,-34.02194 22.44083,-34.02193 22.44074,-34.02192 22.44052,-34.0219 22.44031,-34.02188 22.44014,-34.02186 22.44009,-34.02186 22.43999,-34.02185 22.43986,-34.02184 22.43976,-34.02183 22.43963,-34.02182 22.43957,-34.02181 22.43943,-34.0218 22.43928,-34.02178 22.43921,-34.02178 22.439,-34.02176 22.43879,-34.02174 22.43851,-34.02166 22.43823,-34.02157 22.42982,-34.01911 22.42921,-34.01812 22.42891,-34.01765 22.4274,-34.01523 22.42652,-34.01382 22.42522,-34.01173 22.4226,-34.00751 22.42078,-34.00459 22.42077,-34.00458 22.4198,-34.00302 22.41818,-34.00039 22.41764,-33.99952 22.41694,-33.99839 22.41615,-33.99713 22.41621,-33.99691 22.41621,-33.99665 22.41625,-33.9964 22.41635,-33.99586 22.41642,-33.99543 22.41661,-33.995 22.41672,-33.99489 22.417,-33.99471 22.41725,-33.99451 22.4176,-33.99427 22.41794,-33.99403 22.4181,-33.99394 22.41817,-33.99389 22.41827,-33.99383 22.41849,-33.99356 22.41871,-33.99317 22.41875,-33.99297 22.41875,-33.99266 22.41878,-33.99251 22.41883,-33.99231 22.41881,-33.99219 22.41869,-33.992 22.41865,-33.99186 22.41866,-33.99178 22.41866,-33.99164 22.41863,-33.99157 22.41861,-33.99152 22.41853,-33.99141 22.41832,-33.99109 22.41823,-33.99096 22.41802,-33.99076 22.41771,-33.99042 22.41761,-33.99029 22.41749,-33.99009 22.41733,-33.98991 22.41721,-33.9898 22.41712,-33.98975 22.41699,-33.98958 22.41697,-33.98942 22.41695,-33.98919 22.41677,-33.98887 22.41661,-33.98866 22.41653,-33.98855 22.41633,-33.98838 22.41613,-33.98811 22.41599,-33.98783 22.41591,-33.98763 22.41573,-33.98715 22.41559,-33.98684 22.4154,-33.98654 22.41511,-33.98615 22.41509,-33.98612 22.41498,-33.98595 22.4149,-33.98581 22.41483,-33.98552 22.4148,-33.98534 22.41467,-33.98516 22.41451,-33.985 22.41437,-33.98485 22.41423,-33.98468 22.4138,-33.98402 22.41333,-33.98332 22.41329,-33.98324 22.41313,-33.98292 22.41298,-33.98271 22.41283,-33.98251 22.41274,-33.98236 22.4126,-33.98207 22.41246,-33.98185 22.4123,-33.98169 22.41223,-33.98155 22.41205,-33.98131 22.41182,-33.98095 22.41174,-33.98087 22.41143,-33.98071 22.41136,-33.98069 22.41126,-33.98066 22.41119,-33.98064 22.41034,-33.98043 22.40988,-33.98029 22.40971,-33.98021 22.40935,-33.98005 22.40917,-33.97998 22.40891,-33.97991 22.40856,-33.97981 22.40845,-33.97976 22.40845,-33.97976 22.40831,-33.97975 22.40813,-33.97974 22.40799,-33.97973 22.40785,-33.97972 22.40766,-33.97968 22.40757,-33.97967 22.40739,-33.97963 22.40695,-33.97949 22.40656,-33.97934 22.40634,-33.97921 22.40618,-33.97913 22.40602,-33.97903 22.40588,-33.97891 22.40583,-33.97887 22.40573,-33.97878 22.40571,-33.97876 22.40564,-33.97865 22.40554,-33.97841 22.40553,-33.9784 22.40541,-33.9781 22.4054,-33.97803 22.40538,-33.97793 22.40537,-33.97763 22.40544,-33.97731 22.40548,-33.9772 22.4055,-33.97711 22.40549,-33.97708 22.40548,-33.97705 22.40558,-33.97683 22.40569,-33.97661 22.40583,-33.97638 22.40583,-33.97638 22.40618,-33.97592 22.40626,-33.97582 22.40638,-33.97567 22.40663,-33.97544 22.40667,-33.9754 22.40671,-33.97535 22.40704,-33.97499 22.40748,-33.9745 22.40762,-33.97433 22.40771,-33.97423 22.40777,-33.97412 22.40624,-33.9738 22.4013,-33.97277 22.40136,-33.97264 22.40129,-33.97259 22.40093,-33.97239 22.3994,-33.9715 22.39928,-33.97153 22.39904,-33.97067 22.39896,-33.97036 22.3989,-33.97018 22.39884,-33.97002 22.39879,-33.96989 22.39868,-33.96962 22.39853,-33.96932 22.39843,-33.96912 22.39829,-33.96889 22.39814,-33.96867 22.3977,-33.96798 22.39753,-33.96776 22.39731,-33.96743 22.39724,-33.9673 22.39718,-33.96711 22.39697,-33.96635 22.39689,-33.96609 22.39681,-33.96586 22.39669,-33.96561 22.39649,-33.96522 22.39627,-33.96487 22.39721,-33.96421 22.39858,-33.9629 22.39877,-33.96249 22.39935,-33.96143 22.39939,-33.96147 22.3997,-33.96174 22.39972,-33.96173 22.40069,-33.96058 22.40144,-33.95969 22.40145,-33.95965 22.40147,-33.9596 22.40148,-33.95956 22.40148,-33.95944 22.40149,-33.95939 22.40149,-33.95936 22.40154,-33.95932 22.40159,-33.95926 22.40161,-33.95922 22.40161,-33.95919 22.40159,-33.95853 22.40154,-33.95734 22.40154,-33.95727 22.40106,-33.95431 22.4009,-33.95323 22.40099,-33.95318 22.40139,-33.95294 22.40157,-33.95283 22.40172,-33.95275 22.40188,-33.95267 22.40205,-33.9526 22.40221,-33.95253 22.40242,-33.95247 22.40269,-33.95239 22.40297,-33.95233 22.40296,-33.95232 22.40291,-33.95226 22.40287,-33.9522 22.40255,-33.95183 22.40249,-33.95156 22.40243,-33.95127 22.40215,-33.95003 22.40181,-33.94856 22.40174,-33.94832 22.40166,-33.94803 22.40165,-33.94802 22.40165,-33.94802 22.40165,-33.94801 22.40165,-33.948 22.40165,-33.94799 22.40165,-33.94797 22.40165,-33.94796 22.40165,-33.94795 22.40165,-33.94794 22.40165,-33.94793 22.40164,-33.94788 22.40163,-33.94783 22.4016,-33.94764 22.4016,-33.94759 22.4016,-33.94749 22.4016,-33.94745 22.40159,-33.94741 22.40158,-33.94736 22.40158,-33.94736 22.40158,-33.94729 22.40157,-33.94725 22.40155,-33.9471 22.40154,-33.94706 22.40154,-33.94702 22.40152,-33.94696 22.40151,-33.94691 22.40149,-33.94687 22.40148,-33.94685 22.40148,-33.94684 22.40147,-33.94676 22.40146,-33.94671 22.40146,-33.94669 22.40145,-33.94667 22.40144,-33.94661 22.40143,-33.94656 22.40142,-33.9465 22.40142,-33.94649 22.4014,-33.94632 22.40138,-33.94615 22.40137,-33.94605 22.40136,-33.94595 22.40135,-33.94586 22.40135,-33.94581 22.40135,-33.94578 22.40136,-33.94573 22.40136,-33.94571 22.40136,-33.94566 22.40136,-33.94561 22.40135,-33.94551 22.40135,-33.94543 22.40135,-33.94541 22.40135,-33.94535 22.40135,-33.94526 22.40136,-33.94524 22.40136,-33.94524 22.40137,-33.94523 22.40137,-33.94522 22.40139,-33.94521 22.4014,-33.94521 22.40142,-33.9452 22.40145,-33.9452 22.40151,-33.9452 22.40157,-33.9452 22.40163,-33.9452 22.40168,-33.9452 22.40169,-33.9452 22.40172,-33.94519 22.40176,-33.94518 22.40178,-33.94516 22.40179,-33.94515 22.40182,-33.94513 22.40183,-33.94511 22.40184,-33.94509 22.40185,-33.94506 22.40185,-33.94505 22.40184,-33.94504 22.40181,-33.94497 22.40179,-33.94493 22.40172,-33.94484 22.4017,-33.94481 22.40168,-33.94477 22.40167,-33.94475 22.40164,-33.9447 22.40162,-33.94468 22.40159,-33.94464 22.40158,-33.94462 22.40154,-33.94457 22.40151,-33.94452 22.40149,-33.94449 22.40147,-33.94448 22.40146,-33.94447 22.40143,-33.94445 22.4014,-33.94444 22.40135,-33.94443 22.40129,-33.94442 22.4012,-33.94442 22.40118,-33.94442 22.40115,-33.94441 22.40114,-33.9444 22.40112,-33.94439 22.4011,-33.94438 22.40107,-33.94434 22.40105,-33.94431 22.40105,-33.9443 22.40103,-33.94424 22.40103,-33.94422 22.40102,-33.94419 22.40103,-33.94416 22.40103,-33.94415 22.40104,-33.94413 22.40105,-33.94409 22.40107,-33.94404 22.40109,-33.944 22.4011,-33.94395 22.4011,-33.94393 22.40109,-33.9439 22.40109,-33.94389 22.40108,-33.94388 22.40108,-33.94388 22.40108,-33.94387 22.40107,-33.94386 22.40105,-33.94383 22.40103,-33.94377 22.401,-33.94372 22.40099,-33.9437 22.40098,-33.94368 22.40094,-33.94362 22.40093,-33.9436 22.40092,-33.94357 22.40092,-33.94355 22.40091,-33.94355 22.40091,-33.94353 22.40089,-33.94348 22.40088,-33.94345 22.40086,-33.94339 22.40085,-33.94338 22.40081,-33.94331 22.40081,-33.94329 22.40081,-33.94328 22.40081,-33.94326 22.40081,-33.94325 22.40081,-33.94322 22.4008,-33.9432 22.40079,-33.94319 22.40078,-33.94319 22.40077,-33.94318 22.40075,-33.94318 22.40069,-33.94319 22.40069,-33.94319 22.40065,-33.94319 22.40064,-33.94319 22.40057,-33.9432 22.40054,-33.9432 22.40053,-33.94319 22.40052,-33.94319 22.40051,-33.94318 22.4005,-33.94315 22.40051,-33.94314 22.40051,-33.9431 22.40056,-33.94298 22.40058,-33.94292 22.40061,-33.94287 22.40061,-33.94284 22.40062,-33.94283 22.40062,-33.94282 22.40062,-33.94281 22.40063,-33.9428 22.40064,-33.94278 22.40065,-33.94275 22.40066,-33.94273 22.40067,-33.94271 22.40069,-33.94267 22.4007,-33.94265 22.40072,-33.9426 22.40074,-33.94256 22.40076,-33.94254 22.40078,-33.94249 22.4008,-33.94241 22.40081,-33.94236 22.40081,-33.94234 22.40081,-33.94233 22.4008,-33.94232 22.40077,-33.94231 22.40073,-33.9423 22.40071,-33.9423 22.40068,-33.9423 22.40061,-33.9423 22.40055,-33.9423 22.40048,-33.9423 22.40045,-33.94229 22.40043,-33.94229 22.40042,-33.94228 22.4004,-33.94227 22.40039,-33.94225 22.40038,-33.94221 22.40038,-33.94217 22.40037,-33.94212 22.40037,-33.94211 22.40037,-33.94211 22.40037,-33.94209 22.40037,-33.94207 22.40037,-33.94205 22.40039,-33.94198 22.4004,-33.94196 22.40043,-33.9419 22.40044,-33.94188 22.40045,-33.94187 22.40046,-33.94185 22.40047,-33.94184 22.40047,-33.94181 22.40047,-33.94181 22.40047,-33.9418 22.40047,-33.94178 22.40046,-33.94178 22.40045,-33.94176 22.40043,-33.94176 22.40042,-33.94175 22.40036,-33.94174 22.40032,-33.94174 22.4003,-33.94173 22.40029,-33.94173 22.40027,-33.94172 22.40025,-33.94171 22.40024,-33.9417 22.40022,-33.94168 22.40019,-33.94163 22.40017,-33.94159 22.40015,-33.94156 22.40007,-33.94146 22.40003,-33.94143 22.4,-33.9414 22.39998,-33.94138 22.39989,-33.94133 22.39987,-33.94131 22.39986,-33.9413 22.39985,-33.94129 22.39984,-33.94126 22.39984,-33.94125 22.39982,-33.94114 22.39982,-33.9411 22.39982,-33.94108 22.39981,-33.94105 22.3998,-33.94098 22.3998,-33.94096 22.3998,-33.94094 22.3998,-33.94093 22.39982,-33.94089 22.39984,-33.94086 22.39984,-33.94085 22.39984,-33.94084 22.39984,-33.94081 22.39985,-33.94077 22.39984,-33.94076 22.39982,-33.94076 22.39975,-33.94075 22.39971,-33.94075 22.39966,-33.94074 22.39962,-33.94074 22.39957,-33.94073 22.39956,-33.94073 22.39956,-33.94073 22.39956,-33.94073 22.39955,-33.94072 22.39954,-33.94072 22.3995,-33.94065 22.39949,-33.94062 22.39948,-33.94059 22.39947,-33.94058 22.39948,-33.94056 22.39948,-33.94054 22.3995,-33.94051 22.39951,-33.94049 22.39952,-33.94048 22.39954,-33.94043 22.39958,-33.94036 22.39961,-33.94032 22.39962,-33.9403 22.39962,-33.94029 22.39961,-33.94027 22.39959,-33.94023 22.39959,-33.94022 22.39955,-33.94018 22.39953,-33.94014 22.39949,-33.94007 22.39945,-33.93999 22.39929,-33.93973 22.39947,-33.93974 22.40213,-33.9399 22.40405,-33.94002 22.40541,-33.94011 22.4055,-33.94011 22.40555,-33.94012 22.40548,-33.93985 22.4054,-33.93951 22.40502,-33.93824 22.40469,-33.93704 22.40471,-33.93703 22.4048,-33.93703 22.40488,-33.93706 22.40552,-33.93736 22.40569,-33.93745 22.40592,-33.93757 22.4061,-33.93764 22.40612,-33.93765 22.40786,-33.93851 22.4081,-33.93864 22.40794,-33.93808 22.40791,-33.93786 22.40786,-33.93754 22.40776,-33.93688 22.40772,-33.9366 22.40759,-33.93582 22.40757,-33.93577 22.40751,-33.93569 22.40721,-33.93525 22.4071,-33.93507 22.40694,-33.93489 22.40674,-33.9346 22.40799,-33.9341 22.408,-33.9341 22.40844,-33.93507 22.40844,-33.93506 22.40932,-33.93495 22.40972,-33.93485 22.40975,-33.93484 22.41012,-33.93485 22.4104,-33.9348 22.41093,-33.93475 22.41146,-33.93476 22.41153,-33.93492 22.41164,-33.93522 22.41168,-33.93563 22.41158,-33.93671 22.41163,-33.93731 22.41235,-33.93911 22.41249,-33.93948 22.41285,-33.93998 22.41321,-33.94033 22.41322,-33.94034 22.41333,-33.94043 22.41415,-33.94111 22.41467,-33.94146 22.41524,-33.9417 22.41584,-33.94185 22.41657,-33.94203 22.41713,-33.9423 22.41721,-33.94234 22.4176,-33.94256 22.4181,-33.94276 22.4187,-33.94288 22.41932,-33.9429 22.41943,-33.9429 22.41947,-33.9429 22.41946,-33.94299 22.41946,-33.94302 22.41946,-33.94306 22.41947,-33.9431 22.41951,-33.94315 22.41952,-33.94316 22.41953,-33.94316 22.41954,-33.94317 22.41955,-33.94317 22.41956,-33.94318 22.41958,-33.94318 22.4196,-33.94321 22.41965,-33.94327 22.41983,-33.94347 22.42007,-33.94372 22.42023,-33.94376 22.42057,-33.94389 22.42072,-33.94407 22.42086,-33.94437 22.42102,-33.94458 22.4211,-33.94474 22.42122,-33.94481 22.42136,-33.94484 22.42157,-33.9449 22.4219,-33.9449 22.42244,-33.94487 22.42263,-33.94479 22.42267,-33.94478 22.4228,-33.94473 22.4231,-33.94473 22.42329,-33.94482 22.42349,-33.94492 22.42371,-33.94502 22.42399,-33.94516 22.4242,-33.94533 22.42444,-33.94538 22.42456,-33.94554 22.4248,-33.94565 22.4249,-33.9457 22.425,-33.9459 22.42502,-33.94608 22.42512,-33.94621 22.42521,-33.9464 22.42531,-33.94662 22.42532,-33.94678 22.4254,-33.94683 22.42556,-33.94621 22.42603,-33.94374 22.42664,-33.94467 22.42699,-33.94523 22.42703,-33.94529 22.42731,-33.94574 22.42743,-33.94593 22.42758,-33.94616 22.42776,-33.94644 22.42792,-33.9467 22.42794,-33.9467 22.42812,-33.9467 22.43023,-33.94671 22.43273,-33.94673 22.436,-33.94674 22.43608,-33.94674 22.43621,-33.94674 22.43695,-33.94675 22.44143,-33.94677 22.44167,-33.94677 22.44416,-33.94678 22.44765,-33.9468 22.44776,-33.9468 22.44782,-33.9468 22.44797,-33.94598 22.44822,-33.9446 22.44823,-33.94453 22.45179,-33.94497 22.45187,-33.94457 22.45193,-33.94432 22.452,-33.94393 22.452,-33.94389 22.45212,-33.94322 22.4522,-33.9428 22.45222,-33.94271 22.45228,-33.94233 22.45248,-33.94122 22.4525,-33.94108 22.45267,-33.94016 22.45279,-33.9395 22.45281,-33.93935 22.45341,-33.9395 22.45598,-33.9398 22.4573,-33.93995 22.45846,-33.94014 22.45859,-33.94043 22.45867,-33.94071 22.45838,-33.94127 22.45818,-33.94163 22.45823,-33.94223 22.45806,-33.94261 22.458,-33.94273 22.45799,-33.94286 22.45797,-33.94305 22.45792,-33.94341 22.45783,-33.94377 22.45779,-33.9443 22.45815,-33.94487 22.45833,-33.94515 22.4586,-33.94545 22.45899,-33.94596 22.45925,-33.94653 22.45937,-33.9466 22.46099,-33.94599 22.46202,-33.94558 22.46204,-33.94556 22.46217,-33.94534 22.46218,-33.94523 22.46228,-33.94495 22.4624,-33.94467 22.46247,-33.94071 22.46249,-33.94067 22.46271,-33.94064 22.46274,-33.94073 22.46325,-33.94074 22.46452,-33.94089 22.46685,-33.94117 22.46805,-33.94129 22.46948,-33.94149 22.46977,-33.94144 22.46989,-33.94133 22.47006,-33.94115 22.47014,-33.94081 22.47017,-33.9402 22.47016,-33.94012 22.47016,-33.94011 22.47009,-33.93937 22.46999,-33.93875 22.46996,-33.93812 22.46994,-33.93768 22.46984,-33.93485 22.48169,-33.9221 22.46011,-33.91852 22.46262,-33.91199 22.48401,-33.92041</coordinates></LinearRing></outerBoundaryIs></Polygon></MultiGeometry></Placemark></Document></kml>