<?xml version="1.0" encoding="UTF-8"?><kml xmlns="http://www.opengis.net/kml/2.2"><Document><Placemark><name>Wilderness SP</name><description>Sub Place 177008003</description><ExtendedData><Data name="code"><value>177008003</value></Data><Data name="name"><value>Wilderness SP</value></Data><Data name="description"><value>Sub Place 177008003</value></Data></ExtendedData><MultiGeometry><Polygon><outerBoundaryIs><LinearRing><coordinates>22.65106,-33.98042 22.65135,-33.98047 22.65196,-33.9799 22.65272,-33.97995 22.65291,-33.9807 22.65268,-33.98104 22.65097,-33.98094 22.65054,-33.98118 22.65154,-33.98151 22.65239,-33.98232 22.6522,-33.98317 22.65144,-33.98364 22.65054,-33.98374 22.64931,-33.98521 22.64509,-33.98876 22.6421,-33.9945 22.63926,-33.99815 22.63902,-33.99874 22.63898,-33.99885 22.6389,-33.99907 22.63888,-33.9991 22.63843,-34.00025 22.63803,-34.00083 22.63802,-34.00085 22.63795,-34.00095 22.63703,-34.00355 22.63684,-34.00352 22.63644,-34.00346 22.63631,-34.00345 22.63623,-34.00345 22.63609,-34.00344 22.636,-34.00343 22.63593,-34.00343 22.63578,-34.0034 22.63561,-34.0034 22.6355,-34.00342 22.63497,-34.00342 22.63448,-34.00337 22.63428,-34.00337 22.63417,-34.00335 22.63402,-34.00333 22.63387,-34.00333 22.63364,-34.00327 22.63354,-34.00324 22.63326,-34.00319 22.63307,-34.00317 22.63292,-34.00313 22.63273,-34.00305 22.63258,-34.00302 22.63249,-34.00299 22.6322,-34.00296 22.63175,-34.00292 22.6315,-34.00292 22.63119,-34.00293 22.63069,-34.00293 22.63026,-34.00289 22.6302,-34.00289 22.62994,-34.00288 22.62985,-34.00287 22.62967,-34.00287 22.62948,-34.00283 22.62931,-34.00282 22.62919,-34.00281 22.62905,-34.0028 22.62886,-34.00277 22.62857,-34.00276 22.62841,-34.00276 22.62815,-34.00275 22.62795,-34.00272 22.62776,-34.00269 22.62756,-34.00266 22.62735,-34.00264 22.62715,-34.00263 22.62685,-34.00258 22.62666,-34.00257 22.6266,-34.00257 22.62635,-34.00252 22.62618,-34.00252 22.62604,-34.00251 22.62585,-34.00247 22.62574,-34.00246 22.62554,-34.00243 22.6255,-34.00241 22.62524,-34.00237 22.6251,-34.00233 22.62498,-34.00232 22.62484,-34.00231 22.62473,-34.00231 22.62456,-34.00227 22.62451,-34.00226 22.62443,-34.00224 22.62424,-34.0022 22.62411,-34.0022 22.62395,-34.00216 22.62381,-34.00213 22.62361,-34.00212 22.62343,-34.0021 22.62318,-34.00208 22.62298,-34.00205 22.62269,-34.002 22.62249,-34.00196 22.62228,-34.00195 22.62219,-34.00195 22.62178,-34.00188 22.62164,-34.00185 22.62147,-34.00183 22.62134,-34.00181 22.62093,-34.0017 22.62071,-34.00166 22.62064,-34.00165 22.62049,-34.00163 22.61995,-34.00152 22.61973,-34.0015 22.61935,-34.00146 22.61894,-34.00141 22.61874,-34.00139 22.61857,-34.00137 22.61836,-34.00134 22.61811,-34.00131 22.61771,-34.00122 22.61745,-34.0012 22.61721,-34.00114 22.61683,-34.00107 22.61669,-34.00103 22.61661,-34.00101 22.61643,-34.00096 22.61636,-34.00096 22.61602,-34.00091 22.61587,-34.0009 22.61556,-34.00082 22.61535,-34.00077 22.61519,-34.00072 22.61491,-34.00064 22.61439,-34.00053 22.61423,-34.0005 22.61406,-34.00046 22.61386,-34.00041 22.61371,-34.00039 22.61355,-34.00035 22.61344,-34.00033 22.61328,-34.00029 22.61313,-34.00025 22.61277,-34.00017 22.6126,-34.00011 22.61213,-33.99998 22.61212,-33.99998 22.6118,-33.99988 22.61172,-33.99985 22.61153,-33.9998 22.61106,-33.99978 22.61088,-33.99982 22.61067,-33.99989 22.61056,-33.99992 22.61042,-33.99995 22.61024,-33.99995 22.60996,-33.99992 22.60984,-33.99991 22.60965,-33.99989 22.60949,-33.99985 22.60935,-33.9998 22.60917,-33.99972 22.60912,-33.99969 22.60905,-33.99966 22.60888,-33.99958 22.60869,-33.99951 22.60857,-33.99952 22.60795,-33.99952 22.6078,-33.99949 22.60746,-33.99949 22.60738,-33.99948 22.60726,-33.99948 22.60717,-33.99947 22.60707,-33.99945 22.60698,-33.99938 22.60673,-33.99929 22.60656,-33.99923 22.60649,-33.9992 22.60629,-33.99912 22.60615,-33.99909 22.60561,-33.99909 22.60547,-33.9991 22.60501,-33.9991 22.60475,-33.99909 22.60463,-33.99909 22.60449,-33.99908 22.60438,-33.99907 22.60425,-33.99905 22.60413,-33.99903 22.60399,-33.99902 22.60388,-33.99899 22.60382,-33.99898 22.60367,-33.99895 22.60358,-33.99892 22.60335,-33.99886 22.60325,-33.99883 22.60307,-33.99879 22.60296,-33.99876 22.60279,-33.99871 22.60263,-33.99867 22.60224,-33.99861 22.60212,-33.99859 22.60166,-33.99861 22.60154,-33.99861 22.60147,-33.99862 22.60131,-33.99864 22.60102,-33.99864 22.60094,-33.99861 22.60084,-33.99856 22.60066,-33.99851 22.60062,-33.99851 22.6004,-33.99848 22.6003,-33.99846 22.6001,-33.9984 22.59998,-33.99834 22.5996,-33.9982 22.59945,-33.99818 22.59932,-33.99816 22.59923,-33.99815 22.59912,-33.99812 22.59906,-33.99812 22.59893,-33.9981 22.59866,-33.9981 22.59863,-33.9981 22.5985,-33.99806 22.5981,-33.99806 22.59798,-33.99805 22.59789,-33.99804 22.59776,-33.99804 22.59768,-33.99798 22.59749,-33.99796 22.59731,-33.99789 22.59723,-33.99784 22.59717,-33.99781 22.59701,-33.99777 22.59692,-33.99773 22.59669,-33.99766 22.59656,-33.99761 22.5964,-33.99756 22.59623,-33.9975 22.59619,-33.99749 22.59605,-33.99746 22.59596,-33.99741 22.59578,-33.9974 22.59564,-33.9974 22.59543,-33.99741 22.59526,-33.99738 22.59512,-33.99737 22.59504,-33.99736 22.59484,-33.99735 22.59475,-33.99735 22.59438,-33.99738 22.59432,-33.9974 22.59358,-33.9974 22.59346,-33.99738 22.59338,-33.99736 22.59327,-33.99731 22.59324,-33.99729 22.59319,-33.99727 22.59315,-33.99725 22.59303,-33.99721 22.5929,-33.99716 22.59279,-33.99712 22.59267,-33.99709 22.59242,-33.99702 22.59209,-33.99694 22.59193,-33.99692 22.59177,-33.99687 22.59149,-33.99686 22.59127,-33.99686 22.59108,-33.99684 22.59085,-33.99686 22.59073,-33.99686 22.5906,-33.99687 22.59023,-33.99687 22.59007,-33.99692 22.58987,-33.99696 22.58958,-33.99703 22.58884,-33.99703 22.58871,-33.99702 22.58858,-33.997 22.58845,-33.99697 22.5883,-33.99693 22.58808,-33.99691 22.58797,-33.99688 22.58783,-33.99685 22.58773,-33.99682 22.58742,-33.99675 22.58718,-33.99673 22.58702,-33.99671 22.58684,-33.99668 22.58671,-33.99667 22.58655,-33.99666 22.58627,-33.99661 22.58611,-33.9966 22.58594,-33.99656 22.58583,-33.99655 22.58568,-33.99651 22.58561,-33.99649 22.5853,-33.99648 22.58513,-33.99648 22.58496,-33.99649 22.58465,-33.99644 22.58444,-33.99641 22.58435,-33.99641 22.58422,-33.9964 22.58412,-33.99638 22.5839,-33.99638 22.58373,-33.99635 22.58364,-33.99634 22.58342,-33.9963 22.58317,-33.99629 22.58304,-33.99626 22.58292,-33.99625 22.5828,-33.99623 22.58264,-33.9962 22.58249,-33.99616 22.58229,-33.9961 22.58217,-33.99607 22.5821,-33.99607 22.58186,-33.99605 22.58167,-33.99598 22.58152,-33.99594 22.58142,-33.99592 22.58127,-33.99584 22.58116,-33.9958 22.58098,-33.9957 22.58086,-33.99568 22.58074,-33.99564 22.58054,-33.99562 22.58042,-33.99561 22.58027,-33.9956 22.57992,-33.9956 22.57981,-33.99562 22.57966,-33.9957 22.57947,-33.9957 22.57931,-33.99575 22.57915,-33.99576 22.57895,-33.99576 22.5787,-33.99578 22.57841,-33.99579 22.57671,-33.99579 22.5767,-33.99579 22.57656,-33.99581 22.57639,-33.99582 22.57615,-33.9958 22.57559,-33.99584 22.57544,-33.99582 22.57484,-33.99582 22.57466,-33.99584 22.57448,-33.99584 22.57428,-33.99585 22.57384,-33.99585 22.57356,-33.99579 22.57335,-33.99578 22.57306,-33.99578 22.57266,-33.9958 22.57242,-33.9958 22.57198,-33.99581 22.57174,-33.99579 22.57163,-33.9958 22.57148,-33.99582 22.57119,-33.99588 22.57062,-33.99588 22.57052,-33.99589 22.57043,-33.99589 22.57028,-33.99591 22.57018,-33.99591 22.57009,-33.99592 22.56991,-33.99593 22.56978,-33.99594 22.5697,-33.99594 22.56956,-33.99595 22.56945,-33.99598 22.56933,-33.99599 22.56863,-33.99599 22.5685,-33.99603 22.56834,-33.99605 22.56814,-33.99607 22.56704,-33.99607 22.56679,-33.99606 22.56653,-33.99606 22.56628,-33.99603 22.56595,-33.99603 22.56584,-33.99603 22.56582,-33.99489 22.56582,-33.99471 22.56649,-33.99396 22.56849,-33.99276 22.56952,-33.99291 22.56966,-33.99199 22.56986,-33.99109 22.57006,-33.99044 22.57023,-33.99049 22.57061,-33.99058 22.57085,-33.99064 22.5711,-33.99075 22.57125,-33.99069 22.57149,-33.99091 22.57181,-33.99114 22.57206,-33.99107 22.57233,-33.99109 22.57269,-33.99091 22.57287,-33.99066 22.57289,-33.99031 22.57312,-33.99021 22.57364,-33.99001 22.57358,-33.98977 22.57356,-33.98956 22.57362,-33.9894 22.57374,-33.98855 22.57393,-33.98816 22.57393,-33.98812 22.57647,-33.98843 22.57994,-33.98873 22.5818,-33.98876 22.58253,-33.98884 22.58404,-33.98891 22.58592,-33.98901 22.58689,-33.98889 22.58857,-33.98864 22.59074,-33.98828 22.59212,-33.9881 22.59223,-33.98839 22.59208,-33.98955 22.59192,-33.98985 22.59199,-33.99018 22.59223,-33.99054 22.59249,-33.99074 22.59317,-33.99077 22.59387,-33.99081 22.59427,-33.99073 22.59448,-33.99049 22.59486,-33.99 22.59548,-33.9905 22.59599,-33.9906 22.59668,-33.99053 22.59705,-33.99034 22.59736,-33.98996 22.59748,-33.98951 22.59731,-33.98852 22.59745,-33.98844 22.59856,-33.98868 22.59908,-33.9885 22.59928,-33.98823 22.59885,-33.98773 22.59931,-33.98698 22.59976,-33.98716 22.60043,-33.98732 22.60139,-33.98785 22.60211,-33.98814 22.60324,-33.98848 22.60406,-33.98855 22.60522,-33.9879 22.60603,-33.98766 22.60629,-33.98759 22.60763,-33.98772 22.60792,-33.98775 22.60936,-33.9879 22.61964,-33.98521 22.62162,-33.9847 22.62265,-33.9844 22.62348,-33.98392 22.62481,-33.98377 22.62508,-33.98375 22.62921,-33.98292 22.63098,-33.98237 22.63214,-33.98202 22.63598,-33.98098 22.63944,-33.9801 22.64447,-33.97882 22.64722,-33.9782 22.64906,-33.97773 22.65012,-33.97933 22.65106,-33.98042</coordinates></LinearRing></outerBoundaryIs></Polygon></MultiGeometry></Placemark></Document></kml>