<?xml version="1.0" encoding="UTF-8"?><kml xmlns="http://www.opengis.net/kml/2.2"><Document><Placemark><name>Knysna</name><description>Main Place 180009</description><ExtendedData><Data name="code"><value>180009</value></Data><Data name="name"><value>Knysna</value></Data><Data name="description"><value>Main Place 180009</value></Data></ExtendedData><MultiGeometry><Polygon><outerBoundaryIs><LinearRing><coordinates>23.05266,-33.99339 23.05287,-33.99342 23.05306,-33.99341 23.0532,-33.99341 23.0534,-33.99342 23.0536,-33.9935 23.05376,-33.99356 23.05395,-33.99358 23.05414,-33.99368 23.05428,-33.99372 23.05449,-33.9938 23.05478,-33.99391 23.055,-33.99392 23.05524,-33.99391 23.0554,-33.99396 23.05564,-33.99398 23.05579,-33.994 23.05598,-33.99407 23.05612,-33.99413 23.05619,-33.99421 23.05623,-33.99428 23.05646,-33.99432 23.05661,-33.99432 23.05681,-33.99433 23.05697,-33.99427 23.05715,-33.99427 23.05737,-33.99427 23.05767,-33.99416 23.0578,-33.9941 23.05801,-33.99406 23.05821,-33.99406 23.0584,-33.99397 23.05852,-33.99388 23.05877,-33.99379 23.05901,-33.99378 23.05916,-33.99379 23.05929,-33.99382 23.05937,-33.99393 23.05933,-33.99411 23.05931,-33.99425 23.05926,-33.99449 23.05915,-33.99461 23.05915,-33.99479 23.05915,-33.99491 23.05915,-33.9951 23.05922,-33.9953 23.0592,-33.99544 23.05919,-33.9957 23.05919,-33.99583 23.05917,-33.99592 23.05927,-33.99601 23.05932,-33.99612 23.05933,-33.99622 23.05945,-33.99625 23.05958,-33.99627 23.0598,-33.99632 23.05996,-33.99632 23.06019,-33.99641 23.06035,-33.9965 23.06043,-33.99662 23.06061,-33.9967 23.06071,-33.99679 23.06088,-33.99687 23.06096,-33.99695 23.06104,-33.99708 23.06114,-33.99716 23.06123,-33.9972 23.06138,-33.99711 23.06145,-33.997 23.06157,-33.99692 23.06165,-33.99691 23.06181,-33.99686 23.06186,-33.99677 23.06191,-33.99667 23.06199,-33.99657 23.06208,-33.99652 23.06235,-33.99649 23.06258,-33.99641 23.06276,-33.99637 23.06297,-33.99636 23.06307,-33.99634 23.06316,-33.9963 23.06329,-33.9962 23.06341,-33.99613 23.06364,-33.99613 23.06377,-33.9962 23.06382,-33.99629 23.06398,-33.99631 23.06407,-33.99627 23.06416,-33.99632 23.06417,-33.9964 23.06421,-33.99649 23.06431,-33.99653 23.06434,-33.99655 23.06437,-33.99665 23.06445,-33.99669 23.06448,-33.99675 23.06455,-33.99686 23.06463,-33.99699 23.06481,-33.99707 23.06497,-33.99708 23.06513,-33.99722 23.0652,-33.99729 23.06528,-33.99736 23.0655,-33.99749 23.06561,-33.99759 23.06575,-33.99768 23.0659,-33.99772 23.06599,-33.99774 23.06611,-33.99782 23.06631,-33.99788 23.06652,-33.99792 23.06669,-33.9979 23.06686,-33.9979 23.06704,-33.99789 23.0672,-33.99791 23.0673,-33.99796 23.06748,-33.99802 23.06766,-33.99804 23.06781,-33.9981 23.06798,-33.99814 23.06814,-33.99814 23.06835,-33.99814 23.06851,-33.99817 23.06858,-33.99821 23.0686,-33.99823 23.06866,-33.99832 23.0688,-33.99843 23.06886,-33.9985 23.06893,-33.99868 23.06893,-33.99888 23.0689,-33.99905 23.0688,-33.9992 23.06877,-33.99933 23.06871,-33.99938 23.06864,-33.99944 23.06846,-33.99952 23.06821,-33.99952 23.06799,-33.99957 23.06777,-33.99973 23.06762,-33.99979 23.06747,-33.99994 23.06752,-34.00015 23.06769,-34.00028 23.06806,-34.00029 23.0684,-34.00025 23.06862,-34.00017 23.06889,-34.00014 23.06907,-34.00017 23.06929,-34.00016 23.06952,-34.00008 23.06968,-34.00002 23.06987,-34.00009 23.07017,-34.00013 23.07046,-34.00009 23.07059,-34.00009 23.07081,-34.00013 23.07115,-34.00008 23.07131,-34.00001 23.07149,-34 23.07166,-34.00002 23.07178,-34.00001 23.07196,-33.99995 23.07214,-33.99986 23.07228,-33.99986 23.07247,-33.99991 23.07258,-33.99995 23.07271,-33.99996 23.07276,-34.00008 23.07275,-34.00018 23.07278,-34.00028 23.073,-34.00047 23.07308,-34.0006 23.07322,-34.00071 23.07334,-34.00079 23.07347,-34.00082 23.07367,-34.00087 23.07378,-34.00098 23.07398,-34.00106 23.07422,-34.00108 23.07437,-34.00102 23.07454,-34.00099 23.07482,-34.00098 23.075,-34.001 23.07549,-34.00089 23.07567,-34.00083 23.07589,-34.00077 23.07632,-34.00074 23.07705,-34.00077 23.07723,-34.00069 23.07749,-34.00066 23.07779,-34.00067 23.07811,-34.00069 23.07837,-34.0007 23.0787,-34.00091 23.07877,-34.00104 23.07904,-34.00117 23.07923,-34.00127 23.07934,-34.00137 23.07947,-34.00148 23.07964,-34.00163 23.07989,-34.00184 23.08001,-34.002 23.08009,-34.00219 23.08049,-34.00244 23.08075,-34.00264 23.08098,-34.0027 23.0813,-34.00273 23.08143,-34.00283 23.08166,-34.00287 23.08168,-34.00287 23.08203,-34.00278 23.08227,-34.00282 23.08243,-34.00288 23.08279,-34.00295 23.08304,-34.00295 23.08316,-34.003 23.0836,-34.00298 23.08388,-34.00305 23.08402,-34.00309 23.08433,-34.00316 23.08473,-34.00319 23.08496,-34.00316 23.08513,-34.00316 23.08524,-34.00319 23.08554,-34.00316 23.08565,-34.00307 23.08572,-34.00299 23.08595,-34.00292 23.08608,-34.00284 23.08613,-34.00272 23.08616,-34.00261 23.0863,-34.00257 23.08651,-34.00251 23.0867,-34.00239 23.0869,-34.00224 23.08702,-34.00213 23.08721,-34.00191 23.0873,-34.00176 23.08747,-34.00174 23.08769,-34.00177 23.08799,-34.00174 23.08828,-34.00172 23.08851,-34.00181 23.08866,-34.00188 23.08893,-34.0019 23.08918,-34.00197 23.08946,-34.00201 23.08992,-34.00189 23.09002,-34.00182 23.09021,-34.00178 23.09031,-34.00168 23.09051,-34.00161 23.09077,-34.0016 23.0911,-34.0015 23.09127,-34.00137 23.09141,-34.00126 23.09155,-34.00112 23.09177,-34.00104 23.09198,-34.00087 23.09225,-34.00073 23.09257,-34.00067 23.09295,-34.0006 23.0933,-34.00055 23.09357,-34.0005 23.09396,-34.00047 23.09427,-34.00045 23.0945,-34.00038 23.0946,-34.00031 23.09475,-34.00028 23.09486,-34.0004 23.09489,-34.00054 23.09494,-34.00073 23.09509,-34.00086 23.09515,-34.00095 23.09523,-34.00115 23.09539,-34.00144 23.0956,-34.00172 23.09561,-34.00189 23.09564,-34.00202 23.09577,-34.00211 23.09592,-34.00225 23.09599,-34.00238 23.09599,-34.0026 23.09601,-34.00271 23.09588,-34.00286 23.09576,-34.00287 23.09567,-34.00299 23.09558,-34.00313 23.09545,-34.00329 23.09542,-34.0035 23.09545,-34.00367 23.09545,-34.00372 23.09542,-34.00385 23.09555,-34.00394 23.09576,-34.00394 23.09593,-34.00397 23.09614,-34.00409 23.09633,-34.00408 23.09657,-34.00394 23.09666,-34.0038 23.0969,-34.00364 23.09722,-34.00353 23.09748,-34.00343 23.09763,-34.00323 23.09773,-34.00316 23.09796,-34.00312 23.0982,-34.00294 23.09837,-34.00275 23.09852,-34.00265 23.09874,-34.00262 23.09886,-34.00258 23.09901,-34.00241 23.09907,-34.00235 23.09929,-34.00235 23.09957,-34.00238 23.09981,-34.00234 23.09996,-34.00233 23.10012,-34.00234 23.10037,-34.0024 23.10057,-34.00248 23.10077,-34.00257 23.10097,-34.00265 23.10108,-34.00266 23.10125,-34.00277 23.10135,-34.00286 23.10151,-34.00295 23.1016,-34.00298 23.10183,-34.003 23.10201,-34.00305 23.1021,-34.00316 23.10235,-34.00318 23.10251,-34.00316 23.10307,-34.00317 23.10343,-34.00316 23.10364,-34.00315 23.10428,-34.00321 23.10449,-34.00318 23.10471,-34.00318 23.10478,-34.00318 23.1051,-34.00326 23.10524,-34.00334 23.1054,-34.00343 23.10567,-34.00356 23.10601,-34.00364 23.10627,-34.00364 23.10643,-34.00374 23.10688,-34.00375 23.10693,-34.00373 23.10715,-34.00361 23.10727,-34.00351 23.10737,-34.00337 23.10758,-34.00326 23.10768,-34.00326 23.1078,-34.00327 23.10804,-34.00332 23.10819,-34.00343 23.1083,-34.00372 23.10847,-34.00393 23.10874,-34.00417 23.10888,-34.00432 23.10893,-34.00448 23.10919,-34.00458 23.10937,-34.00466 23.10967,-34.00482 23.10997,-34.00482 23.11012,-34.00483 23.11048,-34.00495 23.11063,-34.00498 23.11076,-34.00511 23.11094,-34.00512 23.11111,-34.00525 23.11108,-34.00531 23.11093,-34.00548 23.11082,-34.00555 23.1107,-34.00575 23.11076,-34.00587 23.11086,-34.00591 23.11102,-34.00592 23.1112,-34.00592 23.11142,-34.0058 23.11171,-34.00581 23.11199,-34.00589 23.11218,-34.00597 23.11235,-34.00603 23.11254,-34.00605 23.11272,-34.00605 23.11288,-34.00618 23.11309,-34.00625 23.11346,-34.00624 23.11348,-34.00875 23.11348,-34.01133 23.11343,-34.01486 23.11343,-34.01838 23.1134,-34.02189 23.11336,-34.02593 23.11338,-34.02794 23.1133,-34.02807 23.11188,-34.03498 23.11167,-34.03598 23.11091,-34.03914 23.11082,-34.03957 23.11089,-34.03978 23.11099,-34.0402 23.11104,-34.04052 23.11098,-34.04066 23.11083,-34.04104 23.11052,-34.04133 23.11044,-34.04176 23.11046,-34.04207 23.11045,-34.04237 23.11045,-34.04242 23.11044,-34.04264 23.11012,-34.04277 23.10988,-34.04282 23.10901,-34.04665 23.10784,-34.05173 23.10772,-34.05226 23.10769,-34.05251 23.10758,-34.05295 23.10733,-34.05397 23.10728,-34.05421 23.10707,-34.0552 23.10577,-34.06039 23.10695,-34.06055 23.10794,-34.06066 23.11055,-34.06097 23.11234,-34.06116 23.11242,-34.06117 23.1148,-34.06145 23.11748,-34.06177 23.1198,-34.06203 23.12225,-34.06232 23.1238,-34.0625 23.1253,-34.06267 23.12759,-34.06296 23.1308,-34.06332 23.13238,-34.06351 23.13416,-34.0637 23.13498,-34.06382 23.13448,-34.06439 23.13399,-34.0655 23.13319,-34.06726 23.13315,-34.06772 23.13169,-34.06932 23.12883,-34.07245 23.12599,-34.07556 23.12478,-34.07688 23.12687,-34.0775 23.12693,-34.07754 23.12722,-34.07726 23.12866,-34.0759 23.12907,-34.07589 23.12986,-34.07587 23.12986,-34.07639 23.12978,-34.07696 23.129,-34.07724 23.12867,-34.07801 23.12889,-34.07847 23.12926,-34.07874 23.12935,-34.07926 23.12929,-34.07958 23.12903,-34.07974 23.12854,-34.07989 23.12854,-34.08024 23.12831,-34.08023 23.12753,-34.08023 23.12725,-34.08022 23.12694,-34.08021 23.12657,-34.08018 23.12615,-34.08014 23.12595,-34.08012 23.12574,-34.08014 23.12526,-34.08014 23.12518,-34.08017 23.12505,-34.08022 23.12503,-34.08029 23.12502,-34.0804 23.12496,-34.08047 23.1249,-34.08051 23.12489,-34.08059 23.12489,-34.08064 23.12487,-34.08072 23.12481,-34.08073 23.1247,-34.08073 23.12464,-34.08077 23.12461,-34.08084 23.1244,-34.08084 23.12429,-34.08085 23.12425,-34.0809 23.12425,-34.08104 23.12423,-34.08113 23.12413,-34.08115 23.12411,-34.0812 23.12412,-34.08129 23.12412,-34.0815 23.12405,-34.08154 23.1239,-34.08154 23.12381,-34.08153 23.12375,-34.08147 23.12375,-34.08139 23.12374,-34.08134 23.12362,-34.08132 23.12357,-34.08126 23.12354,-34.08121 23.12351,-34.08113 23.12348,-34.0811 23.12338,-34.08108 23.12328,-34.08102 23.12318,-34.08102 23.12311,-34.08103 23.12305,-34.08108 23.123,-34.08109 23.12291,-34.08115 23.12291,-34.08123 23.12288,-34.08133 23.12284,-34.08141 23.12274,-34.08146 23.12247,-34.08144 23.12239,-34.08136 23.12225,-34.0813 23.12222,-34.08123 23.12216,-34.08117 23.12206,-34.08115 23.122,-34.08108 23.12197,-34.08102 23.12183,-34.08101 23.12172,-34.08099 23.12168,-34.08099 23.1216,-34.08097 23.12152,-34.08088 23.12146,-34.08078 23.12139,-34.08078 23.12131,-34.08086 23.12125,-34.08094 23.12118,-34.08097 23.12107,-34.08104 23.12105,-34.08109 23.12102,-34.08116 23.1209,-34.0812 23.12076,-34.08123 23.12065,-34.08124 23.12054,-34.08126 23.12048,-34.08128 23.12048,-34.08136 23.12042,-34.08141 23.12036,-34.08142 23.12032,-34.08142 23.1203,-34.0815 23.12032,-34.08158 23.12033,-34.08164 23.12034,-34.08173 23.12038,-34.08191 23.12028,-34.08209 23.12024,-34.08214 23.12013,-34.08209 23.12007,-34.08206 23.1199,-34.08206 23.11984,-34.08198 23.11984,-34.08179 23.11971,-34.08175 23.11957,-34.08172 23.11943,-34.08177 23.1194,-34.08179 23.11936,-34.08189 23.11934,-34.08197 23.11928,-34.08202 23.11919,-34.08201 23.11908,-34.08186 23.11908,-34.08176 23.11906,-34.08172 23.11903,-34.08167 23.11903,-34.08161 23.1191,-34.08153 23.1191,-34.08145 23.11908,-34.08121 23.1191,-34.08105 23.11911,-34.08091 23.11913,-34.08078 23.11912,-34.08072 23.11906,-34.08066 23.11893,-34.08064 23.11885,-34.08064 23.11878,-34.08068 23.11875,-34.08074 23.11871,-34.08079 23.11859,-34.08079 23.11854,-34.0808 23.11851,-34.08085 23.11848,-34.08092 23.11841,-34.08092 23.11836,-34.08091 23.11834,-34.08079 23.11831,-34.08071 23.11819,-34.08059 23.11816,-34.08046 23.11816,-34.08034 23.11812,-34.08024 23.11809,-34.08024 23.118,-34.08026 23.11795,-34.08033 23.11794,-34.08036 23.11787,-34.08039 23.11779,-34.08039 23.11774,-34.08041 23.1177,-34.08045 23.11769,-34.08051 23.11764,-34.08057 23.11755,-34.08057 23.1175,-34.08053 23.11747,-34.08047 23.11744,-34.08042 23.11732,-34.08047 23.1173,-34.08055 23.11726,-34.08059 23.11714,-34.08065 23.11707,-34.08071 23.11704,-34.08078 23.11694,-34.08079 23.11687,-34.08077 23.11681,-34.08068 23.11675,-34.08065 23.11667,-34.08065 23.11663,-34.08063 23.1166,-34.08048 23.11655,-34.08046 23.11643,-34.08046 23.11635,-34.08049 23.11632,-34.08059 23.1163,-34.08071 23.11627,-34.0808 23.11619,-34.08082 23.11594,-34.08082 23.11586,-34.0808 23.1157,-34.08072 23.11564,-34.08072 23.11557,-34.08067 23.11552,-34.08059 23.11552,-34.08048 23.11545,-34.0804 23.11515,-34.0804 23.11509,-34.08042 23.11507,-34.08047 23.11502,-34.08048 23.11495,-34.08048 23.11488,-34.08049 23.11484,-34.08053 23.11481,-34.08063 23.11474,-34.08066 23.11468,-34.08066 23.11463,-34.08064 23.11446,-34.08061 23.11436,-34.08063 23.11431,-34.08071 23.11431,-34.08079 23.11429,-34.08086 23.11422,-34.0809 23.1141,-34.08091 23.11404,-34.08096 23.11399,-34.08102 23.11392,-34.08104 23.11372,-34.08108 23.11366,-34.08109 23.11357,-34.08105 23.11356,-34.08099 23.11348,-34.08096 23.11342,-34.08096 23.1133,-34.08094 23.11326,-34.08092 23.11307,-34.08092 23.11298,-34.08095 23.1129,-34.08096 23.11286,-34.08103 23.11286,-34.08122 23.11284,-34.08128 23.11268,-34.08127 23.11259,-34.08129 23.11254,-34.08134 23.1125,-34.08139 23.11243,-34.08141 23.11238,-34.08141 23.11235,-34.08134 23.11225,-34.0812 23.11217,-34.0812 23.1121,-34.08123 23.11204,-34.08126 23.11195,-34.08127 23.11181,-34.08122 23.11174,-34.08122 23.11168,-34.08116 23.11161,-34.0811 23.11141,-34.08115 23.11133,-34.08119 23.11125,-34.08124 23.11121,-34.08132 23.11118,-34.08133 23.11108,-34.08135 23.11068,-34.08135 23.11063,-34.08141 23.11061,-34.08146 23.11056,-34.08146 23.11044,-34.08147 23.11037,-34.08151 23.11032,-34.08157 23.11017,-34.08157 23.11013,-34.08161 23.11007,-34.08173 23.11003,-34.08183 23.11003,-34.08195 23.10999,-34.08201 23.10992,-34.08206 23.10986,-34.08206 23.10976,-34.08208 23.10969,-34.08216 23.10964,-34.08223 23.10956,-34.08229 23.10949,-34.08223 23.10949,-34.08197 23.10951,-34.08186 23.10961,-34.08179 23.10971,-34.08179 23.10978,-34.08177 23.10981,-34.08167 23.10987,-34.08158 23.10987,-34.08147 23.10981,-34.08145 23.1097,-34.08139 23.10958,-34.08135 23.10949,-34.08134 23.10935,-34.08138 23.10917,-34.08142 23.10909,-34.08144 23.10892,-34.08146 23.10882,-34.0815 23.10873,-34.08153 23.10862,-34.08157 23.10859,-34.08163 23.1085,-34.08167 23.10843,-34.08171 23.10834,-34.08176 23.10821,-34.08181 23.10805,-34.08185 23.10799,-34.08188 23.10791,-34.08188 23.10782,-34.08185 23.10773,-34.08181 23.10763,-34.08173 23.10755,-34.08169 23.10749,-34.08159 23.10744,-34.08159 23.10735,-34.0816 23.10725,-34.08164 23.10718,-34.08166 23.10711,-34.08166 23.10704,-34.08169 23.10698,-34.08171 23.10687,-34.08175 23.10676,-34.08176 23.10669,-34.08177 23.10657,-34.08181 23.10649,-34.08183 23.10638,-34.08185 23.1063,-34.08185 23.10619,-34.08182 23.10616,-34.08178 23.1061,-34.08171 23.10607,-34.08165 23.10594,-34.0816 23.10586,-34.0816 23.10574,-34.08159 23.10569,-34.08158 23.10562,-34.08146 23.10561,-34.08133 23.1056,-34.08123 23.10555,-34.08116 23.10546,-34.08109 23.10544,-34.08101 23.10542,-34.08089 23.10539,-34.08076 23.10531,-34.0807 23.10512,-34.0807 23.10506,-34.08068 23.10499,-34.08064 23.10493,-34.08059 23.10488,-34.08059 23.10482,-34.08058 23.10472,-34.08058 23.10462,-34.08059 23.10459,-34.08065 23.10457,-34.08068 23.10442,-34.08071 23.10438,-34.08068 23.10428,-34.08053 23.10419,-34.08052 23.10409,-34.08052 23.10402,-34.08058 23.10405,-34.08067 23.10405,-34.08074 23.10394,-34.08078 23.1039,-34.08084 23.1039,-34.08103 23.10383,-34.08107 23.1038,-34.08107 23.10365,-34.08101 23.10356,-34.08096 23.10347,-34.08096 23.10339,-34.08103 23.10337,-34.08113 23.10337,-34.08139 23.10326,-34.0815 23.10321,-34.0815 23.10314,-34.08146 23.10312,-34.08139 23.10313,-34.08128 23.10315,-34.08119 23.10321,-34.08111 23.10318,-34.08102 23.10312,-34.08097 23.10309,-34.08089 23.10309,-34.08085 23.10308,-34.08078 23.10306,-34.08067 23.10302,-34.0806 23.10302,-34.08055 23.10297,-34.08046 23.1029,-34.0804 23.10281,-34.08035 23.10271,-34.08035 23.10264,-34.08032 23.10253,-34.08029 23.10247,-34.08033 23.10238,-34.08024 23.10233,-34.08021 23.10229,-34.08017 23.10226,-34.08015 23.1022,-34.08009 23.10217,-34.08003 23.10216,-34.07992 23.10216,-34.07971 23.10214,-34.07964 23.10207,-34.07955 23.10198,-34.07952 23.1018,-34.07952 23.10172,-34.0795 23.10163,-34.07947 23.10154,-34.07945 23.10135,-34.07945 23.10127,-34.07937 23.10126,-34.0793 23.10123,-34.07927 23.10102,-34.07927 23.10095,-34.07923 23.10091,-34.07916 23.10082,-34.07911 23.10078,-34.07903 23.10077,-34.07898 23.10072,-34.07893 23.10062,-34.07893 23.10055,-34.07897 23.10053,-34.07903 23.10049,-34.07908 23.10042,-34.07908 23.10037,-34.07915 23.10037,-34.07918 23.10033,-34.07923 23.10026,-34.07923 23.10021,-34.07927 23.10015,-34.07933 23.10015,-34.07947 23.1002,-34.07954 23.10023,-34.07959 23.10022,-34.07967 23.10011,-34.07984 23.10009,-34.07991 23.10009,-34.08014 23.10008,-34.08028 23.10008,-34.08034 23.10009,-34.08051 23.1001,-34.08058 23.10012,-34.08064 23.10023,-34.0807 23.10033,-34.08076 23.10037,-34.08083 23.10037,-34.08089 23.10029,-34.08094 23.10017,-34.08097 23.10005,-34.08097 23.09995,-34.08096 23.09981,-34.08096 23.09971,-34.08094 23.09949,-34.08094 23.09941,-34.08097 23.0994,-34.08102 23.09927,-34.08107 23.09919,-34.08104 23.09911,-34.08102 23.09896,-34.08103 23.09887,-34.08109 23.09879,-34.08115 23.09871,-34.08115 23.09863,-34.08113 23.09854,-34.08109 23.09848,-34.08108 23.0984,-34.08107 23.0983,-34.08113 23.09824,-34.08117 23.09818,-34.08122 23.09821,-34.08136 23.09821,-34.08147 23.09813,-34.08153 23.09809,-34.08161 23.09807,-34.08176 23.09807,-34.08195 23.09809,-34.08215 23.09809,-34.08225 23.09804,-34.08232 23.09796,-34.08232 23.09786,-34.08225 23.09774,-34.08223 23.09768,-34.0822 23.09765,-34.08215 23.09765,-34.08195 23.09759,-34.08189 23.09749,-34.08185 23.09741,-34.08183 23.09736,-34.08181 23.09728,-34.08179 23.09725,-34.08178 23.09717,-34.08175 23.09714,-34.0817 23.09711,-34.08161 23.09698,-34.08157 23.09687,-34.08147 23.09685,-34.0814 23.09681,-34.0813 23.09675,-34.08123 23.09675,-34.08115 23.09669,-34.0811 23.09663,-34.08104 23.0966,-34.08095 23.0965,-34.08086 23.09645,-34.08086 23.09639,-34.08091 23.09633,-34.08092 23.09623,-34.0809 23.09616,-34.08085 23.0961,-34.08084 23.09579,-34.08084 23.09565,-34.08085 23.09555,-34.08085 23.09545,-34.08089 23.0954,-34.08094 23.09537,-34.08099 23.09536,-34.08103 23.09535,-34.08116 23.09536,-34.08129 23.09524,-34.08144 23.09518,-34.08152 23.09512,-34.08165 23.09509,-34.08186 23.09458,-34.08186 23.09449,-34.08191 23.0944,-34.08195 23.09404,-34.08195 23.09384,-34.08196 23.09374,-34.08196 23.09357,-34.08198 23.09349,-34.08198 23.09334,-34.08196 23.09319,-34.08202 23.09313,-34.08214 23.09299,-34.08219 23.09287,-34.08223 23.09272,-34.08225 23.09253,-34.08228 23.09237,-34.08226 23.09231,-34.08215 23.09231,-34.08202 23.09223,-34.082 23.0921,-34.08201 23.09207,-34.08208 23.09209,-34.08214 23.09209,-34.08217 23.09205,-34.08222 23.09195,-34.08226 23.09187,-34.08229 23.09182,-34.08232 23.09173,-34.08232 23.09161,-34.08227 23.09155,-34.08223 23.09151,-34.08223 23.09144,-34.08225 23.09141,-34.08231 23.09136,-34.08235 23.09127,-34.08234 23.09122,-34.08226 23.09111,-34.08222 23.09102,-34.08222 23.09095,-34.08223 23.09088,-34.08225 23.09085,-34.08231 23.0907,-34.08231 23.09061,-34.08235 23.09057,-34.08242 23.09056,-34.08247 23.09054,-34.08251 23.09049,-34.08251 23.09044,-34.08252 23.09043,-34.08257 23.09048,-34.08257 23.09048,-34.08263 23.09046,-34.08271 23.0904,-34.08278 23.09033,-34.08281 23.09033,-34.08295 23.0903,-34.08306 23.09024,-34.08313 23.09021,-34.08318 23.09012,-34.08326 23.09005,-34.08331 23.08999,-34.08334 23.08991,-34.08335 23.08956,-34.08335 23.0895,-34.08332 23.08947,-34.08327 23.08945,-34.08325 23.08942,-34.08325 23.08936,-34.08324 23.08934,-34.08321 23.08934,-34.08315 23.08931,-34.08308 23.08928,-34.08304 23.08917,-34.08302 23.0891,-34.083 23.08905,-34.08294 23.08896,-34.08288 23.0889,-34.08287 23.08885,-34.08285 23.08878,-34.08279 23.08871,-34.08276 23.08867,-34.08275 23.08862,-34.08272 23.08853,-34.08266 23.08838,-34.08264 23.0883,-34.08264 23.08819,-34.0826 23.08815,-34.0826 23.08806,-34.08263 23.08796,-34.08263 23.0878,-34.08262 23.08773,-34.08263 23.08766,-34.08265 23.08761,-34.0827 23.08761,-34.08278 23.08753,-34.0829 23.08742,-34.08293 23.08735,-34.08297 23.08731,-34.08302 23.08723,-34.08307 23.08718,-34.08313 23.08714,-34.08315 23.08709,-34.08315 23.08698,-34.08314 23.08685,-34.08312 23.08676,-34.08312 23.0867,-34.08314 23.08661,-34.08316 23.08651,-34.0832 23.08644,-34.08324 23.08635,-34.08325 23.08626,-34.08335 23.08613,-34.08359 23.08608,-34.08369 23.08605,-34.08372 23.086,-34.08378 23.086,-34.08393 23.08598,-34.084 23.08589,-34.08403 23.0858,-34.08403 23.08569,-34.08406 23.08566,-34.08411 23.08566,-34.0842 23.08561,-34.08444 23.08556,-34.08455 23.08556,-34.08461 23.08558,-34.08467 23.08558,-34.08473 23.08556,-34.08481 23.08554,-34.08487 23.08551,-34.08492 23.0855,-34.08502 23.0855,-34.08556 23.08555,-34.08567 23.0856,-34.08574 23.0857,-34.08581 23.08577,-34.08588 23.08583,-34.08593 23.08593,-34.08599 23.08595,-34.08607 23.08596,-34.08616 23.086,-34.08623 23.08605,-34.08629 23.08611,-34.08633 23.08619,-34.08636 23.08631,-34.08639 23.08639,-34.08645 23.08639,-34.08649 23.08638,-34.08654 23.08633,-34.0866 23.08582,-34.0866 23.08568,-34.08658 23.0855,-34.08656 23.08535,-34.08656 23.08525,-34.0865 23.08521,-34.08645 23.08512,-34.08633 23.08508,-34.08631 23.08501,-34.0863 23.08494,-34.0862 23.08488,-34.08612 23.08483,-34.08607 23.08476,-34.08601 23.08471,-34.08596 23.08456,-34.08587 23.08439,-34.08583 23.08433,-34.08577 23.0843,-34.08562 23.0843,-34.08558 23.08426,-34.08551 23.08417,-34.08548 23.08411,-34.08548 23.08399,-34.08544 23.08391,-34.08542 23.08387,-34.08538 23.08377,-34.08533 23.0837,-34.0853 23.08359,-34.08519 23.08359,-34.08511 23.08364,-34.085 23.08353,-34.08492 23.08341,-34.08488 23.08333,-34.08486 23.0833,-34.0848 23.08328,-34.0847 23.08325,-34.08465 23.08319,-34.08465 23.08314,-34.08462 23.08312,-34.08456 23.08312,-34.0845 23.08308,-34.08445 23.083,-34.08445 23.0829,-34.08442 23.08284,-34.08437 23.08279,-34.08431 23.08272,-34.0843 23.08268,-34.08426 23.08258,-34.0842 23.08246,-34.08414 23.08243,-34.08412 23.08238,-34.08409 23.08235,-34.08409 23.08227,-34.08405 23.0821,-34.08396 23.08207,-34.08393 23.08173,-34.08391 23.08136,-34.08391 23.08123,-34.08395 23.08116,-34.08399 23.08113,-34.08406 23.08109,-34.08414 23.08107,-34.08422 23.08103,-34.08425 23.08092,-34.08426 23.08083,-34.08425 23.08071,-34.08425 23.08053,-34.08414 23.08048,-34.08407 23.08046,-34.08399 23.08043,-34.08388 23.08042,-34.08378 23.0804,-34.08369 23.08036,-34.08362 23.08034,-34.08351 23.0803,-34.08343 23.08027,-34.08335 23.07999,-34.08321 23.07989,-34.08315 23.07981,-34.08312 23.0797,-34.08308 23.07961,-34.08307 23.0795,-34.08307 23.07945,-34.08309 23.07942,-34.0832 23.07942,-34.08333 23.07939,-34.08344 23.07935,-34.08349 23.07929,-34.0835 23.07922,-34.08347 23.07917,-34.08341 23.07905,-34.0834 23.07899,-34.08341 23.07894,-34.08341 23.07891,-34.08343 23.0788,-34.08335 23.07874,-34.08329 23.07874,-34.08312 23.07873,-34.08304 23.07866,-34.08297 23.07862,-34.08294 23.07859,-34.08288 23.07854,-34.08282 23.07847,-34.08279 23.07838,-34.08275 23.07836,-34.08272 23.0783,-34.08268 23.07823,-34.0826 23.07821,-34.08257 23.07813,-34.08253 23.07806,-34.08248 23.07793,-34.08244 23.07788,-34.0824 23.07772,-34.08232 23.07751,-34.08233 23.07742,-34.08234 23.07736,-34.08239 23.07729,-34.08242 23.07725,-34.08246 23.0772,-34.08246 23.07717,-34.08251 23.07715,-34.08256 23.0771,-34.08258 23.07695,-34.08258 23.07686,-34.08259 23.07685,-34.08266 23.07681,-34.08275 23.0768,-34.08281 23.07676,-34.08287 23.07668,-34.08285 23.0766,-34.0829 23.07653,-34.08297 23.07647,-34.083 23.07639,-34.08307 23.07638,-34.08318 23.07638,-34.08344 23.07637,-34.08359 23.07636,-34.08371 23.07627,-34.08375 23.07614,-34.08375 23.07607,-34.08372 23.07597,-34.08363 23.0758,-34.08356 23.07567,-34.08356 23.0756,-34.08352 23.07554,-34.08337 23.07555,-34.08325 23.07555,-34.08308 23.07554,-34.083 23.07548,-34.08294 23.07519,-34.08278 23.07512,-34.08275 23.07502,-34.08271 23.07489,-34.08264 23.07487,-34.08259 23.07484,-34.08256 23.07479,-34.08254 23.07464,-34.08253 23.07448,-34.08251 23.07434,-34.0825 23.07425,-34.08252 23.07421,-34.08258 23.07417,-34.08262 23.07409,-34.0826 23.07403,-34.08253 23.07392,-34.08247 23.07383,-34.08247 23.07377,-34.08253 23.07377,-34.08257 23.0737,-34.0827 23.07364,-34.08277 23.07357,-34.08281 23.07353,-34.08284 23.07347,-34.08294 23.07345,-34.08299 23.07339,-34.08306 23.07335,-34.08307 23.07328,-34.08307 23.07324,-34.08306 23.07315,-34.08299 23.0731,-34.0829 23.07302,-34.08287 23.07294,-34.08285 23.0729,-34.08281 23.07284,-34.08276 23.07277,-34.08264 23.07266,-34.08258 23.07252,-34.08248 23.07248,-34.08242 23.07243,-34.08239 23.07206,-34.08239 23.07194,-34.08244 23.07188,-34.08251 23.07185,-34.08264 23.07184,-34.08275 23.07181,-34.08287 23.07169,-34.08287 23.07161,-34.08276 23.07155,-34.08275 23.07149,-34.08275 23.07143,-34.08277 23.0713,-34.08272 23.07129,-34.08269 23.07122,-34.08264 23.07112,-34.08264 23.07104,-34.0826 23.07083,-34.0826 23.07077,-34.08262 23.07067,-34.08265 23.07056,-34.08273 23.07056,-34.08284 23.07055,-34.08295 23.07049,-34.08299 23.07042,-34.083 23.07038,-34.08306 23.07036,-34.08315 23.07023,-34.08319 23.07011,-34.08321 23.07004,-34.08329 23.06994,-34.08334 23.06986,-34.08341 23.06984,-34.08347 23.06982,-34.08358 23.06981,-34.0837 23.06979,-34.08377 23.06976,-34.08383 23.06969,-34.08383 23.06958,-34.08381 23.06955,-34.0838 23.06952,-34.08372 23.06949,-34.08363 23.06934,-34.08355 23.06933,-34.08341 23.06931,-34.08331 23.06925,-34.08326 23.06897,-34.08326 23.0689,-34.08322 23.06889,-34.08314 23.06889,-34.08304 23.06868,-34.08302 23.06864,-34.08297 23.06859,-34.08295 23.06853,-34.08295 23.06849,-34.08296 23.06843,-34.08294 23.06835,-34.08291 23.06833,-34.08284 23.06818,-34.08278 23.06803,-34.08278 23.06796,-34.08279 23.06789,-34.08284 23.06784,-34.0829 23.06778,-34.08293 23.0677,-34.08293 23.0676,-34.08289 23.06759,-34.08281 23.06754,-34.08269 23.06741,-34.08269 23.06733,-34.08273 23.06732,-34.08284 23.06722,-34.08288 23.06719,-34.08294 23.06713,-34.08299 23.06697,-34.08304 23.06684,-34.08309 23.06678,-34.08316 23.06667,-34.08321 23.0666,-34.08325 23.06651,-34.08331 23.06625,-34.08339 23.0662,-34.08338 23.06613,-34.08337 23.06602,-34.08335 23.06594,-34.08334 23.06584,-34.08326 23.06576,-34.08316 23.06566,-34.08309 23.0656,-34.08307 23.06555,-34.08307 23.06546,-34.0831 23.06543,-34.0832 23.06543,-34.08327 23.06545,-34.08352 23.06547,-34.08365 23.06547,-34.08374 23.06546,-34.0839 23.06542,-34.08399 23.06534,-34.08403 23.06528,-34.08405 23.06523,-34.08409 23.0652,-34.08417 23.06513,-34.08425 23.06505,-34.08427 23.06502,-34.08427 23.06499,-34.0843 23.06492,-34.08438 23.06482,-34.08436 23.06474,-34.08425 23.06474,-34.08407 23.06479,-34.08397 23.06496,-34.08396 23.06508,-34.08394 23.06513,-34.0839 23.06517,-34.08382 23.06517,-34.08369 23.06515,-34.08357 23.06502,-34.08343 23.06501,-34.08333 23.06502,-34.08326 23.06503,-34.08321 23.06504,-34.08308 23.06502,-34.08302 23.06499,-34.08294 23.06491,-34.08291 23.06484,-34.08291 23.06476,-34.08296 23.06467,-34.08303 23.06462,-34.08308 23.06456,-34.08313 23.06453,-34.08315 23.06447,-34.08313 23.0644,-34.08309 23.06433,-34.08306 23.06425,-34.08301 23.06425,-34.08294 23.06429,-34.08288 23.06435,-34.08282 23.06439,-34.08275 23.06437,-34.08266 23.06435,-34.08259 23.06434,-34.08253 23.06434,-34.08235 23.0643,-34.08226 23.0643,-34.08221 23.06425,-34.08204 23.06418,-34.08197 23.06409,-34.0819 23.06404,-34.08188 23.06393,-34.08183 23.06383,-34.08181 23.06377,-34.08181 23.06365,-34.08183 23.06355,-34.08183 23.0635,-34.08189 23.06346,-34.08203 23.06343,-34.08206 23.06336,-34.08206 23.06334,-34.08203 23.0633,-34.08198 23.06325,-34.0819 23.06323,-34.0819 23.06321,-34.0819 23.06316,-34.08196 23.06316,-34.08212 23.06313,-34.08222 23.0631,-34.08226 23.06297,-34.08229 23.06287,-34.08231 23.0626,-34.08231 23.06254,-34.08227 23.06247,-34.08222 23.06243,-34.08215 23.06237,-34.08208 23.06226,-34.082 23.06216,-34.082 23.06211,-34.08202 23.06199,-34.0821 23.06193,-34.08213 23.06188,-34.08219 23.06185,-34.08223 23.06181,-34.08227 23.06173,-34.08231 23.06166,-34.08235 23.06157,-34.08238 23.06143,-34.08238 23.06133,-34.08237 23.06128,-34.08237 23.06108,-34.08235 23.06095,-34.08235 23.06077,-34.08237 23.06062,-34.08238 23.06049,-34.08239 23.0603,-34.0824 23.06013,-34.0824 23.06004,-34.08247 23.05982,-34.08251 23.05956,-34.08257 23.05894,-34.08262 23.05871,-34.08266 23.0585,-34.08268 23.0584,-34.0827 23.05824,-34.08272 23.05809,-34.08275 23.0579,-34.08275 23.05772,-34.08276 23.05759,-34.08277 23.05751,-34.08277 23.05744,-34.08283 23.05734,-34.08287 23.0572,-34.0829 23.05709,-34.08294 23.057,-34.08297 23.05691,-34.08306 23.05689,-34.08316 23.05689,-34.08335 23.05691,-34.08356 23.05691,-34.08381 23.05689,-34.08391 23.05684,-34.08403 23.05681,-34.08412 23.05668,-34.08419 23.0566,-34.08422 23.05659,-34.08428 23.05655,-34.08431 23.05644,-34.08432 23.05625,-34.08432 23.05618,-34.08434 23.05612,-34.08436 23.05604,-34.08437 23.05592,-34.08438 23.05585,-34.08442 23.05576,-34.08445 23.05567,-34.08453 23.05557,-34.08459 23.0555,-34.08468 23.05552,-34.0848 23.05555,-34.08486 23.0556,-34.0849 23.05576,-34.08496 23.05577,-34.085 23.05579,-34.08509 23.05583,-34.08515 23.05592,-34.08525 23.05597,-34.08533 23.05598,-34.08544 23.05592,-34.08551 23.05586,-34.08555 23.05576,-34.08558 23.05568,-34.08561 23.05558,-34.0856 23.05546,-34.08552 23.05544,-34.0855 23.05532,-34.08543 23.05529,-34.08533 23.05525,-34.08526 23.05517,-34.08525 23.05511,-34.0852 23.05487,-34.08506 23.05482,-34.08505 23.05475,-34.08504 23.05468,-34.08496 23.05463,-34.08494 23.05449,-34.08493 23.05443,-34.0849 23.05434,-34.08487 23.05428,-34.0848 23.05425,-34.0847 23.05412,-34.08465 23.05376,-34.08465 23.05362,-34.08463 23.05337,-34.08463 23.05327,-34.08469 23.05324,-34.08475 23.0532,-34.08478 23.05308,-34.08476 23.05299,-34.08469 23.05289,-34.08467 23.05284,-34.08468 23.05275,-34.0847 23.05266,-34.08468 23.05258,-34.08463 23.05243,-34.08467 23.05234,-34.08475 23.05218,-34.08473 23.05213,-34.08462 23.05208,-34.08455 23.052,-34.08453 23.05188,-34.08457 23.05182,-34.08458 23.05177,-34.08455 23.05171,-34.08452 23.05161,-34.08446 23.05155,-34.08446 23.05153,-34.08452 23.05139,-34.08453 23.05131,-34.08453 23.05119,-34.08455 23.05107,-34.08455 23.05093,-34.08456 23.0508,-34.08453 23.05069,-34.08451 23.05063,-34.0845 23.05058,-34.08446 23.0505,-34.08446 23.05045,-34.0845 23.05043,-34.08452 23.05041,-34.08455 23.05033,-34.08452 23.05032,-34.08443 23.05033,-34.08426 23.05033,-34.08412 23.0503,-34.08403 23.05027,-34.08391 23.05024,-34.08383 23.05018,-34.08372 23.05004,-34.08344 23.04996,-34.08337 23.04986,-34.08329 23.0498,-34.08325 23.04976,-34.08325 23.04971,-34.08328 23.04959,-34.08328 23.04954,-34.08324 23.04951,-34.08316 23.04948,-34.0831 23.04945,-34.08309 23.04933,-34.08309 23.04924,-34.08304 23.049,-34.08304 23.04892,-34.08308 23.04887,-34.08309 23.04886,-34.08318 23.04884,-34.08325 23.04884,-34.08344 23.04881,-34.08369 23.04882,-34.08381 23.04889,-34.08391 23.04895,-34.08402 23.04894,-34.08414 23.04886,-34.08414 23.04875,-34.08413 23.04864,-34.08417 23.04863,-34.08422 23.04861,-34.08428 23.04853,-34.08428 23.0484,-34.08426 23.04832,-34.08422 23.04819,-34.08417 23.04814,-34.08412 23.04808,-34.08411 23.04797,-34.08401 23.04793,-34.0839 23.04783,-34.0839 23.04781,-34.08401 23.04781,-34.08417 23.04772,-34.08419 23.04763,-34.08418 23.04756,-34.08411 23.04747,-34.08405 23.04737,-34.08402 23.04727,-34.08403 23.04719,-34.08406 23.04715,-34.08408 23.04706,-34.08413 23.04704,-34.08417 23.04697,-34.08421 23.04684,-34.08414 23.04682,-34.08408 23.04677,-34.08406 23.04669,-34.08406 23.04666,-34.08409 23.0466,-34.08414 23.04651,-34.08414 23.04646,-34.08412 23.04642,-34.08407 23.04638,-34.08405 23.04625,-34.08405 23.04615,-34.08406 23.04611,-34.08408 23.04598,-34.08409 23.04591,-34.08409 23.04585,-34.08408 23.04565,-34.08405 23.04555,-34.08403 23.04545,-34.08403 23.04536,-34.08407 23.04533,-34.08414 23.04523,-34.08421 23.04514,-34.08424 23.04507,-34.08426 23.04502,-34.0843 23.0449,-34.08436 23.04479,-34.08428 23.04474,-34.08424 23.04466,-34.08418 23.04462,-34.08413 23.04452,-34.08403 23.04445,-34.08397 23.04435,-34.08396 23.04424,-34.08399 23.04416,-34.08402 23.04409,-34.08403 23.04401,-34.08406 23.04395,-34.08408 23.04389,-34.08411 23.04378,-34.08412 23.04344,-34.08412 23.04339,-34.08413 23.04325,-34.08414 23.04322,-34.08419 23.04315,-34.08426 23.04304,-34.08426 23.04288,-34.0842 23.04287,-34.08414 23.04275,-34.08408 23.04262,-34.08409 23.04259,-34.08418 23.04249,-34.08417 23.04242,-34.08417 23.04234,-34.08408 23.0423,-34.08401 23.04219,-34.08395 23.04211,-34.0839 23.04201,-34.08394 23.04198,-34.08396 23.04194,-34.08395 23.04188,-34.08388 23.04181,-34.08375 23.04179,-34.08364 23.04174,-34.08334 23.04175,-34.08321 23.04176,-34.08307 23.04184,-34.08291 23.04194,-34.08279 23.04204,-34.08269 23.04217,-34.08251 23.04217,-34.08235 23.04216,-34.08221 23.04204,-34.0821 23.04194,-34.08201 23.04172,-34.08184 23.04167,-34.08172 23.04161,-34.08163 23.04151,-34.08138 23.0415,-34.08128 23.04147,-34.08115 23.04141,-34.08105 23.04139,-34.0809 23.04142,-34.08074 23.04151,-34.0807 23.04173,-34.08068 23.04179,-34.08066 23.04188,-34.08057 23.04196,-34.08046 23.04201,-34.08033 23.04206,-34.08011 23.04198,-34.07996 23.04191,-34.07984 23.04169,-34.07976 23.04151,-34.07967 23.04142,-34.07962 23.04137,-34.07953 23.04134,-34.07941 23.0413,-34.07935 23.04122,-34.07928 23.04107,-34.07927 23.04094,-34.0793 23.04087,-34.0793 23.04081,-34.07929 23.0407,-34.07922 23.04066,-34.07916 23.04061,-34.07906 23.04035,-34.079 23.04019,-34.07898 23.03996,-34.07899 23.03986,-34.079 23.03976,-34.07902 23.03961,-34.07902 23.03954,-34.07903 23.03944,-34.0791 23.03937,-34.07912 23.03929,-34.07914 23.03929,-34.07918 23.0392,-34.07929 23.03911,-34.07929 23.03899,-34.07915 23.03895,-34.07905 23.03887,-34.07897 23.03881,-34.07885 23.03877,-34.07873 23.03867,-34.07869 23.03863,-34.07863 23.03859,-34.07853 23.03855,-34.07847 23.03843,-34.0784 23.0384,-34.07831 23.03837,-34.07827 23.03827,-34.07824 23.03824,-34.07819 23.03821,-34.07811 23.03821,-34.07806 23.0382,-34.07801 23.03805,-34.078 23.03797,-34.07803 23.03797,-34.07809 23.03796,-34.07812 23.03796,-34.07816 23.03791,-34.07816 23.03789,-34.07812 23.0378,-34.07815 23.03775,-34.07817 23.03774,-34.07822 23.03771,-34.07831 23.03764,-34.07835 23.03759,-34.07837 23.03758,-34.07847 23.0375,-34.0785 23.03745,-34.07854 23.03745,-34.07865 23.0374,-34.07869 23.03734,-34.07873 23.03727,-34.07879 23.03727,-34.0789 23.03728,-34.079 23.03725,-34.07914 23.03718,-34.07918 23.03708,-34.07919 23.03703,-34.07929 23.03701,-34.07941 23.03697,-34.07948 23.03693,-34.07958 23.03679,-34.07959 23.03671,-34.0796 23.03664,-34.0796 23.03652,-34.0795 23.0365,-34.07945 23.0365,-34.07919 23.03645,-34.07909 23.03642,-34.07896 23.03633,-34.0789 23.03628,-34.07885 23.03622,-34.07873 23.03619,-34.07869 23.0361,-34.07863 23.03598,-34.0786 23.03592,-34.0786 23.03583,-34.07859 23.03565,-34.07858 23.03558,-34.07854 23.03555,-34.07847 23.03553,-34.07841 23.03547,-34.07835 23.03533,-34.07824 23.03523,-34.07824 23.03516,-34.0783 23.03503,-34.07842 23.03495,-34.07848 23.03488,-34.07852 23.03486,-34.07861 23.03491,-34.07868 23.03492,-34.07878 23.03493,-34.0789 23.03496,-34.079 23.03498,-34.07905 23.03498,-34.07918 23.03495,-34.07924 23.03486,-34.07927 23.03473,-34.07923 23.03461,-34.07923 23.03452,-34.07924 23.03448,-34.07931 23.03442,-34.07942 23.03439,-34.07948 23.0343,-34.07946 23.03423,-34.07946 23.03414,-34.07937 23.03389,-34.07937 23.0338,-34.07939 23.03373,-34.07945 23.03367,-34.07948 23.03358,-34.0794 23.03353,-34.07918 23.03356,-34.07904 23.03367,-34.07897 23.03371,-34.07889 23.03374,-34.07879 23.03381,-34.07872 23.03406,-34.07868 23.03423,-34.07867 23.03433,-34.07861 23.0344,-34.07854 23.03452,-34.07843 23.03458,-34.07834 23.03471,-34.07801 23.03473,-34.07791 23.03474,-34.07775 23.0347,-34.07756 23.03463,-34.07744 23.03451,-34.07735 23.03443,-34.07726 23.03437,-34.07719 23.03421,-34.07716 23.03406,-34.07714 23.03382,-34.077 23.03369,-34.07698 23.03358,-34.07694 23.03343,-34.07688 23.0333,-34.07679 23.03324,-34.07666 23.03313,-34.07657 23.03299,-34.07648 23.03288,-34.07647 23.03276,-34.07643 23.03265,-34.07638 23.03245,-34.07629 23.03232,-34.07623 23.03218,-34.07614 23.03202,-34.0761 23.03175,-34.076 23.03169,-34.07599 23.03148,-34.07599 23.03132,-34.07601 23.03123,-34.07602 23.03118,-34.07607 23.0311,-34.07611 23.03105,-34.07612 23.03098,-34.07614 23.03093,-34.07617 23.03079,-34.07617 23.03072,-34.07614 23.03068,-34.07613 23.03052,-34.07607 23.03049,-34.07604 23.03047,-34.07599 23.03045,-34.07593 23.03039,-34.07592 23.03029,-34.07589 23.03025,-34.07586 23.03022,-34.0758 23.03017,-34.07576 23.0301,-34.07574 23.03002,-34.07566 23.02991,-34.07561 23.02985,-34.07562 23.02976,-34.07563 23.02964,-34.07563 23.0295,-34.0756 23.02945,-34.0756 23.02938,-34.07556 23.02935,-34.0755 23.02928,-34.07537 23.02917,-34.07537 23.02906,-34.07539 23.02904,-34.0755 23.02904,-34.07567 23.02895,-34.07567 23.02885,-34.07569 23.02885,-34.07574 23.02884,-34.07583 23.02879,-34.07588 23.02866,-34.07589 23.02856,-34.07593 23.02853,-34.07598 23.02845,-34.07598 23.02837,-34.07591 23.02823,-34.07591 23.0281,-34.07592 23.02797,-34.07588 23.02743,-34.07588 23.02724,-34.07581 23.02717,-34.0758 23.02707,-34.07574 23.02704,-34.07566 23.02704,-34.07556 23.027,-34.07544 23.02698,-34.07537 23.02691,-34.0753 23.0268,-34.07524 23.0265,-34.07524 23.02641,-34.0752 23.02625,-34.07514 23.02614,-34.07515 23.02604,-34.07517 23.02591,-34.0752 23.02582,-34.07521 23.02568,-34.07525 23.02557,-34.0753 23.02545,-34.07536 23.02535,-34.07546 23.02524,-34.07552 23.02512,-34.07557 23.02505,-34.07558 23.02452,-34.07558 23.0244,-34.07554 23.02417,-34.07543 23.02415,-34.07537 23.02408,-34.07533 23.02399,-34.07533 23.02381,-34.07531 23.02372,-34.07524 23.0236,-34.07515 23.02353,-34.07511 23.02339,-34.07505 23.02335,-34.07499 23.0233,-34.07493 23.02319,-34.07487 23.02317,-34.07481 23.02315,-34.07469 23.02315,-34.07449 23.02303,-34.07445 23.02292,-34.07449 23.02284,-34.07452 23.02269,-34.07453 23.02265,-34.07453 23.02256,-34.07451 23.02248,-34.0745 23.02242,-34.0745 23.02234,-34.07451 23.02229,-34.07453 23.02218,-34.07458 23.02201,-34.07456 23.02185,-34.07456 23.02176,-34.07459 23.0216,-34.07459 23.0215,-34.07457 23.02138,-34.07455 23.02122,-34.07455 23.02114,-34.07451 23.02113,-34.07448 23.02104,-34.0744 23.02092,-34.07436 23.02085,-34.07436 23.0208,-34.07442 23.02079,-34.07451 23.02079,-34.07461 23.02074,-34.07469 23.02074,-34.07483 23.02068,-34.07492 23.0206,-34.07496 23.02053,-34.07501 23.02045,-34.07507 23.0203,-34.07509 23.02017,-34.07509 23.02004,-34.07506 23.01998,-34.07501 23.01993,-34.07496 23.01973,-34.07496 23.01969,-34.07502 23.01957,-34.07501 23.0194,-34.07495 23.0194,-34.07453 23.01934,-34.07438 23.01929,-34.07431 23.01924,-34.07425 23.01923,-34.07408 23.0192,-34.07404 23.01914,-34.07393 23.01893,-34.0738 23.01883,-34.07368 23.01862,-34.07361 23.0184,-34.07355 23.01817,-34.07351 23.01793,-34.07346 23.01771,-34.07343 23.01734,-34.07337 23.01672,-34.07318 23.01655,-34.07313 23.01617,-34.07308 23.01607,-34.07306 23.01588,-34.073 23.01574,-34.07297 23.01557,-34.07294 23.01544,-34.07291 23.01504,-34.07283 23.01448,-34.07275 23.01436,-34.07273 23.01416,-34.0727 23.01399,-34.07266 23.0139,-34.07266 23.01359,-34.07263 23.01342,-34.07264 23.01316,-34.07264 23.0128,-34.07262 23.01263,-34.07259 23.01234,-34.07256 23.01216,-34.0725 23.01199,-34.07247 23.01184,-34.07247 23.01143,-34.07246 23.01116,-34.07241 23.01103,-34.07239 23.0108,-34.07234 23.01042,-34.07227 23.00976,-34.07222 23.00948,-34.07214 23.00942,-34.07212 23.00912,-34.07207 23.00856,-34.07197 23.00848,-34.07198 23.00789,-34.07203 23.00771,-34.072 23.00756,-34.07197 23.0073,-34.07197 23.00684,-34.07195 23.0065,-34.07192 23.00483,-34.07182 23.00383,-34.07179 23.00361,-34.07179 23.00347,-34.07182 23.00329,-34.07185 23.00308,-34.07191 23.00283,-34.07198 23.00264,-34.07203 23.0024,-34.07209 23.00216,-34.07217 23.00188,-34.07222 23.00017,-34.07248 22.99997,-34.07251 22.99978,-34.07257 22.99961,-34.07258 22.99949,-34.0726 22.99918,-34.0726 22.99903,-34.07262 22.99861,-34.07262 22.9984,-34.07263 22.99812,-34.07265 22.99796,-34.07266 22.99778,-34.07266 22.99684,-34.07288 22.99671,-34.07291 22.99634,-34.07295 22.99618,-34.073 22.99579,-34.07312 22.99554,-34.07318 22.99536,-34.07318 22.99511,-34.07316 22.99494,-34.07316 22.99422,-34.07322 22.99393,-34.07325 22.99374,-34.07326 22.99355,-34.07331 22.99289,-34.07343 22.99271,-34.07343 22.99254,-34.07346 22.99213,-34.07352 22.99202,-34.07358 22.99176,-34.07366 22.9916,-34.07368 22.99138,-34.07371 22.99125,-34.07372 22.991,-34.07372 22.99083,-34.07375 22.99067,-34.0738 22.99051,-34.07383 22.99038,-34.07386 22.99016,-34.07391 22.98983,-34.07391 22.98964,-34.07394 22.98952,-34.07396 22.98934,-34.074 22.98915,-34.07406 22.98897,-34.07409 22.98885,-34.07415 22.98868,-34.07418 22.98853,-34.0742 22.98829,-34.07425 22.98789,-34.07438 22.98774,-34.07444 22.98763,-34.07451 22.98753,-34.07453 22.98738,-34.07459 22.98714,-34.07465 22.98666,-34.07481 22.98637,-34.07493 22.98612,-34.07506 22.98598,-34.07512 22.98577,-34.0752 22.98566,-34.07524 22.98531,-34.07536 22.98519,-34.07539 22.98509,-34.07543 22.98495,-34.0755 22.98466,-34.07563 22.98438,-34.07568 22.98401,-34.07581 22.98385,-34.07589 22.9837,-34.07595 22.98358,-34.07604 22.98342,-34.07613 22.98324,-34.07617 22.98309,-34.07626 22.98302,-34.07632 22.98287,-34.07639 22.9827,-34.07649 22.98246,-34.07651 22.98234,-34.07658 22.98225,-34.0766 22.98197,-34.07674 22.98182,-34.07681 22.98163,-34.07688 22.9815,-34.07697 22.98138,-34.07706 22.98122,-34.0771 22.98106,-34.07718 22.98094,-34.07728 22.98073,-34.07741 22.98058,-34.07755 22.98047,-34.07762 22.98032,-34.07769 22.98016,-34.07778 22.98003,-34.07791 22.97962,-34.07817 22.97952,-34.07821 22.97941,-34.0783 22.97926,-34.0784 22.97919,-34.07846 22.97883,-34.07868 22.97876,-34.07877 22.97869,-34.07883 22.97864,-34.07887 22.97857,-34.07891 22.97836,-34.07914 22.97831,-34.07917 22.97823,-34.07925 22.97814,-34.07929 22.97806,-34.07943 22.97746,-34.07864 22.97642,-34.07582 22.97471,-34.0716 22.97406,-34.06492 22.9736,-34.05923 22.97282,-34.05028 22.97274,-34.04497 22.97243,-34.03794 22.97242,-34.03755 22.97138,-34.03549 22.96901,-34.03245 22.96858,-34.0322 22.9682,-34.03208 22.96804,-34.03204 22.96784,-34.03202 22.96874,-34.02886 22.97183,-34.03007 22.97215,-34.03018 22.97235,-34.03019 22.97421,-34.02986 22.97424,-34.0297 22.9744,-34.02842 22.97356,-34.02597 22.97307,-34.02499 22.97242,-34.02453 22.97187,-34.02404 22.9716,-34.02355 22.97176,-34.02265 22.97217,-34.02124 22.9716,-34.01862 22.98249,-34.01484 22.98396,-34.01438 22.98981,-34.01871 22.99333,-34.02106 22.99424,-34.0199 22.99496,-34.01904 22.99604,-34.01802 22.9972,-34.01755 22.99943,-34.01687 23.00045,-34.01632 23.00094,-34.01605 23.0012,-34.01591 23.00223,-34.01551 23.00304,-34.01503 23.00366,-34.01479 23.00427,-34.0145 23.00476,-34.01422 23.00556,-34.01379 23.00745,-34.01282 23.00976,-34.01183 23.01092,-34.01118 23.0117,-34.01077 23.01236,-34.01071 23.01288,-34.01071 23.01405,-34.01107 23.01491,-34.01123 23.01563,-34.0113 23.01613,-34.01132 23.01624,-34.01132 23.01692,-34.01137 23.01753,-34.01137 23.01785,-34.01125 23.01841,-34.01104 23.01879,-34.01081 23.01935,-34.01045 23.01949,-34.01014 23.01952,-34.00972 23.01925,-34.00894 23.0189,-34.00851 23.01788,-34.00769 23.02056,-34.00607 23.02439,-34.00372 23.02545,-34.00308 23.02249,-34.0019 23.01804,-34.00013 23.01761,-33.99996 23.01564,-33.99918 23.01486,-33.99886 23.01373,-33.99841 23.01191,-33.99766 23.00932,-33.9966 23.00786,-33.996 23.00633,-33.99538 23.0062,-33.99532 23.00659,-33.99506 23.00668,-33.99496 23.00681,-33.99486 23.00686,-33.99482 23.00727,-33.99479 23.00793,-33.995 23.00884,-33.99476 23.00964,-33.9944 23.01046,-33.99481 23.01121,-33.99534 23.0122,-33.99536 23.01304,-33.99576 23.01386,-33.99642 23.01506,-33.99633 23.0155,-33.99679 23.01607,-33.99741 23.01655,-33.99746 23.01697,-33.99705 23.01682,-33.99644 23.01667,-33.9957 23.01736,-33.99518 23.01805,-33.99543 23.01833,-33.99548 23.01904,-33.99527 23.02004,-33.99504 23.02163,-33.99546 23.02245,-33.99548 23.02314,-33.99574 23.02377,-33.99553 23.02443,-33.99554 23.02505,-33.99575 23.02596,-33.99591 23.02673,-33.99615 23.02749,-33.99613 23.02938,-33.9966 23.02902,-33.99686 23.02865,-33.99758 23.02865,-33.99882 23.02863,-33.99956 23.02905,-34.00051 23.02906,-34.00051 23.02997,-34.00033 23.03053,-34.00148 23.03057,-34.00158 23.0307,-34.00188 23.03341,-34.00132 23.03676,-34.00073 23.03953,-34.0002 23.04212,-33.99976 23.04219,-33.99975 23.04228,-33.99975 23.04248,-33.99978 23.04267,-33.99983 23.04307,-33.99916 23.04321,-33.99897 23.04333,-33.99869 23.0434,-33.99853 23.04356,-33.9983 23.04733,-33.99452 23.04984,-33.9919 23.05001,-33.99208 23.05023,-33.99219 23.05052,-33.99229 23.05078,-33.99242 23.05096,-33.99254 23.05125,-33.99268 23.05146,-33.99281 23.05164,-33.99299 23.0518,-33.99308 23.05197,-33.99314 23.05213,-33.99322 23.05236,-33.99334 23.05266,-33.99339</coordinates></LinearRing></outerBoundaryIs></Polygon></MultiGeometry></Placemark></Document></kml>