<?xml version="1.0" encoding="UTF-8"?><kml xmlns="http://www.opengis.net/kml/2.2"><Document><Placemark><name>Rheenendal</name><description>Main Place 180003</description><ExtendedData><Data name="code"><value>180003</value></Data><Data name="name"><value>Rheenendal</value></Data><Data name="description"><value>Main Place 180003</value></Data></ExtendedData><MultiGeometry><Polygon><outerBoundaryIs><LinearRing><coordinates>22.93722,-33.94372 22.93671,-33.94717 22.93702,-33.94832 22.93677,-33.9484 22.93643,-33.9485 22.93626,-33.94855 22.93614,-33.94859 22.93614,-33.94861 22.93619,-33.94872 22.93621,-33.94873 22.93649,-33.94879 22.93649,-33.94879 22.93668,-33.94897 22.93701,-33.94923 22.93736,-33.94974 22.93792,-33.95042 22.93733,-33.95102 22.93646,-33.95162 22.93563,-33.95192 22.93546,-33.95228 22.93488,-33.95191 22.93489,-33.95182 22.93489,-33.95175 22.93367,-33.95129 22.93357,-33.95126 22.93332,-33.95116 22.93258,-33.95019 22.93192,-33.9496 22.93182,-33.94962 22.93146,-33.94967 22.93105,-33.94974 22.93079,-33.95021 22.93051,-33.9505 22.92895,-33.95078 22.92847,-33.95089 22.92767,-33.95018 22.92783,-33.94995 22.92832,-33.94918 22.92915,-33.94783 22.92987,-33.94667 22.93068,-33.94538 22.93095,-33.94497 22.93206,-33.94594 22.93254,-33.94546 22.93255,-33.94546 22.93468,-33.94336 22.93508,-33.94341 22.9354,-33.94346 22.93599,-33.94355 22.93665,-33.94363 22.93694,-33.94368 22.93722,-33.94372</coordinates></LinearRing></outerBoundaryIs></Polygon></MultiGeometry></Placemark></Document></kml>