<?xml version="1.0" encoding="UTF-8"?><kml xmlns="http://www.opengis.net/kml/2.2"><Document><Placemark><name>Klaarstroom</name><description>Main Place 182005</description><ExtendedData><Data name="code"><value>182005</value></Data><Data name="name"><value>Klaarstroom</value></Data><Data name="description"><value>Main Place 182005</value></Data></ExtendedData><MultiGeometry><Polygon><outerBoundaryIs><LinearRing><coordinates>22.53938,-33.32062 22.5396,-33.32134 22.54119,-33.3211 22.54597,-33.32231 22.55044,-33.32353 22.55333,-33.32434 22.55559,-33.32492 22.54818,-33.33174 22.54633,-33.33198 22.54284,-33.33236 22.54278,-33.33236 22.53861,-33.33281 22.53867,-33.33397 22.54081,-33.33556 22.5403,-33.33608 22.54001,-33.33635 22.53938,-33.33697 22.5393,-33.33707 22.53922,-33.33717 22.53914,-33.33727 22.53907,-33.33738 22.53901,-33.33748 22.53895,-33.33759 22.5387,-33.33816 22.53854,-33.33873 22.53834,-33.33952 22.53829,-33.33965 22.53712,-33.33932 22.53704,-33.33925 22.53662,-33.33859 22.53588,-33.338 22.5359,-33.33789 22.53613,-33.33749 22.53629,-33.33723 22.53646,-33.33698 22.53649,-33.33677 22.53652,-33.33657 22.53658,-33.33626 22.53662,-33.33612 22.53658,-33.33591 22.5365,-33.33564 22.53639,-33.3354 22.53627,-33.33522 22.53617,-33.33496 22.53615,-33.33475 22.53608,-33.33459 22.53598,-33.33445 22.53585,-33.33432 22.53566,-33.33413 22.5355,-33.33396 22.53535,-33.33381 22.53525,-33.33364 22.53517,-33.33349 22.53508,-33.33327 22.53501,-33.33304 22.53498,-33.33286 22.53494,-33.33267 22.53488,-33.3324 22.53481,-33.33232 22.53453,-33.33226 22.53428,-33.33221 22.53406,-33.33218 22.53394,-33.3322 22.53377,-33.33232 22.53358,-33.33256 22.5333,-33.33274 22.53309,-33.33283 22.53289,-33.33288 22.5327,-33.33288 22.5325,-33.33285 22.53236,-33.33279 22.53216,-33.33279 22.53185,-33.33289 22.53148,-33.33304 22.53114,-33.33312 22.531,-33.33317 22.53088,-33.33322 22.53067,-33.33341 22.52944,-33.3318 22.529,-33.33168 22.52879,-33.33163 22.52865,-33.33157 22.52856,-33.33149 22.52849,-33.33142 22.52839,-33.3314 22.52829,-33.3314 22.5282,-33.33139 22.52804,-33.33132 22.5279,-33.33122 22.52779,-33.33122 22.52768,-33.33117 22.52754,-33.3311 22.52737,-33.33102 22.52726,-33.33101 22.52714,-33.33101 22.52704,-33.33101 22.5269,-33.33095 22.52683,-33.33093 22.52667,-33.33091 22.52639,-33.33085 22.52628,-33.33079 22.52615,-33.33069 22.5261,-33.33064 22.52394,-33.32943 22.522,-33.32837 22.523,-33.32753 22.52363,-33.32707 22.52354,-33.32688 22.52349,-33.32672 22.52348,-33.32659 22.52353,-33.32649 22.52382,-33.32623 22.52402,-33.32635 22.52412,-33.32637 22.52424,-33.32638 22.52433,-33.32637 22.52494,-33.32581 22.52607,-33.32624 22.52737,-33.32393 22.52641,-33.32353 22.52703,-33.32241 22.52799,-33.32279 22.52893,-33.32111 22.52956,-33.31998 22.53043,-33.31828 22.5352,-33.31951 22.53938,-33.32062</coordinates></LinearRing></outerBoundaryIs></Polygon></MultiGeometry></Placemark></Document></kml>