<?xml version="1.0" encoding="UTF-8"?><kml xmlns="http://www.opengis.net/kml/2.2"><Document><Placemark><name>Mfuleni</name><description>Main Place 199034</description><ExtendedData><Data name="code"><value>199034</value></Data><Data name="name"><value>Mfuleni</value></Data><Data name="description"><value>Main Place 199034</value></Data></ExtendedData><MultiGeometry><Polygon><outerBoundaryIs><LinearRing><coordinates>18.67132,-33.98687 18.67202,-33.98728 18.67217,-33.98736 18.67275,-33.9877 18.6731,-33.9879 18.67335,-33.98804 18.67336,-33.98804 18.67338,-33.98806 18.67422,-33.98854 18.67425,-33.98856 18.67443,-33.98862 18.67459,-33.98892 18.67462,-33.98897 18.67516,-33.98999 18.67525,-33.99016 18.67549,-33.99056 18.67592,-33.9913 18.67636,-33.99207 18.67679,-33.99281 18.67675,-33.99285 18.67663,-33.9929 18.6767,-33.99304 18.67673,-33.99303 18.67676,-33.99309 18.67674,-33.9931 18.67684,-33.99331 18.6769,-33.99341 18.67695,-33.99351 18.67701,-33.99363 18.67707,-33.99362 18.67719,-33.99356 18.67742,-33.99397 18.67734,-33.99401 18.67731,-33.99403 18.67738,-33.99413 18.67743,-33.99422 18.67754,-33.9944 18.67753,-33.99441 18.67749,-33.99442 18.6776,-33.99468 18.67766,-33.99484 18.67784,-33.99513 18.67803,-33.99549 18.67807,-33.99558 18.67826,-33.99582 18.67827,-33.99583 18.6782,-33.99586 18.67833,-33.99605 18.67866,-33.99655 18.67871,-33.99662 18.67899,-33.99701 18.67922,-33.99739 18.67925,-33.99744 18.67975,-33.99839 18.67984,-33.99857 18.68005,-33.99896 18.68011,-33.99893 18.68018,-33.99917 18.68023,-33.99935 18.68022,-33.99936 18.68011,-33.99941 18.68003,-33.99947 18.67997,-33.99953 18.67992,-33.99959 18.67991,-33.99963 18.67992,-33.99968 18.67998,-33.99971 18.68004,-33.99974 18.6801,-33.99976 18.68017,-33.99981 18.68022,-33.99983 18.68025,-33.99984 18.6803,-33.99985 18.68034,-33.99986 18.68039,-33.99986 18.68047,-33.99998 18.68054,-34.00007 18.68063,-34.00021 18.68064,-34.00025 18.68068,-34.00032 18.68076,-34.00045 18.68085,-34.00056 18.68093,-34.00069 18.68098,-34.00072 18.681,-34.00075 18.68122,-34.00066 18.68127,-34.00065 18.68132,-34.00065 18.68136,-34.00063 18.68142,-34.00059 18.68155,-34.00057 18.68177,-34.00071 18.68192,-34.00082 18.68205,-34.00087 18.68205,-34.00084 18.68207,-34.00078 18.68211,-34.00072 18.68213,-34.00066 18.68221,-34.00057 18.68228,-34.00051 18.68236,-34.00045 18.68241,-34.00037 18.68245,-34.00033 18.68253,-34.00029 18.68293,-34.00017 18.68313,-34.00007 18.68324,-34.00001 18.68336,-33.99994 18.6836,-33.99983 18.68391,-33.99968 18.68412,-33.99956 18.68435,-33.9994 18.68436,-33.9994 18.68444,-33.99931 18.68455,-33.99919 18.68467,-33.99911 18.68468,-33.9991 18.68474,-33.99909 18.6848,-33.99907 18.68488,-33.999 18.68495,-33.99891 18.68507,-33.99881 18.68516,-33.99872 18.68517,-33.99865 18.68521,-33.99857 18.68484,-33.99856 18.68489,-33.99824 18.68499,-33.99765 18.68508,-33.99711 18.68515,-33.99649 18.68519,-33.99626 18.68532,-33.99622 18.68637,-33.99732 18.68657,-33.99745 18.68686,-33.99754 18.68798,-33.99774 18.68811,-33.99778 18.68822,-33.99779 18.68817,-33.99801 18.68816,-33.99804 18.68815,-33.99855 18.68819,-33.99904 18.68831,-33.99941 18.68864,-34.00016 18.68919,-34.00144 18.68935,-34.00181 18.68934,-34.00197 18.68937,-34.00202 18.6894,-34.00207 18.68953,-34.00218 18.69063,-34.00449 18.69102,-34.00533 18.69127,-34.00593 18.69143,-34.0065 18.69198,-34.00844 18.69207,-34.00877 18.69282,-34.01155 18.69286,-34.01192 18.6929,-34.01221 18.69291,-34.01255 18.69287,-34.01301 18.69248,-34.01559 18.69198,-34.01914 18.69192,-34.0196 18.69169,-34.02124 18.69162,-34.0218 18.69152,-34.02234 18.69147,-34.02254 18.69138,-34.02282 18.69131,-34.02303 18.69123,-34.02329 18.69115,-34.02347 18.69103,-34.02375 18.6905,-34.02488 18.68986,-34.02623 18.68317,-34.02359 18.68154,-34.02295 18.68069,-34.02263 18.68011,-34.02238 18.67955,-34.02214 18.67827,-34.02156 18.67626,-34.02062 18.67465,-34.01987 18.67379,-34.01947 18.67331,-34.01925 18.67196,-34.01862 18.67113,-34.01824 18.67055,-34.01797 18.66989,-34.01766 18.66984,-34.01764 18.66963,-34.01754 18.66937,-34.01742 18.66935,-34.01741 18.66852,-34.01702 18.66852,-34.01702 18.66745,-34.01653 18.66682,-34.01623 18.66625,-34.01596 18.66543,-34.01559 18.66482,-34.0153 18.66256,-34.01425 18.65953,-34.01284 18.65877,-34.01248 18.6584,-34.01229 18.65791,-34.01207 18.65683,-34.01155 18.65597,-34.01119 18.65484,-34.01065 18.65417,-34.01034 18.65352,-34.01001 18.65271,-34.00966 18.65268,-34.00964 18.65179,-34.00921 18.65177,-34.0092 18.65148,-34.00905 18.65017,-34.00846 18.64938,-34.00808 18.64847,-34.00767 18.64803,-34.00747 18.64795,-34.00743 18.64757,-34.00726 18.64735,-34.00716 18.6468,-34.00691 18.64675,-34.00689 18.64626,-34.00669 18.64564,-34.00643 18.64473,-34.00607 18.64416,-34.00584 18.64332,-34.00551 18.64305,-34.00541 18.64191,-34.00497 18.64175,-34.0049 18.64169,-34.00488 18.64079,-34.00452 18.64042,-34.00438 18.64037,-34.00436 18.64036,-34.00436 18.63995,-34.0042 18.63861,-34.00364 18.63785,-34.00337 18.63705,-34.00304 18.63612,-34.00268 18.63484,-34.00218 18.634,-34.00184 18.63301,-34.00144 18.63276,-34.00137 18.63297,-34.00116 18.63328,-34.00091 18.63547,-33.99893 18.6366,-33.9978 18.6385,-33.99597 18.639,-33.99548 18.63904,-33.99544 18.64018,-33.9943 18.64039,-33.99409 18.64097,-33.99352 18.64223,-33.99227 18.64295,-33.99155 18.64318,-33.99133 18.64396,-33.99058 18.64437,-33.99016 18.64479,-33.98975 18.6461,-33.98844 18.64694,-33.98761 18.64759,-33.98697 18.64864,-33.98701 18.65023,-33.98692 18.65218,-33.98681 18.65426,-33.9867 18.65447,-33.98668 18.65447,-33.98668 18.65665,-33.98656 18.66394,-33.98618 18.66787,-33.98585 18.66932,-33.9858 18.66994,-33.98612 18.66995,-33.98613 18.6707,-33.98651 18.67132,-33.98687</coordinates></LinearRing></outerBoundaryIs></Polygon></MultiGeometry></Placemark></Document></kml>