<?xml version="1.0" encoding="UTF-8"?><kml xmlns="http://www.opengis.net/kml/2.2"><Document><Placemark><name>Klipfontein Glebe</name><description>Sub Place 199032004</description><ExtendedData><Data name="code"><value>199032004</value></Data><Data name="name"><value>Klipfontein Glebe</value></Data><Data name="description"><value>Sub Place 199032004</value></Data></ExtendedData><MultiGeometry><Polygon><outerBoundaryIs><LinearRing><coordinates>18.62629,-34.00063 18.62614,-34.0009 18.62602,-34.00117 18.6258,-34.00134 18.62528,-34.00098 18.62509,-34.00087 18.62445,-34.00149 18.62299,-34.00034 18.62287,-34.00025 18.62182,-33.99948 18.62159,-33.99931 18.621,-33.99888 18.62049,-33.99861 18.61998,-33.99839 18.61958,-33.99828 18.61891,-33.99817 18.61776,-33.99806 18.61764,-33.99805 18.61608,-33.99788 18.61472,-33.99774 18.61151,-33.99739 18.61118,-33.99637 18.61078,-33.99492 18.61074,-33.99478 18.60994,-33.99236 18.61171,-33.99305 18.61591,-33.9947 18.61658,-33.99497 18.61934,-33.99608 18.61963,-33.99619 18.62162,-33.99697 18.62296,-33.9975 18.62447,-33.9981 18.62436,-33.99826 18.62474,-33.99851 18.62584,-33.99924 18.62615,-33.99944 18.62691,-33.99994 18.62677,-34.00007 18.62661,-34.00024 18.62629,-34.00063</coordinates></LinearRing></outerBoundaryIs></Polygon></MultiGeometry></Placemark></Document></kml>