<?xml version="1.0" encoding="UTF-8"?><kml xmlns="http://www.opengis.net/kml/2.2"><Document><Placemark><name>Lavender Hill</name><description>Sub Place 199041118</description><ExtendedData><Data name="code"><value>199041118</value></Data><Data name="name"><value>Lavender Hill</value></Data><Data name="description"><value>Sub Place 199041118</value></Data></ExtendedData><MultiGeometry><Polygon><outerBoundaryIs><LinearRing><coordinates>18.49574,-34.07444 18.49633,-34.07615 18.49634,-34.07617 18.49652,-34.07838 18.49532,-34.08011 18.49402,-34.08034 18.49404,-34.08074 18.49211,-34.08098 18.49188,-34.081 18.49184,-34.081 18.49185,-34.08088 18.49182,-34.08078 18.4915,-34.08059 18.49129,-34.08086 18.49111,-34.08093 18.49087,-34.08089 18.49025,-34.08079 18.49018,-34.07946 18.49014,-34.07862 18.48933,-34.07866 18.48928,-34.07816 18.48889,-34.07713 18.48869,-34.0766 18.48857,-34.07633 18.48851,-34.07619 18.4885,-34.07601 18.48842,-34.07482 18.48713,-34.07486 18.48466,-34.07494 18.48463,-34.07494 18.48353,-34.07498 18.48326,-34.07499 18.4816,-34.07506 18.48148,-34.07506 18.48057,-34.0751 18.47938,-34.0751 18.47946,-34.0748 18.47961,-34.07438 18.4797,-34.07414 18.47972,-34.07409 18.47984,-34.07383 18.47995,-34.07363 18.48007,-34.07343 18.48067,-34.07255 18.48124,-34.07173 18.48263,-34.06971 18.4836,-34.06831 18.48366,-34.06822 18.48452,-34.06698 18.48533,-34.06579 18.48553,-34.06552 18.48599,-34.06486 18.48625,-34.0645 18.48629,-34.06444 18.48665,-34.06402 18.48688,-34.06376 18.4872,-34.0634 18.48817,-34.062 18.48845,-34.0616 18.48864,-34.06124 18.48876,-34.06091 18.48882,-34.06062 18.48884,-34.06049 18.48926,-34.06051 18.48921,-34.06066 18.48949,-34.06299 18.49243,-34.06732 18.49288,-34.06798 18.49316,-34.06837 18.49264,-34.06869 18.49322,-34.06968 18.49461,-34.07203 18.49472,-34.07223 18.4957,-34.07435 18.49574,-34.07444</coordinates></LinearRing></outerBoundaryIs></Polygon></MultiGeometry></Placemark></Document></kml>