<?xml version="1.0" encoding="UTF-8"?><kml xmlns="http://www.opengis.net/kml/2.2"><Document><Placemark><name>Kenilworth</name><description>Sub Place 199041068</description><ExtendedData><Data name="code"><value>199041068</value></Data><Data name="name"><value>Kenilworth</value></Data><Data name="description"><value>Sub Place 199041068</value></Data></ExtendedData><MultiGeometry><Polygon><outerBoundaryIs><LinearRing><coordinates>18.48871,-33.98863 18.48926,-33.98864 18.49001,-33.98861 18.49041,-33.98859 18.49046,-33.98859 18.49045,-33.98895 18.49043,-33.99008 18.49044,-33.99028 18.49045,-33.99034 18.49048,-33.99075 18.49066,-33.99233 18.49067,-33.9924 18.49075,-33.99306 18.4908,-33.99351 18.49087,-33.99407 18.49093,-33.99458 18.49094,-33.99463 18.49114,-33.99636 18.49118,-33.99675 18.49122,-33.99713 18.49121,-33.99763 18.49119,-33.99784 18.49114,-33.99819 18.49108,-33.99845 18.491,-33.99874 18.49089,-33.99906 18.49087,-33.99911 18.4908,-33.99925 18.49073,-33.99941 18.49063,-33.99959 18.49053,-33.99976 18.49019,-34.00029 18.48952,-34.00098 18.48896,-34.00145 18.48873,-34.00164 18.48834,-34.00196 18.48818,-34.00211 18.48807,-34.00222 18.48664,-34.0023 18.48622,-34.0023 18.48521,-34.00235 18.48387,-34.00241 18.48269,-34.00247 18.4815,-34.00253 18.48078,-34.00257 18.48011,-34.0026 18.47969,-34.0026 18.47965,-34.0026 18.47914,-34.00261 18.47888,-34.00261 18.47848,-34.0026 18.47826,-34.00258 18.4782,-34.00258 18.47745,-34.0026 18.47626,-34.00256 18.47583,-34.00264 18.47549,-34.00267 18.47527,-34.00266 18.47421,-34.00262 18.47391,-34.00261 18.47314,-34.00257 18.47263,-34.00249 18.47258,-34.00248 18.47169,-34.00238 18.4711,-34.00236 18.47047,-34.00235 18.46906,-34.00232 18.46883,-34.00157 18.46856,-34.00073 18.46848,-34.00048 18.46832,-33.99995 18.46824,-33.99959 18.46807,-33.99972 18.46762,-34.00014 18.46729,-34.00053 18.46725,-34.00059 18.4671,-34.00074 18.4666,-34.00102 18.46657,-34.00098 18.46541,-33.99927 18.46455,-33.9979 18.46443,-33.9977 18.46403,-33.99731 18.46368,-33.99708 18.46336,-33.9968 18.46298,-33.99635 18.46283,-33.99639 18.46265,-33.99633 18.46229,-33.99621 18.46189,-33.99607 18.46168,-33.99601 18.4616,-33.996 18.4615,-33.99601 18.46135,-33.99604 18.46119,-33.99606 18.46103,-33.99606 18.46091,-33.99606 18.4608,-33.99604 18.46065,-33.99602 18.46039,-33.99597 18.46026,-33.99593 18.46016,-33.9959 18.46009,-33.99587 18.45999,-33.99582 18.45987,-33.99577 18.45976,-33.9957 18.45958,-33.9956 18.45947,-33.99554 18.45936,-33.99551 18.45928,-33.99548 18.4592,-33.99545 18.45912,-33.99543 18.45847,-33.99529 18.45813,-33.99522 18.45803,-33.99518 18.45817,-33.99504 18.45909,-33.9941 18.45916,-33.99402 18.45922,-33.99397 18.46031,-33.993 18.46047,-33.99285 18.4606,-33.99272 18.46068,-33.99263 18.4608,-33.9924 18.46083,-33.9923 18.46088,-33.99219 18.46091,-33.99213 18.46093,-33.99207 18.46093,-33.99201 18.46094,-33.992 18.46094,-33.99195 18.46094,-33.9919 18.46098,-33.99127 18.46099,-33.99115 18.46106,-33.99088 18.46119,-33.99053 18.46123,-33.99042 18.46137,-33.99043 18.46141,-33.99043 18.46251,-33.99034 18.46403,-33.99023 18.4654,-33.99013 18.46634,-33.99006 18.46678,-33.99002 18.46694,-33.99 18.46695,-33.99002 18.46696,-33.99004 18.46709,-33.99024 18.46733,-33.99052 18.46752,-33.99071 18.46766,-33.99086 18.46768,-33.99089 18.46797,-33.99121 18.46811,-33.99136 18.46834,-33.99166 18.46843,-33.99178 18.46858,-33.99196 18.46869,-33.99188 18.46895,-33.99168 18.46899,-33.99165 18.46901,-33.99164 18.4691,-33.99157 18.4696,-33.99118 18.46968,-33.99112 18.46977,-33.99104 18.46986,-33.99097 18.47022,-33.99071 18.47045,-33.99054 18.47061,-33.99042 18.47073,-33.99033 18.4708,-33.99028 18.47101,-33.99012 18.47153,-33.98973 18.47175,-33.98958 18.47179,-33.98953 18.47189,-33.98946 18.47214,-33.99 18.47228,-33.98997 18.47239,-33.98997 18.47245,-33.98997 18.47323,-33.98999 18.4741,-33.99001 18.47475,-33.99003 18.47553,-33.99005 18.47616,-33.99007 18.47632,-33.99007 18.4769,-33.99009 18.4771,-33.99009 18.47711,-33.98991 18.47711,-33.98983 18.47713,-33.98919 18.47736,-33.9892 18.47745,-33.9892 18.47791,-33.9892 18.47856,-33.9892 18.47877,-33.98919 18.47888,-33.9892 18.47887,-33.98972 18.47885,-33.99014 18.47882,-33.99094 18.47929,-33.99096 18.48006,-33.99099 18.48027,-33.99099 18.48076,-33.99097 18.48084,-33.99097 18.48096,-33.99097 18.48163,-33.99095 18.48226,-33.99093 18.4824,-33.99092 18.48247,-33.99092 18.48252,-33.99092 18.4832,-33.9909 18.4838,-33.99088 18.48389,-33.99088 18.48395,-33.99086 18.48437,-33.99061 18.48452,-33.99085 18.48532,-33.99027 18.486,-33.98976 18.48657,-33.98933 18.48672,-33.98922 18.48706,-33.98896 18.48708,-33.98894 18.48716,-33.98885 18.48733,-33.98853 18.48747,-33.98842 18.48793,-33.98854 18.48834,-33.98859 18.48854,-33.98861 18.48871,-33.98863</coordinates></LinearRing></outerBoundaryIs></Polygon></MultiGeometry></Placemark></Document></kml>