<?xml version="1.0" encoding="UTF-8"?><kml xmlns="http://www.opengis.net/kml/2.2"><Document><Placemark><name>Kraaifontein</name><description>Main Place 199018</description><ExtendedData><Data name="code"><value>199018</value></Data><Data name="name"><value>Kraaifontein</value></Data><Data name="description"><value>Main Place 199018</value></Data></ExtendedData><MultiGeometry><Polygon><outerBoundaryIs><LinearRing><coordinates>18.69771,-33.82209 18.69783,-33.82302 18.698,-33.82426 18.698,-33.8248 18.69797,-33.82538 18.69773,-33.82785 18.69757,-33.8293 18.69903,-33.82942 18.69912,-33.82853 18.69917,-33.82809 18.69923,-33.82804 18.69924,-33.82803 18.70361,-33.82894 18.70499,-33.82922 18.705,-33.82922 18.70538,-33.8293 18.70631,-33.82949 18.70631,-33.8295 18.70894,-33.83008 18.70896,-33.83008 18.70917,-33.83013 18.71464,-33.83133 18.7148,-33.83137 18.71484,-33.83123 18.71494,-33.83092 18.7153,-33.82971 18.71566,-33.82853 18.72339,-33.82999 18.72284,-33.82823 18.72163,-33.82435 18.72116,-33.82334 18.73832,-33.82272 18.74316,-33.82254 18.74145,-33.82751 18.739,-33.83462 18.74462,-33.83304 18.752,-33.831 18.75274,-33.83417 18.75287,-33.83442 18.75287,-33.83442 18.75287,-33.83442 18.75287,-33.83442 18.75287,-33.83442 18.75287,-33.83442 18.75287,-33.83443 18.75287,-33.83455 18.75287,-33.83456 18.75287,-33.83457 18.75287,-33.83458 18.75287,-33.83459 18.75286,-33.8346 18.75286,-33.83461 18.75286,-33.83461 18.75286,-33.83462 18.75286,-33.83463 18.75286,-33.83464 18.75286,-33.83465 18.75286,-33.83465 18.75286,-33.83466 18.75286,-33.83467 18.75286,-33.83467 18.75286,-33.83467 18.75286,-33.83467 18.75286,-33.83467 18.75286,-33.83467 18.75286,-33.83467 18.75286,-33.83478 18.75286,-33.83486 18.75288,-33.83528 18.75288,-33.8355 18.75289,-33.83579 18.7529,-33.83686 18.75291,-33.83704 18.75291,-33.83717 18.75291,-33.83729 18.75291,-33.83737 18.75291,-33.83737 18.75291,-33.83737 18.75291,-33.83737 18.75291,-33.83739 18.75292,-33.83768 18.75294,-33.83871 18.75294,-33.83872 18.75294,-33.83873 18.75294,-33.83873 18.75294,-33.83874 18.75294,-33.83904 18.75296,-33.83993 18.75296,-33.83998 18.75297,-33.84053 18.75297,-33.84058 18.75297,-33.84059 18.75297,-33.84059 18.75297,-33.84059 18.75297,-33.84059 18.75297,-33.84061 18.75298,-33.84144 18.75299,-33.84179 18.75299,-33.84181 18.75299,-33.84182 18.75299,-33.84191 18.75299,-33.84192 18.75299,-33.84193 18.75299,-33.84193 18.75299,-33.84193 18.75299,-33.84193 18.75299,-33.84193 18.75299,-33.84193 18.75299,-33.84204 18.753,-33.8423 18.753,-33.84243 18.753,-33.84263 18.75301,-33.84323 18.75301,-33.84347 18.75303,-33.84435 18.75305,-33.84534 18.75305,-33.84547 18.75305,-33.84555 18.75305,-33.84555 18.75305,-33.84555 18.75305,-33.84555 18.75305,-33.84555 18.75305,-33.84556 18.75305,-33.8456 18.75305,-33.84571 18.75305,-33.84583 18.75306,-33.84595 18.75306,-33.84606 18.75306,-33.84619 18.75306,-33.84649 18.75307,-33.84667 18.75307,-33.84668 18.75307,-33.84668 18.75307,-33.84668 18.75307,-33.84669 18.75307,-33.84673 18.75307,-33.84692 18.75308,-33.84766 18.75309,-33.84774 18.7531,-33.84902 18.75311,-33.84949 18.75311,-33.84992 18.75311,-33.84998 18.75311,-33.84999 18.75311,-33.84999 18.75311,-33.84999 18.75311,-33.84999 18.75311,-33.84999 18.75311,-33.84999 18.75311,-33.84999 18.7531,-33.85 18.7531,-33.85001 18.7531,-33.85001 18.75303,-33.8501 18.75282,-33.8504 18.7526,-33.8507 18.75239,-33.85101 18.7522,-33.85127 18.75174,-33.85192 18.75151,-33.85224 18.75131,-33.85252 18.75078,-33.85326 18.75003,-33.85431 18.75,-33.85436 18.75,-33.85436 18.75,-33.85436 18.75,-33.85436 18.75,-33.85436 18.74998,-33.85439 18.74909,-33.85564 18.74864,-33.85628 18.74863,-33.85629 18.74859,-33.85635 18.74856,-33.85639 18.74853,-33.85644 18.74849,-33.85648 18.74849,-33.85649 18.74849,-33.85649 18.74848,-33.85649 18.74848,-33.8565 18.74848,-33.8565 18.74848,-33.85651 18.74847,-33.85651 18.74847,-33.85651 18.74847,-33.85652 18.74847,-33.85652 18.74847,-33.85652 18.74847,-33.85652 18.74847,-33.85652 18.74847,-33.85652 18.74847,-33.85652 18.74847,-33.85652 18.74847,-33.85652 18.74847,-33.85652 18.74846,-33.85652 18.74846,-33.85652 18.74846,-33.85653 18.74846,-33.85653 18.74845,-33.85654 18.74845,-33.85654 18.74831,-33.85674 18.74803,-33.85713 18.74644,-33.85937 18.7463,-33.85957 18.74619,-33.85972 18.74613,-33.8598 18.74602,-33.85996 18.74602,-33.85997 18.74602,-33.85997 18.746,-33.85999 18.74597,-33.86003 18.74586,-33.86018 18.74579,-33.86028 18.74578,-33.86251 18.74576,-33.86584 18.74573,-33.8711 18.74572,-33.87395 18.74756,-33.87667 18.75066,-33.88125 18.75291,-33.88452 18.75289,-33.88462 18.75288,-33.88469 18.75283,-33.88503 18.752,-33.89027 18.75139,-33.89351 18.75138,-33.89354 18.74594,-33.88744 18.74591,-33.88731 18.74572,-33.88744 18.74563,-33.8875 18.74548,-33.88761 18.7452,-33.88782 18.74515,-33.88786 18.74481,-33.88811 18.74475,-33.88815 18.74473,-33.88817 18.74367,-33.88896 18.74316,-33.88931 18.74312,-33.88934 18.74295,-33.88944 18.74287,-33.88949 18.7416,-33.89041 18.73938,-33.89193 18.73919,-33.89205 18.73913,-33.89208 18.73875,-33.89234 18.73829,-33.89268 18.73707,-33.89349 18.73562,-33.89103 18.7356,-33.89104 18.7356,-33.89103 18.73344,-33.88833 18.7299,-33.8839 18.72655,-33.87947 18.72605,-33.87901 18.72482,-33.87747 18.72418,-33.87787 18.72263,-33.87882 18.71981,-33.88036 18.71952,-33.87889 18.7195,-33.87879 18.71944,-33.87626 18.71945,-33.8757 18.71552,-33.87585 18.71282,-33.87596 18.71058,-33.87604 18.70972,-33.87515 18.706,-33.87127 18.70669,-33.87075 18.70563,-33.8696 18.70454,-33.86842 18.70581,-33.8676 18.70791,-33.86626 18.70973,-33.86509 18.71111,-33.8642 18.71152,-33.86392 18.71258,-33.86323 18.71524,-33.8615 18.7161,-33.86096 18.71628,-33.86088 18.71641,-33.86082 18.71676,-33.86065 18.71707,-33.86048 18.71766,-33.86011 18.71752,-33.86009 18.7174,-33.86005 18.71616,-33.86 18.71597,-33.86 18.71219,-33.85983 18.71217,-33.85988 18.70814,-33.85972 18.70774,-33.85966 18.70739,-33.85965 18.70478,-33.85958 18.70441,-33.85958 18.70116,-33.85945 18.6987,-33.85935 18.69867,-33.85932 18.69852,-33.85665 18.69848,-33.85628 18.69849,-33.85611 18.69853,-33.85534 18.69837,-33.85252 18.69834,-33.85196 18.69827,-33.85083 18.69808,-33.84775 18.69808,-33.84774 18.69807,-33.84757 18.69616,-33.84723 18.69609,-33.84722 18.69585,-33.84718 18.69475,-33.84699 18.69472,-33.84699 18.69419,-33.84692 18.69388,-33.84686 18.69331,-33.84677 18.69301,-33.84669 18.69268,-33.84663 18.69195,-33.84653 18.69186,-33.8465 18.68974,-33.84581 18.68871,-33.84548 18.68835,-33.84536 18.68663,-33.84478 18.68664,-33.84472 18.68676,-33.84394 18.68698,-33.84255 18.68699,-33.8425 18.68713,-33.84162 18.68751,-33.83921 18.68703,-33.83929 18.68702,-33.83929 18.68626,-33.83933 18.68589,-33.83933 18.68568,-33.83931 18.68532,-33.83927 18.68407,-33.83915 18.68407,-33.83914 18.68404,-33.83907 18.684,-33.83896 18.68391,-33.83875 18.68386,-33.8386 18.68381,-33.83848 18.68376,-33.83835 18.68376,-33.83835 18.68369,-33.83818 18.68367,-33.83806 18.68358,-33.83769 18.68355,-33.83753 18.68353,-33.83736 18.68352,-33.83724 18.68352,-33.83714 18.68352,-33.83707 18.68352,-33.83699 18.68352,-33.83684 18.68351,-33.83658 18.68354,-33.83621 18.68354,-33.8362 18.68363,-33.83504 18.68367,-33.83479 18.68368,-33.83475 18.68373,-33.83433 18.68375,-33.83413 18.6838,-33.83372 18.68382,-33.83358 18.68383,-33.83344 18.68384,-33.83342 18.68384,-33.83334 18.68388,-33.83295 18.68389,-33.83283 18.68387,-33.83256 18.68386,-33.83236 18.68386,-33.8323 18.68384,-33.83215 18.68383,-33.83214 18.6838,-33.83197 18.6838,-33.83197 18.68376,-33.83174 18.68374,-33.83164 18.68365,-33.83133 18.68363,-33.83124 18.6835,-33.83129 18.68344,-33.83115 18.68336,-33.83095 18.68321,-33.83063 18.6832,-33.83059 18.68306,-33.83039 18.68292,-33.83017 18.68276,-33.82991 18.68256,-33.8296 18.68251,-33.82952 18.68229,-33.82946 18.682,-33.82959 18.68194,-33.82962 18.68194,-33.82962 18.68153,-33.8298 18.68077,-33.83014 18.68076,-33.83014 18.68071,-33.83018 18.68003,-33.83047 18.67946,-33.83062 18.67899,-33.83073 18.67838,-33.83078 18.67779,-33.8308 18.67719,-33.83073 18.67625,-33.83048 18.67578,-33.83028 18.67529,-33.82997 18.67481,-33.82949 18.67803,-33.82844 18.67989,-33.82779 18.67937,-33.82686 18.67781,-33.82407 18.67877,-33.82377 18.67933,-33.82357 18.67967,-33.82352 18.68024,-33.82343 18.68041,-33.82341 18.68114,-33.82331 18.68264,-33.82338 18.68303,-33.8234 18.68324,-33.82247 18.68706,-33.82255 18.68813,-33.82258 18.68847,-33.82259 18.68848,-33.82259 18.68852,-33.82259 18.68998,-33.82211 18.69026,-33.82202 18.69246,-33.8213 18.69246,-33.8213 18.69507,-33.82045 18.69711,-33.81978 18.69771,-33.82209</coordinates></LinearRing></outerBoundaryIs></Polygon></MultiGeometry></Placemark></Document></kml>