<?xml version="1.0" encoding="UTF-8"?><kml xmlns="http://www.opengis.net/kml/2.2"><Document><Placemark><name>Khayelitsha</name><description>Main Place 199038</description><ExtendedData><Data name="code"><value>199038</value></Data><Data name="name"><value>Khayelitsha</value></Data><Data name="description"><value>Main Place 199038</value></Data></ExtendedData><MultiGeometry><Polygon><outerBoundaryIs><LinearRing><coordinates>18.69528,-34.07129 18.69463,-34.07167 18.69404,-34.07194 18.69344,-34.0721 18.69325,-34.07214 18.6929,-34.07218 18.69293,-34.07234 18.69293,-34.07234 18.69295,-34.07248 18.69265,-34.0725 18.69233,-34.07253 18.69208,-34.07253 18.6918,-34.07253 18.69142,-34.07256 18.69114,-34.07255 18.69085,-34.07261 18.69045,-34.07263 18.6901,-34.07276 18.68989,-34.07291 18.6897,-34.07315 18.68965,-34.07336 18.68964,-34.0738 18.68987,-34.07401 18.68988,-34.07403 18.68995,-34.07417 18.68995,-34.07418 18.68981,-34.07418 18.68925,-34.07418 18.68852,-34.07425 18.68834,-34.07443 18.68792,-34.07455 18.68757,-34.07468 18.68717,-34.0747 18.68698,-34.07465 18.6868,-34.07461 18.68674,-34.0746 18.68656,-34.07474 18.68655,-34.07475 18.6864,-34.0748 18.6861,-34.07481 18.68566,-34.0748 18.68534,-34.07475 18.68506,-34.07466 18.68484,-34.07471 18.68451,-34.0748 18.68426,-34.07481 18.68406,-34.07456 18.68391,-34.07436 18.68347,-34.07445 18.68292,-34.07445 18.68247,-34.07441 18.68192,-34.0744 18.68151,-34.07425 18.68112,-34.07426 18.68063,-34.07423 18.68018,-34.07416 18.67959,-34.07413 18.67913,-34.07406 18.67873,-34.07398 18.67828,-34.07398 18.67779,-34.07396 18.67744,-34.07385 18.67709,-34.07388 18.67679,-34.07378 18.67643,-34.07388 18.67591,-34.07385 18.67531,-34.07388 18.67456,-34.07388 18.67396,-34.0739 18.67356,-34.07381 18.67288,-34.07381 18.6727,-34.07365 18.67223,-34.07365 18.67178,-34.07363 18.6715,-34.07348 18.67096,-34.0735 18.67041,-34.0735 18.67003,-34.07341 18.6697,-34.07345 18.66956,-34.07345 18.66963,-34.07311 18.66963,-34.07311 18.66966,-34.07245 18.66931,-34.07198 18.66894,-34.07145 18.66862,-34.07151 18.6683,-34.07108 18.66768,-34.07064 18.66647,-34.06988 18.66617,-34.06973 18.66588,-34.0696 18.66556,-34.06948 18.66511,-34.06932 18.66444,-34.0691 18.66381,-34.06889 18.66322,-34.0687 18.66294,-34.06861 18.66263,-34.06849 18.66234,-34.06837 18.66196,-34.06821 18.6613,-34.06789 18.66048,-34.06743 18.66,-34.06712 18.65954,-34.06679 18.65908,-34.06643 18.65829,-34.06576 18.6573,-34.06491 18.65657,-34.06428 18.65532,-34.06322 18.65504,-34.06298 18.65322,-34.06137 18.65316,-34.06131 18.65248,-34.0606 18.65194,-34.05997 18.64994,-34.05758 18.64963,-34.05721 18.64954,-34.05709 18.64888,-34.05627 18.64845,-34.05572 18.64794,-34.05503 18.64672,-34.05332 18.64583,-34.05207 18.64409,-34.04966 18.64354,-34.04901 18.64298,-34.04842 18.64255,-34.04805 18.64142,-34.04713 18.63896,-34.04518 18.63696,-34.04358 18.63656,-34.04324 18.63634,-34.04299 18.63574,-34.04229 18.63563,-34.04211 18.63512,-34.04123 18.63489,-34.04056 18.63473,-34.03994 18.63464,-34.03922 18.6346,-34.03891 18.63417,-34.03511 18.63414,-34.03491 18.63402,-34.03391 18.63398,-34.03357 18.63383,-34.0323 18.63363,-34.03058 18.63334,-34.02816 18.63319,-34.02699 18.63312,-34.02641 18.63302,-34.02552 18.63265,-34.02213 18.63263,-34.02195 18.63263,-34.02193 18.63261,-34.02162 18.63261,-34.0216 18.63257,-34.021 18.63248,-34.02014 18.6324,-34.01942 18.63231,-34.01862 18.63225,-34.01835 18.63225,-34.01833 18.63228,-34.01833 18.63221,-34.01774 18.63213,-34.01702 18.6321,-34.01667 18.63206,-34.01655 18.63188,-34.01556 18.63182,-34.01515 18.6318,-34.01501 18.63161,-34.01345 18.63145,-34.0121 18.63118,-34.00971 18.63118,-34.00969 18.63114,-34.0093 18.63114,-34.00926 18.63111,-34.00899 18.63114,-34.00871 18.63117,-34.00844 18.63131,-34.00811 18.63147,-34.00787 18.6322,-34.00707 18.63143,-34.00671 18.63095,-34.00642 18.6307,-34.00625 18.62998,-34.00571 18.62903,-34.00499 18.63243,-34.00169 18.63276,-34.00137 18.63301,-34.00144 18.634,-34.00184 18.63484,-34.00218 18.63612,-34.00268 18.63705,-34.00304 18.63785,-34.00337 18.63861,-34.00364 18.63995,-34.0042 18.64036,-34.00436 18.64037,-34.00436 18.64042,-34.00438 18.64079,-34.00452 18.64169,-34.00488 18.64175,-34.0049 18.64191,-34.00497 18.64305,-34.00541 18.64332,-34.00551 18.64416,-34.00584 18.64473,-34.00607 18.64564,-34.00643 18.64626,-34.00669 18.64675,-34.00689 18.6468,-34.00691 18.64735,-34.00716 18.64757,-34.00726 18.64795,-34.00743 18.64803,-34.00747 18.64847,-34.00767 18.64938,-34.00808 18.65017,-34.00846 18.65148,-34.00905 18.65177,-34.0092 18.65179,-34.00921 18.65268,-34.00964 18.65271,-34.00966 18.65352,-34.01001 18.65417,-34.01034 18.65484,-34.01065 18.65597,-34.01119 18.65683,-34.01155 18.65791,-34.01207 18.6584,-34.01229 18.65877,-34.01248 18.65953,-34.01284 18.66256,-34.01425 18.66482,-34.0153 18.66543,-34.01559 18.66625,-34.01596 18.66682,-34.01623 18.66745,-34.01653 18.66852,-34.01702 18.66852,-34.01702 18.66935,-34.01741 18.66937,-34.01742 18.66963,-34.01754 18.66984,-34.01764 18.66989,-34.01766 18.67055,-34.01797 18.67113,-34.01824 18.67196,-34.01862 18.67331,-34.01925 18.67379,-34.01947 18.67465,-34.01987 18.67626,-34.02062 18.67827,-34.02156 18.67955,-34.02214 18.68011,-34.02238 18.68069,-34.02263 18.68154,-34.02295 18.68317,-34.02359 18.68986,-34.02623 18.68986,-34.02623 18.69461,-34.02811 18.69697,-34.02904 18.69719,-34.02912 18.70041,-34.03039 18.70416,-34.03186 18.71122,-34.03464 18.71821,-34.03738 18.72359,-34.0395 18.72311,-34.0403 18.71851,-34.04847 18.71677,-34.05155 18.71654,-34.05196 18.71598,-34.05292 18.71545,-34.05386 18.7152,-34.05427 18.71498,-34.05464 18.7145,-34.05531 18.71419,-34.0557 18.714,-34.05594 18.71375,-34.0562 18.71353,-34.05645 18.71332,-34.05665 18.7131,-34.05688 18.71308,-34.05691 18.71284,-34.05713 18.71255,-34.05739 18.71229,-34.05762 18.712,-34.05785 18.71038,-34.05916 18.71002,-34.05945 18.70997,-34.05949 18.70896,-34.06031 18.70841,-34.06075 18.70682,-34.06202 18.70578,-34.06285 18.70197,-34.06594 18.70018,-34.06737 18.69961,-34.0678 18.69905,-34.06817 18.69788,-34.06915 18.69637,-34.07042 18.69588,-34.07084 18.69528,-34.07129</coordinates></LinearRing></outerBoundaryIs></Polygon></MultiGeometry></Placemark></Document></kml>