<?xml version="1.0" encoding="UTF-8"?><kml xmlns="http://www.opengis.net/kml/2.2"><Document><Placemark><name>Mdantsane</name><description>Main Place 260088</description><ExtendedData><Data name="code"><value>260088</value></Data><Data name="name"><value>Mdantsane</value></Data><Data name="description"><value>Main Place 260088</value></Data></ExtendedData><MultiGeometry><Polygon><outerBoundaryIs><LinearRing><coordinates>27.71126,-32.96774 27.71133,-32.96784 27.71137,-32.96787 27.7114,-32.96796 27.7114,-32.968 27.71137,-32.96804 27.71133,-32.96806 27.71131,-32.9681 27.71127,-32.96818 27.71115,-32.96828 27.71107,-32.96832 27.71102,-32.96855 27.71102,-32.96862 27.71099,-32.96866 27.71094,-32.96874 27.71094,-32.96882 27.71089,-32.96891 27.71082,-32.96904 27.71077,-32.96915 27.71071,-32.96925 27.7106,-32.9693 27.71054,-32.96938 27.71047,-32.96947 27.71047,-32.96951 27.71048,-32.96956 27.71036,-32.96975 27.71042,-32.96986 27.71041,-32.96997 27.71028,-32.97021 27.71015,-32.97037 27.70992,-32.97062 27.7101,-32.97091 27.71042,-32.97119 27.71083,-32.97143 27.71123,-32.97155 27.71151,-32.97157 27.71179,-32.97157 27.71205,-32.97157 27.71226,-32.97151 27.71242,-32.97146 27.71302,-32.97115 27.71344,-32.97094 27.71368,-32.97111 27.71391,-32.97127 27.71405,-32.97166 27.71417,-32.97183 27.71424,-32.97203 27.71449,-32.97227 27.71452,-32.97239 27.71446,-32.97286 27.7144,-32.97318 27.71413,-32.9738 27.71395,-32.97429 27.71377,-32.97484 27.71373,-32.97508 27.71363,-32.97556 27.71348,-32.97579 27.71295,-32.97575 27.7122,-32.97616 27.71137,-32.97633 27.71046,-32.9763 27.70963,-32.97586 27.70907,-32.97529 27.7085,-32.97459 27.70839,-32.97402 27.70835,-32.97377 27.70775,-32.97388 27.70727,-32.97388 27.70657,-32.97388 27.70595,-32.97378 27.70563,-32.97358 27.70474,-32.97343 27.70397,-32.9732 27.70365,-32.97306 27.70311,-32.9727 27.70226,-32.97221 27.70205,-32.97184 27.70184,-32.97083 27.70185,-32.97021 27.70196,-32.96991 27.70206,-32.96967 27.70272,-32.96904 27.70332,-32.96861 27.70378,-32.96851 27.70405,-32.96858 27.70422,-32.96866 27.70434,-32.9687 27.70475,-32.96919 27.70488,-32.96948 27.70507,-32.96979 27.70603,-32.96908 27.70614,-32.96878 27.70638,-32.96852 27.70628,-32.96826 27.70637,-32.96808 27.70647,-32.96808 27.70642,-32.96796 27.70628,-32.96781 27.70638,-32.96768 27.70649,-32.96758 27.70713,-32.96765 27.70718,-32.96747 27.70738,-32.96745 27.7075,-32.96743 27.70782,-32.9675 27.70838,-32.96769 27.7085,-32.96769 27.7086,-32.9677 27.70886,-32.96773 27.70912,-32.96775 27.70946,-32.96775 27.70955,-32.96774 27.70961,-32.96773 27.70975,-32.96768 27.70982,-32.96767 27.70992,-32.96768 27.71005,-32.96771 27.7102,-32.96775 27.71037,-32.96775 27.71049,-32.96777 27.71053,-32.96777 27.71058,-32.96777 27.71065,-32.96774 27.71082,-32.9676 27.71091,-32.96752 27.71101,-32.96743 27.71104,-32.9674 27.71108,-32.96736 27.71115,-32.9673 27.7112,-32.96727 27.71125,-32.96727 27.71132,-32.9673 27.71137,-32.96736 27.71139,-32.96745 27.71132,-32.96751 27.71116,-32.96759 27.71126,-32.96774</coordinates></LinearRing></outerBoundaryIs></Polygon><Polygon><outerBoundaryIs><LinearRing><coordinates>27.74688,-32.91523 27.74759,-32.91529 27.74859,-32.91542 27.74918,-32.91553 27.74977,-32.91566 27.75091,-32.91598 27.75194,-32.91639 27.75218,-32.9165 27.75241,-32.9166 27.75454,-32.91753 27.75511,-32.91779 27.75515,-32.91781 27.75696,-32.91861 27.75738,-32.91881 27.75751,-32.91888 27.75975,-32.91985 27.76277,-32.92117 27.7639,-32.92161 27.76316,-32.92341 27.76197,-32.92302 27.76179,-32.92306 27.7614,-32.92305 27.76115,-32.9231 27.76071,-32.92319 27.76155,-32.92345 27.76316,-32.92393 27.76421,-32.92422 27.76522,-32.92454 27.76545,-32.92464 27.76642,-32.92509 27.76782,-32.92578 27.76798,-32.92586 27.76845,-32.92609 27.76856,-32.92615 27.76964,-32.92663 27.77034,-32.92693 27.7704,-32.92696 27.77128,-32.9274 27.77202,-32.92772 27.7726,-32.92795 27.7742,-32.92825 27.77498,-32.9283 27.77499,-32.9283 27.77531,-32.92834 27.77604,-32.92844 27.77678,-32.9286 27.77733,-32.92878 27.77807,-32.9291 27.77866,-32.92943 27.77904,-32.92969 27.77945,-32.93 27.78008,-32.93046 27.78047,-32.93075 27.78052,-32.93079 27.7806,-32.93086 27.78153,-32.93152 27.78367,-32.9331 27.78369,-32.93312 27.78464,-32.93382 27.78497,-32.9341 27.78537,-32.93456 27.78541,-32.93461 27.78546,-32.93467 27.78604,-32.93553 27.78679,-32.93662 27.78692,-32.93681 27.78725,-32.93742 27.78742,-32.93785 27.78754,-32.93833 27.78764,-32.93887 27.78764,-32.93953 27.78759,-32.94003 27.78707,-32.94307 27.7869,-32.94375 27.78679,-32.94409 27.78651,-32.94468 27.78627,-32.94516 27.7859,-32.94573 27.78563,-32.94608 27.7852,-32.94658 27.78487,-32.94691 27.78507,-32.94702 27.78533,-32.94716 27.78547,-32.9472 27.78553,-32.94723 27.78547,-32.94775 27.78461,-32.95117 27.78508,-32.95225 27.78192,-32.9545 27.78192,-32.95474 27.78198,-32.95518 27.78223,-32.95583 27.78264,-32.95641 27.78323,-32.95697 27.78733,-32.9606 27.78776,-32.96096 27.78842,-32.9614 27.78765,-32.96263 27.78706,-32.96355 27.78703,-32.96358 27.78687,-32.9637 27.7868,-32.96392 27.78674,-32.96416 27.78661,-32.96432 27.7864,-32.96459 27.78619,-32.96489 27.78611,-32.96532 27.78601,-32.96547 27.78587,-32.96556 27.78562,-32.96561 27.78536,-32.96569 27.7852,-32.96576 27.7851,-32.96586 27.785,-32.96595 27.78495,-32.96603 27.78489,-32.96617 27.78486,-32.96625 27.78484,-32.96629 27.78484,-32.96631 27.78481,-32.9664 27.78471,-32.96652 27.78463,-32.96661 27.78434,-32.96666 27.78412,-32.96672 27.78406,-32.96674 27.78386,-32.96691 27.78336,-32.96709 27.78333,-32.96718 27.78336,-32.96728 27.78339,-32.96739 27.78337,-32.96751 27.78333,-32.96765 27.78329,-32.96777 27.78325,-32.96785 27.78315,-32.96791 27.7831,-32.96797 27.78306,-32.96802 27.78302,-32.96808 27.78294,-32.96817 27.78274,-32.96828 27.78252,-32.96835 27.78231,-32.9684 27.78222,-32.96842 27.78206,-32.96843 27.78192,-32.96843 27.78164,-32.96847 27.78158,-32.96848 27.78151,-32.9685 27.78142,-32.96854 27.78133,-32.96858 27.78125,-32.96862 27.78109,-32.96869 27.78104,-32.96873 27.781,-32.96877 27.78089,-32.96887 27.7806,-32.96896 27.78045,-32.96902 27.78037,-32.96915 27.78024,-32.96933 27.78009,-32.96958 27.78003,-32.9697 27.77999,-32.96976 27.77996,-32.96982 27.7799,-32.96993 27.7799,-32.96994 27.77987,-32.97007 27.77988,-32.97018 27.77987,-32.97029 27.77987,-32.97059 27.77986,-32.9708 27.77984,-32.97092 27.77982,-32.97117 27.77977,-32.97142 27.77976,-32.97154 27.77956,-32.97184 27.77948,-32.97197 27.77941,-32.9721 27.77932,-32.97228 27.77926,-32.97242 27.77912,-32.97282 27.77881,-32.97266 27.77863,-32.97259 27.77847,-32.97248 27.77824,-32.97237 27.7781,-32.97228 27.77795,-32.97208 27.77782,-32.97197 27.77773,-32.97189 27.77757,-32.97176 27.77737,-32.97163 27.77722,-32.9715 27.77698,-32.97148 27.77685,-32.97142 27.77662,-32.97142 27.77645,-32.97142 27.77622,-32.97147 27.77606,-32.97154 27.77588,-32.97162 27.77582,-32.97172 27.77578,-32.97179 27.77572,-32.972 27.77563,-32.97215 27.77558,-32.97232 27.7755,-32.97256 27.77546,-32.97271 27.77536,-32.97289 27.77535,-32.97308 27.77533,-32.97327 27.77528,-32.97339 27.77523,-32.97361 27.77523,-32.97384 27.7752,-32.97393 27.77518,-32.97419 27.77526,-32.97445 27.77532,-32.9746 27.77538,-32.97475 27.77543,-32.97492 27.77542,-32.97495 27.77539,-32.97507 27.77518,-32.97523 27.77507,-32.97532 27.77497,-32.97544 27.77484,-32.97544 27.77466,-32.9753 27.77454,-32.97523 27.77445,-32.97517 27.77431,-32.97511 27.77415,-32.97505 27.77402,-32.97505 27.77395,-32.97543 27.77385,-32.97591 27.77364,-32.97636 27.77321,-32.97677 27.77267,-32.97722 27.77226,-32.97761 27.77183,-32.97785 27.7714,-32.97791 27.77096,-32.9781 27.77068,-32.97832 27.77041,-32.97841 27.77018,-32.97823 27.77015,-32.97802 27.77008,-32.9778 27.76997,-32.97765 27.76988,-32.97758 27.76973,-32.97757 27.76956,-32.97771 27.76943,-32.97782 27.76925,-32.97787 27.76902,-32.97787 27.76872,-32.97758 27.76836,-32.97719 27.76817,-32.9769 27.76805,-32.97676 27.76786,-32.97661 27.76771,-32.97651 27.76768,-32.97639 27.76766,-32.97613 27.76758,-32.97594 27.76747,-32.97571 27.76781,-32.97525 27.76818,-32.97495 27.76878,-32.97458 27.76887,-32.97443 27.76901,-32.97416 27.76904,-32.97382 27.76934,-32.97328 27.76935,-32.97326 27.76925,-32.97269 27.76896,-32.97226 27.76876,-32.9719 27.76875,-32.97187 27.76865,-32.97166 27.76865,-32.97146 27.7687,-32.9711 27.76863,-32.97086 27.76843,-32.97061 27.76726,-32.96957 27.7668,-32.96944 27.76638,-32.96926 27.76597,-32.96902 27.76578,-32.96891 27.76523,-32.96852 27.76519,-32.96849 27.76496,-32.96837 27.76479,-32.96811 27.76462,-32.96774 27.76436,-32.96751 27.76403,-32.96726 27.76363,-32.96708 27.76301,-32.96677 27.76261,-32.96659 27.76262,-32.96655 27.76262,-32.9663 27.7626,-32.96617 27.76261,-32.9661 27.76275,-32.96578 27.76288,-32.96554 27.76297,-32.96542 27.76305,-32.96531 27.76307,-32.96522 27.7631,-32.96504 27.76307,-32.96493 27.76305,-32.96488 27.76299,-32.96481 27.76289,-32.96473 27.76277,-32.96466 27.76271,-32.96459 27.76268,-32.96453 27.76265,-32.9645 27.76265,-32.96438 27.76266,-32.96425 27.76274,-32.96405 27.76277,-32.964 27.7627,-32.96401 27.76269,-32.96401 27.76224,-32.96364 27.76186,-32.96337 27.76158,-32.96323 27.76106,-32.96265 27.7611,-32.96245 27.76117,-32.96207 27.76121,-32.96172 27.76123,-32.96155 27.76107,-32.96141 27.76093,-32.96129 27.76075,-32.96104 27.76048,-32.96051 27.76046,-32.96047 27.76036,-32.96029 27.76047,-32.96024 27.76052,-32.96033 27.76067,-32.96044 27.76083,-32.96049 27.76087,-32.96049 27.76103,-32.96048 27.76117,-32.96046 27.7613,-32.96044 27.76137,-32.96043 27.76143,-32.96044 27.76159,-32.96043 27.76181,-32.96038 27.76199,-32.96034 27.76212,-32.96029 27.76224,-32.96023 27.76233,-32.96017 27.76243,-32.96012 27.76249,-32.9601 27.76257,-32.96007 27.76265,-32.96002 27.76275,-32.95998 27.76286,-32.95995 27.76299,-32.95991 27.76307,-32.95988 27.76317,-32.95985 27.76334,-32.9598 27.76347,-32.95976 27.76358,-32.95974 27.76373,-32.9597 27.76384,-32.95968 27.76402,-32.95967 27.76421,-32.95964 27.76433,-32.9596 27.76441,-32.95953 27.76444,-32.95947 27.76445,-32.95941 27.76445,-32.95934 27.76443,-32.95926 27.76429,-32.95911 27.76414,-32.95896 27.76401,-32.95883 27.76398,-32.95879 27.76398,-32.95875 27.76404,-32.95869 27.76407,-32.95864 27.76412,-32.95856 27.76411,-32.95856 27.76385,-32.95854 27.7637,-32.95858 27.76367,-32.95858 27.76327,-32.95848 27.76308,-32.95846 27.76274,-32.95841 27.76191,-32.95833 27.76189,-32.95833 27.7613,-32.95824 27.76043,-32.95807 27.76015,-32.95823 27.75979,-32.95841 27.75955,-32.95855 27.75911,-32.95864 27.75851,-32.95881 27.75814,-32.95881 27.75794,-32.95876 27.7576,-32.95848 27.75754,-32.95836 27.75776,-32.95816 27.7579,-32.95799 27.75807,-32.95782 27.75829,-32.95754 27.7583,-32.95753 27.75811,-32.95736 27.75793,-32.95719 27.75761,-32.95691 27.757,-32.95647 27.75677,-32.95632 27.75652,-32.95607 27.75619,-32.95591 27.75593,-32.95562 27.75576,-32.95545 27.7557,-32.95539 27.75564,-32.95522 27.75547,-32.95499 27.75535,-32.95504 27.7551,-32.95518 27.75494,-32.95526 27.7547,-32.95527 27.75462,-32.95519 27.75462,-32.9551 27.75459,-32.9551 27.75448,-32.95512 27.75441,-32.95519 27.75435,-32.95527 27.7542,-32.95523 27.75387,-32.95546 27.75378,-32.95557 27.7537,-32.95565 27.75343,-32.95577 27.75325,-32.95579 27.75325,-32.95579 27.75305,-32.95598 27.75258,-32.95635 27.75219,-32.95663 27.752,-32.9568 27.75185,-32.95685 27.7517,-32.95686 27.75133,-32.95684 27.75096,-32.95672 27.75083,-32.95667 27.75068,-32.95657 27.75057,-32.95646 27.75046,-32.95629 27.75035,-32.95622 27.7502,-32.95614 27.75011,-32.95609 27.75,-32.95598 27.74975,-32.95585 27.74964,-32.95604 27.74938,-32.95643 27.74918,-32.95741 27.74853,-32.95846 27.74836,-32.95854 27.74819,-32.95853 27.74807,-32.95849 27.74805,-32.95848 27.74799,-32.95852 27.74749,-32.95863 27.74748,-32.95864 27.74748,-32.95866 27.74748,-32.95867 27.74748,-32.9587 27.74748,-32.95871 27.74748,-32.95874 27.74748,-32.95875 27.74747,-32.95877 27.74746,-32.95878 27.74745,-32.95879 27.74742,-32.95881 27.74739,-32.95883 27.74735,-32.95884 27.74734,-32.95884 27.74731,-32.95885 27.74728,-32.95885 27.74725,-32.95886 27.74723,-32.95886 27.74722,-32.95887 27.7472,-32.95887 27.74718,-32.95889 27.74715,-32.9589 27.74713,-32.95891 27.74712,-32.95892 27.7471,-32.95893 27.74709,-32.95894 27.74708,-32.95896 27.74708,-32.95897 27.74708,-32.959 27.74705,-32.95899 27.74701,-32.95899 27.74695,-32.95899 27.74688,-32.95898 27.74679,-32.95896 27.74665,-32.95893 27.74648,-32.9589 27.74644,-32.95888 27.74535,-32.95913 27.74512,-32.95931 27.74494,-32.95946 27.74395,-32.96025 27.74209,-32.96189 27.74196,-32.96201 27.74178,-32.96216 27.74178,-32.96216 27.74156,-32.96232 27.74143,-32.9624 27.7413,-32.96249 27.74129,-32.9625 27.74128,-32.9625 27.74127,-32.96251 27.74119,-32.96261 27.74111,-32.96273 27.74096,-32.96292 27.74069,-32.96294 27.74041,-32.96295 27.74038,-32.96291 27.7402,-32.96272 27.74009,-32.96261 27.73999,-32.9625 27.73989,-32.9624 27.73979,-32.96229 27.73969,-32.96218 27.73959,-32.96207 27.73949,-32.96197 27.73947,-32.96195 27.73926,-32.96174 27.73918,-32.96164 27.73908,-32.96154 27.73898,-32.96143 27.73888,-32.96132 27.73878,-32.96121 27.73871,-32.96115 27.73867,-32.96101 27.73863,-32.96088 27.73859,-32.96075 27.73855,-32.96061 27.73851,-32.96048 27.73847,-32.96035 27.73843,-32.96021 27.73842,-32.96017 27.73838,-32.96004 27.73837,-32.95999 27.73827,-32.95978 27.73825,-32.9597 27.73825,-32.95967 27.73822,-32.95952 27.73817,-32.9594 27.73811,-32.95913 27.73809,-32.95907 27.73808,-32.95904 27.73808,-32.95903 27.73808,-32.95902 27.738,-32.95882 27.7379,-32.95843 27.73789,-32.9584 27.73785,-32.95827 27.73781,-32.95813 27.73777,-32.958 27.73776,-32.95794 27.73775,-32.95792 27.7381,-32.95786 27.7381,-32.95785 27.73774,-32.95666 27.73774,-32.95628 27.73743,-32.95627 27.73741,-32.95595 27.73698,-32.95589 27.73656,-32.95582 27.73639,-32.95583 27.73639,-32.95601 27.73641,-32.95613 27.73634,-32.95654 27.7362,-32.9567 27.73613,-32.9568 27.736,-32.95691 27.73579,-32.95795 27.73574,-32.95803 27.73568,-32.95816 27.7356,-32.95831 27.73547,-32.95837 27.73552,-32.95842 27.73558,-32.95855 27.73561,-32.95865 27.73562,-32.95875 27.73561,-32.95887 27.73555,-32.95909 27.7354,-32.95941 27.73529,-32.95963 27.73519,-32.9598 27.73512,-32.95985 27.73508,-32.95989 27.73508,-32.96 27.73506,-32.96007 27.73501,-32.96018 27.735,-32.9603 27.73501,-32.96051 27.73506,-32.96107 27.73508,-32.96117 27.7351,-32.96133 27.7351,-32.96147 27.73512,-32.96174 27.73518,-32.96231 27.73519,-32.96242 27.73519,-32.9625 27.73518,-32.96256 27.73517,-32.96262 27.73515,-32.96266 27.73512,-32.9627 27.73533,-32.96275 27.73535,-32.96277 27.7353,-32.96298 27.73527,-32.96304 27.73519,-32.9631 27.7346,-32.96327 27.73442,-32.96332 27.73418,-32.96334 27.73401,-32.96333 27.73391,-32.96315 27.73382,-32.96306 27.73374,-32.96299 27.7337,-32.96289 27.73364,-32.96275 27.73361,-32.96266 27.73354,-32.96268 27.73338,-32.9627 27.73328,-32.9627 27.73322,-32.96269 27.73319,-32.96266 27.73316,-32.96264 27.73313,-32.96257 27.73308,-32.96244 27.733,-32.96226 27.73285,-32.96228 27.73262,-32.96232 27.73264,-32.96254 27.73267,-32.96272 27.73272,-32.9631 27.73269,-32.96321 27.73263,-32.96333 27.73256,-32.96344 27.73234,-32.96362 27.73223,-32.96369 27.73217,-32.96371 27.73213,-32.96372 27.73207,-32.96376 27.73195,-32.96385 27.73164,-32.964 27.73149,-32.96415 27.73133,-32.96461 27.73111,-32.96492 27.73104,-32.96495 27.73101,-32.96546 27.7311,-32.96596 27.73115,-32.96597 27.73117,-32.96599 27.73119,-32.96602 27.73116,-32.96605 27.73114,-32.96606 27.73109,-32.96616 27.73108,-32.96621 27.73109,-32.96623 27.7311,-32.96627 27.73107,-32.96628 27.73103,-32.96629 27.73102,-32.96632 27.73102,-32.96637 27.73103,-32.96642 27.73101,-32.96644 27.73097,-32.96648 27.73094,-32.96651 27.73089,-32.96653 27.73078,-32.9666 27.73069,-32.96676 27.73058,-32.96669 27.73058,-32.96671 27.7305,-32.96678 27.73055,-32.96682 27.73049,-32.96688 27.73041,-32.96683 27.73027,-32.96695 27.73023,-32.96699 27.73019,-32.967 27.73018,-32.96702 27.73015,-32.96706 27.73013,-32.96709 27.73012,-32.96709 27.7301,-32.96711 27.73008,-32.96709 27.73002,-32.96708 27.72997,-32.96705 27.72993,-32.96703 27.72989,-32.96701 27.72987,-32.96699 27.72984,-32.96699 27.72978,-32.96701 27.72976,-32.967 27.72974,-32.967 27.72971,-32.96699 27.72968,-32.96699 27.72966,-32.96698 27.72964,-32.96697 27.7296,-32.96696 27.72956,-32.96695 27.72954,-32.96693 27.72952,-32.9669 27.72949,-32.96687 27.72946,-32.96683 27.72945,-32.96682 27.72943,-32.96678 27.72942,-32.96675 27.72939,-32.96673 27.72937,-32.9667 27.72939,-32.96667 27.72928,-32.96661 27.72946,-32.96623 27.72969,-32.96581 27.72975,-32.96574 27.72989,-32.96546 27.73018,-32.96513 27.73026,-32.96498 27.73022,-32.96486 27.7302,-32.96471 27.73019,-32.96465 27.73019,-32.96464 27.73019,-32.96463 27.73018,-32.96461 27.73018,-32.9646 27.73017,-32.96458 27.73015,-32.96457 27.73015,-32.96455 27.73014,-32.96453 27.73013,-32.96453 27.73012,-32.96453 27.73012,-32.96452 27.73012,-32.9645 27.73009,-32.96448 27.73004,-32.96444 27.72998,-32.96439 27.72994,-32.96436 27.72991,-32.96433 27.72989,-32.9643 27.72987,-32.96426 27.72986,-32.96424 27.72987,-32.96422 27.72988,-32.9642 27.72989,-32.96417 27.72989,-32.96413 27.72989,-32.9641 27.72991,-32.96407 27.72993,-32.96405 27.72995,-32.96403 27.72996,-32.96403 27.72996,-32.96382 27.73001,-32.96374 27.73001,-32.96371 27.73005,-32.96361 27.73017,-32.96336 27.73022,-32.96325 27.73032,-32.96316 27.73088,-32.96275 27.73119,-32.96251 27.73124,-32.96244 27.73127,-32.96235 27.7313,-32.9622 27.7313,-32.96212 27.73128,-32.96202 27.73131,-32.96191 27.73134,-32.96183 27.73149,-32.96163 27.73157,-32.96155 27.73164,-32.96152 27.73173,-32.96149 27.73195,-32.96144 27.73225,-32.96135 27.73266,-32.96125 27.73267,-32.96125 27.73268,-32.96125 27.73283,-32.96123 27.73303,-32.96123 27.73303,-32.96123 27.73308,-32.96123 27.73329,-32.9608 27.73342,-32.96056 27.73362,-32.96016 27.73371,-32.95998 27.73389,-32.95962 27.73402,-32.95936 27.73424,-32.95893 27.73434,-32.95871 27.73456,-32.95829 27.73464,-32.95814 27.73452,-32.95809 27.73439,-32.95804 27.73422,-32.95794 27.7341,-32.95786 27.73406,-32.95789 27.73387,-32.95808 27.73374,-32.95799 27.73362,-32.9579 27.73349,-32.95781 27.73337,-32.95773 27.73323,-32.95763 27.7332,-32.95763 27.73304,-32.95765 27.733,-32.95741 27.73287,-32.9568 27.7328,-32.95621 27.73276,-32.95596 27.73292,-32.95595 27.73294,-32.95594 27.73293,-32.95591 27.73407,-32.95477 27.73478,-32.95478 27.73481,-32.95478 27.73515,-32.9548 27.73516,-32.9548 27.73521,-32.95463 27.73525,-32.95451 27.73529,-32.95438 27.73529,-32.9543 27.73528,-32.95417 27.73526,-32.95403 27.73525,-32.95389 27.73524,-32.95376 27.73523,-32.95362 27.73522,-32.95348 27.73521,-32.95334 27.7352,-32.95321 27.73519,-32.95307 27.73518,-32.95293 27.73521,-32.95264 27.73505,-32.95243 27.73503,-32.95222 27.73514,-32.95202 27.73552,-32.95177 27.73573,-32.95176 27.7358,-32.95149 27.73583,-32.95141 27.73586,-32.95138 27.736,-32.9513 27.73634,-32.95124 27.73663,-32.95129 27.73687,-32.95145 27.73696,-32.95171 27.7369,-32.95197 27.73688,-32.95202 27.73687,-32.95205 27.73691,-32.95213 27.73694,-32.9522 27.73697,-32.95229 27.73701,-32.95242 27.73705,-32.95255 27.7371,-32.95269 27.73716,-32.95283 27.73717,-32.95298 27.73718,-32.95312 27.7372,-32.95326 27.73721,-32.9534 27.73722,-32.95353 27.73723,-32.95367 27.73724,-32.95381 27.73725,-32.95394 27.73727,-32.95414 27.73732,-32.95422 27.73771,-32.9542 27.73787,-32.9532 27.73799,-32.95243 27.73823,-32.95097 27.73824,-32.95094 27.73832,-32.95095 27.73847,-32.95096 27.73858,-32.95046 27.73864,-32.95039 27.7391,-32.95011 27.73932,-32.95013 27.73954,-32.94958 27.73957,-32.9496 27.73979,-32.94966 27.73986,-32.94968 27.73987,-32.94954 27.73986,-32.94922 27.73986,-32.94912 27.73988,-32.94903 27.73991,-32.94895 27.74009,-32.94859 27.74014,-32.94847 27.74025,-32.94831 27.74033,-32.94821 27.74046,-32.94803 27.7407,-32.94768 27.74083,-32.94746 27.74088,-32.94737 27.74092,-32.94723 27.74092,-32.94717 27.74091,-32.94708 27.7404,-32.94705 27.73993,-32.94699 27.73959,-32.94689 27.73933,-32.9468 27.7392,-32.94675 27.73885,-32.94656 27.73851,-32.94632 27.73831,-32.94614 27.73813,-32.94595 27.738,-32.9457 27.73794,-32.9455 27.7379,-32.94533 27.7379,-32.94513 27.73789,-32.94501 27.73789,-32.9447 27.7378,-32.94471 27.73768,-32.94466 27.73763,-32.94462 27.73754,-32.94452 27.73748,-32.94447 27.73745,-32.94442 27.73741,-32.94433 27.7374,-32.94431 27.73737,-32.94427 27.73732,-32.94413 27.73726,-32.94401 27.73723,-32.9438 27.73721,-32.94349 27.73709,-32.94347 27.73706,-32.94349 27.73699,-32.94354 27.73693,-32.94353 27.73682,-32.94356 27.73668,-32.94358 27.73655,-32.94358 27.73646,-32.94356 27.73641,-32.9437 27.73637,-32.94384 27.73638,-32.94394 27.73636,-32.94399 27.73635,-32.94405 27.73634,-32.94411 27.73632,-32.94414 27.73632,-32.94417 27.73631,-32.94422 27.73632,-32.94427 27.7363,-32.94447 27.7363,-32.94463 27.73628,-32.94483 27.73624,-32.94496 27.7362,-32.94507 27.73614,-32.94515 27.73604,-32.94526 27.73594,-32.94533 27.73584,-32.94537 27.73573,-32.94541 27.73569,-32.94546 27.73568,-32.94551 27.73569,-32.94558 27.73575,-32.94564 27.73581,-32.94571 27.73591,-32.94585 27.73597,-32.94601 27.73601,-32.94616 27.73601,-32.94637 27.73597,-32.94653 27.73594,-32.94673 27.73589,-32.94688 27.73582,-32.94708 27.73579,-32.94709 27.73553,-32.94711 27.73553,-32.9472 27.73547,-32.94733 27.7354,-32.94742 27.73533,-32.94748 27.73523,-32.94755 27.73511,-32.9476 27.73497,-32.94766 27.73481,-32.94767 27.73469,-32.94767 27.73463,-32.94767 27.73457,-32.94766 27.73451,-32.94764 27.73444,-32.94761 27.73436,-32.94755 27.7343,-32.94746 27.73425,-32.94751 27.73425,-32.94757 27.73423,-32.94761 27.73422,-32.94767 27.73421,-32.94772 27.73415,-32.9477 27.7341,-32.94768 27.73401,-32.94766 27.73397,-32.9478 27.73392,-32.94791 27.73386,-32.948 27.73383,-32.94809 27.7338,-32.94819 27.73371,-32.94822 27.73363,-32.94828 27.73364,-32.94834 27.73364,-32.94836 27.73363,-32.94838 27.73364,-32.94846 27.73365,-32.94854 27.73356,-32.94864 27.73347,-32.94869 27.73327,-32.94866 27.73305,-32.94868 27.73299,-32.94869 27.73299,-32.94871 27.73299,-32.94881 27.73296,-32.94888 27.73289,-32.94895 27.73278,-32.94902 27.73261,-32.94911 27.73247,-32.94916 27.7323,-32.9492 27.73216,-32.9492 27.73185,-32.94914 27.73176,-32.9491 27.73168,-32.94906 27.73163,-32.94903 27.73156,-32.949 27.73148,-32.94899 27.7314,-32.94898 27.73131,-32.94898 27.73122,-32.94897 27.73112,-32.94893 27.73082,-32.94876 27.7307,-32.94866 27.73065,-32.94872 27.73063,-32.94876 27.73058,-32.94881 27.73046,-32.94888 27.73039,-32.94894 27.73031,-32.94901 27.73026,-32.94906 27.7302,-32.94911 27.73013,-32.94914 27.73001,-32.94919 27.72995,-32.94919 27.72955,-32.9495 27.72929,-32.94968 27.72928,-32.9497 27.72913,-32.94984 27.72897,-32.95 27.72885,-32.9501 27.72876,-32.95014 27.72864,-32.95018 27.72852,-32.95019 27.7284,-32.9502 27.7282,-32.95018 27.72806,-32.95015 27.72799,-32.95014 27.72789,-32.95023 27.72802,-32.95041 27.72799,-32.95045 27.72792,-32.95054 27.72877,-32.95099 27.72882,-32.95111 27.72893,-32.95134 27.72895,-32.95144 27.72894,-32.95166 27.72853,-32.95216 27.72774,-32.95315 27.72749,-32.95337 27.72733,-32.95344 27.72702,-32.95351 27.72685,-32.9535 27.72656,-32.95349 27.72635,-32.95347 27.72619,-32.95349 27.72587,-32.95357 27.72568,-32.95362 27.72549,-32.95363 27.72529,-32.95378 27.72515,-32.95385 27.72494,-32.95388 27.72463,-32.9539 27.72459,-32.9539 27.72461,-32.95399 27.72461,-32.95409 27.72461,-32.95428 27.72464,-32.95428 27.72467,-32.95429 27.72474,-32.95431 27.72482,-32.95433 27.72494,-32.95439 27.72503,-32.95446 27.72512,-32.95455 27.72521,-32.95465 27.7253,-32.95477 27.72532,-32.95482 27.72534,-32.95487 27.72534,-32.95495 27.72532,-32.95502 27.72529,-32.95509 27.72525,-32.95515 27.72521,-32.95518 27.72534,-32.95522 27.7256,-32.95529 27.72572,-32.95534 27.72581,-32.95535 27.72597,-32.95532 27.7261,-32.95524 27.72624,-32.95532 27.72622,-32.9554 27.72612,-32.95546 27.72584,-32.9556 27.72528,-32.95583 27.72524,-32.95591 27.72524,-32.95599 27.72532,-32.95611 27.72549,-32.95636 27.7256,-32.9565 27.72569,-32.95661 27.72584,-32.95682 27.72601,-32.95709 27.72601,-32.95714 27.72599,-32.9572 27.72587,-32.95729 27.72574,-32.95735 27.72562,-32.95744 27.7254,-32.95752 27.72514,-32.95761 27.72493,-32.95765 27.7249,-32.95766 27.7248,-32.95766 27.72471,-32.95766 27.72462,-32.95766 27.72459,-32.95766 27.72457,-32.95766 27.72455,-32.95767 27.72452,-32.95768 27.72447,-32.95771 27.72442,-32.95772 27.72439,-32.95774 27.72427,-32.9578 27.72411,-32.95786 27.72408,-32.95788 27.72397,-32.95793 27.72384,-32.95799 27.72372,-32.95806 27.7237,-32.95804 27.72358,-32.95771 27.72354,-32.95759 27.7235,-32.95748 27.72349,-32.95746 27.72344,-32.95748 27.723,-32.95759 27.72291,-32.9576 27.72282,-32.95762 27.7228,-32.95762 27.72255,-32.95809 27.72236,-32.95848 27.72243,-32.95855 27.72262,-32.95875 27.72263,-32.95874 27.72265,-32.95873 27.72266,-32.95871 27.72268,-32.95868 27.72271,-32.95866 27.72278,-32.95862 27.7228,-32.95863 27.72284,-32.95864 27.72287,-32.95863 27.7229,-32.95862 27.72292,-32.9586 27.72292,-32.95858 27.72295,-32.95856 27.72309,-32.95851 27.72321,-32.95847 27.72334,-32.95842 27.72342,-32.95842 27.72352,-32.95835 27.72353,-32.95834 27.72354,-32.95836 27.72354,-32.95838 27.72358,-32.95843 27.7236,-32.95846 27.72364,-32.95849 27.72366,-32.95851 27.72376,-32.95862 27.72381,-32.95867 27.72386,-32.95872 27.7239,-32.95876 27.72393,-32.95879 27.72396,-32.95883 27.724,-32.95887 27.72406,-32.95893 27.7242,-32.9591 27.72423,-32.95913 27.72425,-32.95915 27.72427,-32.95917 27.72428,-32.9592 27.72429,-32.95926 27.72432,-32.95937 27.72433,-32.95941 27.72433,-32.95946 27.72432,-32.95949 27.72428,-32.95957 27.72423,-32.95963 27.72417,-32.95971 27.72411,-32.95976 27.72395,-32.95987 27.72355,-32.96007 27.7232,-32.96023 27.72297,-32.96029 27.72285,-32.95996 27.72279,-32.95976 27.72278,-32.95973 27.72264,-32.95983 27.72256,-32.95988 27.72246,-32.95993 27.72229,-32.95997 27.72215,-32.95999 27.72205,-32.95998 27.72196,-32.95994 27.72172,-32.95978 27.72146,-32.95952 27.72133,-32.95936 27.72123,-32.95922 27.72074,-32.95913 27.7202,-32.95897 27.71996,-32.95879 27.71994,-32.95876 27.71989,-32.95881 27.71966,-32.95904 27.71956,-32.95916 27.7188,-32.96007 27.71874,-32.96014 27.71846,-32.96048 27.71806,-32.96094 27.7181,-32.96096 27.71819,-32.96102 27.71836,-32.9611 27.7185,-32.96117 27.71864,-32.96125 27.71873,-32.9613 27.71887,-32.96137 27.71902,-32.96144 27.71917,-32.96152 27.71927,-32.9615 27.71928,-32.96153 27.71933,-32.96158 27.7194,-32.96167 27.71943,-32.96172 27.71947,-32.96176 27.7195,-32.9618 27.71951,-32.96187 27.7196,-32.96205 27.71963,-32.96215 27.71965,-32.96219 27.71966,-32.96222 27.71968,-32.96228 27.7197,-32.96234 27.71971,-32.96238 27.71972,-32.9624 27.71973,-32.96245 27.71974,-32.96248 27.71977,-32.96255 27.7198,-32.96268 27.71982,-32.96286 27.71988,-32.96305 27.71993,-32.9632 27.71996,-32.96329 27.72,-32.96339 27.72003,-32.96347 27.72004,-32.96355 27.72002,-32.9636 27.71994,-32.96368 27.71985,-32.96369 27.71978,-32.96365 27.7197,-32.96361 27.71969,-32.96362 27.71967,-32.96369 27.71963,-32.96375 27.71959,-32.96379 27.71952,-32.96383 27.71943,-32.96384 27.71938,-32.96384 27.71931,-32.96385 27.71896,-32.96378 27.7183,-32.96357 27.7176,-32.9633 27.71753,-32.96328 27.71748,-32.9634 27.71741,-32.96355 27.71727,-32.96387 27.71725,-32.96416 27.71723,-32.96458 27.71732,-32.96513 27.7174,-32.96574 27.71745,-32.96637 27.71743,-32.96669 27.71732,-32.9673 27.71709,-32.96791 27.71707,-32.96798 27.71669,-32.96801 27.71661,-32.96801 27.71653,-32.96804 27.71591,-32.96819 27.71567,-32.96824 27.71502,-32.96784 27.71561,-32.9672 27.71568,-32.96709 27.71573,-32.967 27.71579,-32.96689 27.71595,-32.96675 27.71591,-32.96657 27.71584,-32.9664 27.71584,-32.96618 27.71607,-32.9661 27.71606,-32.96603 27.71604,-32.96589 27.71595,-32.96519 27.71589,-32.96448 27.71587,-32.96446 27.71596,-32.96349 27.71614,-32.96335 27.71624,-32.96319 27.71628,-32.96304 27.71628,-32.963 27.71622,-32.96287 27.71607,-32.96258 27.71587,-32.96231 27.71571,-32.962 27.71567,-32.96169 27.71567,-32.96168 27.71569,-32.96146 27.71579,-32.96115 27.71587,-32.96099 27.71598,-32.96081 27.71614,-32.96054 27.71649,-32.96018 27.71662,-32.96 27.71668,-32.95985 27.71669,-32.95962 27.7167,-32.95955 27.7167,-32.95955 27.71669,-32.9593 27.71667,-32.95912 27.71722,-32.95916 27.71723,-32.95903 27.71724,-32.95889 27.71725,-32.95875 27.71727,-32.95862 27.71728,-32.95848 27.71757,-32.9585 27.71766,-32.95849 27.71767,-32.95828 27.71769,-32.95819 27.71773,-32.95809 27.71781,-32.95799 27.71821,-32.95772 27.71822,-32.95771 27.71845,-32.95755 27.71858,-32.95747 27.71861,-32.95741 27.71862,-32.95735 27.71861,-32.95726 27.7186,-32.95714 27.7186,-32.95704 27.7186,-32.95692 27.71866,-32.95679 27.7187,-32.95672 27.71874,-32.95666 27.71887,-32.95656 27.71914,-32.95639 27.71938,-32.95623 27.71952,-32.95614 27.71988,-32.95591 27.72024,-32.95566 27.72062,-32.9554 27.72069,-32.95535 27.72093,-32.95518 27.72083,-32.95482 27.72081,-32.95465 27.7208,-32.95462 27.72091,-32.95459 27.721,-32.95457 27.72106,-32.95454 27.72115,-32.95452 27.72124,-32.95451 27.72137,-32.95449 27.72142,-32.95448 27.72148,-32.95448 27.72154,-32.95449 27.72162,-32.95451 27.72167,-32.95456 27.7217,-32.9546 27.72174,-32.95462 27.72177,-32.95463 27.72178,-32.95462 27.72189,-32.95455 27.72192,-32.95453 27.72217,-32.95438 27.72232,-32.9543 27.72242,-32.95426 27.72256,-32.95424 27.72259,-32.95423 27.72261,-32.95422 27.72263,-32.95418 27.72262,-32.9541 27.72263,-32.95393 27.72266,-32.95375 27.72272,-32.95358 27.72274,-32.95354 27.72278,-32.95346 27.72282,-32.95338 27.72287,-32.9533 27.72289,-32.9531 27.72301,-32.95287 27.72306,-32.95285 27.72308,-32.95282 27.72309,-32.95279 27.7231,-32.95275 27.72311,-32.95272 27.72315,-32.95268 27.72317,-32.95265 27.72318,-32.95261 27.72319,-32.9526 27.72323,-32.95256 27.72326,-32.95252 27.72331,-32.9525 27.72343,-32.9525 27.72347,-32.9525 27.72356,-32.95245 27.72367,-32.95241 27.72374,-32.95239 27.72378,-32.95239 27.72403,-32.9524 27.72406,-32.9524 27.72417,-32.9521 27.72427,-32.95188 27.72415,-32.95179 27.72412,-32.95177 27.72409,-32.95176 27.72407,-32.95173 27.72404,-32.95172 27.72403,-32.9517 27.72402,-32.95167 27.72398,-32.95166 27.72396,-32.95163 27.72392,-32.95162 27.7239,-32.9516 27.72383,-32.9516 27.72382,-32.95159 27.7238,-32.95154 27.72377,-32.95147 27.72376,-32.95139 27.72377,-32.9513 27.72382,-32.95118 27.72385,-32.95113 27.72392,-32.95107 27.72403,-32.95099 27.72422,-32.95086 27.72431,-32.9508 27.72432,-32.95078 27.72436,-32.95076 27.7244,-32.95074 27.72442,-32.95073 27.72473,-32.95051 27.72494,-32.95031 27.72508,-32.95015 27.7252,-32.94994 27.72525,-32.94986 27.72514,-32.94979 27.72507,-32.94978 27.72495,-32.94978 27.72489,-32.94979 27.7247,-32.94987 27.7245,-32.94993 27.72443,-32.94991 27.72439,-32.9499 27.72438,-32.9498 27.72436,-32.94966 27.72436,-32.94955 27.72438,-32.94942 27.72444,-32.94933 27.72448,-32.9492 27.72451,-32.94915 27.72449,-32.94903 27.72451,-32.94892 27.72454,-32.94882 27.72454,-32.94867 27.72459,-32.94856 27.72459,-32.9485 27.72465,-32.94843 27.72469,-32.94822 27.72476,-32.9479 27.72467,-32.94789 27.72456,-32.94788 27.72439,-32.9479 27.72426,-32.94785 27.72412,-32.9478 27.72407,-32.9478 27.72401,-32.94775 27.72391,-32.94792 27.72386,-32.94798 27.72369,-32.94812 27.72356,-32.94823 27.72342,-32.94829 27.72328,-32.94832 27.72321,-32.94833 27.72308,-32.94831 27.7229,-32.94817 27.72289,-32.94813 27.72287,-32.94803 27.72289,-32.94796 27.72293,-32.94779 27.72302,-32.94753 27.723,-32.94751 27.72293,-32.94747 27.72288,-32.94746 27.7228,-32.94741 27.72275,-32.94741 27.72264,-32.94737 27.72257,-32.94732 27.72254,-32.94732 27.72247,-32.94731 27.72236,-32.94713 27.72231,-32.94698 27.72224,-32.94688 27.7222,-32.94682 27.72218,-32.94681 27.72216,-32.9468 27.72205,-32.94683 27.72195,-32.94686 27.72181,-32.94692 27.7215,-32.947 27.72116,-32.94701 27.72095,-32.94694 27.72083,-32.94688 27.72072,-32.94678 27.72053,-32.94667 27.72036,-32.94658 27.72022,-32.9465 27.72018,-32.94647 27.72004,-32.94635 27.71991,-32.94623 27.71981,-32.94623 27.71975,-32.94627 27.71967,-32.94638 27.71965,-32.94655 27.71965,-32.94678 27.71962,-32.94687 27.71955,-32.94697 27.71946,-32.94706 27.71937,-32.94716 27.71921,-32.94722 27.71905,-32.9473 27.71905,-32.94732 27.71903,-32.94786 27.71954,-32.94787 27.71974,-32.94789 27.72005,-32.94803 27.72014,-32.94819 27.72022,-32.94831 27.72029,-32.94844 27.72037,-32.94856 27.72044,-32.94869 27.72052,-32.94881 27.72058,-32.9489 27.72051,-32.94894 27.7204,-32.94896 27.72031,-32.94901 27.72029,-32.94901 27.72042,-32.94923 27.72051,-32.94937 27.72054,-32.94947 27.72055,-32.94963 27.72055,-32.94991 27.72051,-32.95019 27.72047,-32.95031 27.72044,-32.95039 27.72035,-32.95048 27.72026,-32.95054 27.72018,-32.95058 27.72008,-32.9506 27.71981,-32.95061 27.71931,-32.9506 27.7193,-32.95062 27.71927,-32.95072 27.71896,-32.95073 27.71872,-32.95076 27.71835,-32.95083 27.7181,-32.9509 27.71789,-32.95093 27.71778,-32.95091 27.71753,-32.95081 27.71739,-32.95093 27.71733,-32.95099 27.7171,-32.95109 27.71704,-32.95112 27.71699,-32.95116 27.71682,-32.95127 27.71682,-32.9514 27.71681,-32.95165 27.7168,-32.95188 27.7168,-32.95202 27.71678,-32.95219 27.71669,-32.95224 27.71653,-32.95227 27.71652,-32.95227 27.7165,-32.95227 27.71649,-32.95238 27.71648,-32.95247 27.71643,-32.95258 27.71638,-32.95267 27.71634,-32.95271 27.71623,-32.95283 27.71614,-32.95293 27.71603,-32.95304 27.71578,-32.95317 27.71577,-32.95318 27.71575,-32.95319 27.71567,-32.95324 27.71547,-32.95333 27.71538,-32.95336 27.71529,-32.95338 27.7152,-32.95336 27.71513,-32.95328 27.71503,-32.95305 27.71497,-32.95289 27.71489,-32.95272 27.71482,-32.95262 27.71458,-32.95241 27.71454,-32.95237 27.71443,-32.95224 27.71414,-32.95202 27.71394,-32.95184 27.71375,-32.9517 27.7135,-32.9515 27.71345,-32.95144 27.7133,-32.95138 27.71311,-32.95117 27.713,-32.95106 27.71289,-32.95066 27.71289,-32.95062 27.7129,-32.9504 27.7129,-32.95018 27.7129,-32.95 27.71291,-32.94974 27.713,-32.94951 27.71298,-32.94944 27.71288,-32.9493 27.71283,-32.9492 27.71281,-32.94912 27.71277,-32.94903 27.71267,-32.94884 27.71267,-32.94882 27.71276,-32.94878 27.71272,-32.94869 27.71267,-32.94859 27.71265,-32.94827 27.71267,-32.94815 27.7127,-32.94804 27.71273,-32.94795 27.7128,-32.94784 27.71288,-32.94775 27.71301,-32.94767 27.71316,-32.94762 27.71321,-32.94763 27.71328,-32.94764 27.71332,-32.9476 27.71338,-32.94756 27.71347,-32.9475 27.71349,-32.94747 27.71348,-32.94743 27.71338,-32.94726 27.71353,-32.9472 27.71368,-32.94713 27.71382,-32.94707 27.7139,-32.94704 27.71395,-32.94697 27.71404,-32.94685 27.71413,-32.94674 27.71423,-32.94662 27.71432,-32.94651 27.71441,-32.94639 27.7146,-32.94649 27.71465,-32.94643 27.71467,-32.94622 27.71554,-32.94183 27.71575,-32.94077 27.71575,-32.94076 27.71576,-32.94074 27.71587,-32.94045 27.71593,-32.94029 27.71599,-32.94014 27.71604,-32.94001 27.71612,-32.93992 27.71623,-32.93979 27.71631,-32.9397 27.71634,-32.93965 27.71645,-32.93952 27.71666,-32.93929 27.71666,-32.93929 27.71668,-32.93926 27.71685,-32.93914 27.71882,-32.93766 27.71709,-32.93652 27.71631,-32.936 27.71629,-32.93598 27.71606,-32.93579 27.71595,-32.9357 27.71583,-32.9356 27.71572,-32.93551 27.7156,-32.93541 27.71549,-32.93532 27.71537,-32.93522 27.71526,-32.93513 27.71515,-32.93503 27.71503,-32.93494 27.715,-32.93489 27.71495,-32.93479 27.71423,-32.9335 27.71403,-32.93314 27.71387,-32.93284 27.71389,-32.9328 27.71401,-32.93254 27.71374,-32.93243 27.71344,-32.93227 27.71317,-32.93208 27.71286,-32.93184 27.71253,-32.93151 27.71251,-32.93149 27.71247,-32.93155 27.71238,-32.93161 27.71234,-32.93165 27.71226,-32.93173 27.71208,-32.93181 27.71198,-32.93179 27.71193,-32.93179 27.7119,-32.9318 27.71188,-32.9318 27.71185,-32.93181 27.7118,-32.93185 27.71174,-32.93189 27.7117,-32.93194 27.71166,-32.93198 27.71164,-32.93201 27.7116,-32.93205 27.71158,-32.93208 27.71154,-32.93212 27.71149,-32.93215 27.71147,-32.93217 27.71142,-32.9322 27.71131,-32.93226 27.71129,-32.93227 27.71128,-32.9323 27.71128,-32.93231 27.71127,-32.93233 27.71129,-32.93236 27.71131,-32.93238 27.71135,-32.93245 27.71137,-32.93247 27.71141,-32.93248 27.71142,-32.9325 27.71145,-32.93255 27.71146,-32.93258 27.71148,-32.93262 27.71151,-32.93265 27.71152,-32.93266 27.71151,-32.93269 27.71151,-32.93271 27.71151,-32.93273 27.71146,-32.93274 27.71139,-32.93277 27.71134,-32.93278 27.71131,-32.93278 27.71128,-32.93281 27.71123,-32.93284 27.7112,-32.93287 27.71124,-32.93297 27.7112,-32.93329 27.71107,-32.93352 27.71074,-32.93368 27.71073,-32.93369 27.7107,-32.9337 27.71063,-32.93391 27.71059,-32.93404 27.71059,-32.93423 27.71058,-32.93444 27.71052,-32.93506 27.71058,-32.93516 27.71065,-32.9352 27.71131,-32.93518 27.71132,-32.93518 27.71148,-32.93518 27.71164,-32.93517 27.71182,-32.93517 27.71217,-32.93515 27.71224,-32.93548 27.71233,-32.9358 27.71227,-32.93582 27.71216,-32.93589 27.71198,-32.93598 27.71173,-32.93621 27.71152,-32.93636 27.71129,-32.93644 27.71091,-32.93658 27.71057,-32.93669 27.71031,-32.93679 27.71006,-32.93688 27.70977,-32.93694 27.70954,-32.93695 27.70935,-32.93693 27.70919,-32.93687 27.70909,-32.9368 27.70871,-32.93657 27.70847,-32.93629 27.70821,-32.93602 27.70802,-32.93585 27.7079,-32.93591 27.7078,-32.9361 27.70762,-32.93637 27.70763,-32.93645 27.70773,-32.93665 27.7078,-32.93686 27.70783,-32.93693 27.70791,-32.93707 27.70802,-32.93726 27.70805,-32.93733 27.70808,-32.93739 27.7081,-32.93744 27.70811,-32.93744 27.70811,-32.93748 27.70813,-32.93754 27.70816,-32.93765 27.70817,-32.93778 27.70815,-32.9379 27.70814,-32.93796 27.7081,-32.93805 27.70807,-32.9381 27.70803,-32.93815 27.708,-32.93818 27.70792,-32.93825 27.70786,-32.9383 27.70776,-32.93835 27.70772,-32.93837 27.70764,-32.93841 27.7076,-32.93843 27.70754,-32.93846 27.70751,-32.93847 27.70749,-32.93847 27.70746,-32.93847 27.70743,-32.93849 27.70741,-32.93849 27.70739,-32.9385 27.7074,-32.9386 27.70743,-32.93869 27.70745,-32.9387 27.7075,-32.93872 27.7075,-32.93876 27.7075,-32.93879 27.7075,-32.9388 27.70749,-32.93882 27.70749,-32.93888 27.70746,-32.9389 27.70744,-32.93891 27.70736,-32.93893 27.70732,-32.93901 27.70722,-32.93908 27.7072,-32.93915 27.70725,-32.93922 27.70735,-32.93925 27.70736,-32.93925 27.70754,-32.93929 27.70811,-32.93931 27.7082,-32.93929 27.70832,-32.93928 27.70836,-32.93927 27.70845,-32.93925 27.70851,-32.93923 27.70859,-32.9392 27.70864,-32.93917 27.70868,-32.93917 27.70872,-32.93915 27.70881,-32.93913 27.70891,-32.9391 27.70895,-32.93909 27.70907,-32.93904 27.7091,-32.93901 27.70944,-32.93891 27.70962,-32.93888 27.70973,-32.93888 27.70989,-32.93885 27.71001,-32.93883 27.71016,-32.9388 27.71026,-32.93878 27.71028,-32.93878 27.71035,-32.93878 27.71046,-32.93877 27.71076,-32.93876 27.71102,-32.93874 27.71117,-32.93874 27.71124,-32.93874 27.71138,-32.93877 27.71146,-32.93879 27.71153,-32.93881 27.71157,-32.93884 27.71162,-32.93887 27.71168,-32.93891 27.71173,-32.93896 27.71181,-32.93906 27.71185,-32.93911 27.71187,-32.93915 27.71192,-32.93927 27.7119,-32.93937 27.71191,-32.93951 27.71189,-32.93967 27.71186,-32.93978 27.71184,-32.93981 27.71181,-32.93987 27.71176,-32.93999 27.71171,-32.94009 27.71165,-32.94018 27.71161,-32.94026 27.71156,-32.94033 27.71153,-32.94039 27.71148,-32.94047 27.71146,-32.94054 27.71144,-32.94065 27.71144,-32.94071 27.71144,-32.94079 27.71146,-32.94084 27.71151,-32.94094 27.71154,-32.94102 27.71156,-32.94104 27.71158,-32.94106 27.71158,-32.94108 27.71158,-32.94114 27.71159,-32.94122 27.71158,-32.94134 27.71157,-32.94147 27.71155,-32.94154 27.71155,-32.9416 27.71153,-32.94166 27.71153,-32.94171 27.71153,-32.94175 27.71153,-32.94178 27.71154,-32.94182 27.71154,-32.94186 27.71156,-32.94193 27.71156,-32.94199 27.71156,-32.94205 27.71157,-32.94215 27.71155,-32.94227 27.71152,-32.94235 27.71149,-32.94239 27.71143,-32.94244 27.7114,-32.94249 27.71134,-32.94254 27.71126,-32.94259 27.71117,-32.94265 27.71107,-32.9427 27.71071,-32.94267 27.71049,-32.94261 27.71036,-32.9426 27.71032,-32.94259 27.71023,-32.94259 27.71018,-32.94258 27.71002,-32.94255 27.70999,-32.94253 27.70995,-32.94252 27.70987,-32.94251 27.70981,-32.9425 27.70975,-32.94247 27.70966,-32.94244 27.70952,-32.94239 27.7095,-32.94238 27.70933,-32.94232 27.70927,-32.94228 27.70917,-32.94223 27.70911,-32.94219 27.70887,-32.94203 27.70854,-32.94175 27.70842,-32.94164 27.70835,-32.94158 27.70831,-32.94155 27.70829,-32.94153 27.70821,-32.94144 27.70814,-32.94136 27.70809,-32.94131 27.70808,-32.94129 27.70805,-32.94127 27.70802,-32.94123 27.708,-32.94121 27.70798,-32.94118 27.70795,-32.94116 27.70793,-32.94114 27.7079,-32.94111 27.70784,-32.94106 27.7078,-32.94104 27.70771,-32.94098 27.70769,-32.94096 27.70753,-32.94088 27.70741,-32.94082 27.70706,-32.94076 27.70712,-32.94085 27.70716,-32.94091 27.70718,-32.94096 27.70725,-32.94103 27.70728,-32.94114 27.70738,-32.94135 27.70742,-32.94143 27.70743,-32.94147 27.70746,-32.94153 27.70749,-32.94162 27.70754,-32.94175 27.70758,-32.94187 27.70762,-32.94198 27.70762,-32.94201 27.70765,-32.9421 27.70767,-32.9422 27.70768,-32.9423 27.70769,-32.94249 27.70769,-32.94259 27.70768,-32.94264 27.70768,-32.94264 27.70763,-32.94273 27.70761,-32.94276 27.70748,-32.94288 27.70741,-32.94292 27.70728,-32.943 27.70711,-32.94303 27.70702,-32.94302 27.70696,-32.94303 27.70696,-32.94316 27.70702,-32.94324 27.70714,-32.94334 27.70717,-32.94336 27.70723,-32.94343 27.7073,-32.94349 27.70734,-32.94351 27.70743,-32.94353 27.70773,-32.94364 27.70796,-32.94374 27.70818,-32.94381 27.70831,-32.94384 27.70849,-32.94389 27.70869,-32.944 27.70896,-32.94424 27.70903,-32.94446 27.70907,-32.94454 27.70909,-32.94464 27.70911,-32.94471 27.70911,-32.94474 27.70911,-32.9448 27.70908,-32.94486 27.70904,-32.94492 27.70898,-32.94496 27.70893,-32.94501 27.70886,-32.94505 27.70876,-32.94507 27.70852,-32.94509 27.70803,-32.94505 27.70757,-32.94501 27.70711,-32.94496 27.70688,-32.94503 27.70654,-32.94513 27.70655,-32.94515 27.70662,-32.94525 27.70671,-32.94531 27.70675,-32.94533 27.70682,-32.9454 27.70695,-32.94551 27.70705,-32.94558 27.70713,-32.94568 27.70715,-32.94574 27.70718,-32.94584 27.70723,-32.94595 27.70726,-32.94602 27.7073,-32.94609 27.70731,-32.94616 27.70731,-32.94626 27.70728,-32.94636 27.70722,-32.94647 27.70716,-32.94652 27.7071,-32.94658 27.70706,-32.94659 27.70702,-32.94665 27.70702,-32.94668 27.707,-32.94672 27.70698,-32.94675 27.70699,-32.94678 27.707,-32.94685 27.707,-32.94688 27.70698,-32.94689 27.70698,-32.94698 27.70703,-32.94705 27.70711,-32.94713 27.70717,-32.94718 27.70721,-32.94722 27.70725,-32.94726 27.7073,-32.94729 27.70733,-32.94732 27.70738,-32.94735 27.70743,-32.9474 27.70748,-32.94746 27.70754,-32.94753 27.70757,-32.94756 27.70761,-32.94761 27.70762,-32.94765 27.70764,-32.9477 27.70768,-32.94774 27.7077,-32.94779 27.70774,-32.94787 27.70779,-32.94796 27.70783,-32.94804 27.70787,-32.94811 27.70784,-32.94821 27.70782,-32.94831 27.70778,-32.94838 27.70775,-32.94849 27.70771,-32.94855 27.70762,-32.94859 27.7075,-32.94866 27.70728,-32.94873 27.70708,-32.9488 27.70689,-32.94883 27.70672,-32.94884 27.70662,-32.94883 27.70654,-32.94884 27.70647,-32.94884 27.70637,-32.94885 27.70624,-32.94886 27.70605,-32.94885 27.70471,-32.94881 27.7046,-32.94875 27.70444,-32.94866 27.70429,-32.94858 27.70394,-32.9484 27.70333,-32.94809 27.70331,-32.94808 27.70319,-32.94802 27.70311,-32.94801 27.70295,-32.94795 27.70284,-32.94792 27.70272,-32.94789 27.70263,-32.94787 27.70244,-32.94782 27.7024,-32.94797 27.70238,-32.94804 27.70233,-32.9482 27.70226,-32.94847 27.70253,-32.94855 27.70273,-32.94866 27.70301,-32.94885 27.70337,-32.94914 27.70346,-32.94921 27.70357,-32.94932 27.70362,-32.94939 27.7037,-32.94946 27.70381,-32.94956 27.70399,-32.94973 27.7041,-32.9498 27.70424,-32.94988 27.70432,-32.94994 27.70447,-32.95 27.70472,-32.95012 27.705,-32.95022 27.70523,-32.95027 27.70537,-32.95032 27.70544,-32.95034 27.70561,-32.95039 27.70574,-32.95045 27.70591,-32.95052 27.70603,-32.95061 27.70609,-32.95068 27.70621,-32.95074 27.70636,-32.95083 27.70652,-32.95092 27.70666,-32.95097 27.70677,-32.95101 27.70697,-32.95103 27.70721,-32.95105 27.70735,-32.95106 27.70751,-32.95107 27.70772,-32.9511 27.70786,-32.95111 27.70801,-32.95118 27.70815,-32.95129 27.70824,-32.95146 27.70824,-32.95175 27.70824,-32.95189 27.70831,-32.95212 27.70833,-32.95223 27.7084,-32.95243 27.70851,-32.95273 27.70853,-32.95292 27.70853,-32.95311 27.70851,-32.95323 27.70849,-32.95328 27.70837,-32.95336 27.70821,-32.95346 27.70794,-32.95354 27.70762,-32.95359 27.70733,-32.95357 27.70704,-32.95352 27.70683,-32.95345 27.70658,-32.95339 27.70639,-32.95334 27.70586,-32.95323 27.70568,-32.9532 27.70546,-32.95321 27.70524,-32.95324 27.70495,-32.9533 27.70488,-32.95332 27.70484,-32.95335 27.70478,-32.95337 27.70472,-32.95334 27.7046,-32.95335 27.70444,-32.95344 27.70437,-32.95348 27.70426,-32.9535 27.70415,-32.95357 27.70407,-32.95361 27.70367,-32.95368 27.70355,-32.95371 27.70346,-32.95372 27.70332,-32.95373 27.70318,-32.95376 27.7031,-32.9538 27.70301,-32.95377 27.70296,-32.95373 27.70292,-32.95369 27.70287,-32.95367 27.70285,-32.95365 27.70281,-32.95363 27.70278,-32.95361 27.70272,-32.95356 27.70263,-32.9535 27.70259,-32.95351 27.70242,-32.95354 27.7024,-32.95363 27.70245,-32.9537 27.70247,-32.95372 27.70248,-32.95373 27.70248,-32.95375 27.70249,-32.95377 27.70249,-32.9538 27.70249,-32.95382 27.70323,-32.95456 27.70347,-32.95439 27.70423,-32.95453 27.7051,-32.95485 27.70436,-32.95629 27.7058,-32.95674 27.70592,-32.95678 27.70775,-32.95622 27.70881,-32.95634 27.70928,-32.957 27.71029,-32.9584 27.70981,-32.95908 27.70979,-32.95911 27.70731,-32.95845 27.70677,-32.95831 27.7051,-32.95768 27.70507,-32.95774 27.70492,-32.95803 27.70484,-32.95813 27.70514,-32.95825 27.70478,-32.9585 27.70548,-32.9592 27.70558,-32.95924 27.70569,-32.95929 27.70584,-32.95918 27.70584,-32.95918 27.70674,-32.95926 27.70811,-32.9617 27.70815,-32.96177 27.7081,-32.96199 27.70802,-32.96213 27.70779,-32.96241 27.70753,-32.9623 27.70734,-32.9625 27.70707,-32.96278 27.70706,-32.96331 27.70738,-32.96343 27.70754,-32.9635 27.70796,-32.96363 27.70808,-32.96373 27.7081,-32.96392 27.7081,-32.96395 27.70808,-32.96402 27.70796,-32.96433 27.70783,-32.96462 27.70765,-32.96504 27.7076,-32.96517 27.70735,-32.96559 27.70731,-32.96566 27.70705,-32.96607 27.70652,-32.96656 27.70569,-32.96513 27.70416,-32.96579 27.70391,-32.96616 27.70373,-32.96639 27.7036,-32.96656 27.70349,-32.96687 27.7032,-32.96703 27.70289,-32.96686 27.70257,-32.96652 27.70244,-32.96634 27.70234,-32.9662 27.7022,-32.96604 27.70204,-32.96589 27.7019,-32.96574 27.70175,-32.96564 27.70166,-32.96558 27.70157,-32.96558 27.70147,-32.96558 27.70126,-32.96559 27.7012,-32.9657 27.70104,-32.96613 27.70091,-32.96643 27.70082,-32.96656 27.70071,-32.96668 27.70068,-32.96673 27.70059,-32.96687 27.7004,-32.96711 27.70023,-32.96724 27.70014,-32.96727 27.69995,-32.96723 27.69971,-32.96714 27.69954,-32.96702 27.69934,-32.96687 27.69916,-32.96669 27.69897,-32.96645 27.69877,-32.96625 27.69861,-32.96613 27.69843,-32.96605 27.69822,-32.96598 27.69822,-32.96582 27.69822,-32.96556 27.69826,-32.96538 27.69838,-32.9653 27.69851,-32.9652 27.69868,-32.9652 27.69905,-32.96513 27.69854,-32.96398 27.69838,-32.96361 27.6982,-32.96321 27.69616,-32.96088 27.69573,-32.96038 27.69561,-32.96049 27.6948,-32.96122 27.69488,-32.96132 27.69493,-32.96152 27.69488,-32.9618 27.69484,-32.962 27.69475,-32.96213 27.69465,-32.9622 27.69456,-32.96226 27.69448,-32.96232 27.69446,-32.96253 27.69437,-32.96274 27.69417,-32.96286 27.69403,-32.96297 27.69432,-32.96321 27.6946,-32.96341 27.69509,-32.96397 27.69519,-32.96412 27.69524,-32.96433 27.69523,-32.96453 27.69521,-32.96475 27.69502,-32.96488 27.69476,-32.96502 27.69444,-32.96509 27.69408,-32.96516 27.69346,-32.96531 27.6929,-32.96523 27.69263,-32.96515 27.69255,-32.96506 27.69254,-32.96487 27.6926,-32.96445 27.69119,-32.96313 27.69094,-32.96301 27.68973,-32.96381 27.68936,-32.96454 27.68952,-32.96496 27.68955,-32.96504 27.68987,-32.96668 27.68994,-32.9669 27.68994,-32.96691 27.68987,-32.9671 27.69095,-32.96777 27.69131,-32.96777 27.69225,-32.96777 27.69368,-32.96773 27.69375,-32.96799 27.69435,-32.96799 27.6944,-32.9684 27.69414,-32.9684 27.69414,-32.9685 27.69399,-32.96862 27.69364,-32.96863 27.69365,-32.96881 27.69297,-32.96881 27.69298,-32.96913 27.69232,-32.96914 27.69236,-32.96933 27.69045,-32.96933 27.69045,-32.96878 27.68965,-32.96823 27.68896,-32.96833 27.68888,-32.96862 27.68882,-32.96862 27.68868,-32.96876 27.68849,-32.96916 27.68829,-32.96948 27.68808,-32.97 27.68791,-32.97013 27.68779,-32.97015 27.6877,-32.97015 27.68757,-32.97013 27.68752,-32.97008 27.68746,-32.96992 27.68747,-32.96977 27.68769,-32.96905 27.68775,-32.96898 27.68786,-32.96883 27.6879,-32.96877 27.68794,-32.96867 27.68797,-32.96862 27.68802,-32.96854 27.68806,-32.96847 27.68807,-32.96845 27.68827,-32.96843 27.68822,-32.9682 27.68808,-32.96745 27.68649,-32.96767 27.68621,-32.96626 27.68608,-32.96614 27.68601,-32.96607 27.68447,-32.96463 27.68446,-32.96462 27.68445,-32.96463 27.68386,-32.96503 27.68299,-32.96563 27.68204,-32.96629 27.68183,-32.96656 27.68254,-32.96735 27.68255,-32.9676 27.68252,-32.96776 27.68203,-32.96842 27.68184,-32.9688 27.6817,-32.96902 27.68152,-32.96946 27.6815,-32.96959 27.6815,-32.96976 27.68151,-32.96992 27.68147,-32.97002 27.68137,-32.97019 27.68122,-32.97036 27.67988,-32.97097 27.68032,-32.97254 27.68054,-32.97302 27.68067,-32.97329 27.68072,-32.97341 27.68074,-32.97351 27.68075,-32.9736 27.68072,-32.97379 27.68029,-32.97418 27.68022,-32.97424 27.68013,-32.97421 27.67999,-32.97413 27.6798,-32.97407 27.67966,-32.97409 27.67959,-32.97411 27.67955,-32.97412 27.67957,-32.97387 27.67954,-32.97348 27.67949,-32.97326 27.67928,-32.97315 27.67909,-32.97316 27.67883,-32.97301 27.67873,-32.97274 27.67864,-32.97245 27.67861,-32.97231 27.67856,-32.97217 27.67847,-32.97212 27.67828,-32.972 27.67812,-32.97196 27.67806,-32.9719 27.67796,-32.9718 27.6779,-32.97174 27.67776,-32.9717 27.67776,-32.97171 27.67766,-32.9718 27.6775,-32.97205 27.67724,-32.97233 27.67717,-32.97247 27.67704,-32.97257 27.67697,-32.97261 27.67675,-32.97269 27.67664,-32.97273 27.67653,-32.97273 27.67625,-32.9727 27.67602,-32.97267 27.67589,-32.97267 27.67579,-32.97268 27.67566,-32.97269 27.67558,-32.97271 27.67552,-32.97277 27.67548,-32.97285 27.67548,-32.97295 27.67545,-32.97317 27.67541,-32.9733 27.67535,-32.97345 27.67529,-32.9736 27.67531,-32.97378 27.67528,-32.97396 27.67513,-32.97418 27.67499,-32.97431 27.67485,-32.97444 27.67471,-32.97451 27.67457,-32.97459 27.67437,-32.97466 27.67413,-32.97473 27.67387,-32.97483 27.67364,-32.97486 27.67337,-32.9749 27.67309,-32.97488 27.67284,-32.97484 27.67264,-32.97482 27.67247,-32.97477 27.67236,-32.97471 27.67225,-32.97463 27.67215,-32.97446 27.67211,-32.97435 27.6721,-32.9742 27.67209,-32.97401 27.6721,-32.97389 27.67214,-32.97383 27.67218,-32.97381 27.67222,-32.97376 27.67226,-32.97368 27.67246,-32.97327 27.67254,-32.97313 27.67258,-32.97295 27.67259,-32.97284 27.67256,-32.97273 27.67246,-32.9725 27.6724,-32.97235 27.6724,-32.97227 27.67243,-32.97219 27.67248,-32.97211 27.67262,-32.972 27.67283,-32.97187 27.67296,-32.97179 27.67306,-32.97171 27.67317,-32.97154 27.67325,-32.97143 27.67331,-32.97138 27.67336,-32.97128 27.67343,-32.97118 27.67348,-32.97106 27.67357,-32.97095 27.6736,-32.97094 27.67365,-32.97087 27.67372,-32.97073 27.6738,-32.97059 27.67394,-32.97039 27.67418,-32.97007 27.67427,-32.96998 27.67454,-32.96982 27.67492,-32.96962 27.67535,-32.96945 27.67547,-32.9694 27.67567,-32.96931 27.67575,-32.96927 27.67583,-32.96922 27.67609,-32.96913 27.67643,-32.96896 27.67652,-32.96888 27.67652,-32.96875 27.67653,-32.96846 27.67644,-32.96826 27.67644,-32.96794 27.67644,-32.96773 27.67639,-32.9676 27.67636,-32.96745 27.67628,-32.96731 27.67628,-32.96712 27.67633,-32.96703 27.67639,-32.96699 27.67639,-32.96693 27.67639,-32.96683 27.67641,-32.96675 27.67641,-32.96657 27.67641,-32.96645 27.67649,-32.96634 27.67654,-32.96627 27.67667,-32.96612 27.67676,-32.96603 27.67675,-32.96593 27.67673,-32.9658 27.67677,-32.96572 27.67678,-32.96562 27.6768,-32.9655 27.67691,-32.9653 27.67698,-32.96521 27.67695,-32.96521 27.67688,-32.96521 27.67681,-32.9652 27.6767,-32.9652 27.67664,-32.96521 27.67659,-32.96526 27.67656,-32.96531 27.67653,-32.96531 27.67649,-32.96536 27.67643,-32.96539 27.6763,-32.96547 27.6762,-32.9655 27.67609,-32.96554 27.67602,-32.96557 27.67595,-32.9656 27.67587,-32.96559 27.67579,-32.96559 27.67579,-32.96567 27.67578,-32.96571 27.6758,-32.96576 27.6758,-32.9658 27.6758,-32.96589 27.67578,-32.96597 27.67577,-32.96604 27.67571,-32.96615 27.67567,-32.96625 27.67561,-32.96636 27.6755,-32.9665 27.67532,-32.9667 27.67523,-32.96679 27.6751,-32.9669 27.67487,-32.96703 27.67478,-32.96708 27.67464,-32.96713 27.67456,-32.96715 27.67449,-32.96715 27.67441,-32.96714 27.67436,-32.96713 27.67429,-32.96712 27.6743,-32.96713 27.6742,-32.96709 27.67411,-32.96704 27.67405,-32.96698 27.67399,-32.96693 27.6739,-32.96685 27.67384,-32.9668 27.67376,-32.96674 27.67365,-32.96666 27.6736,-32.96663 27.67356,-32.96661 27.67347,-32.96657 27.67339,-32.96655 27.67328,-32.96651 27.67322,-32.96649 27.67319,-32.9665 27.67317,-32.9665 27.67311,-32.96648 27.67307,-32.96647 27.67302,-32.96649 27.673,-32.9665 27.67299,-32.96651 27.67296,-32.96655 27.67296,-32.96663 27.67298,-32.96667 27.67299,-32.96677 27.67309,-32.96697 27.67313,-32.9671 27.67315,-32.96719 27.67316,-32.96722 27.67314,-32.96739 27.67314,-32.96741 27.67309,-32.96753 27.67304,-32.96768 27.673,-32.96776 27.67295,-32.96782 27.67293,-32.96786 27.67289,-32.9679 27.67281,-32.96795 27.67277,-32.96798 27.67271,-32.96802 27.67266,-32.96805 27.6726,-32.96809 27.67255,-32.96811 27.67252,-32.96812 27.67248,-32.96814 27.67245,-32.96816 27.67239,-32.96818 27.67237,-32.9682 27.67224,-32.96828 27.6722,-32.9683 27.67214,-32.96833 27.67201,-32.96841 27.6719,-32.96847 27.67186,-32.96848 27.67177,-32.96854 27.67169,-32.96861 27.67167,-32.96864 27.67166,-32.96865 27.67161,-32.96871 27.67158,-32.96878 27.67153,-32.96887 27.67152,-32.96889 27.67147,-32.96896 27.67143,-32.96903 27.67141,-32.96909 27.67139,-32.96913 27.67136,-32.96918 27.67132,-32.96922 27.67125,-32.96926 27.67122,-32.96927 27.67115,-32.96934 27.67109,-32.96934 27.67101,-32.96931 27.67074,-32.96917 27.67066,-32.96913 27.6705,-32.96906 27.67032,-32.96931 27.67006,-32.96977 27.67004,-32.96979 27.66983,-32.97006 27.66973,-32.97022 27.66961,-32.97038 27.66948,-32.97055 27.6694,-32.97062 27.66933,-32.97069 27.66932,-32.97069 27.6693,-32.97071 27.66917,-32.97079 27.66912,-32.9708 27.66896,-32.97084 27.6687,-32.97081 27.66868,-32.97081 27.66856,-32.97074 27.66846,-32.97064 27.66843,-32.97056 27.66842,-32.97046 27.66841,-32.97027 27.66841,-32.97024 27.66841,-32.97007 27.66839,-32.96989 27.66837,-32.96982 27.66836,-32.96971 27.66831,-32.96963 27.66825,-32.96959 27.66823,-32.96957 27.6682,-32.96954 27.66815,-32.96946 27.66804,-32.96936 27.668,-32.96931 27.66793,-32.96925 27.66785,-32.96911 27.6678,-32.96898 27.66778,-32.96885 27.66774,-32.96864 27.66768,-32.96847 27.66762,-32.96831 27.66761,-32.96824 27.66756,-32.96816 27.66756,-32.96815 27.66751,-32.96807 27.66747,-32.96803 27.66744,-32.96799 27.66739,-32.96793 27.66732,-32.96786 27.66726,-32.96783 27.66718,-32.9678 27.66715,-32.96775 27.66708,-32.96769 27.66705,-32.96766 27.66698,-32.96761 27.66688,-32.96755 27.66673,-32.96748 27.66664,-32.96742 27.66659,-32.96736 27.66652,-32.96733 27.66643,-32.96727 27.66634,-32.9672 27.6663,-32.96713 27.66629,-32.96703 27.66625,-32.96692 27.66623,-32.96686 27.66621,-32.96683 27.66617,-32.96681 27.66609,-32.96679 27.66602,-32.96674 27.66599,-32.96674 27.66592,-32.96672 27.66589,-32.96672 27.66584,-32.96671 27.66576,-32.96671 27.66565,-32.96675 27.66533,-32.96682 27.66522,-32.96684 27.66519,-32.96685 27.66505,-32.96687 27.66492,-32.9668 27.66478,-32.96668 27.66469,-32.9666 27.66455,-32.96644 27.66441,-32.9663 27.66424,-32.96615 27.66382,-32.96581 27.66377,-32.96577 27.66338,-32.96554 27.66336,-32.96552 27.66335,-32.96552 27.66332,-32.9655 27.66287,-32.9652 27.66249,-32.96499 27.66242,-32.96494 27.66229,-32.96485 27.66219,-32.96478 27.6621,-32.96473 27.66206,-32.96469 27.66202,-32.96465 27.66187,-32.96454 27.66177,-32.96445 27.6617,-32.96438 27.66163,-32.96432 27.66126,-32.96398 27.66113,-32.96384 27.66105,-32.96378 27.66093,-32.96366 27.66086,-32.96353 27.66066,-32.96326 27.66045,-32.96298 27.66026,-32.96273 27.66014,-32.96249 27.66007,-32.96238 27.65998,-32.96234 27.65977,-32.9622 27.65971,-32.96213 27.65967,-32.96211 27.6598,-32.96201 27.66002,-32.96192 27.66011,-32.96187 27.66018,-32.96178 27.66034,-32.96187 27.66049,-32.96194 27.66062,-32.96197 27.66078,-32.96199 27.66099,-32.96198 27.66124,-32.96196 27.66143,-32.96194 27.662,-32.96188 27.66246,-32.96189 27.66264,-32.9619 27.66294,-32.96193 27.66308,-32.96191 27.66338,-32.9617 27.66355,-32.9616 27.66393,-32.96147 27.66452,-32.96123 27.66464,-32.96116 27.66475,-32.96111 27.66485,-32.96104 27.66541,-32.96063 27.66616,-32.96013 27.66648,-32.9598 27.66654,-32.95971 27.66649,-32.9595 27.66628,-32.959 27.66625,-32.95884 27.66731,-32.95828 27.66767,-32.95809 27.66773,-32.95798 27.66807,-32.9578 27.6687,-32.95747 27.66956,-32.95704 27.67031,-32.95665 27.67119,-32.95619 27.67169,-32.95592 27.67216,-32.9557 27.67275,-32.95542 27.67286,-32.95536 27.67312,-32.95525 27.67327,-32.9552 27.67355,-32.95511 27.67404,-32.95498 27.67432,-32.95485 27.67462,-32.95476 27.6753,-32.95453 27.6758,-32.95437 27.67585,-32.95435 27.67578,-32.95419 27.67573,-32.95404 27.67571,-32.95396 27.67567,-32.95386 27.67562,-32.95371 27.6756,-32.95362 27.67557,-32.95335 27.67552,-32.95277 27.67549,-32.95243 27.67545,-32.95205 27.67543,-32.95178 27.67542,-32.95156 27.67543,-32.95142 27.67545,-32.9513 27.6755,-32.95117 27.67557,-32.95103 27.67563,-32.95089 27.67569,-32.95075 27.67581,-32.95058 27.67596,-32.95037 27.6761,-32.95017 27.67622,-32.95006 27.67624,-32.95004 27.67626,-32.95002 27.67641,-32.9499 27.67657,-32.94981 27.67688,-32.94963 27.67741,-32.94938 27.67802,-32.94912 27.67846,-32.94892 27.67879,-32.94878 27.67914,-32.9486 27.67918,-32.94858 27.67939,-32.94846 27.67962,-32.94831 27.67969,-32.94824 27.67975,-32.94819 27.67977,-32.94816 27.67986,-32.94805 27.67994,-32.94795 27.68009,-32.94772 27.6802,-32.94751 27.68029,-32.94737 27.68033,-32.94734 27.68038,-32.94732 27.68042,-32.94732 27.68048,-32.94731 27.68053,-32.94731 27.68066,-32.94734 27.68086,-32.9474 27.68116,-32.94751 27.68162,-32.94767 27.68193,-32.94708 27.68202,-32.94716 27.68219,-32.94724 27.68247,-32.94735 27.68291,-32.9475 27.6831,-32.94757 27.68316,-32.94735 27.68343,-32.94738 27.68367,-32.94731 27.68393,-32.94725 27.68384,-32.94718 27.68382,-32.94714 27.68381,-32.94711 27.6837,-32.94706 27.68351,-32.94693 27.68335,-32.94676 27.68338,-32.94669 27.68345,-32.94659 27.68337,-32.94649 27.68328,-32.94632 27.68323,-32.94619 27.68319,-32.94602 27.6832,-32.94587 27.68322,-32.94578 27.68327,-32.94569 27.6834,-32.9456 27.68352,-32.94556 27.68366,-32.94548 27.68386,-32.94543 27.68441,-32.94537 27.68555,-32.94555 27.6862,-32.94571 27.68626,-32.94575 27.6865,-32.94585 27.6867,-32.94592 27.68678,-32.94596 27.68681,-32.94599 27.68687,-32.94603 27.68688,-32.94605 27.68684,-32.94613 27.68688,-32.94623 27.68693,-32.94628 27.68695,-32.94632 27.68696,-32.94638 27.68698,-32.94641 27.68703,-32.94643 27.68707,-32.94646 27.68711,-32.9465 27.68713,-32.94652 27.68715,-32.94655 27.68716,-32.94658 27.6872,-32.94661 27.68724,-32.94666 27.68728,-32.94671 27.6873,-32.94676 27.68738,-32.9469 27.68817,-32.94688 27.68816,-32.94684 27.68812,-32.94673 27.68815,-32.94667 27.68815,-32.9466 27.68813,-32.94653 27.68811,-32.94645 27.68808,-32.94638 27.6881,-32.94632 27.6881,-32.94624 27.68811,-32.94615 27.68811,-32.94608 27.68807,-32.946 27.68804,-32.94587 27.68804,-32.94586 27.68803,-32.94583 27.688,-32.9458 27.68799,-32.94576 27.68797,-32.94568 27.68797,-32.94562 27.68796,-32.94554 27.68797,-32.94548 27.68799,-32.94534 27.68803,-32.94518 27.68802,-32.94473 27.68743,-32.94435 27.68727,-32.94439 27.68711,-32.94444 27.687,-32.94455 27.68686,-32.94455 27.68677,-32.94455 27.68664,-32.9446 27.68652,-32.94457 27.68642,-32.94452 27.68639,-32.94443 27.68641,-32.94431 27.68624,-32.94428 27.68542,-32.94415 27.6851,-32.94415 27.68496,-32.94415 27.68466,-32.94419 27.68426,-32.94422 27.68394,-32.94417 27.68373,-32.9441 27.68351,-32.94399 27.68331,-32.94392 27.68304,-32.94388 27.68288,-32.94376 27.68263,-32.94363 27.68236,-32.94359 27.68201,-32.94344 27.68191,-32.9432 27.68186,-32.94301 27.68187,-32.94273 27.68187,-32.94269 27.68186,-32.94235 27.68173,-32.94208 27.68164,-32.94186 27.68173,-32.94149 27.68166,-32.94127 27.6815,-32.94115 27.68131,-32.94086 27.68132,-32.94079 27.68137,-32.94069 27.68141,-32.94055 27.68139,-32.94044 27.68142,-32.9404 27.68142,-32.94039 27.68134,-32.94028 27.68132,-32.94016 27.68132,-32.94001 27.68135,-32.93987 27.68141,-32.93963 27.6815,-32.93954 27.6816,-32.93952 27.6818,-32.93949 27.68247,-32.93931 27.68265,-32.93922 27.68228,-32.93897 27.68221,-32.93892 27.68166,-32.93861 27.68123,-32.93844 27.68025,-32.9381 27.68071,-32.93716 27.68079,-32.9372 27.68094,-32.93725 27.68105,-32.93729 27.68115,-32.93736 27.68124,-32.93743 27.68142,-32.93725 27.6817,-32.93702 27.68197,-32.93676 27.68221,-32.93642 27.68206,-32.93634 27.68173,-32.93621 27.68146,-32.93609 27.68113,-32.93594 27.68074,-32.9358 27.68055,-32.93578 27.68062,-32.93557 27.68082,-32.93515 27.68096,-32.9349 27.68096,-32.93469 27.68131,-32.93412 27.68185,-32.93335 27.68208,-32.93293 27.68225,-32.93247 27.68237,-32.93197 27.6824,-32.93141 27.68271,-32.93112 27.68284,-32.93106 27.68313,-32.93093 27.68352,-32.93072 27.684,-32.93037 27.68409,-32.93031 27.68419,-32.93015 27.68453,-32.92992 27.68469,-32.92979 27.68506,-32.92955 27.68588,-32.92894 27.68636,-32.92798 27.68642,-32.92789 27.68643,-32.92788 27.68673,-32.92743 27.68636,-32.92666 27.68627,-32.92618 27.68627,-32.92599 27.68627,-32.92546 27.68647,-32.92463 27.68654,-32.92382 27.68671,-32.92371 27.68682,-32.92327 27.68715,-32.92259 27.68746,-32.9223 27.68794,-32.92215 27.68851,-32.92189 27.68872,-32.92181 27.68869,-32.92177 27.68848,-32.9215 27.6882,-32.9212 27.688,-32.92093 27.68736,-32.92031 27.68715,-32.91983 27.68713,-32.91973 27.68709,-32.91964 27.68763,-32.91966 27.68768,-32.91966 27.68781,-32.91967 27.68866,-32.9197 27.68977,-32.91977 27.69113,-32.91997 27.69163,-32.91739 27.69174,-32.91743 27.6922,-32.9176 27.69315,-32.91783 27.69396,-32.91796 27.69481,-32.91801 27.69559,-32.918 27.69614,-32.91796 27.69637,-32.91792 27.69776,-32.91777 27.69926,-32.91764 27.70043,-32.91749 27.70058,-32.9185 27.70082,-32.9202 27.70095,-32.92018 27.70301,-32.9198 27.70317,-32.92 27.70322,-32.92061 27.70322,-32.92065 27.70391,-32.92059 27.70473,-32.92053 27.70554,-32.92048 27.70712,-32.92028 27.70808,-32.92016 27.70896,-32.92014 27.70953,-32.92013 27.70979,-32.92013 27.70995,-32.92012 27.71062,-32.92012 27.71187,-32.9201 27.71292,-32.92006 27.71304,-32.92006 27.71418,-32.92006 27.71489,-32.92013 27.71498,-32.92014 27.71569,-32.92025 27.71635,-32.92038 27.71735,-32.92057 27.71781,-32.92065 27.71839,-32.92072 27.7189,-32.92074 27.71949,-32.92075 27.71997,-32.9207 27.72052,-32.92066 27.72067,-32.92065 27.72333,-32.92051 27.7234,-32.92051 27.725,-32.92042 27.72529,-32.9204 27.72664,-32.92027 27.72754,-32.92018 27.72801,-32.92008 27.72869,-32.91988 27.73156,-32.91879 27.73156,-32.91879 27.73186,-32.91868 27.73188,-32.91867 27.73254,-32.91842 27.73257,-32.91841 27.73393,-32.91788 27.73491,-32.91751 27.73568,-32.91722 27.73574,-32.9172 27.73611,-32.91706 27.73688,-32.91686 27.73739,-32.91677 27.7374,-32.91673 27.7374,-32.91672 27.73752,-32.91659 27.73751,-32.91653 27.73747,-32.9164 27.73748,-32.91631 27.73749,-32.91624 27.73751,-32.91617 27.73755,-32.91612 27.73756,-32.91594 27.73773,-32.91568 27.73779,-32.91564 27.73784,-32.91557 27.73843,-32.91547 27.73887,-32.91541 27.73946,-32.91533 27.73991,-32.9153 27.74102,-32.91526 27.74249,-32.91523 27.74357,-32.91524 27.74445,-32.91522 27.74591,-32.91521 27.74688,-32.91523</coordinates></LinearRing></outerBoundaryIs></Polygon></MultiGeometry></Placemark></Document></kml>