<?xml version="1.0" encoding="UTF-8"?><kml xmlns="http://www.opengis.net/kml/2.2"><Document><Placemark><name>Nahoon Valley</name><description>Sub Place 260113017</description><ExtendedData><Data name="code"><value>260113017</value></Data><Data name="name"><value>Nahoon Valley</value></Data><Data name="description"><value>Sub Place 260113017</value></Data></ExtendedData><MultiGeometry><Polygon><outerBoundaryIs><LinearRing><coordinates>27.92266,-32.9685 27.92333,-32.96872 27.92359,-32.96872 27.92427,-32.96893 27.92471,-32.96938 27.92529,-32.96997 27.92578,-32.97062 27.92593,-32.97081 27.92593,-32.97081 27.92594,-32.97221 27.92565,-32.97377 27.92528,-32.97376 27.92496,-32.97381 27.92455,-32.97382 27.92414,-32.97384 27.92392,-32.97389 27.92378,-32.97393 27.92343,-32.97409 27.92309,-32.97432 27.92249,-32.97473 27.92202,-32.97511 27.92152,-32.97544 27.92098,-32.97573 27.92055,-32.97586 27.9201,-32.97595 27.9196,-32.97608 27.91945,-32.97612 27.91942,-32.97613 27.91933,-32.97577 27.91918,-32.97489 27.91917,-32.97483 27.91891,-32.97345 27.91891,-32.97293 27.91894,-32.97126 27.91902,-32.97091 27.91917,-32.97031 27.91943,-32.96924 27.91989,-32.96801 27.92007,-32.96748 27.92032,-32.96674 27.92039,-32.96652 27.9204,-32.9665 27.92054,-32.96659 27.92071,-32.96683 27.92089,-32.96722 27.92113,-32.96754 27.9213,-32.96775 27.92153,-32.96793 27.92177,-32.96812 27.92219,-32.96837 27.92266,-32.9685</coordinates></LinearRing></outerBoundaryIs></Polygon></MultiGeometry></Placemark></Document></kml>