<?xml version="1.0" encoding="UTF-8"?><kml xmlns="http://www.opengis.net/kml/2.2"><Document><Placemark><name>Aston Bay</name><description>Sub Place 268009010</description><ExtendedData><Data name="code"><value>268009010</value></Data><Data name="name"><value>Aston Bay</value></Data><Data name="description"><value>Sub Place 268009010</value></Data></ExtendedData><MultiGeometry><Polygon><outerBoundaryIs><LinearRing><coordinates>24.90589,-34.07585 24.90683,-34.07685 24.9078,-34.07711 24.90847,-34.07673 24.9085,-34.07677 24.9087,-34.07704 24.90863,-34.0771 24.90896,-34.07747 24.90928,-34.07782 24.9093,-34.07781 24.9097,-34.07761 24.91021,-34.07764 24.91057,-34.07768 24.91148,-34.07779 24.9116,-34.07781 24.91169,-34.0782 24.91169,-34.0783 24.91168,-34.07844 24.91162,-34.07875 24.91162,-34.07876 24.91157,-34.07905 24.91152,-34.07936 24.91155,-34.07959 24.91165,-34.07987 24.91171,-34.08004 24.91186,-34.08025 24.91225,-34.08067 24.91233,-34.08076 24.91234,-34.08077 24.9125,-34.08097 24.91275,-34.08127 24.91288,-34.08135 24.91305,-34.08138 24.91313,-34.08146 24.91314,-34.08155 24.91312,-34.08172 24.91312,-34.08182 24.91317,-34.08199 24.91329,-34.08232 24.91332,-34.08244 24.91334,-34.08256 24.91339,-34.08302 24.91373,-34.08367 24.91423,-34.08415 24.91414,-34.08422 24.91395,-34.08447 24.91379,-34.08472 24.91361,-34.08499 24.91336,-34.08526 24.91321,-34.08555 24.91298,-34.08579 24.9129,-34.08583 24.91282,-34.08588 24.91276,-34.08592 24.91247,-34.08602 24.91185,-34.0862 24.91149,-34.08627 24.91117,-34.0864 24.91088,-34.08654 24.91067,-34.0867 24.91034,-34.08689 24.91003,-34.08699 24.90982,-34.08705 24.90966,-34.08712 24.90944,-34.08718 24.90918,-34.0872 24.909,-34.08718 24.90877,-34.08717 24.9086,-34.08712 24.90846,-34.08708 24.9083,-34.08704 24.90815,-34.08698 24.90803,-34.08692 24.90791,-34.08688 24.90784,-34.08684 24.9038,-34.08418 24.90153,-34.08268 24.8977,-34.08015 24.89789,-34.07968 24.89829,-34.07977 24.89835,-34.07965 24.8985,-34.07969 24.8985,-34.07968 24.89878,-34.07911 24.89885,-34.07896 24.89894,-34.07887 24.89905,-34.07887 24.89937,-34.07898 24.8997,-34.07906 24.89986,-34.0788 24.89991,-34.07873 24.90016,-34.07876 24.90061,-34.078 24.90111,-34.07816 24.90163,-34.07832 24.90185,-34.07799 24.90228,-34.07737 24.90268,-34.07711 24.90298,-34.07689 24.9034,-34.0766 24.9036,-34.07678 24.90423,-34.07639 24.90513,-34.07588 24.90564,-34.07556 24.90579,-34.07574 24.90589,-34.07585</coordinates></LinearRing></outerBoundaryIs></Polygon></MultiGeometry></Placemark></Document></kml>