<?xml version="1.0" encoding="UTF-8"?><kml xmlns="http://www.opengis.net/kml/2.2"><Document><Placemark><name>Lukanji</name><description>Local Municipality 281</description><ExtendedData><Data name="code"><value>281</value></Data><Data name="name"><value>Lukanji</value></Data><Data name="description"><value>Local Municipality 281</value></Data></ExtendedData><MultiGeometry><Polygon><outerBoundaryIs><LinearRing><coordinates>26.8121,-32.29984 26.81198,-32.30913 26.81995,-32.31466 26.82281,-32.31665 26.82743,-32.31985 26.82753,-32.32011 26.82826,-32.32038 26.82824,-32.32075 26.82811,-32.3213 26.828,-32.32202 26.82819,-32.32278 26.82886,-32.32276 26.83001,-32.32276 26.83074,-32.32274 26.83075,-32.32325 26.83064,-32.32372 26.83025,-32.32415 26.82987,-32.32448 26.82925,-32.3248 26.82868,-32.32486 26.827,-32.32544 26.82575,-32.32552 26.82428,-32.32572 26.82295,-32.32642 26.82234,-32.32707 26.8216,-32.32757 26.82078,-32.32812 26.82039,-32.32853 26.81978,-32.32892 26.81937,-32.32922 26.8182,-32.329 26.81757,-32.32887 26.817,-32.32896 26.81653,-32.32934 26.81583,-32.32998 26.81555,-32.33024 26.81507,-32.33035 26.81446,-32.33035 26.81389,-32.33057 26.8136,-32.33082 26.8134,-32.33127 26.81344,-32.33182 26.81354,-32.33233 26.81332,-32.33319 26.81299,-32.33378 26.81235,-32.33438 26.81203,-32.33483 26.81202,-32.33524 26.81203,-32.33531 26.81189,-32.33556 26.81175,-32.33581 26.81169,-32.33585 26.81159,-32.33594 26.81142,-32.33606 26.81122,-32.33615 26.81109,-32.33617 26.81097,-32.33619 26.81082,-32.33623 26.81075,-32.33623 26.81058,-32.33619 26.8104,-32.33614 26.81025,-32.33599 26.81009,-32.33584 26.80982,-32.3354 26.80955,-32.33494 26.80949,-32.33486 26.80924,-32.33455 26.80897,-32.33423 26.80894,-32.3342 26.8089,-32.33412 26.80888,-32.33409 26.80884,-32.33403 26.80879,-32.33394 26.80872,-32.33383 26.8086,-32.33372 26.80847,-32.33362 26.8084,-32.33358 26.80824,-32.33355 26.80812,-32.33354 26.80775,-32.33354 26.8074,-32.33354 26.80733,-32.33355 26.80684,-32.33367 26.80675,-32.33369 26.80668,-32.3337 26.80659,-32.33373 26.80646,-32.33377 26.80612,-32.33387 26.80581,-32.33397 26.80552,-32.33406 26.80512,-32.33424 26.8051,-32.33424 26.80493,-32.33432 26.80488,-32.33435 26.80485,-32.33436 26.80478,-32.3344 26.80465,-32.33448 26.80448,-32.33457 26.80427,-32.33468 26.8041,-32.33475 26.80399,-32.33482 26.80397,-32.33482 26.80395,-32.33481 26.80376,-32.33497 26.80368,-32.33503 26.80339,-32.33526 26.80303,-32.3355 26.8026,-32.33578 26.80255,-32.33583 26.80248,-32.33588 26.80237,-32.33608 26.8023,-32.33627 26.80228,-32.33631 26.80224,-32.33637 26.80219,-32.33652 26.80217,-32.33668 26.80212,-32.33694 26.80202,-32.33726 26.80194,-32.33741 26.80192,-32.33747 26.80188,-32.33755 26.80181,-32.33765 26.80167,-32.33783 26.80149,-32.33802 26.8014,-32.33806 26.8013,-32.33812 26.80124,-32.33818 26.80099,-32.33825 26.80068,-32.33834 26.80057,-32.33835 26.80043,-32.33832 26.80035,-32.33829 26.80025,-32.33827 26.8,-32.33821 26.79977,-32.33815 26.79947,-32.33812 26.79935,-32.33811 26.7993,-32.33812 26.79897,-32.33819 26.79865,-32.33823 26.79827,-32.33832 26.79792,-32.33842 26.79757,-32.33844 26.79745,-32.33844 26.79719,-32.33845 26.79699,-32.33848 26.79686,-32.3385 26.79659,-32.33858 26.79643,-32.33862 26.79614,-32.33876 26.79597,-32.33884 26.79591,-32.33888 26.79585,-32.33891 26.79549,-32.33914 26.79511,-32.33937 26.79506,-32.33943 26.79503,-32.33947 26.79499,-32.33948 26.79495,-32.33948 26.79493,-32.33947 26.79481,-32.33955 26.79464,-32.33964 26.79438,-32.33975 26.79401,-32.33989 26.79392,-32.33992 26.79368,-32.34 26.79356,-32.34001 26.79344,-32.34001 26.79323,-32.33995 26.79301,-32.33988 26.79292,-32.33983 26.79281,-32.33977 26.79267,-32.33973 26.79249,-32.33966 26.79214,-32.33948 26.79183,-32.3393 26.79176,-32.33926 26.79163,-32.33919 26.79152,-32.3391 26.79145,-32.33904 26.79125,-32.3389 26.79114,-32.3388 26.79065,-32.33848 26.79016,-32.33817 26.79007,-32.33813 26.78962,-32.33791 26.78922,-32.33772 26.78883,-32.33753 26.78821,-32.33724 26.78801,-32.33712 26.78793,-32.3371 26.78783,-32.33706 26.78773,-32.33702 26.78743,-32.33702 26.78737,-32.33703 26.78734,-32.33704 26.78714,-32.33696 26.78688,-32.33685 26.78677,-32.33675 26.7867,-32.33667 26.78648,-32.33657 26.78627,-32.33646 26.78623,-32.33642 26.78618,-32.33636 26.78614,-32.33611 26.78604,-32.33589 26.78592,-32.33561 26.7858,-32.3354 26.78579,-32.33528 26.78578,-32.33517 26.78575,-32.33517 26.78573,-32.33518 26.78569,-32.3352 26.78566,-32.33515 26.78562,-32.3351 26.78553,-32.33504 26.78542,-32.33499 26.78523,-32.33503 26.78501,-32.33506 26.78489,-32.3352 26.78486,-32.33524 26.78478,-32.33533 26.78473,-32.33535 26.78462,-32.33537 26.78447,-32.33534 26.78431,-32.33527 26.78413,-32.33519 26.78402,-32.33516 26.78393,-32.33519 26.78377,-32.33522 26.7837,-32.33526 26.78363,-32.33532 26.78358,-32.33535 26.78349,-32.33541 26.7834,-32.33547 26.78327,-32.33552 26.78311,-32.33557 26.78281,-32.33558 26.78247,-32.33558 26.78241,-32.33556 26.78225,-32.33553 26.78212,-32.33551 26.78198,-32.33549 26.7817,-32.33536 26.78144,-32.33523 26.78135,-32.33517 26.78121,-32.33508 26.78092,-32.33486 26.78077,-32.33475 26.78066,-32.33467 26.78052,-32.33459 26.78041,-32.33454 26.78026,-32.33454 26.78005,-32.33456 26.77973,-32.33461 26.77939,-32.33466 26.7793,-32.33467 26.77916,-32.3347 26.7789,-32.33476 26.77887,-32.33476 26.7787,-32.33477 26.77858,-32.33476 26.7785,-32.33475 26.77834,-32.33472 26.77821,-32.33471 26.77818,-32.33469 26.77806,-32.33463 26.77796,-32.33459 26.77784,-32.33444 26.77764,-32.33418 26.7775,-32.33406 26.77741,-32.33402 26.7773,-32.33401 26.77723,-32.33403 26.77712,-32.33405 26.77695,-32.3341 26.7769,-32.33411 26.77688,-32.33407 26.77678,-32.33402 26.77666,-32.33391 26.77659,-32.33383 26.77653,-32.33357 26.77645,-32.33341 26.77636,-32.33326 26.77625,-32.3332 26.77614,-32.33315 26.77599,-32.33319 26.77584,-32.33324 26.77578,-32.33328 26.77574,-32.33331 26.77555,-32.33321 26.77531,-32.33312 26.77527,-32.33315 26.77512,-32.33317 26.77488,-32.33326 26.77478,-32.3333 26.77433,-32.33352 26.77415,-32.33366 26.77408,-32.33371 26.77376,-32.33401 26.77333,-32.33453 26.77305,-32.33502 26.77278,-32.33555 26.77238,-32.33626 26.77218,-32.3367 26.77194,-32.33755 26.77185,-32.33788 26.77173,-32.33815 26.77166,-32.33835 26.77151,-32.33833 26.75866,-32.33621 26.75401,-32.33603 26.74297,-32.33703 26.73626,-32.32739 26.73013,-32.33055 26.71188,-32.33996 26.71176,-32.34002 26.71106,-32.34448 26.71158,-32.34511 26.71514,-32.34941 26.7158,-32.3506 26.72085,-32.35963 26.7214,-32.35987 26.72146,-32.35987 26.7215,-32.35986 26.72876,-32.36263 26.72888,-32.36314 26.72902,-32.3632 26.73045,-32.36963 26.73198,-32.37599 26.73191,-32.37608 26.73189,-32.37615 26.73193,-32.37632 26.73259,-32.37952 26.73292,-32.38095 26.73305,-32.38152 26.73355,-32.38365 26.73478,-32.38895 26.73503,-32.39031 26.73507,-32.39081 26.73502,-32.39117 26.73501,-32.39123 26.73496,-32.39139 26.73487,-32.39165 26.73449,-32.39249 26.73413,-32.39306 26.73304,-32.39461 26.73273,-32.39516 26.73268,-32.39529 26.73252,-32.39558 26.73237,-32.39636 26.73233,-32.39715 26.72606,-32.39868 26.72211,-32.40531 26.70465,-32.41814 26.70451,-32.41805 26.68897,-32.41686 26.67188,-32.41554 26.67111,-32.41637 26.66451,-32.42517 26.66245,-32.42793 26.66242,-32.42791 26.65313,-32.42175 26.65311,-32.42173 26.64863,-32.42354 26.63809,-32.4191 26.6367,-32.41813 26.62936,-32.41304 26.6283,-32.41231 26.62814,-32.41193 26.61875,-32.40825 26.60825,-32.40425 26.60503,-32.4011 26.60313,-32.39924 26.6011,-32.39726 26.58771,-32.39651 26.58039,-32.38711 26.58035,-32.38716 26.57549,-32.3923 26.56675,-32.40188 26.56661,-32.4018 26.55733,-32.39643 26.53924,-32.38597 26.53894,-32.37986 26.53929,-32.3764 26.53797,-32.3756 26.53711,-32.37262 26.53369,-32.36018 26.53304,-32.35999 26.52984,-32.35904 26.51556,-32.35456 26.49801,-32.35951 26.50357,-32.35154 26.50779,-32.34554 26.50813,-32.34536 26.51157,-32.34355 26.52201,-32.33778 26.53254,-32.33177 26.53485,-32.33045 26.53585,-32.32388 26.53589,-32.3235 26.53591,-32.32327 26.53598,-32.32204 26.53598,-32.32181 26.5359,-32.32127 26.53588,-32.32063 26.53582,-32.32045 26.53567,-32.32037 26.53538,-32.32027 26.5352,-32.32025 26.53502,-32.32022 26.53491,-32.32018 26.53478,-32.32014 26.53459,-32.3201 26.53434,-32.32008 26.53402,-32.32006 26.53373,-32.32005 26.53357,-32.32005 26.53348,-32.3201 26.53342,-32.32026 26.53339,-32.32048 26.53331,-32.32066 26.53331,-32.32081 26.5332,-32.32105 26.53309,-32.32117 26.53292,-32.32123 26.53281,-32.3213 26.53275,-32.32135 26.53245,-32.32148 26.53217,-32.32155 26.53194,-32.32155 26.53164,-32.32145 26.53145,-32.32119 26.53141,-32.32105 26.53151,-32.32069 26.53148,-32.32055 26.53144,-32.32041 26.53136,-32.32005 26.53115,-32.31983 26.53081,-32.31967 26.53065,-32.3195 26.53055,-32.31906 26.53055,-32.31856 26.53062,-32.31818 26.5306,-32.31791 26.53065,-32.31762 26.53054,-32.31738 26.5304,-32.31715 26.53038,-32.317 26.53035,-32.31622 26.53034,-32.3159 26.53035,-32.31568 26.53031,-32.31541 26.53014,-32.31534 26.52982,-32.31533 26.52957,-32.31533 26.52914,-32.3153 26.5289,-32.31528 26.52839,-32.31518 26.52788,-32.31518 26.52778,-32.31515 26.52771,-32.31515 26.52754,-32.31503 26.52748,-32.31485 26.52746,-32.31467 26.52753,-32.31454 26.52767,-32.31449 26.52781,-32.31449 26.52796,-32.31452 26.5281,-32.31447 26.52822,-32.31439 26.52827,-32.31412 26.52834,-32.31402 26.52846,-32.3139 26.52866,-32.31389 26.52893,-32.31371 26.52899,-32.31361 26.52902,-32.31355 26.52906,-32.31352 26.52911,-32.31342 26.52916,-32.31335 26.52925,-32.31327 26.52956,-32.31327 26.52966,-32.31324 26.52981,-32.31316 26.52988,-32.31309 26.52994,-32.31291 26.5299,-32.31274 26.52965,-32.31249 26.52952,-32.31232 26.52952,-32.31209 26.52959,-32.31205 26.52981,-32.31184 26.52989,-32.31145 26.52983,-32.31135 26.52978,-32.31117 26.52972,-32.31103 26.52961,-32.31088 26.52949,-32.31064 26.52947,-32.31048 26.52946,-32.31027 26.5293,-32.3101 26.52912,-32.30991 26.52894,-32.30984 26.52871,-32.30967 26.52855,-32.30957 26.52805,-32.30936 26.52787,-32.30925 26.52769,-32.30898 26.52759,-32.30867 26.52745,-32.30835 26.52744,-32.3081 26.52752,-32.3079 26.52758,-32.30766 26.52785,-32.30725 26.52799,-32.3066 26.52806,-32.30602 26.52806,-32.30522 26.52794,-32.30424 26.52789,-32.30399 26.52783,-32.30377 26.52782,-32.30339 26.52782,-32.30304 26.52784,-32.30275 26.52783,-32.3025 26.52781,-32.30227 26.52767,-32.30142 26.5276,-32.30107 26.5274,-32.30074 26.52718,-32.30039 26.5266,-32.29962 26.52561,-32.2981 26.52532,-32.29743 26.52494,-32.29646 26.52488,-32.2956 26.52494,-32.29512 26.52501,-32.2947 26.52528,-32.29416 26.52564,-32.29364 26.52622,-32.29329 26.52729,-32.29272 26.52765,-32.29267 26.52821,-32.29267 26.52882,-32.29274 26.52983,-32.29296 26.53064,-32.29322 26.53172,-32.29362 26.53253,-32.29434 26.53343,-32.29529 26.53404,-32.29611 26.53443,-32.29661 26.53486,-32.29716 26.53513,-32.29747 26.53557,-32.29773 26.53606,-32.2978 26.53724,-32.29799 26.538,-32.29796 26.53831,-32.29812 26.53874,-32.29831 26.53897,-32.29845 26.53914,-32.29855 26.53966,-32.29881 26.53996,-32.29913 26.54009,-32.29954 26.54022,-32.30005 26.54028,-32.30044 26.54031,-32.30093 26.54028,-32.30116 26.54029,-32.30136 26.54028,-32.30151 26.54037,-32.30159 26.54052,-32.30186 26.54085,-32.30217 26.54097,-32.30234 26.54162,-32.3029 26.54242,-32.30345 26.54359,-32.30378 26.54479,-32.30404 26.54508,-32.30399 26.54521,-32.30394 26.5453,-32.3038 26.54532,-32.3037 26.54535,-32.30346 26.5452,-32.30313 26.5452,-32.30293 26.54528,-32.30265 26.54551,-32.30252 26.54583,-32.30239 26.54619,-32.30234 26.54659,-32.30225 26.54672,-32.30216 26.54676,-32.30199 26.54676,-32.30177 26.5467,-32.3016 26.54664,-32.30147 26.54656,-32.30122 26.54641,-32.30112 26.54629,-32.30101 26.54611,-32.30095 26.54598,-32.30095 26.54581,-32.30093 26.54556,-32.30093 26.54514,-32.30086 26.54505,-32.30077 26.54486,-32.30039 26.54475,-32.30003 26.54463,-32.29965 26.54438,-32.29936 26.5442,-32.29923 26.54402,-32.29917 26.54381,-32.29906 26.54355,-32.29886 26.5434,-32.29867 26.54322,-32.29831 26.54314,-32.29801 26.54314,-32.29756 26.54325,-32.29736 26.54338,-32.29707 26.54356,-32.29681 26.54383,-32.29652 26.54419,-32.29632 26.54493,-32.29599 26.5454,-32.29585 26.5459,-32.29559 26.54594,-32.29544 26.54596,-32.29523 26.54597,-32.29502 26.54587,-32.2948 26.54575,-32.29469 26.54537,-32.29453 26.54492,-32.29441 26.54423,-32.29439 26.54364,-32.29439 26.54338,-32.2944 26.54306,-32.29438 26.54287,-32.29434 26.54268,-32.29429 26.54247,-32.29415 26.54241,-32.29401 26.54225,-32.29379 26.54214,-32.29346 26.54219,-32.29326 26.54234,-32.29306 26.54262,-32.29283 26.5429,-32.29273 26.54306,-32.29265 26.54374,-32.29251 26.54469,-32.29238 26.5452,-32.29223 26.54531,-32.29213 26.54537,-32.29207 26.54541,-32.29193 26.54548,-32.29179 26.54551,-32.29147 26.54539,-32.29131 26.54521,-32.29112 26.54489,-32.29102 26.54473,-32.29091 26.54453,-32.29072 26.54443,-32.29049 26.54435,-32.29017 26.54432,-32.28956 26.5442,-32.28918 26.54408,-32.28886 26.54391,-32.28866 26.54367,-32.28854 26.54344,-32.28853 26.54318,-32.28857 26.54294,-32.28853 26.54281,-32.28853 26.54258,-32.28848 26.54236,-32.2884 26.54222,-32.28832 26.54207,-32.28828 26.54191,-32.28824 26.5417,-32.28824 26.54161,-32.28827 26.54151,-32.28842 26.54151,-32.28909 26.54147,-32.28928 26.54138,-32.28947 26.54122,-32.28967 26.54106,-32.28979 26.54073,-32.28984 26.54047,-32.2898 26.54028,-32.28972 26.54017,-32.28959 26.53991,-32.28925 26.53982,-32.28923 26.53978,-32.28918 26.53972,-32.2891 26.53969,-32.28899 26.53956,-32.28887 26.53954,-32.28877 26.53956,-32.2886 26.53956,-32.28845 26.53949,-32.28834 26.53945,-32.28811 26.53942,-32.28737 26.53952,-32.28714 26.53959,-32.28661 26.53968,-32.28607 26.53977,-32.2859 26.53988,-32.28574 26.54014,-32.28548 26.54042,-32.28531 26.54068,-32.28526 26.54092,-32.2853 26.54104,-32.28539 26.54137,-32.28554 26.54176,-32.28561 26.54209,-32.28561 26.54252,-32.28558 26.54314,-32.28545 26.54372,-32.28527 26.54434,-32.28497 26.54486,-32.28466 26.54502,-32.28443 26.54536,-32.2841 26.54552,-32.28378 26.54566,-32.28315 26.54559,-32.28249 26.54538,-32.28193 26.54509,-32.28155 26.54488,-32.28135 26.54453,-32.28108 26.54406,-32.28072 26.54381,-32.28021 26.5437,-32.27978 26.54371,-32.27946 26.54378,-32.27892 26.54398,-32.27827 26.54419,-32.27764 26.54439,-32.27713 26.54458,-32.27691 26.54478,-32.27678 26.54496,-32.27667 26.54514,-32.27661 26.54517,-32.27661 26.5455,-32.27667 26.54588,-32.2767 26.54627,-32.27668 26.54657,-32.27665 26.54683,-32.27657 26.54745,-32.27637 26.54782,-32.27617 26.54837,-32.27579 26.54862,-32.27551 26.54881,-32.27528 26.54899,-32.27495 26.54922,-32.27464 26.54951,-32.27421 26.54974,-32.27386 26.54971,-32.2735 26.54959,-32.27324 26.54939,-32.27303 26.54919,-32.27299 26.54889,-32.27302 26.54818,-32.27303 26.54793,-32.2731 26.54746,-32.27322 26.54697,-32.27324 26.54661,-32.2731 26.54653,-32.27298 26.54633,-32.27274 26.54629,-32.27251 26.54634,-32.27197 26.54637,-32.27145 26.54644,-32.27101 26.54643,-32.27036 26.54653,-32.26979 26.54653,-32.26948 26.54665,-32.26888 26.54673,-32.2686 26.54674,-32.26842 26.5467,-32.2681 26.54655,-32.26778 26.54645,-32.26761 26.54635,-32.26749 26.54628,-32.26742 26.54615,-32.26727 26.54598,-32.26707 26.54579,-32.26696 26.54553,-32.26691 26.54531,-32.26684 26.54498,-32.26675 26.54471,-32.2667 26.544,-32.26661 26.54371,-32.26652 26.54342,-32.26639 26.54321,-32.26618 26.54295,-32.26596 26.5427,-32.26569 26.54251,-32.26556 26.54208,-32.26516 26.54201,-32.26513 26.54178,-32.26493 26.54155,-32.26486 26.54129,-32.26474 26.54103,-32.26468 26.54077,-32.26453 26.5405,-32.26434 26.54024,-32.26418 26.53996,-32.26385 26.53966,-32.26324 26.53936,-32.26277 26.53911,-32.26257 26.53892,-32.26253 26.53872,-32.26253 26.53842,-32.26261 26.53809,-32.26273 26.53744,-32.26297 26.53693,-32.26317 26.53659,-32.26329 26.53623,-32.26335 26.53575,-32.26333 26.53551,-32.26325 26.53536,-32.26312 26.53523,-32.26289 26.53506,-32.26275 26.53489,-32.26266 26.53467,-32.2625 26.53447,-32.26231 26.53415,-32.26214 26.53393,-32.26191 26.5338,-32.26171 26.53349,-32.26138 26.53316,-32.26104 26.5329,-32.26062 26.53259,-32.25976 26.53246,-32.25917 26.53241,-32.25887 26.5324,-32.25849 26.53252,-32.25805 26.53265,-32.25784 26.53285,-32.25768 26.53335,-32.25742 26.53367,-32.25725 26.53387,-32.25718 26.53399,-32.25702 26.53414,-32.25673 26.53423,-32.25637 26.53431,-32.2562 26.53449,-32.25598 26.53465,-32.25566 26.53473,-32.25545 26.53469,-32.25523 26.53465,-32.25493 26.53457,-32.2547 26.53426,-32.25434 26.53407,-32.25428 26.53391,-32.25427 26.53342,-32.25427 26.53309,-32.25437 26.53279,-32.25446 26.53253,-32.25461 26.53159,-32.25474 26.53104,-32.2547 26.53054,-32.25462 26.52964,-32.25462 26.52928,-32.25459 26.52865,-32.2542 26.52843,-32.25392 26.52838,-32.25347 26.52842,-32.25228 26.52845,-32.25208 26.52852,-32.25192 26.5287,-32.25146 26.52876,-32.25118 26.52869,-32.25087 26.52865,-32.25077 26.52843,-32.25058 26.52811,-32.25044 26.52758,-32.25016 26.52707,-32.25002 26.5268,-32.24992 26.5266,-32.24981 26.52638,-32.24965 26.52621,-32.24939 26.52615,-32.24923 26.52608,-32.24898 26.52602,-32.24851 26.52603,-32.24826 26.52605,-32.2482 26.52611,-32.24807 26.52657,-32.24759 26.52677,-32.24733 26.52685,-32.24712 26.52688,-32.2469 26.52679,-32.24674 26.5267,-32.24661 26.52664,-32.24656 26.52658,-32.24652 26.52643,-32.24648 26.52619,-32.24641 26.5259,-32.24634 26.52577,-32.24627 26.52567,-32.24618 26.52552,-32.24609 26.52509,-32.24569 26.52476,-32.24534 26.52467,-32.24513 26.52467,-32.2449 26.52479,-32.24453 26.52502,-32.24415 26.52509,-32.24371 26.52507,-32.24347 26.52496,-32.24324 26.52476,-32.24295 26.52459,-32.2427 26.52423,-32.24254 26.52398,-32.2424 26.52376,-32.24227 26.52362,-32.24214 26.52347,-32.24196 26.52326,-32.2418 26.52247,-32.24155 26.52214,-32.24144 26.52186,-32.24128 26.52158,-32.24098 26.5215,-32.24069 26.52145,-32.24027 26.52146,-32.23974 26.52151,-32.23933 26.52156,-32.23922 26.52162,-32.23873 26.52171,-32.23829 26.5219,-32.23777 26.52209,-32.23747 26.52233,-32.23724 26.52262,-32.23708 26.5231,-32.23688 26.52347,-32.23681 26.52438,-32.2368 26.52478,-32.23683 26.52498,-32.2369 26.5252,-32.237 26.5254,-32.2371 26.52566,-32.23729 26.52594,-32.23763 26.52643,-32.23828 26.52661,-32.23854 26.527,-32.23886 26.52773,-32.23942 26.52856,-32.23993 26.52934,-32.2402 26.53006,-32.24031 26.53103,-32.24034 26.53142,-32.24027 26.53199,-32.24017 26.53293,-32.23997 26.5334,-32.23997 26.53379,-32.23991 26.53464,-32.23991 26.53549,-32.23995 26.53645,-32.23999 26.53751,-32.24012 26.53791,-32.24015 26.53813,-32.24015 26.53853,-32.23999 26.53881,-32.23958 26.53901,-32.23951 26.55308,-32.23429 26.56082,-32.23136 26.56094,-32.23082 26.56229,-32.22462 26.56415,-32.2167 26.56639,-32.20213 26.56686,-32.1996 26.56692,-32.19928 26.57034,-32.1973 26.58839,-32.18685 26.58875,-32.18658 26.59664,-32.1806 26.59754,-32.17907 26.59327,-32.17668 26.57461,-32.16602 26.57403,-32.16569 26.5612,-32.15852 26.55659,-32.15594 26.55521,-32.15508 26.55487,-32.15515 26.54099,-32.15792 26.53775,-32.14982 26.5377,-32.14971 26.53638,-32.1468 26.54209,-32.13596 26.54248,-32.13515 26.5504,-32.12889 26.5505,-32.12879 26.55101,-32.12831 26.55769,-32.12201 26.55843,-32.1212 26.55882,-32.12065 26.56175,-32.11655 26.56207,-32.1161 26.56212,-32.11602 26.57094,-32.118 26.56838,-32.10796 26.56561,-32.09689 26.56355,-32.08895 26.56345,-32.08855 26.56334,-32.08813 26.55465,-32.0783 26.55427,-32.07786 26.54911,-32.06665 26.54383,-32.0554 26.54218,-32.05182 26.54185,-32.0511 26.54178,-32.05095 26.5623,-32.04825 26.56416,-32.0479 26.56516,-32.04771 26.56516,-32.04728 26.5652,-32.03695 26.56523,-32.02723 26.57159,-32.01918 26.56988,-32.01449 26.5628,-32.00936 26.56212,-32.00887 26.57728,-32.00719 26.58818,-32.00599 26.59377,-32.00532 26.59918,-32.00468 26.60008,-32.00439 26.60697,-32.00212 26.61145,-32.00054 26.62571,-32.00554 26.63392,-32.00851 26.63441,-32.00866 26.63675,-32.00643 26.63688,-32.0065 26.63693,-32.00657 26.63696,-32.00666 26.63731,-32.00722 26.63775,-32.00801 26.63794,-32.00869 26.63807,-32.00909 26.63827,-32.01006 26.63854,-32.01076 26.63878,-32.01125 26.6389,-32.01171 26.63896,-32.01186 26.63923,-32.01212 26.63987,-32.01274 26.64,-32.01292 26.64016,-32.01304 26.6406,-32.01324 26.64095,-32.01351 26.6412,-32.01382 26.64134,-32.01426 26.64134,-32.01446 26.64127,-32.01452 26.64116,-32.01463 26.64104,-32.01473 26.64101,-32.01483 26.64114,-32.01507 26.64131,-32.01521 26.64144,-32.01521 26.64182,-32.01524 26.6421,-32.01539 26.64244,-32.01578 26.6425,-32.01591 26.64264,-32.01622 26.64274,-32.01658 26.64288,-32.01675 26.64304,-32.01687 26.64347,-32.01718 26.64362,-32.01731 26.64367,-32.01746 26.64354,-32.01784 26.64352,-32.01789 26.64346,-32.018 26.64326,-32.01839 26.64293,-32.0187 26.64266,-32.01891 26.64256,-32.01916 26.64254,-32.0193 26.6425,-32.01967 26.64242,-32.01984 26.64181,-32.02037 26.64138,-32.02058 26.64093,-32.02059 26.64071,-32.0205 26.64053,-32.02042 26.64035,-32.02032 26.6402,-32.0203 26.63974,-32.02028 26.63916,-32.02029 26.63859,-32.02032 26.63805,-32.02035 26.63759,-32.02048 26.63733,-32.02064 26.6372,-32.02082 26.63711,-32.02103 26.63708,-32.02126 26.63711,-32.02132 26.63717,-32.02138 26.63728,-32.02146 26.63736,-32.02154 26.6374,-32.02166 26.63744,-32.02185 26.63744,-32.0219 26.6374,-32.02206 26.63736,-32.02214 26.63729,-32.02225 26.63726,-32.02238 26.63727,-32.0227 26.63733,-32.02287 26.6376,-32.02309 26.63772,-32.02321 26.63782,-32.02339 26.63789,-32.02351 26.63789,-32.0237 26.63791,-32.02381 26.63789,-32.02392 26.63787,-32.02413 26.63772,-32.02437 26.63764,-32.02449 26.63741,-32.0246 26.63722,-32.0247 26.63709,-32.02466 26.63702,-32.02447 26.63706,-32.02423 26.63705,-32.02413 26.637,-32.02401 26.63679,-32.02392 26.6364,-32.02398 26.63627,-32.02409 26.63624,-32.02422 26.6363,-32.02445 26.63637,-32.02487 26.63638,-32.0252 26.63634,-32.02553 26.63627,-32.02576 26.63604,-32.02613 26.63594,-32.02648 26.63598,-32.02681 26.63604,-32.02697 26.63617,-32.02711 26.6364,-32.02724 26.63672,-32.02746 26.63696,-32.02762 26.63721,-32.02786 26.63739,-32.02804 26.63751,-32.02821 26.63791,-32.02893 26.6387,-32.03013 26.63948,-32.03128 26.63983,-32.03163 26.64013,-32.03181 26.64049,-32.03189 26.64085,-32.03196 26.64123,-32.03202 26.64203,-32.03206 26.64259,-32.0321 26.6433,-32.03213 26.64369,-32.03212 26.64375,-32.03212 26.6439,-32.03227 26.64404,-32.03244 26.64411,-32.03268 26.64416,-32.03293 26.64416,-32.03325 26.64431,-32.034 26.64446,-32.03434 26.64451,-32.03444 26.64467,-32.03456 26.6452,-32.0346 26.64581,-32.03457 26.64622,-32.03451 26.64635,-32.0344 26.6464,-32.03431 26.64649,-32.03416 26.64665,-32.0338 26.64676,-32.03364 26.64713,-32.03334 26.64757,-32.03319 26.64805,-32.0331 26.64866,-32.03308 26.64884,-32.03308 26.6491,-32.03312 26.6494,-32.03319 26.6496,-32.03326 26.64989,-32.03339 26.65022,-32.0335 26.65057,-32.03361 26.65147,-32.03385 26.65172,-32.03391 26.65189,-32.03396 26.65314,-32.03413 26.65477,-32.03439 26.65548,-32.03444 26.65697,-32.03455 26.65773,-32.03444 26.65815,-32.03434 26.65849,-32.03404 26.65862,-32.03386 26.65871,-32.0338 26.65877,-32.0337 26.65898,-32.03339 26.65911,-32.03311 26.6592,-32.03271 26.65922,-32.03244 26.65936,-32.0312 26.65939,-32.03059 26.65937,-32.02907 26.65933,-32.0288 26.65909,-32.028 26.65896,-32.02736 26.65896,-32.02698 26.659,-32.0266 26.659,-32.02639 26.65908,-32.02584 26.65924,-32.02542 26.65937,-32.02514 26.65959,-32.025 26.65988,-32.02492 26.66023,-32.02495 26.66163,-32.02512 26.66228,-32.02503 26.66274,-32.02498 26.66312,-32.02491 26.66364,-32.02471 26.66417,-32.02439 26.66467,-32.0239 26.66487,-32.02366 26.66501,-32.02329 26.6651,-32.02278 26.66507,-32.02231 26.66498,-32.02136 26.66491,-32.02073 26.66476,-32.02006 26.66471,-32.01962 26.66467,-32.0191 26.66471,-32.01851 26.66473,-32.01764 26.66479,-32.01749 26.66494,-32.01731 26.66509,-32.01723 26.66496,-32.01675 26.66196,-32.00558 26.66195,-32.00545 26.66155,-32.00246 26.66074,-31.9971 26.65969,-31.99029 26.65857,-31.98337 26.65754,-31.9765 26.65716,-31.97372 26.65661,-31.96964 26.65582,-31.96455 26.65557,-31.96359 26.65467,-31.95667 26.65373,-31.94975 26.65312,-31.94449 26.65311,-31.9444 26.66472,-31.9455 26.67386,-31.94648 26.67473,-31.94657 26.68417,-31.94761 26.6842,-31.94761 26.6955,-31.94888 26.70043,-31.94934 26.69905,-31.94234 26.69284,-31.93844 26.6925,-31.93823 26.68808,-31.93545 26.67744,-31.92886 26.677,-31.92858 26.67159,-31.92518 26.67129,-31.92482 26.66987,-31.92169 26.66956,-31.92095 26.66938,-31.92099 26.66807,-31.92106 26.66741,-31.92117 26.66671,-31.92138 26.66615,-31.92174 26.66584,-31.92219 26.66531,-31.92267 26.66486,-31.92287 26.66441,-31.92286 26.66409,-31.92279 26.66343,-31.92253 26.66309,-31.92238 26.66275,-31.92218 26.66221,-31.92182 26.66191,-31.9215 26.66165,-31.92115 26.6615,-31.92088 26.6614,-31.92074 26.66117,-31.9205 26.66106,-31.92031 26.66067,-31.91993 26.66046,-31.9197 26.66029,-31.91952 26.66017,-31.91926 26.65999,-31.91893 26.65986,-31.91865 26.65962,-31.91828 26.65953,-31.91803 26.65952,-31.91768 26.65945,-31.91732 26.65931,-31.91708 26.65898,-31.91684 26.6585,-31.91673 26.65765,-31.91651 26.65679,-31.91629 26.65632,-31.91609 26.65554,-31.91622 26.65515,-31.91644 26.65469,-31.91677 26.65418,-31.91707 26.65332,-31.91736 26.65243,-31.91766 26.65142,-31.91792 26.65103,-31.91793 26.65073,-31.91785 26.65043,-31.91763 26.65035,-31.91741 26.65043,-31.91694 26.65057,-31.9166 26.65074,-31.91599 26.65094,-31.91558 26.65101,-31.91513 26.65122,-31.91446 26.65145,-31.91389 26.65163,-31.9133 26.6519,-31.91245 26.652,-31.91181 26.65231,-31.91148 26.6529,-31.90953 26.65591,-31.90101 26.65831,-31.8939 26.66203,-31.88564 26.66581,-31.87718 26.66752,-31.87332 26.66961,-31.86861 26.67077,-31.86616 26.67086,-31.86597 26.66803,-31.86177 26.66352,-31.85493 26.66257,-31.85364 26.66242,-31.8535 26.65686,-31.84815 26.65632,-31.84749 26.65646,-31.84739 26.66439,-31.84156 26.66522,-31.83969 26.66866,-31.83135 26.67336,-31.82045 26.67373,-31.82011 26.67451,-31.81808 26.67469,-31.81761 26.67997,-31.80489 26.69139,-31.79353 26.69984,-31.78541 26.69986,-31.78534 26.70279,-31.77789 26.7031,-31.7771 26.70518,-31.77169 26.70734,-31.7661 26.70735,-31.76607 26.70876,-31.76509 26.70898,-31.76493 26.71588,-31.76014 26.73216,-31.75143 26.74025,-31.74705 26.74054,-31.7469 26.74083,-31.74674 26.74112,-31.74659 26.7414,-31.74643 26.74198,-31.74613 26.74227,-31.74597 26.74256,-31.74582 26.74285,-31.74566 26.74314,-31.74551 26.75481,-31.74665 26.7587,-31.74702 26.76259,-31.7474 26.76534,-31.74476 26.77075,-31.73958 26.77359,-31.73684 26.77634,-31.7342 26.77657,-31.73414 26.77705,-31.73402 26.77728,-31.73396 26.77752,-31.7339 26.77776,-31.73383 26.77799,-31.73377 26.77871,-31.73358 26.77909,-31.73318 26.78138,-31.7308 26.78406,-31.72803 26.78942,-31.72247 26.79209,-31.7197 26.79477,-31.71692 26.80215,-31.70927 26.80462,-31.70672 26.82586,-31.69956 26.8488,-31.69183 26.85829,-31.69636 26.86018,-31.69728 26.86216,-31.69837 26.86412,-31.69947 26.86609,-31.70057 26.86772,-31.70149 26.86783,-31.70155 26.86805,-31.70168 26.88234,-31.71528 26.88151,-31.72402 26.88141,-31.72509 26.8801,-31.7388 26.90411,-31.74107 26.90628,-31.74129 26.90725,-31.74484 26.90992,-31.75462 26.9108,-31.75788 26.91258,-31.7644 26.91346,-31.76766 26.91307,-31.77117 26.91269,-31.77469 26.91272,-31.7747 26.92086,-31.77723 26.92445,-31.77835 26.93065,-31.77883 26.93684,-31.77932 26.94304,-31.77981 26.94995,-31.78035 26.95077,-31.78041 26.95102,-31.78043 26.95826,-31.78101 26.96362,-31.78324 26.9639,-31.78336 26.97251,-31.78696 26.97211,-31.78729 26.96645,-31.792 26.96923,-31.79878 26.96992,-31.80047 26.97269,-31.80725 26.97368,-31.80965 26.9744,-31.81141 26.97511,-31.81315 26.97583,-31.8149 26.97654,-31.81665 26.97798,-31.82015 26.97869,-31.8219 26.98013,-31.8254 26.98084,-31.82716 26.98048,-31.82904 26.98011,-31.8309 26.97975,-31.83277 26.97938,-31.83463 26.97902,-31.8365 26.97865,-31.83836 26.97829,-31.84023 26.97792,-31.84209 26.97718,-31.84583 26.97696,-31.84627 26.97674,-31.84672 26.97651,-31.84716 26.97629,-31.8476 26.97607,-31.84805 26.97585,-31.84849 26.97563,-31.84894 26.97541,-31.84938 26.97518,-31.84982 26.97497,-31.85025 26.9738,-31.85272 26.97268,-31.85507 26.97272,-31.85508 26.97708,-31.85522 26.98147,-31.85536 26.98587,-31.85551 26.99026,-31.85566 26.99466,-31.8558 26.99905,-31.85595 27.00345,-31.8561 27.00745,-31.85623 27.01365,-31.86039 27.01473,-31.86022 27.0158,-31.86005 27.01794,-31.85973 27.01905,-31.85955 27.02015,-31.85938 27.02459,-31.8587 27.0257,-31.85854 27.028,-31.85967 27.03704,-31.8641 27.04513,-31.87222 27.04814,-31.87523 27.04928,-31.87693 27.06377,-31.88731 27.07313,-31.89402 27.07942,-31.89493 27.08121,-31.90149 27.08616,-31.90391 27.08996,-31.90577 27.09962,-31.9105 27.10501,-31.9148 27.10596,-31.91556 27.11177,-31.93652 27.11206,-31.93645 27.11222,-31.93746 27.11295,-31.93973 27.11296,-31.94011 27.11386,-31.94292 27.11387,-31.94353 27.11468,-31.94611 27.11469,-31.94641 27.11469,-31.94656 27.11551,-31.94937 27.11552,-31.94975 27.11723,-31.95567 27.11724,-31.9562 27.11805,-31.95886 27.11809,-31.95923 27.1189,-31.96211 27.11887,-31.96265 27.11942,-31.96478 27.11949,-31.96539 27.12086,-31.97169 27.1209,-31.97328 27.1193,-31.98006 27.1194,-31.9801 27.12558,-31.98285 27.14026,-31.98929 27.14147,-31.98981 27.14603,-31.99181 27.15135,-31.99414 27.15205,-31.99437 27.15251,-31.99455 27.15524,-31.99336 27.15598,-31.99311 27.15676,-31.99297 27.15682,-31.99296 27.15768,-31.99294 27.15814,-31.99299 27.15842,-31.993 27.1592,-31.99311 27.15994,-31.99327 27.16239,-31.99398 27.16253,-31.994 27.16266,-31.99402 27.16295,-31.99398 27.16344,-31.99383 27.16414,-31.9937 27.16505,-31.99351 27.16633,-31.99334 27.16744,-31.99313 27.16907,-31.99296 27.17056,-31.99268 27.17087,-31.99261 27.17142,-31.99248 27.17243,-31.99229 27.17404,-31.99199 27.17564,-31.99169 27.17581,-31.99169 27.17631,-31.99158 27.17807,-31.99128 27.17899,-31.9912 27.17999,-31.9912 27.18021,-31.99119 27.18051,-31.99117 27.18217,-31.99111 27.18423,-31.99106 27.18557,-31.99101 27.18602,-31.991 27.18739,-31.99104 27.18748,-31.99103 27.18799,-31.99092 27.18867,-31.9908 27.18917,-31.99073 27.18948,-31.99069 27.1896,-31.99071 27.18995,-31.99086 27.19037,-31.99117 27.1905,-31.99129 27.191,-31.99171 27.19161,-31.99219 27.19209,-31.99246 27.1927,-31.99268 27.19391,-31.99298 27.19465,-31.99312 27.19487,-31.99316 27.19707,-31.99358 27.19761,-31.99364 27.19818,-31.99359 27.19845,-31.99352 27.20053,-31.99298 27.20251,-31.99234 27.20328,-31.99198 27.20378,-31.99157 27.20426,-31.99103 27.2046,-31.99056 27.20518,-31.98956 27.20579,-31.98834 27.20608,-31.98807 27.2064,-31.98789 27.20696,-31.98771 27.20717,-31.98769 27.20769,-31.98764 27.20776,-31.98763 27.20798,-31.98764 27.20818,-31.98772 27.20874,-31.9881 27.20884,-31.98812 27.20891,-31.9881 27.20904,-31.98808 27.20916,-31.98811 27.20936,-31.98821 27.20949,-31.98827 27.20963,-31.98834 27.20979,-31.98843 27.20983,-31.98845 27.20997,-31.98853 27.21007,-31.98859 27.21016,-31.98864 27.21031,-31.98873 27.21044,-31.98881 27.2107,-31.98894 27.21105,-31.98925 27.21124,-31.98917 27.21177,-31.98939 27.21312,-31.98939 27.21473,-31.98961 27.21697,-31.98938 27.21885,-31.98907 27.21976,-31.98883 27.21994,-31.98882 27.2244,-31.98804 27.22458,-31.98798 27.22466,-31.98791 27.22543,-31.9867 27.22567,-31.98632 27.22625,-31.98539 27.2267,-31.98367 27.22695,-31.98273 27.22711,-31.97825 27.22758,-31.97786 27.22763,-31.97785 27.22767,-31.97785 27.22784,-31.97798 27.22809,-31.97786 27.22831,-31.97778 27.22875,-31.97768 27.22879,-31.97767 27.22899,-31.9777 27.22924,-31.97781 27.22976,-31.97795 27.22995,-31.97778 27.23049,-31.97767 27.23104,-31.97757 27.23121,-31.97766 27.23143,-31.97772 27.2316,-31.97784 27.23174,-31.97796 27.23174,-31.97817 27.23154,-31.97827 27.23113,-31.97846 27.23089,-31.97896 27.23109,-31.97927 27.23142,-31.97952 27.23178,-31.97965 27.23202,-31.97985 27.2319,-31.98 27.23178,-31.98023 27.23178,-31.98044 27.23198,-31.9805 27.23229,-31.98048 27.23251,-31.98046 27.23263,-31.98045 27.23268,-31.98054 27.23263,-31.98078 27.23263,-31.98106 27.23274,-31.98124 27.23295,-31.98128 27.23325,-31.98124 27.23388,-31.98119 27.2342,-31.98126 27.23427,-31.98144 27.23443,-31.98175 27.23455,-31.98192 27.23473,-31.98183 27.23493,-31.98166 27.23516,-31.9813 27.23524,-31.9811 27.23537,-31.98106 27.23544,-31.98103 27.23552,-31.98106 27.2357,-31.98123 27.23592,-31.9814 27.23617,-31.98177 27.23641,-31.98195 27.23656,-31.98191 27.23673,-31.98203 27.23704,-31.9823 27.23728,-31.98248 27.23747,-31.98256 27.23763,-31.98255 27.23771,-31.98239 27.23799,-31.98226 27.23847,-31.98228 27.23888,-31.98243 27.23922,-31.98258 27.23964,-31.98275 27.2398,-31.98288 27.23985,-31.98297 27.23987,-31.98314 27.2395,-31.98333 27.2391,-31.98339 27.23875,-31.98339 27.23873,-31.98348 27.23878,-31.98367 27.2391,-31.9837 27.23946,-31.9837 27.23997,-31.9834 27.24041,-31.98343 27.24057,-31.98359 27.24057,-31.98379 27.24061,-31.98399 27.24069,-31.9842 27.24089,-31.98443 27.24104,-31.98471 27.24125,-31.98505 27.24149,-31.98505 27.24169,-31.98503 27.24181,-31.98496 27.242,-31.98483 27.2426,-31.98483 27.24305,-31.98494 27.24361,-31.98497 27.24377,-31.9851 27.24385,-31.98533 27.24387,-31.98551 27.24409,-31.98577 27.24433,-31.98597 27.24457,-31.98615 27.24482,-31.98632 27.24511,-31.98648 27.24519,-31.98647 27.24533,-31.98643 27.24546,-31.98632 27.24566,-31.98621 27.24586,-31.98602 27.24601,-31.98582 27.24625,-31.98571 27.24648,-31.9858 27.24669,-31.98596 27.24685,-31.98611 27.24705,-31.98611 27.24727,-31.98602 27.24744,-31.98591 27.2476,-31.98577 27.24784,-31.98574 27.24796,-31.98584 27.24796,-31.98614 27.24804,-31.98645 27.24816,-31.98658 27.24839,-31.98662 27.24868,-31.98656 27.2489,-31.98642 27.249,-31.98631 27.24897,-31.9862 27.24917,-31.98593 27.24954,-31.98579 27.2501,-31.98568 27.25054,-31.9859 27.25083,-31.98611 27.25095,-31.98642 27.25079,-31.98655 27.25059,-31.98669 27.25037,-31.98686 27.25038,-31.98703 27.25045,-31.9872 27.25069,-31.98733 27.251,-31.98734 27.2514,-31.98724 27.25193,-31.98714 27.25232,-31.98732 27.25266,-31.98762 27.25297,-31.98811 27.25299,-31.98847 27.25325,-31.98875 27.25339,-31.98872 27.25368,-31.98872 27.25399,-31.98882 27.25449,-31.98894 27.25463,-31.98915 27.25481,-31.98946 27.25511,-31.98966 27.25511,-31.98996 27.25521,-31.99031 27.25529,-31.99061 27.2556,-31.9907 27.256,-31.99074 27.25637,-31.99088 27.25658,-31.99098 27.25678,-31.99108 27.25694,-31.99162 27.25724,-31.99227 27.25754,-31.99263 27.25795,-31.99269 27.25831,-31.99277 27.25866,-31.99284 27.25886,-31.99284 27.25917,-31.99281 27.25941,-31.9927 27.25978,-31.99264 27.26034,-31.99265 27.26084,-31.99268 27.26133,-31.99275 27.26164,-31.99276 27.26173,-31.9928 27.26184,-31.99275 27.26192,-31.9927 27.26195,-31.99268 27.26202,-31.99252 27.26222,-31.99239 27.26236,-31.99227 27.26254,-31.99227 27.26297,-31.99234 27.26344,-31.99238 27.26406,-31.9924 27.26438,-31.99231 27.26452,-31.99227 27.26507,-31.99213 27.26534,-31.9922 27.26576,-31.99232 27.26628,-31.99246 27.26634,-31.99247 27.26657,-31.99248 27.26685,-31.9924 27.26705,-31.9923 27.26725,-31.9921 27.26753,-31.9918 27.26764,-31.99169 27.26784,-31.99166 27.2681,-31.99168 27.2685,-31.99179 27.26852,-31.99198 27.26853,-31.99202 27.26856,-31.99215 27.26882,-31.99223 27.26939,-31.9922 27.2697,-31.99216 27.26995,-31.99209 27.26997,-31.99184 27.27014,-31.99166 27.27053,-31.99148 27.27089,-31.99155 27.27118,-31.99156 27.27158,-31.99156 27.27185,-31.99155 27.2722,-31.99155 27.27257,-31.99152 27.27297,-31.99152 27.27306,-31.99142 27.27304,-31.99122 27.27294,-31.99105 27.27281,-31.9909 27.2728,-31.99064 27.27284,-31.99044 27.27312,-31.99032 27.27368,-31.9903 27.27408,-31.9903 27.27446,-31.99025 27.27474,-31.99034 27.27488,-31.99049 27.27488,-31.99063 27.27484,-31.99072 27.2747,-31.99076 27.27465,-31.9908 27.27459,-31.99101 27.27451,-31.99122 27.27449,-31.99128 27.27448,-31.99132 27.27441,-31.9915 27.2744,-31.99171 27.27441,-31.99184 27.27446,-31.99189 27.27477,-31.99189 27.27485,-31.99188 27.27502,-31.99186 27.27509,-31.99184 27.27526,-31.99178 27.2754,-31.99169 27.27546,-31.99161 27.27546,-31.9914 27.27541,-31.99117 27.27538,-31.99095 27.27536,-31.99083 27.27539,-31.99062 27.27551,-31.9904 27.27554,-31.99036 27.27569,-31.9902 27.27577,-31.99006 27.27587,-31.9899 27.27613,-31.98954 27.27642,-31.9891 27.27667,-31.98875 27.27677,-31.98857 27.27683,-31.98856 27.27701,-31.98843 27.27709,-31.98818 27.27719,-31.98796 27.27735,-31.98756 27.27754,-31.9873 27.27793,-31.98711 27.27839,-31.98706 27.27899,-31.98713 27.27956,-31.98731 27.27983,-31.98744 27.27994,-31.98756 27.27995,-31.98782 27.27994,-31.98796 27.28,-31.98815 27.28021,-31.9884 27.28029,-31.98858 27.28047,-31.98874 27.28059,-31.9888 27.2811,-31.9887 27.28157,-31.98861 27.28202,-31.98861 27.28254,-31.98866 27.28286,-31.98865 27.28302,-31.98863 27.28322,-31.9886 27.28327,-31.9885 27.2832,-31.98792 27.28325,-31.98763 27.28329,-31.98751 27.28335,-31.98743 27.28336,-31.9874 27.2834,-31.98729 27.28343,-31.98721 27.28352,-31.98712 27.28359,-31.98709 27.28363,-31.98706 27.28381,-31.98692 27.28385,-31.98687 27.2839,-31.98679 27.28397,-31.98672 27.28409,-31.9867 27.28419,-31.9867 27.28431,-31.98669 27.28438,-31.9867 27.28448,-31.98672 27.28453,-31.98675 27.28475,-31.98676 27.28491,-31.98676 27.28499,-31.98675 27.28516,-31.98669 27.28526,-31.98668 27.28553,-31.98668 27.28562,-31.98673 27.28561,-31.98682 27.28554,-31.98696 27.28538,-31.98708 27.28531,-31.98712 27.28526,-31.98724 27.2852,-31.98745 27.28513,-31.98773 27.28508,-31.98808 27.28507,-31.98816 27.28508,-31.9884 27.28522,-31.98858 27.28535,-31.98862 27.28554,-31.98862 27.28567,-31.98863 27.2858,-31.98858 27.28596,-31.98847 27.28605,-31.98837 27.28611,-31.98824 27.28621,-31.98805 27.28607,-31.98777 27.28608,-31.98774 27.28607,-31.98745 27.28607,-31.98723 27.28615,-31.98692 27.28635,-31.98677 27.28656,-31.98681 27.28682,-31.98695 27.28716,-31.98711 27.2877,-31.98733 27.28783,-31.98744 27.28805,-31.98766 27.28825,-31.98774 27.28853,-31.98771 27.2887,-31.98767 27.28889,-31.98749 27.28892,-31.98736 27.28935,-31.9871 27.28953,-31.98697 27.28961,-31.98691 27.28972,-31.98685 27.28989,-31.98665 27.29012,-31.98642 27.29044,-31.98633 27.29086,-31.98625 27.29096,-31.98623 27.29114,-31.98596 27.29124,-31.98564 27.2914,-31.98486 27.29144,-31.98469 27.2915,-31.98451 27.29183,-31.98426 27.29211,-31.98406 27.29249,-31.98394 27.29281,-31.98385 27.29296,-31.98379 27.29305,-31.98378 27.29332,-31.98363 27.29351,-31.9835 27.29362,-31.9834 27.2937,-31.98334 27.29388,-31.98323 27.29426,-31.98288 27.29462,-31.98273 27.29486,-31.98277 27.2952,-31.98288 27.29547,-31.98299 27.29612,-31.98299 27.29673,-31.98311 27.29709,-31.98328 27.29747,-31.98362 27.29752,-31.98373 27.29761,-31.98391 27.29768,-31.98414 27.29777,-31.98437 27.29814,-31.98444 27.29841,-31.98429 27.29879,-31.9842 27.29914,-31.98421 27.2995,-31.98442 27.29963,-31.98446 27.2997,-31.98434 27.29988,-31.98395 27.29993,-31.98372 27.30001,-31.98352 27.30006,-31.98344 27.30006,-31.98331 27.30047,-31.98312 27.30107,-31.98312 27.30193,-31.98324 27.30204,-31.98333 27.30299,-31.98371 27.30313,-31.98381 27.30334,-31.98426 27.30344,-31.98431 27.30384,-31.98449 27.30415,-31.98461 27.30441,-31.98462 27.30458,-31.98458 27.30484,-31.9842 27.30502,-31.98389 27.30518,-31.98341 27.30519,-31.98318 27.3051,-31.98309 27.30487,-31.98268 27.30507,-31.98244 27.30602,-31.98244 27.30678,-31.98248 27.30728,-31.98283 27.30755,-31.98292 27.30863,-31.98281 27.30911,-31.98281 27.30961,-31.98296 27.31,-31.98314 27.30999,-31.98326 27.30997,-31.98335 27.30982,-31.98346 27.30967,-31.98352 27.30962,-31.98362 27.3097,-31.98371 27.30993,-31.98388 27.31005,-31.98399 27.31024,-31.98408 27.31045,-31.98414 27.31065,-31.98409 27.31071,-31.98396 27.31084,-31.98371 27.31093,-31.98351 27.31094,-31.98347 27.31099,-31.98348 27.31119,-31.98322 27.31141,-31.98262 27.31154,-31.98219 27.31155,-31.98216 27.31166,-31.98175 27.31189,-31.98161 27.31251,-31.98108 27.31268,-31.98113 27.31293,-31.98137 27.31276,-31.98173 27.31259,-31.98201 27.31265,-31.98216 27.31296,-31.98216 27.3134,-31.98189 27.31355,-31.9818 27.31377,-31.98129 27.31394,-31.98086 27.31418,-31.98049 27.31422,-31.98043 27.31459,-31.98009 27.31509,-31.97999 27.3152,-31.98026 27.31535,-31.98054 27.31529,-31.98078 27.31515,-31.981 27.31512,-31.98122 27.31571,-31.98128 27.31617,-31.98111 27.31681,-31.98075 27.31751,-31.98034 27.31799,-31.98003 27.3184,-31.97982 27.31883,-31.97974 27.31962,-31.97965 27.32069,-31.97988 27.32097,-31.97998 27.32115,-31.98009 27.32135,-31.98009 27.32177,-31.98 27.32216,-31.97978 27.32269,-31.97959 27.32314,-31.9794 27.32344,-31.97911 27.32375,-31.9788 27.32383,-31.97877 27.32406,-31.97868 27.32467,-31.9786 27.32543,-31.9786 27.32631,-31.97855 27.32731,-31.97846 27.32759,-31.97843 27.3282,-31.97841 27.32846,-31.97834 27.32865,-31.97828 27.3291,-31.97821 27.3292,-31.97819 27.32928,-31.97818 27.32935,-31.97816 27.32955,-31.97816 27.32963,-31.97819 27.32971,-31.97826 27.32988,-31.97842 27.32991,-31.97853 27.33,-31.97885 27.32995,-31.97941 27.32992,-31.97976 27.32988,-31.9799 27.32979,-31.98027 27.32968,-31.98064 27.32968,-31.98087 27.32977,-31.98116 27.33009,-31.98196 27.33029,-31.98247 27.33038,-31.9827 27.33053,-31.98331 27.33053,-31.98403 27.33044,-31.98489 27.33037,-31.98887 27.33037,-31.98941 27.33041,-31.99021 27.33067,-31.99141 27.33076,-31.99183 27.33085,-31.99221 27.3314,-31.99342 27.33168,-31.99419 27.33175,-31.9944 27.33181,-31.99454 27.33208,-31.99522 27.33237,-31.99573 27.33249,-31.99593 27.33301,-31.99667 27.33322,-31.99685 27.33365,-31.99721 27.33426,-31.99736 27.3349,-31.99746 27.33548,-31.99746 27.33606,-31.99733 27.33655,-31.99713 27.33693,-31.99698 27.33704,-31.99688 27.33739,-31.99661 27.33782,-31.99622 27.33802,-31.99587 27.33843,-31.9948 27.33861,-31.99435 27.33868,-31.99416 27.33888,-31.99379 27.33929,-31.99312 27.33958,-31.99258 27.33975,-31.99194 27.33989,-31.99082 27.33992,-31.99062 27.34003,-31.99006 27.34019,-31.98968 27.34026,-31.98951 27.34061,-31.98909 27.34095,-31.98894 27.34117,-31.98892 27.34145,-31.98889 27.34195,-31.98895 27.34229,-31.98899 27.3424,-31.98899 27.34246,-31.989 27.3425,-31.98901 27.34297,-31.98919 27.34368,-31.98946 27.3442,-31.98972 27.34491,-31.99007 27.34638,-31.99091 27.34799,-31.99163 27.34869,-31.99188 27.34925,-31.99207 27.34955,-31.99216 27.34989,-31.99227 27.34996,-31.99226 27.35002,-31.99226 27.35042,-31.9923 27.35058,-31.99232 27.35123,-31.99241 27.35213,-31.99249 27.35313,-31.99249 27.35352,-31.99253 27.35364,-31.99247 27.35367,-31.99239 27.3537,-31.9923 27.35371,-31.99242 27.35372,-31.99247 27.3538,-31.99254 27.35437,-31.99266 27.3544,-31.99266 27.35443,-31.99267 27.35517,-31.99285 27.35584,-31.99319 27.35629,-31.99356 27.35632,-31.99358 27.35676,-31.99394 27.35716,-31.99448 27.35752,-31.99515 27.35787,-31.99599 27.35816,-31.99692 27.35829,-31.99758 27.3584,-31.99856 27.35839,-31.99915 27.35832,-31.99966 27.35829,-32 27.3583,-32.00026 27.3583,-32.00039 27.35828,-32.00074 27.35819,-32.00101 27.35804,-32.00125 27.35771,-32.00177 27.35771,-32.0018 27.3576,-32.00193 27.3572,-32.00238 27.35694,-32.0026 27.35669,-32.00274 27.35638,-32.00286 27.35614,-32.00292 27.356,-32.00292 27.35584,-32.00284 27.35569,-32.00274 27.35531,-32.00243 27.35505,-32.00224 27.35463,-32.00206 27.35425,-32.00198 27.35395,-32.00195 27.35322,-32.00187 27.35273,-32.00186 27.35225,-32.0019 27.35191,-32.00199 27.35149,-32.00222 27.35127,-32.00235 27.35106,-32.00266 27.35101,-32.00296 27.35104,-32.00348 27.35103,-32.00418 27.351,-32.00486 27.351,-32.00497 27.35103,-32.00559 27.35115,-32.00681 27.35136,-32.00772 27.35157,-32.00842 27.35186,-32.00903 27.35224,-32.0096 27.35268,-32.01007 27.35317,-32.01053 27.35373,-32.01089 27.35418,-32.01108 27.35446,-32.01118 27.35475,-32.0112 27.35583,-32.0112 27.35645,-32.01123 27.35688,-32.01129 27.35737,-32.01144 27.35756,-32.01153 27.35759,-32.01154 27.35782,-32.01165 27.35829,-32.01193 27.35871,-32.01219 27.35906,-32.0125 27.35949,-32.01293 27.35977,-32.01341 27.36005,-32.01407 27.36027,-32.0151 27.36028,-32.01595 27.36019,-32.01691 27.36016,-32.01872 27.36015,-32.01908 27.36026,-32.01961 27.36061,-32.02 27.361,-32.02033 27.36152,-32.02059 27.36222,-32.02085 27.36262,-32.02086 27.36317,-32.02082 27.36348,-32.02075 27.36351,-32.02075 27.3639,-32.02066 27.36445,-32.02046 27.36521,-32.02001 27.36607,-32.01943 27.3667,-32.01897 27.36729,-32.01836 27.3679,-32.01734 27.36813,-32.01659 27.36836,-32.01616 27.36881,-32.0153 27.36953,-32.01409 27.36998,-32.01338 27.37039,-32.01292 27.37083,-32.01261 27.37139,-32.01234 27.37175,-32.01225 27.3722,-32.01229 27.37241,-32.01232 27.37325,-32.0127 27.37371,-32.01311 27.37411,-32.01368 27.37431,-32.01427 27.37448,-32.01496 27.37458,-32.01559 27.37461,-32.01636 27.37452,-32.01739 27.37428,-32.01836 27.37404,-32.01916 27.37385,-32.01982 27.37362,-32.02043 27.37331,-32.02133 27.37293,-32.02236 27.37279,-32.02266 27.37243,-32.02341 27.37185,-32.02453 27.37134,-32.0251 27.37074,-32.02563 27.37014,-32.02593 27.36973,-32.02609 27.3693,-32.02614 27.36887,-32.02618 27.3688,-32.02618 27.36814,-32.02623 27.36767,-32.02627 27.3672,-32.0264 27.36645,-32.02655 27.36574,-32.02665 27.36511,-32.02664 27.36446,-32.02669 27.36396,-32.02679 27.36361,-32.02694 27.36336,-32.02723 27.36311,-32.02762 27.36291,-32.02815 27.36289,-32.02838 27.36283,-32.02898 27.36283,-32.02902 27.36289,-32.02939 27.3631,-32.02982 27.36349,-32.03031 27.36444,-32.03079 27.3651,-32.03095 27.36562,-32.031 27.36619,-32.03096 27.36653,-32.03099 27.36731,-32.03105 27.36818,-32.03109 27.36918,-32.03122 27.37033,-32.03146 27.37124,-32.03174 27.37181,-32.03209 27.37206,-32.03246 27.3722,-32.03293 27.37219,-32.03325 27.37213,-32.03344 27.3719,-32.03369 27.37178,-32.03379 27.37161,-32.03393 27.37129,-32.03419 27.37082,-32.03443 27.37016,-32.03455 27.36955,-32.03466 27.36888,-32.03472 27.3683,-32.03479 27.36795,-32.03482 27.3675,-32.03481 27.36701,-32.03483 27.36649,-32.03489 27.36591,-32.03496 27.36567,-32.03503 27.36535,-32.03519 27.36493,-32.03535 27.36444,-32.03553 27.36405,-32.03579 27.36376,-32.03603 27.36352,-32.03654 27.36342,-32.03696 27.36344,-32.03749 27.36356,-32.03799 27.36378,-32.03854 27.36397,-32.03885 27.36401,-32.03891 27.3646,-32.03958 27.36517,-32.04046 27.36567,-32.04098 27.36576,-32.04108 27.36597,-32.04133 27.36622,-32.04159 27.36645,-32.042 27.36666,-32.04242 27.36682,-32.04286 27.36694,-32.04327 27.36696,-32.04356 27.36693,-32.04416 27.3669,-32.04466 27.36684,-32.04528 27.36686,-32.04574 27.36687,-32.04607 27.36683,-32.04633 27.36673,-32.04665 27.36666,-32.04676 27.36664,-32.04679 27.36656,-32.04692 27.36635,-32.0472 27.36612,-32.04749 27.36591,-32.04775 27.36555,-32.04802 27.36521,-32.04823 27.36463,-32.04844 27.36411,-32.0486 27.36355,-32.04875 27.36318,-32.04886 27.36268,-32.04896 27.36179,-32.04915 27.36079,-32.04933 27.36002,-32.04944 27.35851,-32.0497 27.35769,-32.04978 27.35717,-32.04979 27.35623,-32.04976 27.35556,-32.04971 27.35462,-32.04966 27.35413,-32.04966 27.35357,-32.04971 27.35314,-32.04981 27.35286,-32.04995 27.3526,-32.05017 27.35244,-32.05048 27.35233,-32.05081 27.35232,-32.05111 27.35232,-32.05141 27.35246,-32.05191 27.35277,-32.05266 27.35299,-32.05322 27.35328,-32.05381 27.35347,-32.05403 27.3536,-32.0541 27.35401,-32.05431 27.35442,-32.05441 27.35486,-32.05439 27.35534,-32.05433 27.35596,-32.05419 27.35614,-32.05415 27.35676,-32.05396 27.35797,-32.05377 27.35886,-32.0536 27.36004,-32.0534 27.36175,-32.05313 27.36347,-32.05282 27.36481,-32.05258 27.36565,-32.05248 27.3661,-32.05245 27.36692,-32.05224 27.36755,-32.05218 27.3678,-32.0522 27.3681,-32.05229 27.36896,-32.05264 27.36983,-32.05292 27.37084,-32.05325 27.37127,-32.05347 27.37152,-32.05367 27.37181,-32.05414 27.37212,-32.05476 27.37243,-32.05539 27.3728,-32.05647 27.37309,-32.05727 27.37336,-32.05785 27.37354,-32.05848 27.37364,-32.05885 27.37374,-32.05947 27.37396,-32.06041 27.3741,-32.06096 27.37433,-32.06155 27.37443,-32.06195 27.37448,-32.06237 27.37452,-32.06276 27.37451,-32.0632 27.37453,-32.06351 27.37454,-32.06377 27.37464,-32.06435 27.37476,-32.06476 27.37491,-32.06507 27.37514,-32.0654 27.37539,-32.06568 27.37573,-32.06594 27.37624,-32.06628 27.37755,-32.06664 27.37808,-32.06678 27.37866,-32.06688 27.3798,-32.06715 27.3805,-32.06745 27.3807,-32.06757 27.38075,-32.0676 27.38099,-32.06775 27.38137,-32.06807 27.38173,-32.06853 27.38185,-32.06882 27.38187,-32.06897 27.38187,-32.0693 27.38175,-32.06952 27.38156,-32.06977 27.38095,-32.07028 27.37986,-32.0709 27.37854,-32.07147 27.37735,-32.07186 27.37622,-32.07218 27.37519,-32.07246 27.37359,-32.07291 27.37265,-32.07322 27.37229,-32.07333 27.37103,-32.07392 27.36997,-32.07444 27.36914,-32.07498 27.36877,-32.07536 27.36846,-32.07568 27.36828,-32.07598 27.36817,-32.07634 27.36819,-32.07669 27.36827,-32.077 27.36852,-32.07741 27.36856,-32.07745 27.36883,-32.07771 27.36943,-32.07802 27.37009,-32.07843 27.371,-32.07898 27.37175,-32.07935 27.37218,-32.07954 27.37278,-32.07977 27.37352,-32.08005 27.3741,-32.08023 27.37483,-32.08051 27.37547,-32.08074 27.37605,-32.08098 27.37656,-32.08121 27.37714,-32.08136 27.37759,-32.08144 27.37889,-32.0817 27.37952,-32.08176 27.38023,-32.08184 27.38201,-32.08198 27.3833,-32.08195 27.38463,-32.0819 27.38618,-32.08177 27.38825,-32.08154 27.3892,-32.08141 27.3898,-32.08133 27.39024,-32.08128 27.39119,-32.08107 27.39222,-32.08068 27.39348,-32.08022 27.394,-32.07982 27.39453,-32.07939 27.39481,-32.07909 27.39501,-32.07887 27.3954,-32.07846 27.39576,-32.07787 27.39607,-32.07729 27.39635,-32.07685 27.39707,-32.07594 27.39751,-32.07521 27.39785,-32.07454 27.39827,-32.07386 27.39858,-32.07323 27.39878,-32.07285 27.399,-32.07232 27.39914,-32.07202 27.39955,-32.07108 27.39995,-32.0704 27.40023,-32.0701 27.4004,-32.06998 27.4007,-32.06984 27.40091,-32.06977 27.40099,-32.06974 27.40158,-32.06962 27.4021,-32.06956 27.40247,-32.06952 27.40255,-32.06951 27.40293,-32.06951 27.40329,-32.06955 27.40366,-32.06958 27.4041,-32.06967 27.40458,-32.0698 27.40481,-32.06991 27.40503,-32.07005 27.40538,-32.07031 27.40563,-32.07058 27.40608,-32.07113 27.4065,-32.07174 27.40678,-32.07214 27.40681,-32.07219 27.40746,-32.07303 27.40771,-32.07334 27.40789,-32.07358 27.40827,-32.07391 27.40866,-32.07415 27.40896,-32.07436 27.40929,-32.07465 27.40958,-32.07498 27.40994,-32.07544 27.41019,-32.07577 27.41044,-32.07612 27.41066,-32.07643 27.4109,-32.07698 27.41141,-32.07771 27.41166,-32.07809 27.41202,-32.07862 27.41229,-32.07954 27.41232,-32.07961 27.41254,-32.08029 27.4126,-32.08083 27.4126,-32.081 27.41258,-32.08189 27.41264,-32.08275 27.41274,-32.08364 27.4129,-32.08471 27.41329,-32.08587 27.41353,-32.08675 27.41363,-32.08744 27.41362,-32.08779 27.41358,-32.08816 27.41372,-32.08879 27.41386,-32.08956 27.41389,-32.08969 27.41402,-32.09038 27.41424,-32.09102 27.41429,-32.09115 27.41449,-32.09159 27.41473,-32.09238 27.41478,-32.09274 27.41478,-32.09321 27.41474,-32.09358 27.41459,-32.09397 27.41449,-32.09451 27.41437,-32.09502 27.41425,-32.09546 27.41421,-32.09578 27.414,-32.09637 27.41353,-32.0971 27.41329,-32.09746 27.41247,-32.09824 27.41211,-32.09865 27.41182,-32.09892 27.4113,-32.09918 27.41089,-32.09935 27.41073,-32.09939 27.41022,-32.09954 27.40918,-32.09972 27.40829,-32.09986 27.40768,-32.09995 27.40727,-32.09999 27.40678,-32.10008 27.40545,-32.10007 27.40491,-32.09996 27.4043,-32.09986 27.40364,-32.09965 27.40301,-32.0995 27.40244,-32.09934 27.40151,-32.09913 27.40066,-32.09889 27.40003,-32.09876 27.39915,-32.09869 27.39846,-32.09866 27.39768,-32.09862 27.39698,-32.09867 27.39641,-32.09874 27.39588,-32.09878 27.39527,-32.09886 27.39484,-32.09892 27.39431,-32.09903 27.39389,-32.09915 27.39345,-32.09928 27.39299,-32.09943 27.3921,-32.09975 27.39137,-32.10009 27.39083,-32.10033 27.39043,-32.10057 27.38984,-32.10092 27.38939,-32.10129 27.38902,-32.1017 27.38881,-32.10198 27.38872,-32.10209 27.38852,-32.10252 27.38834,-32.10302 27.38816,-32.10366 27.38807,-32.10416 27.38807,-32.10459 27.38808,-32.10515 27.38807,-32.10576 27.38803,-32.10638 27.38797,-32.10719 27.38788,-32.1082 27.38788,-32.10823 27.38792,-32.10866 27.38799,-32.10884 27.38804,-32.10898 27.38818,-32.10919 27.38837,-32.10948 27.38866,-32.1099 27.38913,-32.11059 27.38958,-32.11126 27.39011,-32.11206 27.39056,-32.11267 27.39106,-32.11325 27.39145,-32.11369 27.39277,-32.11461 27.39362,-32.11501 27.39418,-32.11524 27.39441,-32.11529 27.39476,-32.11533 27.39505,-32.11536 27.39581,-32.11539 27.39683,-32.11543 27.39774,-32.11544 27.39886,-32.11539 27.39981,-32.11534 27.40047,-32.11526 27.40144,-32.11507 27.40221,-32.11485 27.40298,-32.11458 27.4039,-32.1143 27.40472,-32.11398 27.40546,-32.11364 27.40618,-32.1133 27.40689,-32.11291 27.40736,-32.11254 27.40781,-32.11232 27.40811,-32.11215 27.40843,-32.11203 27.40914,-32.11196 27.41005,-32.11195 27.41086,-32.11209 27.41113,-32.11214 27.41155,-32.11223 27.41204,-32.11235 27.41347,-32.1126 27.41356,-32.11262 27.41432,-32.11275 27.41579,-32.11315 27.41681,-32.11353 27.41815,-32.11405 27.41923,-32.11464 27.42028,-32.11533 27.42124,-32.11599 27.42167,-32.11649 27.42204,-32.11693 27.42235,-32.11756 27.42284,-32.11856 27.42334,-32.11987 27.42359,-32.12077 27.42358,-32.1212 27.42372,-32.12185 27.42368,-32.12225 27.42359,-32.12275 27.42337,-32.1234 27.42319,-32.12385 27.42289,-32.12424 27.4227,-32.12446 27.4224,-32.12481 27.42184,-32.12528 27.42124,-32.12567 27.42068,-32.12599 27.42009,-32.12623 27.41959,-32.12632 27.41815,-32.12631 27.41741,-32.12617 27.41671,-32.12604 27.41621,-32.12588 27.41557,-32.12568 27.41496,-32.12554 27.41423,-32.12536 27.41344,-32.12512 27.41291,-32.12494 27.41247,-32.12481 27.41192,-32.1246 27.41054,-32.12404 27.40958,-32.12367 27.40882,-32.12339 27.408,-32.12318 27.40715,-32.12299 27.40595,-32.12271 27.40496,-32.12249 27.40434,-32.12246 27.40387,-32.1225 27.40325,-32.12267 27.40274,-32.12291 27.4023,-32.12326 27.40188,-32.1236 27.40155,-32.12398 27.40121,-32.12439 27.40087,-32.12478 27.40061,-32.1251 27.40044,-32.12539 27.40033,-32.12568 27.40031,-32.12592 27.4003,-32.12634 27.40035,-32.12739 27.40034,-32.12745 27.40033,-32.12755 27.40031,-32.12776 27.40026,-32.12796 27.40015,-32.12816 27.39996,-32.12843 27.3998,-32.12871 27.39969,-32.12893 27.39964,-32.12919 27.39961,-32.12943 27.39957,-32.12999 27.3996,-32.13031 27.39966,-32.13065 27.39967,-32.13112 27.39966,-32.13142 27.39966,-32.13163 27.39958,-32.13223 27.39954,-32.13259 27.3994,-32.13307 27.39922,-32.13345 27.39896,-32.13396 27.39866,-32.13442 27.39829,-32.13497 27.39797,-32.13543 27.39771,-32.13581 27.39748,-32.13617 27.39739,-32.13641 27.39737,-32.13659 27.39743,-32.13676 27.39767,-32.13703 27.39776,-32.13708 27.39821,-32.13737 27.39867,-32.1377 27.3989,-32.13789 27.3991,-32.13821 27.39913,-32.1383 27.39917,-32.13843 27.39923,-32.13876 27.39932,-32.13921 27.39947,-32.13961 27.39962,-32.13992 27.39989,-32.14019 27.40017,-32.1404 27.40046,-32.1405 27.4007,-32.14056 27.40085,-32.14063 27.40104,-32.14075 27.40206,-32.14126 27.40292,-32.14175 27.40366,-32.14218 27.40453,-32.14267 27.4052,-32.143 27.40595,-32.14344 27.40646,-32.14371 27.40693,-32.14392 27.40771,-32.1443 27.40802,-32.14446 27.40819,-32.14455 27.40863,-32.14478 27.40903,-32.14481 27.40918,-32.14483 27.40932,-32.14486 27.41071,-32.14516 27.41134,-32.14538 27.41221,-32.14568 27.41249,-32.14578 27.41255,-32.14581 27.41324,-32.14616 27.41386,-32.14648 27.4155,-32.14763 27.41583,-32.14794 27.41672,-32.14881 27.41744,-32.14975 27.41768,-32.15008 27.41814,-32.15097 27.41826,-32.15125 27.41851,-32.15183 27.41857,-32.15228 27.41869,-32.15319 27.41868,-32.15407 27.41846,-32.15475 27.41766,-32.15675 27.41732,-32.15878 27.41726,-32.15944 27.41736,-32.16068 27.41753,-32.16227 27.41752,-32.16282 27.41752,-32.16316 27.4174,-32.16409 27.4173,-32.16501 27.41711,-32.16658 27.41662,-32.16877 27.41567,-32.17347 27.41504,-32.17672 27.41507,-32.17749 27.41508,-32.1777 27.41496,-32.17804 27.41475,-32.17824 27.41473,-32.1785 27.41479,-32.1791 27.41493,-32.17949 27.41493,-32.17982 27.41526,-32.18037 27.41539,-32.18148 27.41572,-32.18242 27.4165,-32.18308 27.41715,-32.18368 27.41781,-32.18418 27.4189,-32.1844 27.41918,-32.18453 27.42031,-32.18503 27.42037,-32.18506 27.42062,-32.18511 27.42151,-32.1853 27.42212,-32.18542 27.42248,-32.18543 27.42468,-32.18551 27.42834,-32.18547 27.42996,-32.18519 27.43158,-32.18479 27.43255,-32.18441 27.43352,-32.18439 27.43616,-32.18448 27.43646,-32.18448 27.43721,-32.18447 27.43781,-32.18437 27.43803,-32.18433 27.4383,-32.18428 27.43918,-32.18411 27.44008,-32.18386 27.44012,-32.18385 27.44026,-32.18378 27.44119,-32.18334 27.44218,-32.18278 27.44257,-32.18255 27.44288,-32.18232 27.44341,-32.18192 27.44373,-32.18169 27.44408,-32.18133 27.4444,-32.18083 27.4445,-32.18067 27.44467,-32.18027 27.44487,-32.17979 27.44509,-32.17926 27.44511,-32.17918 27.44588,-32.17667 27.44635,-32.175 27.44639,-32.17485 27.44639,-32.17482 27.44642,-32.17389 27.44643,-32.17356 27.44619,-32.17305 27.44606,-32.17276 27.44568,-32.17191 27.44511,-32.17094 27.44504,-32.17081 27.44467,-32.17044 27.44412,-32.17006 27.44354,-32.16966 27.44251,-32.16896 27.4416,-32.16834 27.44044,-32.16751 27.43984,-32.16714 27.43806,-32.16605 27.43778,-32.16588 27.43726,-32.1655 27.43661,-32.16501 27.43614,-32.16466 27.43581,-32.16436 27.43575,-32.1643 27.43468,-32.1633 27.4346,-32.16322 27.43439,-32.16295 27.4341,-32.16258 27.43375,-32.16194 27.43364,-32.16172 27.43344,-32.16093 27.43344,-32.16059 27.43345,-32.16007 27.4336,-32.15944 27.43395,-32.15866 27.43438,-32.15818 27.43466,-32.158 27.43479,-32.15792 27.43631,-32.15694 27.43674,-32.15666 27.43838,-32.15593 27.43858,-32.15586 27.4398,-32.15548 27.4401,-32.15538 27.44036,-32.15533 27.44152,-32.15509 27.44267,-32.15494 27.44398,-32.15475 27.44422,-32.15474 27.44488,-32.1547 27.44529,-32.15471 27.44556,-32.15472 27.44579,-32.15472 27.44582,-32.15473 27.44615,-32.15479 27.44676,-32.15491 27.44703,-32.15501 27.4478,-32.15531 27.44802,-32.1554 27.44846,-32.15556 27.44863,-32.15569 27.44954,-32.15635 27.45009,-32.15687 27.45057,-32.15733 27.45162,-32.15865 27.45188,-32.159 27.45216,-32.15933 27.4524,-32.15961 27.45302,-32.16036 27.45372,-32.1612 27.45381,-32.16135 27.45465,-32.16265 27.45472,-32.16276 27.45494,-32.16332 27.4552,-32.16399 27.45609,-32.16571 27.45619,-32.16594 27.45702,-32.16793 27.45745,-32.16868 27.45869,-32.17081 27.45962,-32.17263 27.45977,-32.17293 27.45992,-32.17309 27.46031,-32.17353 27.46066,-32.17391 27.46133,-32.17445 27.46189,-32.17475 27.46222,-32.17484 27.46242,-32.1749 27.46309,-32.17493 27.46324,-32.17488 27.46364,-32.17477 27.46369,-32.17475 27.46438,-32.17448 27.46518,-32.17405 27.46723,-32.17249 27.46769,-32.17214 27.46803,-32.17182 27.47066,-32.16934 27.47189,-32.16802 27.47212,-32.16777 27.47267,-32.16719 27.47323,-32.16661 27.47375,-32.16569 27.47386,-32.1655 27.47412,-32.16492 27.4744,-32.16428 27.47502,-32.16338 27.47547,-32.16291 27.47564,-32.16281 27.47614,-32.16251 27.47638,-32.16241 27.47683,-32.16221 27.47729,-32.16212 27.4775,-32.16208 27.47811,-32.16196 27.47831,-32.16196 27.47894,-32.16194 27.47927,-32.16201 27.47975,-32.16213 27.48048,-32.16215 27.48091,-32.16216 27.48123,-32.16229 27.48161,-32.16244 27.48168,-32.16247 27.48234,-32.1628 27.48323,-32.16351 27.48334,-32.16362 27.48457,-32.16489 27.48614,-32.16674 27.48643,-32.16708 27.48746,-32.16828 27.48824,-32.16935 27.48856,-32.16997 27.48862,-32.17011 27.48864,-32.17016 27.48882,-32.17106 27.48886,-32.17127 27.48882,-32.17325 27.48887,-32.1744 27.48893,-32.17472 27.48906,-32.17547 27.48941,-32.17658 27.48989,-32.17753 27.49009,-32.17774 27.4903,-32.17797 27.49063,-32.17854 27.49066,-32.17858 27.4914,-32.17985 27.49186,-32.18046 27.492,-32.18066 27.49247,-32.18128 27.49335,-32.1823 27.49361,-32.18261 27.49474,-32.18331 27.495,-32.18345 27.49677,-32.18443 27.49701,-32.18456 27.49725,-32.18475 27.49772,-32.18511 27.49878,-32.18593 27.49905,-32.18613 27.49943,-32.18648 27.49966,-32.18668 27.49971,-32.18672 27.49992,-32.18691 27.5001,-32.18721 27.5001,-32.1877 27.49995,-32.18851 27.49937,-32.18971 27.49896,-32.19034 27.49892,-32.19041 27.49839,-32.1909 27.498,-32.19103 27.49748,-32.19101 27.49668,-32.19089 27.49581,-32.19056 27.49313,-32.189 27.49221,-32.18831 27.49156,-32.18778 27.48968,-32.18593 27.48966,-32.1859 27.48962,-32.18587 27.48812,-32.18477 27.48765,-32.18442 27.48695,-32.18396 27.48666,-32.18377 27.4859,-32.18328 27.48541,-32.18306 27.48476,-32.18291 27.48435,-32.18286 27.48396,-32.18299 27.48346,-32.18334 27.4824,-32.18443 27.4821,-32.185 27.48183,-32.18569 27.48182,-32.18577 27.48168,-32.18663 27.48169,-32.18725 27.48191,-32.18788 27.48211,-32.18848 27.48239,-32.18911 27.48297,-32.19048 27.4834,-32.19109 27.48391,-32.19183 27.48406,-32.19204 27.48558,-32.19409 27.48578,-32.19436 27.487,-32.19557 27.48725,-32.19578 27.48828,-32.19668 27.48877,-32.19702 27.48933,-32.1974 27.48944,-32.19748 27.48966,-32.19756 27.48979,-32.1976 27.48983,-32.19761 27.49095,-32.19802 27.49111,-32.19808 27.49123,-32.19816 27.49134,-32.19823 27.49157,-32.19838 27.49166,-32.19847 27.49203,-32.19883 27.49206,-32.19887 27.49281,-32.19971 27.49326,-32.20022 27.49421,-32.20139 27.49508,-32.20244 27.49588,-32.2034 27.4963,-32.20392 27.49645,-32.20411 27.49774,-32.20551 27.49796,-32.20576 27.49826,-32.20608 27.49948,-32.20763 27.49964,-32.20793 27.49973,-32.20808 27.50006,-32.20845 27.50059,-32.20907 27.5007,-32.20918 27.50168,-32.20998 27.50261,-32.21075 27.5034,-32.21123 27.50427,-32.21174 27.50491,-32.21212 27.50629,-32.21277 27.5067,-32.21297 27.5072,-32.2132 27.5081,-32.2136 27.50967,-32.21431 27.51031,-32.21466 27.51169,-32.21539 27.51303,-32.21613 27.5136,-32.21661 27.51364,-32.21664 27.51413,-32.21722 27.51428,-32.21789 27.51429,-32.21796 27.51434,-32.21859 27.51436,-32.21885 27.51432,-32.21904 27.5142,-32.21963 27.51419,-32.21966 27.51405,-32.2201 27.51369,-32.2214 27.51327,-32.22198 27.51305,-32.2223 27.51275,-32.22267 27.51191,-32.22374 27.51186,-32.2238 27.51107,-32.22464 27.51069,-32.22525 27.51041,-32.22568 27.51024,-32.22606 27.50963,-32.22742 27.50942,-32.22786 27.50911,-32.22854 27.50871,-32.22939 27.50788,-32.23075 27.50711,-32.23195 27.50635,-32.23463 27.48576,-32.25258 27.49249,-32.26477 27.49245,-32.26485 27.48662,-32.2771 27.48561,-32.27918 27.48555,-32.27929 27.49013,-32.29027 27.49036,-32.29215 27.4915,-32.30123 27.49199,-32.30514 27.49212,-32.30663 27.4921,-32.30665 27.48618,-32.3131 27.47984,-32.32 27.47857,-32.32133 27.47827,-32.32164 27.47474,-32.32632 27.46092,-32.33427 27.46082,-32.33417 27.46076,-32.33411 27.44207,-32.33437 27.44131,-32.33438 27.44132,-32.33443 27.44136,-32.33465 27.44158,-32.33522 27.44189,-32.33568 27.4422,-32.33602 27.44237,-32.33609 27.44313,-32.33625 27.44352,-32.33642 27.44387,-32.33656 27.44421,-32.33678 27.44457,-32.337 27.44501,-32.33726 27.44523,-32.33735 27.44541,-32.33749 27.4455,-32.33765 27.44576,-32.33796 27.44598,-32.33824 27.4463,-32.33866 27.44689,-32.33931 27.44726,-32.33969 27.44796,-32.34007 27.44823,-32.34024 27.4484,-32.34038 27.44858,-32.34046 27.44884,-32.34059 27.44903,-32.34064 27.44919,-32.34081 27.44937,-32.34108 27.44963,-32.34141 27.44982,-32.34178 27.44989,-32.34196 27.44991,-32.34235 27.44993,-32.34278 27.44997,-32.34299 27.45022,-32.34352 27.45041,-32.34393 27.45081,-32.34449 27.45091,-32.34468 27.45116,-32.34488 27.45125,-32.34519 27.45125,-32.34531 27.45116,-32.34547 27.45103,-32.34575 27.45103,-32.34589 27.45107,-32.34608 27.4512,-32.34655 27.45133,-32.34699 27.45137,-32.34721 27.45146,-32.34738 27.45155,-32.34766 27.45172,-32.34791 27.45181,-32.34809 27.45185,-32.34826 27.45185,-32.34861 27.45174,-32.3487 27.45163,-32.34896 27.45163,-32.34929 27.45152,-32.34984 27.4515,-32.35006 27.45141,-32.35034 27.45133,-32.35076 27.45137,-32.35107 27.45137,-32.35182 27.45134,-32.35217 27.45135,-32.35221 27.44634,-32.35634 27.44113,-32.35877 27.43155,-32.35627 27.42611,-32.35096 27.41543,-32.33995 27.41387,-32.33841 27.41381,-32.33836 27.41379,-32.33848 27.4112,-32.35335 27.411,-32.35494 27.39296,-32.35773 27.38688,-32.35883 27.3868,-32.3588 27.37454,-32.35414 27.36625,-32.35105 27.36626,-32.35101 27.36956,-32.34291 27.37058,-32.34018 27.3706,-32.34012 27.36649,-32.33239 27.36558,-32.33053 27.35687,-32.32115 27.3478,-32.31176 27.34778,-32.31173 27.34128,-32.31693 27.33876,-32.31894 27.33652,-32.32058 27.33389,-32.31439 27.3331,-32.31255 27.33307,-32.31248 27.33306,-32.31254 27.33307,-32.31326 27.33299,-32.31357 27.33268,-32.3143 27.33192,-32.31478 27.33131,-32.31514 27.33073,-32.31548 27.33002,-32.31575 27.32936,-32.31598 27.32927,-32.31598 27.32874,-32.31602 27.32763,-32.31608 27.32714,-32.31608 27.32645,-32.31604 27.32564,-32.31585 27.32473,-32.31556 27.32423,-32.31538 27.32317,-32.31473 27.32276,-32.31421 27.32253,-32.31357 27.32251,-32.31288 27.32273,-32.31232 27.3233,-32.31164 27.32379,-32.31111 27.32442,-32.31074 27.32463,-32.31027 27.32485,-32.30983 27.3248,-32.30975 27.32467,-32.30952 27.32264,-32.3059 27.3222,-32.30511 27.31967,-32.30059 27.30809,-32.2967 27.30419,-32.29531 27.30491,-32.29216 27.30282,-32.28891 27.30253,-32.28846 27.30225,-32.28848 27.29363,-32.28924 27.29247,-32.28934 27.28849,-32.2852 27.28581,-32.28111 27.27737,-32.27435 27.27417,-32.26983 27.26151,-32.27592 27.26095,-32.27619 27.24365,-32.28193 27.24362,-32.28194 27.2206,-32.2721 27.2131,-32.26895 27.21134,-32.26789 27.20586,-32.26613 27.20503,-32.26502 27.20425,-32.26323 27.20232,-32.25883 27.19837,-32.24938 27.1983,-32.24939 27.18438,-32.25275 27.1851,-32.25114 27.18366,-32.24512 27.18354,-32.24459 27.18287,-32.24182 27.18221,-32.23905 27.18087,-32.23351 27.18063,-32.23314 27.17519,-32.23236 27.17248,-32.23197 27.16976,-32.23158 27.16493,-32.23087 27.16431,-32.23079 27.16431,-32.23084 27.16072,-32.2382 27.16073,-32.23841 27.16073,-32.2385 27.15476,-32.23856 27.14574,-32.23862 27.13679,-32.23862 27.12564,-32.23867 27.11989,-32.23869 27.11991,-32.23895 27.11948,-32.23877 27.11952,-32.23752 27.12008,-32.23627 27.12042,-32.23591 27.12121,-32.2354 27.12329,-32.23172 27.12309,-32.23159 27.12435,-32.22875 27.12184,-32.22815 27.10633,-32.22445 27.09159,-32.22093 27.09081,-32.22169 27.08985,-32.22258 27.08866,-32.22256 27.08827,-32.22289 27.08751,-32.22331 27.0867,-32.2234 27.08607,-32.22388 27.08489,-32.22386 27.08351,-32.22432 27.08248,-32.22408 27.08206,-32.22454 27.08085,-32.22508 27.07987,-32.22541 27.07951,-32.22597 27.07832,-32.22622 27.07727,-32.22647 27.07599,-32.2266 27.07453,-32.22726 27.07374,-32.22767 27.07247,-32.22805 27.07215,-32.22814 27.07122,-32.22805 27.06974,-32.22799 27.06873,-32.22754 27.06754,-32.22751 27.06584,-32.22792 27.06517,-32.22806 27.06471,-32.2284 27.06309,-32.22899 27.06175,-32.22922 27.0612,-32.22957 27.06079,-32.23063 27.05997,-32.23123 27.05854,-32.23235 27.05723,-32.23307 27.05559,-32.23336 27.05478,-32.23294 27.05405,-32.23248 27.05345,-32.23299 27.05273,-32.23427 27.05214,-32.23505 27.05126,-32.23544 27.05121,-32.23506 27.04961,-32.22198 27.04933,-32.21971 27.01619,-32.22212 27.01092,-32.2225 26.97945,-32.20638 26.97018,-32.19384 26.97043,-32.193 26.97003,-32.19277 26.96995,-32.19272 26.96921,-32.19262 26.96897,-32.1926 26.96789,-32.19252 26.9668,-32.19242 26.9666,-32.19238 26.96625,-32.19231 26.96542,-32.19158 26.96476,-32.19226 26.96384,-32.19341 26.96341,-32.19403 26.96327,-32.19474 26.96293,-32.19684 26.9627,-32.19794 26.96295,-32.19879 26.9627,-32.19936 26.96231,-32.19973 26.96158,-32.20032 26.96107,-32.20087 26.95814,-32.2039 26.95949,-32.20521 26.95925,-32.2054 26.95102,-32.21201 26.93364,-32.22662 26.93356,-32.22673 26.9251,-32.23879 26.9251,-32.23879 26.92121,-32.24077 26.90021,-32.25145 26.89794,-32.25751 26.89296,-32.27161 26.86941,-32.26959 26.85962,-32.26183 26.85658,-32.25951 26.85549,-32.25597 26.85466,-32.25363 26.85408,-32.25098 26.85299,-32.24905 26.85112,-32.24687 26.84904,-32.24635 26.84654,-32.24635 26.84482,-32.24697 26.84321,-32.24822 26.84232,-32.24984 26.84232,-32.2515 26.84232,-32.25218 26.84342,-32.25535 26.84359,-32.25601 26.84394,-32.25738 26.84383,-32.25941 26.84368,-32.26331 26.84446,-32.26482 26.84607,-32.26498 26.84706,-32.26394 26.84815,-32.26165 26.84899,-32.26168 26.84944,-32.26169 26.84976,-32.2617 26.84992,-32.26191 26.85041,-32.26254 26.8506,-32.26279 26.85063,-32.26295 26.8508,-32.26394 26.85104,-32.26583 26.85112,-32.26648 26.84982,-32.26664 26.84805,-32.2668 26.84743,-32.26719 26.8468,-32.26758 26.84638,-32.26808 26.84623,-32.26825 26.84549,-32.26895 26.84534,-32.26909 26.84493,-32.27039 26.8444,-32.27031 26.84381,-32.27022 26.84352,-32.27018 26.84262,-32.27067 26.84248,-32.27075 26.8419,-32.27042 26.84175,-32.27034 26.84154,-32.27054 26.84071,-32.27132 26.84062,-32.27137 26.84023,-32.27157 26.83972,-32.27184 26.83837,-32.27169 26.83749,-32.272 26.8365,-32.27174 26.83556,-32.27148 26.83537,-32.27163 26.83483,-32.27205 26.83423,-32.27183 26.83396,-32.27173 26.83384,-32.27169 26.83274,-32.27151 26.83271,-32.27168 26.83119,-32.28081 26.8299,-32.28856 26.82043,-32.29244 26.81215,-32.29584 26.8121,-32.29984</coordinates></LinearRing></outerBoundaryIs></Polygon></MultiGeometry></Placemark></Document></kml>