<?xml version="1.0" encoding="UTF-8"?><kml xmlns="http://www.opengis.net/kml/2.2"><Document><Placemark><name>Queenstown</name><description>Main Place 281017</description><ExtendedData><Data name="code"><value>281017</value></Data><Data name="name"><value>Queenstown</value></Data><Data name="description"><value>Main Place 281017</value></Data></ExtendedData><MultiGeometry><Polygon><outerBoundaryIs><LinearRing><coordinates>26.87743,-31.86732 26.9068,-31.88948 26.91711,-31.88365 26.91895,-31.8876 26.91956,-31.88941 26.91956,-31.89017 26.91895,-31.89236 26.91734,-31.89454 26.91182,-31.89761 26.91244,-31.89874 26.91697,-31.907 26.91777,-31.90678 26.91917,-31.90644 26.92041,-31.90613 26.92165,-31.90584 26.92297,-31.90551 26.9239,-31.90529 26.92524,-31.90493 26.92607,-31.90689 26.92776,-31.91017 26.92883,-31.91231 26.92951,-31.9136 26.92983,-31.91423 26.93019,-31.915 26.92968,-31.91532 26.92848,-31.9159 26.92731,-31.9165 26.92617,-31.91708 26.92587,-31.9172 26.92494,-31.91754 26.9238,-31.91797 26.92262,-31.91841 26.92202,-31.91862 26.9213,-31.9189 26.92034,-31.91923 26.92006,-31.91948 26.92122,-31.92 26.92231,-31.92054 26.92324,-31.92098 26.92455,-31.92162 26.9248,-31.92174 26.92581,-31.92358 26.92762,-31.92697 26.92809,-31.92783 26.92857,-31.9287 26.93019,-31.93168 26.93141,-31.93398 26.93171,-31.93454 26.93125,-31.93452 26.92841,-31.93442 26.92576,-31.93434 26.92304,-31.93438 26.91865,-31.93446 26.91735,-31.93448 26.91575,-31.93488 26.91406,-31.93529 26.9106,-31.93615 26.90793,-31.93683 26.9083,-31.93769 26.90854,-31.93799 26.90692,-31.93895 26.90609,-31.93902 26.90557,-31.93908 26.9042,-31.93916 26.90309,-31.93926 26.90263,-31.93931 26.90185,-31.93791 26.90143,-31.9372 26.90083,-31.9361 26.90028,-31.93518 26.89956,-31.93535 26.89813,-31.93554 26.89681,-31.93576 26.89665,-31.93575 26.89615,-31.93569 26.89376,-31.93532 26.89102,-31.93487 26.88647,-31.93416 26.8839,-31.93378 26.8813,-31.93336 26.87901,-31.93303 26.87521,-31.93245 26.87085,-31.93178 26.86823,-31.93138 26.86474,-31.93083 26.86266,-31.93052 26.86272,-31.93006 26.86224,-31.92961 26.86207,-31.92945 26.86156,-31.92892 26.86155,-31.92891 26.86119,-31.92848 26.86085,-31.92815 26.86032,-31.92764 26.85983,-31.92711 26.8595,-31.92677 26.85946,-31.92673 26.85901,-31.92633 26.85855,-31.92588 26.85822,-31.92548 26.85799,-31.92488 26.85798,-31.92488 26.85781,-31.92435 26.85778,-31.92427 26.85776,-31.92421 26.85759,-31.92369 26.85742,-31.92319 26.85727,-31.92267 26.85726,-31.92261 26.8572,-31.92236 26.85713,-31.92173 26.85712,-31.92166 26.85705,-31.92105 26.85698,-31.92006 26.85697,-31.91982 26.85694,-31.91943 26.85688,-31.91869 26.8568,-31.91754 26.85675,-31.91695 26.85718,-31.91695 26.85782,-31.91689 26.85801,-31.91688 26.85838,-31.91685 26.85845,-31.91743 26.85853,-31.91817 26.8592,-31.9181 26.85964,-31.91807 26.86003,-31.9182 26.86069,-31.91842 26.86091,-31.91849 26.86116,-31.91799 26.86133,-31.91768 26.86163,-31.91737 26.86163,-31.91737 26.86179,-31.91741 26.86231,-31.91753 26.86264,-31.91764 26.86313,-31.91777 26.86355,-31.9178 26.86363,-31.9178 26.86385,-31.91782 26.86391,-31.91783 26.86436,-31.91781 26.86479,-31.91773 26.86526,-31.91766 26.86573,-31.91763 26.86576,-31.91762 26.86592,-31.9176 26.86639,-31.91754 26.86653,-31.91752 26.86766,-31.91742 26.86834,-31.91734 26.86961,-31.91727 26.87184,-31.9172 26.87175,-31.91634 26.87167,-31.91557 26.87157,-31.91472 26.87097,-31.9148 26.87027,-31.91485 26.86943,-31.91485 26.86933,-31.91384 26.86924,-31.91301 26.86912,-31.91191 26.86998,-31.91184 26.87133,-31.91172 26.8712,-31.91056 26.87117,-31.91029 26.87106,-31.90922 26.87105,-31.90913 26.87095,-31.90812 26.87093,-31.90799 26.8708,-31.90686 26.8708,-31.90684 26.87067,-31.90572 26.8706,-31.90488 26.87058,-31.90472 26.87052,-31.90414 26.8705,-31.90376 26.87054,-31.90353 26.8706,-31.90328 26.87073,-31.90301 26.86927,-31.90245 26.8683,-31.90209 26.86762,-31.90185 26.86797,-31.90107 26.86845,-31.90023 26.8688,-31.89929 26.86795,-31.89893 26.86765,-31.89882 26.86736,-31.89869 26.86705,-31.89863 26.86675,-31.89862 26.86624,-31.89967 26.86578,-31.90063 26.86563,-31.90094 26.8651,-31.90204 26.86506,-31.90213 26.86465,-31.90297 26.86463,-31.90301 26.8644,-31.90329 26.86426,-31.90342 26.86398,-31.90367 26.8637,-31.90393 26.86329,-31.90414 26.86293,-31.90422 26.86264,-31.90442 26.86244,-31.90465 26.86241,-31.9048 26.86238,-31.90497 26.86238,-31.90544 26.86245,-31.90616 26.8625,-31.90679 26.86248,-31.90736 26.86248,-31.90736 26.85952,-31.90977 26.85946,-31.90982 26.85882,-31.91034 26.85794,-31.90937 26.85767,-31.90953 26.85716,-31.90988 26.85656,-31.91028 26.85589,-31.91072 26.85569,-31.91087 26.85549,-31.91066 26.85502,-31.91092 26.8545,-31.91099 26.85395,-31.91115 26.85376,-31.9112 26.85354,-31.91132 26.85317,-31.91148 26.85311,-31.9115 26.85266,-31.91167 26.85221,-31.91177 26.85168,-31.91197 26.85123,-31.91225 26.85089,-31.91252 26.8508,-31.91273 26.85077,-31.91295 26.85069,-31.9131 26.85057,-31.91323 26.85064,-31.91331 26.85006,-31.91375 26.84902,-31.91457 26.8496,-31.91512 26.85016,-31.91565 26.84984,-31.91596 26.85019,-31.91625 26.85067,-31.91629 26.85112,-31.91676 26.85112,-31.91676 26.85122,-31.91668 26.85155,-31.91651 26.85194,-31.91643 26.85286,-31.91626 26.85273,-31.91583 26.85262,-31.91537 26.85251,-31.91484 26.85274,-31.9147 26.85327,-31.91449 26.85369,-31.9143 26.85406,-31.91416 26.85413,-31.91477 26.85416,-31.91511 26.85419,-31.91528 26.85423,-31.91555 26.85429,-31.9161 26.85512,-31.91606 26.85516,-31.91646 26.8552,-31.91682 26.85522,-31.91693 26.85529,-31.91754 26.8553,-31.91766 26.85539,-31.91856 26.85548,-31.91914 26.85557,-31.91989 26.85562,-31.92054 26.85516,-31.92057 26.85511,-31.92022 26.85477,-31.92024 26.85393,-31.9203 26.85388,-31.9198 26.85384,-31.91937 26.85379,-31.91894 26.85339,-31.91867 26.85336,-31.91908 26.85344,-31.91965 26.85351,-31.92015 26.8535,-31.9206 26.85352,-31.92098 26.85359,-31.92124 26.85373,-31.92153 26.85338,-31.92163 26.85284,-31.92178 26.85254,-31.92185 26.85209,-31.92196 26.85211,-31.92201 26.85237,-31.9227 26.85252,-31.9231 26.85267,-31.92358 26.85284,-31.92394 26.85311,-31.92425 26.85338,-31.92451 26.85379,-31.92477 26.85411,-31.9249 26.85401,-31.92513 26.85376,-31.9256 26.85215,-31.92586 26.85184,-31.92512 26.85183,-31.92511 26.85147,-31.92491 26.85134,-31.92455 26.85118,-31.92418 26.85115,-31.92381 26.85108,-31.92353 26.85082,-31.92336 26.85079,-31.92319 26.85074,-31.92296 26.85058,-31.92252 26.85042,-31.92199 26.85027,-31.92166 26.85009,-31.92116 26.84985,-31.92048 26.84972,-31.92008 26.84952,-31.91956 26.84939,-31.91926 26.84915,-31.9186 26.84893,-31.91796 26.84871,-31.91732 26.84857,-31.91667 26.84855,-31.91632 26.84844,-31.91612 26.84839,-31.91587 26.84838,-31.91582 26.84828,-31.91593 26.84821,-31.91609 26.84822,-31.91619 26.84815,-31.91643 26.84805,-31.91663 26.84795,-31.91675 26.84775,-31.91693 26.84769,-31.917 26.84767,-31.91726 26.84756,-31.91737 26.84741,-31.91747 26.84754,-31.91753 26.84744,-31.9178 26.84737,-31.91797 26.84728,-31.9181 26.8472,-31.9183 26.84707,-31.91858 26.84702,-31.91867 26.84692,-31.91878 26.84702,-31.91889 26.84695,-31.91906 26.84694,-31.91907 26.84694,-31.91907 26.84681,-31.91935 26.84658,-31.91976 26.84628,-31.92046 26.84613,-31.92083 26.84611,-31.92086 26.84591,-31.92125 26.8455,-31.92209 26.84541,-31.92228 26.84531,-31.9225 26.84507,-31.92297 26.84507,-31.92298 26.84506,-31.923 26.8447,-31.92378 26.84454,-31.92407 26.84433,-31.9244 26.84417,-31.92484 26.84404,-31.92514 26.84422,-31.9257 26.84453,-31.9266 26.84473,-31.92702 26.84311,-31.92804 26.84268,-31.92732 26.84229,-31.92658 26.84212,-31.92622 26.84208,-31.92597 26.84221,-31.92547 26.84228,-31.92524 26.84245,-31.9247 26.84256,-31.92412 26.84257,-31.92358 26.84255,-31.92311 26.84253,-31.92274 26.84273,-31.92227 26.84297,-31.922 26.84337,-31.92182 26.84362,-31.92174 26.84383,-31.92167 26.84405,-31.92146 26.84437,-31.92093 26.84476,-31.92024 26.84503,-31.91971 26.84507,-31.9196 26.84528,-31.91902 26.84552,-31.91842 26.84582,-31.91772 26.84592,-31.91731 26.84605,-31.91691 26.84623,-31.91668 26.84655,-31.91646 26.84661,-31.9163 26.84655,-31.91611 26.84647,-31.91589 26.84653,-31.91546 26.84666,-31.91468 26.84668,-31.91432 26.84668,-31.91413 26.84668,-31.91339 26.84644,-31.91271 26.84626,-31.91218 26.84597,-31.91134 26.84594,-31.91124 26.84567,-31.91045 26.84547,-31.90994 26.84515,-31.9091 26.84501,-31.90869 26.84487,-31.90891 26.84468,-31.90935 26.84438,-31.90965 26.84412,-31.91003 26.84398,-31.91079 26.84384,-31.91109 26.84351,-31.91158 26.84292,-31.91202 26.84311,-31.91379 26.84255,-31.9142 26.84215,-31.91467 26.84202,-31.91515 26.8416,-31.9155 26.8413,-31.91575 26.84121,-31.91598 26.84129,-31.91643 26.84148,-31.91674 26.84183,-31.91708 26.8422,-31.91747 26.84238,-31.91795 26.84253,-31.91853 26.84251,-31.91873 26.84227,-31.9192 26.84203,-31.91965 26.84168,-31.91994 26.84129,-31.92022 26.8408,-31.92037 26.84036,-31.9201 26.83993,-31.91983 26.83964,-31.91976 26.8393,-31.9199 26.83898,-31.92 26.83872,-31.92019 26.83793,-31.92105 26.83716,-31.9217 26.83694,-31.92227 26.83674,-31.92273 26.83644,-31.92301 26.8361,-31.9232 26.83593,-31.92347 26.83497,-31.92473 26.8333,-31.924 26.83299,-31.9234 26.83264,-31.92268 26.83347,-31.92161 26.83281,-31.9203 26.8304,-31.92207 26.82748,-31.92425 26.82462,-31.92637 26.82211,-31.92823 26.81931,-31.9303 26.81709,-31.93193 26.81546,-31.93313 26.81345,-31.93092 26.81185,-31.92917 26.8084,-31.9254 26.80978,-31.92446 26.81219,-31.92278 26.814,-31.92151 26.81587,-31.92021 26.81768,-31.91893 26.81955,-31.91763 26.82198,-31.91594 26.82458,-31.91413 26.82626,-31.91295 26.82863,-31.9113 26.83159,-31.90921 26.83394,-31.90759 26.83182,-31.90669 26.8305,-31.90616 26.82725,-31.90809 26.82698,-31.90763 26.82653,-31.907 26.8241,-31.90852 26.82161,-31.90994 26.82039,-31.91065 26.82002,-31.9112 26.81981,-31.91151 26.81955,-31.91224 26.81987,-31.91297 26.82023,-31.91309 26.82071,-31.91411 26.82012,-31.91435 26.81938,-31.91461 26.81921,-31.91463 26.81907,-31.91458 26.81898,-31.91453 26.81882,-31.91459 26.8185,-31.91466 26.81817,-31.91472 26.81786,-31.91472 26.81763,-31.9147 26.81741,-31.91461 26.81718,-31.91448 26.81692,-31.91429 26.81669,-31.91407 26.81635,-31.91368 26.81616,-31.91344 26.81603,-31.91323 26.81229,-31.91495 26.81139,-31.91575 26.81107,-31.916 26.81038,-31.91647 26.80871,-31.9176 26.80651,-31.91911 26.8042,-31.9207 26.80333,-31.91972 26.80211,-31.91848 26.79958,-31.91575 26.79806,-31.91397 26.7968,-31.91247 26.79801,-31.91141 26.79895,-31.91059 26.79973,-31.90992 26.80057,-31.90918 26.80137,-31.90846 26.80184,-31.90806 26.80227,-31.90777 26.8026,-31.90758 26.80244,-31.90742 26.80205,-31.90714 26.80163,-31.90692 26.80162,-31.90691 26.80129,-31.90687 26.80126,-31.90687 26.79869,-31.90697 26.79811,-31.90179 26.79976,-31.90121 26.80015,-31.9011 26.80121,-31.90099 26.80206,-31.90075 26.80283,-31.90013 26.80328,-31.89969 26.80379,-31.89933 26.8041,-31.89873 26.80424,-31.89815 26.80379,-31.89696 26.80349,-31.89643 26.80234,-31.89655 26.80086,-31.89564 26.79998,-31.89479 26.79986,-31.89471 26.79914,-31.89424 26.79846,-31.89388 26.79829,-31.89399 26.79747,-31.89425 26.79661,-31.89457 26.79561,-31.89487 26.79513,-31.89499 26.79351,-31.89478 26.79321,-31.8948 26.79272,-31.89456 26.79241,-31.89433 26.79229,-31.89405 26.79291,-31.89337 26.79236,-31.89332 26.79186,-31.89333 26.79143,-31.89325 26.79054,-31.89291 26.78973,-31.89169 26.78958,-31.89125 26.7893,-31.89095 26.78998,-31.89011 26.79057,-31.89044 26.79092,-31.89064 26.79113,-31.89073 26.79145,-31.89091 26.79165,-31.89098 26.79182,-31.89098 26.79205,-31.89095 26.79228,-31.89088 26.79272,-31.8902 26.79315,-31.88955 26.79343,-31.88913 26.79388,-31.88916 26.79436,-31.88921 26.79479,-31.8893 26.7949,-31.8887 26.79504,-31.88823 26.79523,-31.88755 26.79538,-31.88688 26.79547,-31.88659 26.79565,-31.88627 26.79588,-31.88609 26.7963,-31.88592 26.79677,-31.88574 26.79732,-31.88647 26.79783,-31.88718 26.79828,-31.88772 26.7986,-31.88805 26.79915,-31.88855 26.7999,-31.88907 26.80051,-31.88938 26.80121,-31.88968 26.80213,-31.88998 26.8027,-31.8902 26.80614,-31.89148 26.80691,-31.89009 26.80746,-31.88929 26.80757,-31.88862 26.80774,-31.88816 26.80786,-31.88761 26.80825,-31.88772 26.80932,-31.88796 26.80974,-31.88798 26.81044,-31.88792 26.81107,-31.88805 26.81151,-31.88817 26.81271,-31.88828 26.81384,-31.88823 26.81452,-31.88807 26.81523,-31.88791 26.81618,-31.88765 26.81654,-31.88749 26.81729,-31.8871 26.81849,-31.88812 26.81946,-31.88917 26.81953,-31.88975 26.81962,-31.8905 26.81996,-31.89143 26.82032,-31.89262 26.82054,-31.89324 26.82075,-31.8936 26.82125,-31.89415 26.82173,-31.89469 26.82219,-31.89528 26.82281,-31.89572 26.82362,-31.89625 26.8245,-31.89667 26.8253,-31.89688 26.82582,-31.8969 26.82639,-31.89686 26.82691,-31.89673 26.82763,-31.89651 26.82811,-31.89632 26.82869,-31.89608 26.82967,-31.8956 26.83029,-31.89545 26.8308,-31.8954 26.83159,-31.89563 26.83203,-31.89579 26.83236,-31.89594 26.83259,-31.89596 26.83318,-31.89577 26.83385,-31.89556 26.83398,-31.89597 26.83426,-31.89671 26.83451,-31.89812 26.83553,-31.89792 26.83656,-31.89771 26.838,-31.89741 26.83675,-31.89549 26.83535,-31.89329 26.83471,-31.89229 26.83351,-31.89043 26.83303,-31.88967 26.83151,-31.88728 26.83124,-31.88688 26.8311,-31.88631 26.831,-31.8851 26.83072,-31.88109 26.83036,-31.8768 26.83009,-31.87312 26.83003,-31.87253 26.83351,-31.86891 26.836,-31.86629 26.83946,-31.86271 26.84345,-31.85859 26.84772,-31.85405 26.84913,-31.85256 26.85022,-31.85144 26.85185,-31.84972 26.85287,-31.84864 26.85381,-31.84768 26.86175,-31.83924 26.87167,-31.85561 26.87743,-31.86732</coordinates></LinearRing></outerBoundaryIs></Polygon></MultiGeometry></Placemark></Document></kml>