<?xml version="1.0" encoding="UTF-8"?><kml xmlns="http://www.opengis.net/kml/2.2"><Document><Placemark><name>Rhole</name><description>Main Place 290281</description><ExtendedData><Data name="code"><value>290281</value></Data><Data name="name"><value>Rhole</value></Data><Data name="description"><value>Main Place 290281</value></Data></ExtendedData><MultiGeometry><Polygon><outerBoundaryIs><LinearRing><coordinates>29.86599,-31.35546 29.86632,-31.35554 29.86659,-31.35536 29.86687,-31.35515 29.86706,-31.35511 29.8672,-31.35511 29.86782,-31.35552 29.86827,-31.35565 29.86929,-31.35587 29.87094,-31.35641 29.87247,-31.35704 29.87268,-31.35692 29.87288,-31.35665 29.87331,-31.35585 29.8736,-31.3553 29.87399,-31.35468 29.87444,-31.35411 29.87475,-31.3537 29.87498,-31.35327 29.87516,-31.35327 29.87541,-31.35337 29.87551,-31.35353 29.87576,-31.35374 29.87608,-31.35386 29.87633,-31.35399 29.87651,-31.35415 29.87656,-31.35435 29.87662,-31.35456 29.87678,-31.35462 29.87699,-31.35483 29.87713,-31.35509 29.87721,-31.35536 29.87727,-31.35556 29.87732,-31.35591 29.87748,-31.35641 29.87779,-31.35673 29.87791,-31.35694 29.87801,-31.35716 29.8781,-31.35754 29.87821,-31.35763 29.8783,-31.35772 29.87831,-31.35782 29.87846,-31.35796 29.87853,-31.358 29.87865,-31.35804 29.87877,-31.35804 29.87893,-31.35804 29.87905,-31.35805 29.87917,-31.35803 29.87942,-31.35809 29.87966,-31.35816 29.87971,-31.35822 29.87989,-31.35836 29.88009,-31.35846 29.88019,-31.3586 29.8803,-31.35861 29.8804,-31.35867 29.88048,-31.35879 29.88048,-31.35894 29.8805,-31.35908 29.88048,-31.35928 29.88041,-31.35942 29.88034,-31.3595 29.88029,-31.35961 29.88022,-31.35979 29.88021,-31.35999 29.88021,-31.36015 29.88018,-31.36026 29.88016,-31.36037 29.88016,-31.36043 29.88018,-31.36055 29.88019,-31.36062 29.88022,-31.36072 29.88018,-31.36085 29.8802,-31.36096 29.88028,-31.36115 29.88039,-31.3612 29.88046,-31.36122 29.88054,-31.36126 29.88064,-31.36128 29.88068,-31.36128 29.88078,-31.36135 29.88089,-31.36136 29.88104,-31.36136 29.88108,-31.36137 29.88118,-31.36147 29.88132,-31.36158 29.88152,-31.36182 29.88164,-31.36187 29.8818,-31.36195 29.88207,-31.36197 29.88218,-31.362 29.88227,-31.362 29.88235,-31.36199 29.88241,-31.36199 29.88246,-31.36199 29.88251,-31.36195 29.88259,-31.36186 29.88268,-31.36177 29.88271,-31.36168 29.88271,-31.36164 29.88289,-31.36161 29.8831,-31.36168 29.88325,-31.36181 29.88331,-31.3619 29.88339,-31.36201 29.88351,-31.36204 29.88361,-31.36215 29.88373,-31.36228 29.88377,-31.36244 29.88379,-31.36263 29.88383,-31.36279 29.88383,-31.36287 29.88387,-31.36292 29.88412,-31.36299 29.88413,-31.36305 29.88414,-31.36319 29.88425,-31.36331 29.8843,-31.36349 29.88433,-31.36361 29.88439,-31.36381 29.8845,-31.36394 29.88469,-31.3641 29.8849,-31.36426 29.8851,-31.36436 29.88527,-31.36455 29.88549,-31.36469 29.88569,-31.36472 29.88581,-31.36468 29.88591,-31.36464 29.88605,-31.36459 29.88617,-31.36458 29.88626,-31.36456 29.88643,-31.36449 29.88655,-31.36441 29.88672,-31.36437 29.88703,-31.36438 29.88746,-31.3644 29.88796,-31.36434 29.8885,-31.3641 29.88899,-31.3637 29.88913,-31.36345 29.88913,-31.3633 29.88905,-31.36315 29.88865,-31.36297 29.88843,-31.36282 29.88824,-31.36277 29.8882,-31.36273 29.88825,-31.3626 29.88832,-31.36254 29.88842,-31.36248 29.88856,-31.36245 29.88857,-31.36227 29.88864,-31.36214 29.8888,-31.36207 29.88895,-31.36198 29.88937,-31.3618 29.88977,-31.36155 29.88989,-31.36133 29.88985,-31.3612 29.88976,-31.36113 29.88887,-31.36105 29.88864,-31.36098 29.8879,-31.36035 29.88772,-31.36007 29.88775,-31.36002 29.88929,-31.35907 29.88939,-31.35909 29.88965,-31.35936 29.89021,-31.35973 29.89066,-31.35985 29.89111,-31.35987 29.89208,-31.35965 29.89232,-31.35961 29.89243,-31.35965 29.89258,-31.3598 29.8927,-31.35981 29.89282,-31.35972 29.89289,-31.35961 29.89299,-31.3595 29.89308,-31.35933 29.89311,-31.35918 29.89315,-31.35906 29.89326,-31.35893 29.89346,-31.35871 29.89358,-31.35863 29.89373,-31.35855 29.89378,-31.35851 29.8938,-31.35848 29.8938,-31.35844 29.89379,-31.35845 29.89377,-31.35831 29.89368,-31.35822 29.89366,-31.35814 29.8937,-31.35806 29.89378,-31.35796 29.89382,-31.35784 29.8938,-31.35774 29.89376,-31.35747 29.89373,-31.35717 29.89375,-31.35702 29.89373,-31.35689 29.89372,-31.35672 29.89375,-31.35657 29.89376,-31.35645 29.89377,-31.35636 29.89385,-31.35625 29.89388,-31.3561 29.89389,-31.35601 29.89396,-31.35597 29.89412,-31.356 29.89639,-31.3561 29.89683,-31.35605 29.89702,-31.35596 29.89717,-31.35595 29.89726,-31.35601 29.89733,-31.3562 29.89733,-31.35645 29.89741,-31.35675 29.89749,-31.357 29.89771,-31.35726 29.89799,-31.3575 29.89822,-31.35763 29.89852,-31.35767 29.899,-31.35753 29.8992,-31.35742 29.8994,-31.35711 29.89953,-31.35668 29.89965,-31.35628 29.89981,-31.35597 29.9,-31.35574 29.90021,-31.35557 29.90046,-31.35545 29.90098,-31.3552 29.90226,-31.35421 29.90246,-31.35397 29.90267,-31.35377 29.90289,-31.35371 29.9032,-31.3537 29.9039,-31.35367 29.90415,-31.35371 29.90437,-31.35372 29.90451,-31.3537 29.90454,-31.3537 29.90464,-31.3537 29.90483,-31.35369 29.9049,-31.35369 29.90502,-31.3537 29.90522,-31.3537 29.90537,-31.35371 29.90552,-31.35373 29.90567,-31.35381 29.90568,-31.35386 29.90569,-31.35394 29.90572,-31.35399 29.90575,-31.35402 29.90578,-31.35416 29.90578,-31.35425 29.9058,-31.35436 29.90578,-31.35448 29.90578,-31.35455 29.90584,-31.35464 29.90591,-31.3547 29.90598,-31.35475 29.90599,-31.35486 29.90606,-31.35495 29.90613,-31.355 29.90613,-31.35509 29.90619,-31.35514 29.90627,-31.35515 29.90634,-31.35514 29.9064,-31.35517 29.90645,-31.35525 29.90648,-31.35533 29.90653,-31.35534 29.90655,-31.35537 29.90655,-31.3555 29.90656,-31.35563 29.9066,-31.35568 29.90669,-31.35573 29.9067,-31.35577 29.90676,-31.35588 29.90676,-31.35593 29.90677,-31.35597 29.90685,-31.35611 29.90693,-31.35623 29.90708,-31.35631 29.90711,-31.35633 29.90724,-31.35645 29.90735,-31.35651 29.90746,-31.35658 29.90745,-31.35666 29.90745,-31.35681 29.90758,-31.35691 29.90766,-31.35704 29.90778,-31.35714 29.90792,-31.35726 29.908,-31.35728 29.90816,-31.35728 29.90825,-31.3573 29.90837,-31.35734 29.90848,-31.35734 29.90861,-31.35736 29.90874,-31.35736 29.90879,-31.35744 29.90888,-31.35751 29.90895,-31.35771 29.90911,-31.35786 29.90917,-31.35801 29.90916,-31.35811 29.9093,-31.35814 29.90937,-31.35823 29.90965,-31.35834 29.90975,-31.35839 29.9099,-31.35852 29.90998,-31.35863 29.91009,-31.35875 29.91027,-31.35894 29.91076,-31.35898 29.91121,-31.35887 29.91152,-31.35887 29.91176,-31.35898 29.91189,-31.3592 29.91203,-31.35957 29.91209,-31.35991 29.9122,-31.36013 29.91245,-31.36028 29.91289,-31.36044 29.91375,-31.36081 29.91404,-31.36101 29.91433,-31.36124 29.91464,-31.36143 29.91495,-31.3617 29.91511,-31.36188 29.91522,-31.36214 29.91548,-31.36305 29.91586,-31.36387 29.91639,-31.36462 29.91703,-31.36553 29.91739,-31.36589 29.91785,-31.36617 29.91865,-31.36664 29.91895,-31.36692 29.91921,-31.36709 29.91946,-31.3672 29.91965,-31.36732 29.91977,-31.36744 29.91986,-31.36769 29.91985,-31.36793 29.91981,-31.36807 29.9197,-31.36817 29.91965,-31.36831 29.91961,-31.36852 29.91953,-31.36859 29.91941,-31.3687 29.91932,-31.36886 29.91915,-31.36897 29.91886,-31.36918 29.91877,-31.36931 29.91869,-31.36943 29.91859,-31.36947 29.91843,-31.36949 29.9182,-31.36949 29.91793,-31.36949 29.91762,-31.36952 29.91735,-31.3696 29.91709,-31.36973 29.91678,-31.37002 29.9166,-31.37036 29.91642,-31.37076 29.91638,-31.3712 29.91619,-31.37176 29.916,-31.37201 29.91579,-31.37224 29.91546,-31.37247 29.91508,-31.37258 29.91475,-31.3727 29.91456,-31.37281 29.91437,-31.37293 29.91425,-31.37314 29.91387,-31.37333 29.91352,-31.37345 29.91301,-31.37341 29.91149,-31.37322 29.91097,-31.37318 29.91063,-31.37324 29.91024,-31.37352 29.90992,-31.37381 29.90967,-31.37393 29.90926,-31.37395 29.90876,-31.37395 29.90846,-31.37406 29.90821,-31.37427 29.90813,-31.37444 29.90815,-31.37464 29.90813,-31.37485 29.90796,-31.37494 29.90775,-31.37517 29.90752,-31.37544 29.90734,-31.37569 29.90702,-31.37579 29.90675,-31.37577 29.90631,-31.3755 29.9059,-31.375 29.90579,-31.37485 29.90571,-31.37496 29.90575,-31.37521 29.90566,-31.37542 29.90556,-31.37543 29.90543,-31.37543 29.90529,-31.37542 29.90506,-31.37534 29.90491,-31.37526 29.90468,-31.37519 29.90439,-31.37517 29.90429,-31.37523 29.90437,-31.3754 29.90454,-31.37569 29.90479,-31.37606 29.905,-31.37619 29.90502,-31.37644 29.90498,-31.37661 29.90485,-31.37677 29.90485,-31.37688 29.90498,-31.37704 29.90508,-31.37717 29.90514,-31.37732 29.9051,-31.37744 29.90489,-31.37748 29.90468,-31.37748 29.90458,-31.37757 29.9046,-31.37771 29.90466,-31.37798 29.90466,-31.37834 29.90464,-31.37855 29.9046,-31.37874 29.90466,-31.37886 29.90477,-31.37901 29.9051,-31.37926 29.90529,-31.37947 29.90535,-31.37976 29.90533,-31.37995 29.90512,-31.38059 29.90506,-31.38101 29.90506,-31.3813 29.905,-31.38164 29.90496,-31.38193 29.90493,-31.38233 29.90493,-31.3826 29.905,-31.38287 29.90504,-31.38323 29.90502,-31.38358 29.90485,-31.38402 29.90468,-31.38458 29.90455,-31.38496 29.90451,-31.38504 29.90409,-31.3855 29.90359,-31.38584 29.9029,-31.38614 29.90256,-31.38634 29.90228,-31.38673 29.90212,-31.3869 29.90178,-31.38704 29.90092,-31.3877 29.90042,-31.38812 29.89994,-31.38837 29.89944,-31.38859 29.89894,-31.38893 29.89836,-31.38937 29.89788,-31.38949 29.89761,-31.38968 29.89711,-31.3901 29.89652,-31.39054 29.89627,-31.39068 29.89555,-31.39071 29.89518,-31.3906 29.89479,-31.39038 29.89446,-31.39029 29.89432,-31.39035 29.89429,-31.39054 29.8944,-31.39079 29.8944,-31.39116 29.89424,-31.39127 29.89357,-31.39124 29.89312,-31.39141 29.89271,-31.39168 29.89226,-31.39221 29.89184,-31.39269 29.89154,-31.39291 29.89126,-31.39305 29.89084,-31.39324 29.89048,-31.39352 29.89023,-31.3938 29.88998,-31.39394 29.88962,-31.39405 29.8892,-31.39408 29.8885,-31.39425 29.88797,-31.39433 29.88764,-31.39444 29.88725,-31.39469 29.88692,-31.39497 29.88661,-31.39547 29.88647,-31.39572 29.88619,-31.39594 29.88586,-31.39614 29.88511,-31.39672 29.88413,-31.39731 29.88344,-31.3977 29.8831,-31.39778 29.88285,-31.39778 29.88249,-31.39761 29.88208,-31.39737 29.88169,-31.39719 29.88138,-31.39717 29.88107,-31.39709 29.8808,-31.3969 29.88052,-31.39674 29.88034,-31.39674 29.88002,-31.3968 29.87956,-31.39705 29.87862,-31.39778 29.8776,-31.39857 29.87737,-31.39878 29.87727,-31.39895 29.87706,-31.3993 29.87664,-31.39968 29.87616,-31.40008 29.87572,-31.40056 29.87541,-31.40106 29.87484,-31.40191 29.87443,-31.40256 29.87403,-31.40296 29.87363,-31.40312 29.87313,-31.40327 29.87275,-31.40327 29.87246,-31.40312 29.87232,-31.40312 29.87203,-31.40319 29.87178,-31.40308 29.87157,-31.40302 29.8715,-31.40317 29.87163,-31.40369 29.87178,-31.40423 29.87205,-31.40457 29.87217,-31.40473 29.87244,-31.40488 29.87297,-31.4049 29.87334,-31.40484 29.87353,-31.4049 29.87363,-31.40505 29.87357,-31.40534 29.87313,-31.40598 29.87301,-31.40626 29.8728,-31.40644 29.87203,-31.40695 29.87071,-31.40774 29.87052,-31.40801 29.87044,-31.4083 29.87031,-31.40841 29.86977,-31.40847 29.8691,-31.40855 29.86883,-31.40859 29.8686,-31.4088 29.86835,-31.40912 29.86814,-31.40937 29.86802,-31.40964 29.86766,-31.41062 29.86724,-31.41114 29.86685,-31.41166 29.86651,-31.41194 29.86626,-31.41202 29.86599,-31.41204 29.86572,-31.41196 29.86541,-31.41191 29.86505,-31.412 29.86482,-31.41212 29.86478,-31.41227 29.86468,-31.41244 29.86447,-31.41256 29.86426,-31.41296 29.86395,-31.41356 29.8637,-31.41404 29.8634,-31.41446 29.86311,-31.4149 29.86288,-31.41511 29.86255,-31.41523 29.8623,-31.41532 29.86207,-31.41542 29.86171,-31.41563 29.86138,-31.41565 29.86115,-31.41557 29.86098,-31.41551 29.86065,-31.41559 29.86044,-31.41569 29.86035,-31.41588 29.86033,-31.41626 29.86019,-31.41655 29.85992,-31.41682 29.85973,-31.41695 29.85914,-31.41764 29.85864,-31.4183 29.85787,-31.41918 29.85712,-31.41989 29.85624,-31.4206 29.85572,-31.42098 29.85541,-31.42112 29.85505,-31.42116 29.85459,-31.42118 29.85434,-31.42129 29.8542,-31.42139 29.85403,-31.42173 29.85372,-31.42206 29.85324,-31.42242 29.85259,-31.42265 29.852,-31.42269 29.85123,-31.4225 29.85006,-31.42204 29.84877,-31.42148 29.84797,-31.42091 29.84705,-31.42018 29.8466,-31.41987 29.8463,-31.41956 29.84609,-31.41938 29.84586,-31.41927 29.84548,-31.41921 29.84487,-31.41917 29.84437,-31.419 29.84386,-31.41896 29.8435,-31.41906 29.84304,-31.4193 29.84234,-31.41957 29.84194,-31.41957 29.84173,-31.41932 29.84164,-31.419 29.84158,-31.41879 29.84158,-31.41862 29.84209,-31.41827 29.8425,-31.41794 29.84258,-31.4178 29.84259,-31.41762 29.84255,-31.41752 29.84255,-31.41742 29.84255,-31.41727 29.84259,-31.4171 29.84259,-31.41693 29.84259,-31.41678 29.84259,-31.41666 29.84251,-31.41644 29.84251,-31.41632 29.84245,-31.41622 29.84243,-31.41613 29.84242,-31.41598 29.84244,-31.4158 29.84245,-31.41565 29.84246,-31.4155 29.84274,-31.41533 29.84312,-31.41522 29.84344,-31.41524 29.84451,-31.41514 29.84515,-31.41491 29.84538,-31.41453 29.84544,-31.41413 29.84542,-31.41381 29.84529,-31.4137 29.845,-31.41362 29.84487,-31.41343 29.84447,-31.41283 29.84448,-31.4126 29.84452,-31.41246 29.84463,-31.41229 29.84521,-31.41191 29.84557,-31.41163 29.84629,-31.41104 29.84675,-31.41026 29.84736,-31.40919 29.84766,-31.40879 29.84783,-31.40843 29.84795,-31.40798 29.84789,-31.40676 29.84764,-31.40619 29.84745,-31.40608 29.84705,-31.40602 29.84548,-31.40606 29.84496,-31.406 29.84475,-31.40594 29.8446,-31.4057 29.84405,-31.40446 29.84399,-31.40332 29.84409,-31.40264 29.84415,-31.40203 29.84418,-31.40159 29.84428,-31.4006 29.84447,-31.40047 29.8447,-31.40047 29.845,-31.40051 29.84536,-31.40047 29.8457,-31.40045 29.84589,-31.40058 29.84601,-31.40077 29.84612,-31.40136 29.84633,-31.40201 29.84648,-31.40222 29.84665,-31.40258 29.84698,-31.403 29.84713,-31.40334 29.84753,-31.40372 29.8481,-31.40402 29.84857,-31.40429 29.8488,-31.40456 29.84907,-31.40463 29.84958,-31.40429 29.85032,-31.40349 29.85042,-31.40328 29.8504,-31.40311 29.85028,-31.40292 29.85032,-31.40271 29.85042,-31.40245 29.8507,-31.40231 29.85114,-31.40224 29.85156,-31.40193 29.85198,-31.4014 29.85264,-31.40115 29.85336,-31.40102 29.85361,-31.40093 29.85384,-31.40093 29.85422,-31.4011 29.85475,-31.4014 29.85505,-31.4015 29.8553,-31.40148 29.85555,-31.40138 29.85576,-31.40134 29.85621,-31.40138 29.85716,-31.40161 29.85792,-31.40163 29.85863,-31.40157 29.85886,-31.40144 29.8591,-31.40117 29.85933,-31.40047 29.85954,-31.40015 29.86019,-31.3992 29.86053,-31.39863 29.86053,-31.39828 29.86051,-31.39796 29.86051,-31.39771 29.86055,-31.39747 29.86072,-31.39726 29.86089,-31.39711 29.8611,-31.39692 29.86133,-31.39697 29.86182,-31.3972 29.86233,-31.39726 29.86298,-31.3972 29.8634,-31.39703 29.86355,-31.39667 29.86364,-31.39653 29.86377,-31.39643 29.86433,-31.39671 29.86439,-31.39688 29.86435,-31.39714 29.86437,-31.39756 29.86458,-31.39781 29.86467,-31.398 29.86475,-31.39828 29.86482,-31.39859 29.86499,-31.39882 29.86537,-31.39908 29.86553,-31.39931 29.86644,-31.39986 29.8672,-31.40024 29.86764,-31.40034 29.86796,-31.40026 29.86811,-31.40007 29.86809,-31.3999 29.86788,-31.39958 29.86779,-31.39925 29.86779,-31.39897 29.86794,-31.39853 29.86819,-31.39773 29.8684,-31.39724 29.8687,-31.39692 29.86893,-31.39665 29.86897,-31.39633 29.86906,-31.39604 29.86916,-31.39566 29.86933,-31.39534 29.86954,-31.39517 29.8698,-31.39511 29.8703,-31.39511 29.87056,-31.39507 29.87085,-31.39488 29.87092,-31.39465 29.87083,-31.39427 29.87049,-31.39367 29.87,-31.39255 29.86894,-31.39069 29.86797,-31.38932 29.86752,-31.38887 29.86648,-31.388 29.86555,-31.38708 29.86504,-31.38663 29.86432,-31.38601 29.86354,-31.38536 29.8627,-31.38472 29.86203,-31.38421 29.86108,-31.38355 29.86065,-31.38324 29.85973,-31.38255 29.85792,-31.38103 29.85688,-31.38021 29.85571,-31.37926 29.85478,-31.37869 29.8545,-31.37867 29.85376,-31.37869 29.85355,-31.37873 29.85335,-31.37861 29.85306,-31.37834 29.85296,-31.37805 29.8529,-31.37775 29.85277,-31.37758 29.85253,-31.3774 29.85232,-31.37736 29.85204,-31.37734 29.85167,-31.37748 29.8513,-31.37754 29.85103,-31.37754 29.85076,-31.37754 29.85056,-31.37746 29.85033,-31.37742 29.85013,-31.37748 29.84999,-31.37762 29.84993,-31.37765 29.84931,-31.37793 29.84871,-31.37803 29.84826,-31.37807 29.84812,-31.37803 29.84799,-31.37787 29.84771,-31.37738 29.8473,-31.37672 29.84699,-31.37639 29.84656,-31.37619 29.84596,-31.37611 29.84561,-31.37592 29.84504,-31.37545 29.84471,-31.37526 29.84436,-31.37502 29.84387,-31.37469 29.8435,-31.37455 29.84311,-31.37449 29.84295,-31.37444 29.84276,-31.37428 29.84262,-31.37418 29.84237,-31.37393 29.84129,-31.37266 29.84157,-31.37235 29.84188,-31.37206 29.8425,-31.37174 29.84266,-31.37157 29.8427,-31.37126 29.84264,-31.37061 29.84248,-31.37012 29.84235,-31.36975 29.84225,-31.36927 29.84229,-31.36911 29.84241,-31.36895 29.8428,-31.36884 29.84348,-31.36882 29.84416,-31.36891 29.84432,-31.36901 29.84428,-31.36921 29.84426,-31.36952 29.84434,-31.36981 29.84453,-31.36995 29.84481,-31.37018 29.84516,-31.3704 29.84555,-31.37053 29.84594,-31.37069 29.84605,-31.37087 29.84623,-31.37098 29.84648,-31.37124 29.84672,-31.37165 29.84683,-31.37198 29.84695,-31.37231 29.84711,-31.37239 29.84736,-31.37221 29.84804,-31.37149 29.84843,-31.37085 29.84853,-31.3703 29.84857,-31.3693 29.84851,-31.36854 29.84847,-31.36811 29.84853,-31.3679 29.84865,-31.36774 29.84865,-31.36759 29.84852,-31.36739 29.84853,-31.36734 29.84848,-31.36724 29.84842,-31.36712 29.84835,-31.36704 29.84834,-31.36699 29.84831,-31.36688 29.84827,-31.36675 29.8482,-31.36667 29.84816,-31.36658 29.84816,-31.36646 29.84815,-31.36626 29.84812,-31.36616 29.84814,-31.36601 29.84811,-31.36592 29.848,-31.36589 29.84793,-31.36577 29.84792,-31.36562 29.84791,-31.36549 29.84789,-31.36544 29.84776,-31.3654 29.84777,-31.3653 29.84769,-31.36519 29.84758,-31.36519 29.84745,-31.36522 29.84736,-31.36522 29.84733,-31.36527 29.84723,-31.36531 29.84711,-31.36531 29.847,-31.36525 29.84691,-31.36527 29.8467,-31.36525 29.84655,-31.36525 29.84644,-31.36525 29.84635,-31.36529 29.84625,-31.36534 29.84605,-31.36534 29.84591,-31.36532 29.84575,-31.36532 29.84549,-31.36534 29.84537,-31.36534 29.84526,-31.36529 29.84517,-31.36528 29.84501,-31.36523 29.84483,-31.36523 29.84471,-31.36522 29.8445,-31.36518 29.84431,-31.36514 29.84411,-31.3651 29.84392,-31.36506 29.84378,-31.36501 29.84364,-31.36498 29.84367,-31.36502 29.84356,-31.36507 29.84348,-31.36508 29.84342,-31.36507 29.84331,-31.36502 29.84328,-31.36496 29.8431,-31.36493 29.84296,-31.36489 29.8428,-31.36484 29.84261,-31.3648 29.84236,-31.36474 29.84221,-31.3647 29.84197,-31.36469 29.84178,-31.36467 29.84157,-31.36465 29.84152,-31.36463 29.84139,-31.36459 29.84122,-31.36459 29.841,-31.36459 29.84077,-31.36462 29.84052,-31.36468 29.84038,-31.36475 29.84018,-31.36494 29.84017,-31.36518 29.84,-31.36533 29.83989,-31.36545 29.83971,-31.36565 29.83945,-31.36573 29.83924,-31.36579 29.83899,-31.36582 29.8387,-31.36582 29.83846,-31.36571 29.83821,-31.36558 29.83806,-31.36545 29.83799,-31.36526 29.83798,-31.36515 29.83792,-31.36503 29.83789,-31.36492 29.83789,-31.36476 29.83783,-31.36457 29.83775,-31.36437 29.83771,-31.36419 29.83762,-31.364 29.83757,-31.36387 29.83743,-31.36374 29.83739,-31.36362 29.83738,-31.36349 29.83731,-31.36345 29.83731,-31.36332 29.83734,-31.36323 29.83792,-31.36279 29.83805,-31.36263 29.83815,-31.36232 29.83829,-31.36207 29.83856,-31.36181 29.83874,-31.36162 29.83917,-31.36148 29.83962,-31.36146 29.83997,-31.3615 29.84026,-31.36164 29.8407,-31.36203 29.84074,-31.36206 29.84089,-31.3622 29.84094,-31.36231 29.84096,-31.36241 29.84109,-31.36252 29.84116,-31.36252 29.84119,-31.3626 29.8413,-31.36269 29.8415,-31.36271 29.84153,-31.36275 29.84161,-31.36288 29.8419,-31.363 29.84274,-31.36302 29.84385,-31.363 29.8451,-31.36269 29.8457,-31.36244 29.84584,-31.36222 29.84594,-31.36111 29.84598,-31.36099 29.84621,-31.36084 29.84666,-31.36058 29.84695,-31.36031 29.84695,-31.36019 29.84683,-31.36002 29.84632,-31.35979 29.84619,-31.35971 29.84605,-31.35955 29.84596,-31.35938 29.84595,-31.3592 29.84591,-31.35906 29.84588,-31.35894 29.84578,-31.35874 29.84575,-31.35858 29.84569,-31.35839 29.84565,-31.35832 29.84557,-31.35809 29.84561,-31.35801 29.8459,-31.35799 29.84644,-31.35793 29.84676,-31.35777 29.84707,-31.35754 29.84738,-31.35725 29.84758,-31.35719 29.84785,-31.35717 29.84804,-31.35734 29.84835,-31.35773 29.84841,-31.35787 29.84854,-31.35808 29.84861,-31.35816 29.84871,-31.35834 29.84869,-31.35843 29.84889,-31.35853 29.849,-31.35862 29.84916,-31.35878 29.84928,-31.35889 29.84945,-31.35895 29.84953,-31.35908 29.84962,-31.35914 29.84977,-31.35918 29.84988,-31.35923 29.85,-31.35917 29.85,-31.35905 29.85009,-31.35887 29.85013,-31.35881 29.85026,-31.35881 29.85038,-31.35875 29.8503,-31.3586 29.85036,-31.35851 29.85041,-31.3584 29.85042,-31.35827 29.85047,-31.35816 29.85065,-31.35802 29.85072,-31.35797 29.85076,-31.35779 29.85076,-31.35767 29.85083,-31.3575 29.85092,-31.35739 29.85103,-31.35732 29.85105,-31.35719 29.85111,-31.35708 29.85122,-31.35696 29.85123,-31.3568 29.85122,-31.35671 29.85115,-31.35662 29.85119,-31.35649 29.85125,-31.35633 29.85134,-31.35622 29.85142,-31.35615 29.85199,-31.3559 29.85281,-31.35545 29.85325,-31.35514 29.85339,-31.35512 29.85386,-31.35561 29.85429,-31.3558 29.85474,-31.35582 29.85519,-31.35578 29.85556,-31.35561 29.85638,-31.35489 29.85718,-31.35393 29.85731,-31.3537 29.85729,-31.3535 29.85712,-31.35329 29.85686,-31.35315 29.85669,-31.35297 29.85645,-31.3528 29.8563,-31.35262 29.85624,-31.35235 29.85634,-31.3521 29.85665,-31.35196 29.85743,-31.35165 29.85844,-31.35104 29.85866,-31.35085 29.85873,-31.35072 29.85862,-31.35056 29.85839,-31.35026 29.85812,-31.35003 29.85763,-31.34963 29.85733,-31.34936 29.85699,-31.34914 29.85682,-31.34899 29.85669,-31.34884 29.85658,-31.34858 29.85658,-31.34832 29.85664,-31.34797 29.85672,-31.34756 29.85679,-31.34732 29.85693,-31.34679 29.85709,-31.34641 29.85729,-31.34612 29.85798,-31.34525 29.85829,-31.34523 29.85864,-31.34528 29.85881,-31.34537 29.85899,-31.3456 29.85913,-31.34598 29.85912,-31.34632 29.85899,-31.34657 29.85886,-31.347 29.85884,-31.34737 29.8589,-31.34778 29.85912,-31.34837 29.85956,-31.349 29.8601,-31.34937 29.86047,-31.34949 29.86086,-31.3496 29.86147,-31.34969 29.86201,-31.34981 29.86235,-31.34995 29.86255,-31.35017 29.86275,-31.35064 29.86302,-31.35126 29.8632,-31.35163 29.86367,-31.35201 29.86374,-31.3522 29.8638,-31.35243 29.86404,-31.35267 29.86435,-31.35292 29.86462,-31.35329 29.86492,-31.35368 29.86523,-31.35419 29.86534,-31.35444 29.86534,-31.3547 29.86552,-31.35501 29.86579,-31.3552 29.86599,-31.35546</coordinates></LinearRing></outerBoundaryIs></Polygon></MultiGeometry></Placemark></Document></kml>