<?xml version="1.0" encoding="UTF-8"?><kml xmlns="http://www.opengis.net/kml/2.2"><Document><Placemark><name>Port St Johns</name><description>Main Place 291168</description><ExtendedData><Data name="code"><value>291168</value></Data><Data name="name"><value>Port St Johns</value></Data><Data name="description"><value>Main Place 291168</value></Data></ExtendedData><MultiGeometry><Polygon><outerBoundaryIs><LinearRing><coordinates>29.52605,-31.6233 29.52641,-31.62331 29.52677,-31.62329 29.52703,-31.62322 29.52714,-31.6232 29.52722,-31.62322 29.52725,-31.62327 29.52726,-31.62329 29.52719,-31.62338 29.52701,-31.62358 29.52665,-31.62394 29.52636,-31.6242 29.526,-31.62438 29.52541,-31.62465 29.52502,-31.62491 29.52438,-31.62534 29.5233,-31.62588 29.52232,-31.62634 29.52152,-31.62675 29.52112,-31.62695 29.52119,-31.62711 29.52133,-31.62737 29.5214,-31.6276 29.5214,-31.62785 29.52136,-31.62813 29.52136,-31.62833 29.52136,-31.62856 29.52144,-31.62879 29.52149,-31.62887 29.52159,-31.6289 29.52154,-31.62937 29.52154,-31.62971 29.52127,-31.62987 29.52104,-31.63001 29.5207,-31.63022 29.52058,-31.63029 29.52034,-31.63036 29.5203,-31.63047 29.5203,-31.63054 29.52035,-31.63061 29.52044,-31.63064 29.52056,-31.63072 29.5207,-31.6308 29.52084,-31.6309 29.52095,-31.63103 29.52109,-31.63114 29.52127,-31.63126 29.52138,-31.63136 29.52144,-31.63152 29.52123,-31.63176 29.52065,-31.63248 29.52042,-31.63242 29.51992,-31.63218 29.51979,-31.63206 29.51979,-31.63167 29.5197,-31.63149 29.51956,-31.63123 29.51945,-31.63086 29.51939,-31.63057 29.51915,-31.63068 29.51888,-31.63081 29.51864,-31.63052 29.51848,-31.63048 29.51806,-31.63039 29.51767,-31.63031 29.51735,-31.63026 29.51719,-31.63031 29.51693,-31.63041 29.51677,-31.63045 29.51646,-31.63038 29.51623,-31.63028 29.51592,-31.63015 29.51544,-31.63002 29.51488,-31.62988 29.51443,-31.62972 29.51444,-31.62964 29.51438,-31.62959 29.51428,-31.62954 29.51417,-31.62948 29.51351,-31.62931 29.51289,-31.62917 29.51232,-31.62902 29.51191,-31.62891 29.51167,-31.62887 29.51161,-31.62884 29.51158,-31.62881 29.5117,-31.62875 29.51188,-31.62874 29.51201,-31.62867 29.51213,-31.6286 29.51219,-31.62849 29.51223,-31.62843 29.51237,-31.62828 29.51257,-31.6282 29.51274,-31.62816 29.51295,-31.62821 29.51314,-31.62827 29.51328,-31.62831 29.51336,-31.62827 29.51343,-31.62819 29.51345,-31.62806 29.51352,-31.62794 29.51371,-31.62773 29.51383,-31.62754 29.51395,-31.62744 29.51407,-31.62742 29.51417,-31.62743 29.51431,-31.62748 29.51446,-31.62756 29.51461,-31.62759 29.51472,-31.62755 29.51485,-31.62755 29.51497,-31.62755 29.51519,-31.62759 29.51542,-31.62764 29.51552,-31.62765 29.51564,-31.62759 29.51585,-31.62748 29.51609,-31.62743 29.51627,-31.62742 29.51646,-31.62745 29.51656,-31.62746 29.51674,-31.62745 29.51698,-31.62741 29.51725,-31.62735 29.51749,-31.62732 29.51783,-31.62724 29.51826,-31.62714 29.51859,-31.62703 29.51873,-31.62697 29.51898,-31.62682 29.51925,-31.62656 29.51947,-31.62642 29.51977,-31.62625 29.51985,-31.62613 29.52008,-31.62595 29.5203,-31.62579 29.5204,-31.62558 29.5205,-31.62532 29.52059,-31.62501 29.52065,-31.62475 29.52065,-31.62448 29.52062,-31.62434 29.52061,-31.62415 29.52067,-31.62375 29.52083,-31.62339 29.521,-31.62324 29.52115,-31.62307 29.52132,-31.6228 29.5215,-31.62252 29.52152,-31.62236 29.52154,-31.6221 29.52157,-31.6219 29.52167,-31.62167 29.5218,-31.62143 29.52187,-31.6213 29.52201,-31.62119 29.5221,-31.62104 29.52219,-31.62089 29.52223,-31.62079 29.52234,-31.62066 29.52242,-31.62053 29.52248,-31.62045 29.5225,-31.62039 29.52268,-31.62039 29.52287,-31.62039 29.52305,-31.62041 29.5233,-31.62046 29.52351,-31.62053 29.52371,-31.62061 29.52385,-31.62068 29.52403,-31.62095 29.52425,-31.62126 29.52438,-31.62137 29.52451,-31.62146 29.52464,-31.62155 29.52469,-31.62165 29.52468,-31.62179 29.52445,-31.62209 29.52426,-31.62234 29.52423,-31.62258 29.52432,-31.62273 29.52447,-31.62287 29.52474,-31.62304 29.52495,-31.62314 29.52511,-31.62319 29.52533,-31.62322 29.52562,-31.62324 29.52605,-31.6233</coordinates></LinearRing></outerBoundaryIs></Polygon><Polygon><outerBoundaryIs><LinearRing><coordinates>29.54614,-31.61983 29.54626,-31.61998 29.54638,-31.6201 29.54648,-31.62023 29.54654,-31.62037 29.54658,-31.62042 29.54684,-31.6208 29.54718,-31.62132 29.54756,-31.62192 29.54796,-31.62257 29.54828,-31.62305 29.54859,-31.62352 29.54873,-31.62388 29.54872,-31.62407 29.54856,-31.62441 29.54819,-31.62476 29.54762,-31.62538 29.54744,-31.62555 29.5474,-31.62605 29.54733,-31.62686 29.54722,-31.62751 29.54755,-31.62796 29.54803,-31.62826 29.54849,-31.62851 29.54868,-31.62859 29.54904,-31.62851 29.54904,-31.62852 29.54904,-31.62852 29.54901,-31.6287 29.54893,-31.6295 29.54879,-31.62997 29.54856,-31.63139 29.54858,-31.63162 29.54858,-31.63163 29.5487,-31.63172 29.54915,-31.63172 29.54917,-31.63172 29.54939,-31.63152 29.54967,-31.63149 29.54991,-31.63152 29.55009,-31.63161 29.55022,-31.63164 29.5503,-31.63171 29.55033,-31.63179 29.55032,-31.63192 29.55032,-31.63206 29.55053,-31.63239 29.55072,-31.63252 29.55128,-31.63292 29.55146,-31.63293 29.55173,-31.63324 29.55186,-31.63331 29.55215,-31.63331 29.55215,-31.6334 29.55223,-31.63352 29.55234,-31.63358 29.55234,-31.63365 29.55248,-31.6338 29.55266,-31.63401 29.55279,-31.63416 29.55293,-31.63437 29.55316,-31.63451 29.55339,-31.63472 29.55337,-31.63481 29.5534,-31.63493 29.55348,-31.635 29.55339,-31.63515 29.55339,-31.63532 29.55335,-31.63546 29.55331,-31.63557 29.55341,-31.63557 29.55354,-31.63561 29.55356,-31.63576 29.55346,-31.63578 29.55334,-31.63577 29.55316,-31.6357 29.55301,-31.6357 29.55291,-31.6358 29.55276,-31.63587 29.55252,-31.63605 29.55241,-31.63624 29.55225,-31.63634 29.55211,-31.63643 29.55186,-31.63672 29.55191,-31.63676 29.552,-31.63679 29.552,-31.6369 29.55181,-31.63694 29.55169,-31.63695 29.55159,-31.63702 29.55163,-31.6372 29.55159,-31.63723 29.55144,-31.63731 29.55134,-31.63734 29.55145,-31.63736 29.55152,-31.6374 29.55151,-31.63747 29.55147,-31.63759 29.55143,-31.6377 29.55115,-31.63774 29.55096,-31.63759 29.55096,-31.63777 29.55106,-31.63784 29.55106,-31.63787 29.55096,-31.63793 29.55091,-31.63795 29.55071,-31.63795 29.55063,-31.63781 29.55057,-31.63788 29.55057,-31.63798 29.55044,-31.63792 29.55043,-31.63784 29.55038,-31.63776 29.55048,-31.63771 29.55052,-31.63762 29.55045,-31.63752 29.55009,-31.63754 29.54976,-31.63757 29.54937,-31.63761 29.54902,-31.63771 29.54854,-31.63779 29.54787,-31.6381 29.54739,-31.63848 29.54726,-31.63867 29.54715,-31.63882 29.54709,-31.639 29.54709,-31.639 29.54708,-31.639 29.54704,-31.63913 29.5472,-31.6392 29.54731,-31.63921 29.54746,-31.63924 29.54756,-31.63927 29.54767,-31.63931 29.54778,-31.63934 29.54776,-31.63939 29.54765,-31.63943 29.54749,-31.63939 29.54743,-31.63939 29.54749,-31.63945 29.54741,-31.63953 29.54732,-31.63953 29.54716,-31.63943 29.54711,-31.63939 29.54711,-31.63933 29.54699,-31.63932 29.54689,-31.63932 29.54678,-31.63935 29.54678,-31.63946 29.54665,-31.63957 29.54656,-31.63971 29.54645,-31.63982 29.5464,-31.63993 29.54632,-31.64 29.54632,-31.6401 29.54641,-31.64019 29.54643,-31.64027 29.54637,-31.64034 29.54633,-31.64034 29.54621,-31.64041 29.54604,-31.64041 29.54596,-31.64048 29.546,-31.64056 29.546,-31.64059 29.54615,-31.64061 29.54633,-31.64065 29.54627,-31.6407 29.54614,-31.6407 29.54596,-31.6408 29.54591,-31.64087 29.54577,-31.6409 29.54569,-31.6409 29.54563,-31.64098 29.54573,-31.64112 29.54555,-31.64114 29.5454,-31.64118 29.5453,-31.64127 29.54518,-31.64127 29.54504,-31.64143 29.54501,-31.64162 29.54494,-31.64171 29.54477,-31.64194 29.54481,-31.64201 29.54503,-31.64201 29.54502,-31.64218 29.54485,-31.64223 29.5448,-31.64229 29.54481,-31.64257 29.54445,-31.64262 29.54436,-31.64264 29.54402,-31.64266 29.54372,-31.64266 29.54328,-31.64265 29.54325,-31.64267 29.54316,-31.64263 29.54308,-31.6426 29.54286,-31.64247 29.54279,-31.64233 29.54263,-31.64214 29.54249,-31.64214 29.54223,-31.64225 29.54223,-31.64234 29.54228,-31.64239 29.54239,-31.64246 29.54245,-31.64256 29.54238,-31.64267 29.54215,-31.64264 29.54192,-31.64257 29.5419,-31.64275 29.54195,-31.64282 29.54187,-31.64289 29.54175,-31.64285 29.54153,-31.64288 29.54158,-31.64291 29.54158,-31.64302 29.54146,-31.64312 29.54129,-31.64308 29.54114,-31.64303 29.54086,-31.64304 29.54079,-31.64307 29.54063,-31.64311 29.54044,-31.6432 29.5403,-31.64333 29.54013,-31.64351 29.5399,-31.64387 29.53998,-31.64406 29.54,-31.64413 29.54019,-31.64419 29.54043,-31.64425 29.54041,-31.64436 29.54037,-31.64448 29.54025,-31.64459 29.54003,-31.64448 29.53988,-31.64426 29.53974,-31.64435 29.53972,-31.64436 29.53957,-31.64452 29.53966,-31.64465 29.53966,-31.64475 29.53955,-31.64487 29.53976,-31.64505 29.53942,-31.64523 29.53893,-31.64566 29.53876,-31.6458 29.5386,-31.64596 29.53838,-31.64604 29.53814,-31.64608 29.53805,-31.64611 29.53785,-31.64599 29.53769,-31.64605 29.53751,-31.64611 29.5374,-31.64606 29.53738,-31.64597 29.53719,-31.64595 29.53712,-31.646 29.53693,-31.64614 29.53693,-31.6463 29.53697,-31.64639 29.5369,-31.64648 29.53688,-31.64655 29.53693,-31.6466 29.53685,-31.64663 29.53668,-31.64669 29.53668,-31.64674 29.53666,-31.64685 29.53649,-31.64682 29.53635,-31.64677 29.53623,-31.64685 29.53604,-31.64694 29.53602,-31.64706 29.53582,-31.64712 29.53573,-31.64728 29.53553,-31.64725 29.5354,-31.64724 29.5351,-31.64734 29.53485,-31.64738 29.53464,-31.64741 29.53442,-31.64742 29.53442,-31.64753 29.53428,-31.64764 29.53423,-31.6476 29.5341,-31.64745 29.534,-31.64744 29.53395,-31.64743 29.53376,-31.64738 29.53362,-31.64751 29.53321,-31.64774 29.53302,-31.6478 29.53284,-31.64771 29.53267,-31.64762 29.53248,-31.64768 29.53243,-31.64762 29.53231,-31.64774 29.5321,-31.64783 29.53197,-31.64799 29.53176,-31.64791 29.53158,-31.64786 29.53169,-31.64776 29.53158,-31.64748 29.53117,-31.64748 29.53101,-31.64751 29.53082,-31.64744 29.53065,-31.64748 29.53055,-31.64759 29.53055,-31.64775 29.53046,-31.64785 29.53017,-31.64804 29.53007,-31.64813 29.52972,-31.64824 29.52939,-31.6483 29.52924,-31.64827 29.52924,-31.64811 29.52906,-31.64811 29.52882,-31.64824 29.52857,-31.64842 29.52836,-31.64878 29.52836,-31.64898 29.52847,-31.64903 29.52862,-31.64909 29.52879,-31.64917 29.52864,-31.64931 29.52864,-31.64947 29.52854,-31.64951 29.52831,-31.64965 29.52832,-31.64991 29.52819,-31.64996 29.5279,-31.65012 29.52785,-31.64998 29.52764,-31.65006 29.52756,-31.6502 29.52728,-31.65029 29.52704,-31.65004 29.52702,-31.64973 29.52728,-31.64945 29.52693,-31.64936 29.52672,-31.64939 29.52643,-31.6493 29.52641,-31.64929 29.5262,-31.64923 29.52598,-31.64919 29.52555,-31.64905 29.52525,-31.64907 29.52515,-31.64907 29.52501,-31.649 29.52494,-31.64876 29.52463,-31.64858 29.52423,-31.64856 29.52402,-31.64856 29.52394,-31.6485 29.52394,-31.64837 29.52404,-31.64816 29.52416,-31.648 29.5238,-31.6481 29.52364,-31.64819 29.5234,-31.64828 29.52328,-31.64828 29.52312,-31.64833 29.52302,-31.64824 29.52278,-31.64824 29.52273,-31.64833 29.52262,-31.6484 29.52245,-31.64851 29.52219,-31.64842 29.52195,-31.64823 29.52167,-31.6482 29.52147,-31.64833 29.52128,-31.64835 29.52103,-31.64835 29.52036,-31.64837 29.51964,-31.64862 29.51947,-31.64878 29.51914,-31.64908 29.5189,-31.64926 29.5185,-31.64933 29.51804,-31.64969 29.51778,-31.65006 29.51776,-31.65031 29.5179,-31.65053 29.51778,-31.65081 29.51789,-31.65107 29.51794,-31.65121 29.51813,-31.65118 29.51822,-31.65121 29.51824,-31.65126 29.51824,-31.65149 29.51803,-31.65171 29.51777,-31.65185 29.51772,-31.65179 29.51751,-31.65194 29.51743,-31.6521 29.51743,-31.65229 29.51731,-31.65247 29.51715,-31.65256 29.517,-31.65269 29.51646,-31.65274 29.51648,-31.65296 29.51622,-31.65302 29.51609,-31.65314 29.51609,-31.65314 29.51604,-31.6533 29.51593,-31.65345 29.51575,-31.65379 29.51585,-31.65385 29.51587,-31.65391 29.51597,-31.654 29.51597,-31.65403 29.51583,-31.65403 29.51583,-31.65412 29.51575,-31.65425 29.51577,-31.65429 29.51587,-31.65435 29.51577,-31.65452 29.51563,-31.65453 29.51546,-31.65453 29.51532,-31.65456 29.5153,-31.65477 29.51532,-31.65484 29.51532,-31.65493 29.5152,-31.65504 29.51513,-31.65498 29.51497,-31.65498 29.51496,-31.65489 29.51485,-31.65489 29.51491,-31.65498 29.5148,-31.65501 29.51475,-31.65516 29.51463,-31.65517 29.51453,-31.65508 29.51454,-31.65496 29.51444,-31.65496 29.51421,-31.65498 29.51408,-31.65507 29.51408,-31.65514 29.51427,-31.65529 29.51422,-31.65542 29.51439,-31.65551 29.51439,-31.65563 29.51422,-31.65575 29.51411,-31.65565 29.51403,-31.65551 29.51406,-31.65529 29.51401,-31.65528 29.51394,-31.65528 29.51387,-31.65534 29.51377,-31.65534 29.51375,-31.65528 29.5137,-31.65532 29.5136,-31.65546 29.51351,-31.65546 29.51339,-31.65552 29.51328,-31.65541 29.51303,-31.65541 29.51297,-31.65555 29.51285,-31.65561 29.51268,-31.65552 29.51266,-31.65555 29.51258,-31.65556 29.51253,-31.65565 29.51242,-31.65567 29.51231,-31.65552 29.51221,-31.65559 29.51209,-31.65564 29.51199,-31.65558 29.51185,-31.65543 29.51176,-31.65543 29.51183,-31.65552 29.51189,-31.65564 29.5118,-31.65563 29.51173,-31.65561 29.51164,-31.65558 29.51158,-31.6557 29.51147,-31.6557 29.51146,-31.65579 29.51127,-31.6558 29.51116,-31.65585 29.51102,-31.65581 29.51095,-31.65569 29.51066,-31.65563 29.51054,-31.65551 29.51054,-31.65545 29.51035,-31.65528 29.51019,-31.65528 29.50967,-31.65537 29.50941,-31.65519 29.50905,-31.65506 29.5089,-31.65506 29.50874,-31.65514 29.50851,-31.65503 29.50796,-31.65509 29.50745,-31.65524 29.50693,-31.6555 29.5067,-31.65559 29.50619,-31.65576 29.50553,-31.65634 29.50527,-31.65669 29.5049,-31.65725 29.50435,-31.6559 29.50424,-31.65529 29.50427,-31.6549 29.50439,-31.65464 29.50464,-31.65431 29.50466,-31.65395 29.50468,-31.6533 29.50487,-31.65283 29.50502,-31.65267 29.50537,-31.65232 29.50564,-31.6519 29.50523,-31.65125 29.50502,-31.65096 29.50502,-31.65086 29.50513,-31.65011 29.50549,-31.64926 29.50553,-31.64914 29.50536,-31.64882 29.50274,-31.64867 29.50384,-31.64827 29.50499,-31.64786 29.50666,-31.64728 29.50634,-31.64687 29.50722,-31.64657 29.50754,-31.64663 29.50792,-31.64681 29.50863,-31.64657 29.51145,-31.64555 29.51351,-31.64479 29.51513,-31.64423 29.51912,-31.64281 29.52001,-31.64383 29.52012,-31.64382 29.52032,-31.6438 29.5205,-31.64381 29.52069,-31.64381 29.52085,-31.64377 29.52103,-31.64374 29.5212,-31.64371 29.52143,-31.64367 29.52163,-31.64364 29.52175,-31.64363 29.52215,-31.64353 29.52234,-31.64352 29.52254,-31.64351 29.52264,-31.64354 29.52317,-31.64363 29.52359,-31.64371 29.52406,-31.64379 29.52437,-31.64381 29.52474,-31.64377 29.52515,-31.64369 29.52557,-31.64367 29.52604,-31.64375 29.52644,-31.64381 29.52667,-31.6438 29.52716,-31.64375 29.52767,-31.64366 29.52808,-31.64347 29.52842,-31.64324 29.52866,-31.64291 29.52893,-31.64232 29.52925,-31.64175 29.52973,-31.64112 29.53022,-31.64057 29.53047,-31.64036 29.53074,-31.64012 29.53096,-31.64 29.53175,-31.63973 29.53287,-31.63933 29.53341,-31.63917 29.53366,-31.63916 29.53388,-31.63921 29.53412,-31.63936 29.53425,-31.63954 29.53434,-31.63979 29.53439,-31.64033 29.53436,-31.64082 29.53438,-31.64111 29.53455,-31.64135 29.53475,-31.64143 29.53502,-31.64145 29.53528,-31.64144 29.5355,-31.64131 29.53562,-31.64111 29.53562,-31.64089 29.53558,-31.64069 29.53544,-31.64048 29.53532,-31.64024 29.5353,-31.64005 29.53534,-31.63981 29.53561,-31.63927 29.53605,-31.63877 29.53656,-31.63837 29.5369,-31.63824 29.53707,-31.63817 29.53723,-31.63805 29.53736,-31.63788 29.53742,-31.63762 29.53743,-31.63745 29.53756,-31.63726 29.53786,-31.637 29.53766,-31.63671 29.53739,-31.63664 29.5371,-31.63658 29.53707,-31.6364 29.53701,-31.63625 29.53699,-31.63614 29.53696,-31.63592 29.53692,-31.63571 29.5369,-31.63543 29.53694,-31.63523 29.53698,-31.63507 29.537,-31.63481 29.53698,-31.63468 29.53687,-31.6345 29.53679,-31.63432 29.53675,-31.63415 29.53669,-31.63396 29.53678,-31.63367 29.53681,-31.63348 29.53687,-31.63319 29.53681,-31.63283 29.53648,-31.63241 29.53616,-31.63208 29.53599,-31.63183 29.53586,-31.63168 29.53579,-31.63142 29.5358,-31.63105 29.53584,-31.63091 29.53576,-31.63067 29.53566,-31.63038 29.5356,-31.63031 29.5356,-31.63031 29.53526,-31.6302 29.53496,-31.63012 29.53443,-31.62987 29.53406,-31.62977 29.53372,-31.62968 29.53336,-31.62955 29.53312,-31.62937 29.53293,-31.62915 29.53273,-31.62889 29.53253,-31.62854 29.53233,-31.62831 29.53219,-31.62818 29.53217,-31.62794 29.53221,-31.62781 29.53223,-31.62768 29.53223,-31.6275 29.53214,-31.62738 29.53192,-31.62713 29.53169,-31.62693 29.53128,-31.6267 29.53087,-31.62644 29.53061,-31.62614 29.5303,-31.62593 29.53021,-31.62576 29.53008,-31.62547 29.52984,-31.62521 29.52971,-31.62491 29.52963,-31.62461 29.52968,-31.62428 29.5296,-31.62406 29.52944,-31.62385 29.52929,-31.62371 29.52906,-31.62357 29.52881,-31.62345 29.52857,-31.62335 29.52837,-31.62327 29.52815,-31.62312 29.52803,-31.62302 29.52785,-31.6229 29.52784,-31.6229 29.52779,-31.6228 29.52778,-31.62274 29.52785,-31.62264 29.52796,-31.62259 29.52813,-31.62256 29.52829,-31.62251 29.52842,-31.62246 29.52854,-31.62247 29.52864,-31.62249 29.52873,-31.62253 29.52881,-31.62258 29.52891,-31.62256 29.52929,-31.6224 29.52982,-31.62215 29.53019,-31.62205 29.5305,-31.62195 29.53072,-31.62187 29.53078,-31.62182 29.53089,-31.62173 29.53101,-31.62149 29.53112,-31.62141 29.5312,-31.62138 29.53149,-31.62136 29.53172,-31.62136 29.53189,-31.62132 29.53208,-31.62125 29.53238,-31.62116 29.53262,-31.62117 29.53282,-31.62128 29.53299,-31.62143 29.53303,-31.62158 29.53302,-31.62172 29.53293,-31.62185 29.53275,-31.62202 29.53249,-31.62226 29.5323,-31.62268 29.53212,-31.62298 29.53207,-31.62315 29.53215,-31.62329 29.53226,-31.62344 29.53253,-31.62367 29.53274,-31.62381 29.53291,-31.62401 29.53311,-31.62417 29.53327,-31.62419 29.53361,-31.62417 29.53405,-31.62415 29.53452,-31.62414 29.53501,-31.62414 29.53534,-31.62409 29.53575,-31.62399 29.53609,-31.62392 29.53641,-31.62388 29.53658,-31.62391 29.53674,-31.62404 29.53683,-31.62422 29.53686,-31.62408 29.53688,-31.62401 29.53692,-31.62387 29.53694,-31.62374 29.53692,-31.62359 29.53691,-31.62346 29.53691,-31.62334 29.53697,-31.62323 29.53704,-31.6231 29.53712,-31.62295 29.53716,-31.62281 29.53716,-31.62266 29.53715,-31.62252 29.53709,-31.6224 29.537,-31.62232 29.53701,-31.62225 29.53703,-31.62219 29.53698,-31.62204 29.53695,-31.62189 29.53698,-31.62174 29.53705,-31.6216 29.53715,-31.62148 29.53719,-31.62137 29.53715,-31.6212 29.5371,-31.62111 29.53709,-31.62101 29.53709,-31.6209 29.53707,-31.62077 29.5371,-31.62057 29.53712,-31.62046 29.53715,-31.62037 29.53725,-31.62018 29.53745,-31.61984 29.53763,-31.61965 29.53772,-31.61956 29.5378,-31.61958 29.53786,-31.6197 29.53789,-31.61977 29.53795,-31.61981 29.53808,-31.61995 29.53831,-31.6201 29.53855,-31.62024 29.53885,-31.62032 29.53917,-31.62044 29.53937,-31.62056 29.53947,-31.6207 29.53956,-31.62078 29.53965,-31.62082 29.53986,-31.6208 29.53998,-31.62082 29.54008,-31.62086 29.54017,-31.62084 29.54029,-31.62078 29.54033,-31.62073 29.54052,-31.62066 29.54082,-31.62057 29.54101,-31.6205 29.54126,-31.62039 29.54138,-31.62033 29.54152,-31.62031 29.54165,-31.62027 29.54191,-31.62016 29.54215,-31.62002 29.54237,-31.6199 29.54253,-31.61989 29.54267,-31.61988 29.54286,-31.6199 29.54307,-31.61993 29.54326,-31.61993 29.5434,-31.61995 29.54371,-31.61994 29.54391,-31.61992 29.54408,-31.61992 29.54432,-31.61989 29.54452,-31.61986 29.54469,-31.61981 29.54477,-31.61976 29.54483,-31.61965 29.54488,-31.61958 29.54499,-31.61952 29.54509,-31.61948 29.54519,-31.61944 29.54519,-31.61932 29.54509,-31.61915 29.54501,-31.619 29.54495,-31.6189 29.5449,-31.61884 29.54496,-31.61879 29.54502,-31.61882 29.54513,-31.61884 29.54525,-31.61885 29.54537,-31.6189 29.5455,-31.61898 29.54564,-31.61902 29.54572,-31.6191 29.54574,-31.61919 29.54583,-31.61936 29.54591,-31.61949 29.54596,-31.61951 29.54607,-31.61956 29.54611,-31.61963 29.5461,-31.61973 29.54614,-31.61983</coordinates></LinearRing></outerBoundaryIs></Polygon><Polygon><outerBoundaryIs><LinearRing><coordinates>29.52996,-31.59208 29.53016,-31.59232 29.53026,-31.59231 29.53033,-31.59231 29.53042,-31.59231 29.53051,-31.59237 29.53049,-31.59259 29.5304,-31.59275 29.53045,-31.59294 29.53071,-31.59312 29.53083,-31.59344 29.53087,-31.5937 29.53095,-31.59381 29.53109,-31.59381 29.53127,-31.59371 29.53147,-31.59356 29.53174,-31.59353 29.53198,-31.59352 29.53228,-31.59354 29.53215,-31.59394 29.53223,-31.59395 29.53377,-31.59388 29.53407,-31.59419 29.53427,-31.59476 29.53477,-31.59547 29.53424,-31.59677 29.53399,-31.59675 29.5338,-31.59672 29.53325,-31.59685 29.53326,-31.59686 29.53335,-31.59706 29.53341,-31.59727 29.53346,-31.59746 29.53346,-31.59753 29.53339,-31.59777 29.53332,-31.59793 29.53333,-31.59814 29.5334,-31.5984 29.53343,-31.59855 29.53358,-31.59869 29.5338,-31.59896 29.53396,-31.59913 29.53414,-31.59938 29.53412,-31.59956 29.53412,-31.59989 29.53384,-31.60024 29.53319,-31.59989 29.532,-31.59989 29.53112,-31.59951 29.53051,-31.59925 29.5294,-31.5994 29.52835,-31.59951 29.52828,-31.59955 29.52812,-31.59948 29.5276,-31.59951 29.52731,-31.59928 29.52703,-31.59911 29.5267,-31.59887 29.52659,-31.59875 29.52635,-31.59863 29.52563,-31.59834 29.52536,-31.59836 29.52497,-31.59843 29.52462,-31.59835 29.52379,-31.59795 29.52311,-31.59778 29.5231,-31.59795 29.52315,-31.59806 29.52312,-31.59821 29.52308,-31.59829 29.52296,-31.5985 29.52281,-31.59862 29.52258,-31.59863 29.52236,-31.59861 29.52222,-31.59846 29.52202,-31.59816 29.52185,-31.59809 29.52143,-31.598 29.52132,-31.59824 29.52124,-31.59846 29.52102,-31.59844 29.5209,-31.59848 29.52078,-31.59869 29.52058,-31.59883 29.52035,-31.5987 29.52021,-31.59858 29.51999,-31.59857 29.51979,-31.59854 29.51962,-31.59856 29.5195,-31.59863 29.51937,-31.59875 29.51924,-31.59883 29.51912,-31.59881 29.5189,-31.59907 29.51802,-31.59877 29.51729,-31.59849 29.51692,-31.59836 29.51642,-31.5984 29.5161,-31.5986 29.51576,-31.59863 29.51552,-31.59809 29.51551,-31.59771 29.51556,-31.59742 29.51455,-31.59761 29.51385,-31.59775 29.51351,-31.59756 29.51287,-31.59801 29.51291,-31.59834 29.51246,-31.59869 29.51116,-31.59841 29.51076,-31.59839 29.50998,-31.59873 29.50851,-31.59941 29.50863,-31.59968 29.50723,-31.60037 29.50711,-31.60046 29.50771,-31.60232 29.50785,-31.60272 29.5062,-31.6027 29.50483,-31.60329 29.50441,-31.60202 29.5037,-31.60149 29.50294,-31.60156 29.50268,-31.60115 29.50241,-31.60072 29.50338,-31.60003 29.50456,-31.59915 29.506,-31.59813 29.50753,-31.59689 29.50879,-31.59604 29.51025,-31.59536 29.51193,-31.59494 29.51379,-31.59459 29.51562,-31.59435 29.51785,-31.59408 29.51931,-31.59387 29.52101,-31.59369 29.52246,-31.59369 29.52376,-31.59379 29.52545,-31.59409 29.52553,-31.59272 29.52599,-31.59109 29.52738,-31.59108 29.53031,-31.59104 29.53054,-31.59104 29.53062,-31.59119 29.53048,-31.59146 29.53026,-31.59178 29.53009,-31.59188 29.52996,-31.59208</coordinates></LinearRing></outerBoundaryIs></Polygon></MultiGeometry></Placemark></Document></kml>