<?xml version="1.0" encoding="UTF-8"?><kml xmlns="http://www.opengis.net/kml/2.2"><Document><Placemark><name>Rainy</name><description>Main Place 292062</description><ExtendedData><Data name="code"><value>292062</value></Data><Data name="name"><value>Rainy</value></Data><Data name="description"><value>Main Place 292062</value></Data></ExtendedData><MultiGeometry><Polygon><outerBoundaryIs><LinearRing><coordinates>28.89646,-31.45136 28.89793,-31.45236 28.89825,-31.45263 28.89875,-31.45308 28.89867,-31.45314 28.89854,-31.4532 28.8985,-31.45329 28.89836,-31.45337 28.8983,-31.45349 28.89821,-31.45359 28.89815,-31.45368 28.89797,-31.45385 28.89802,-31.45417 28.89808,-31.45451 28.89813,-31.4549 28.89817,-31.45525 28.89815,-31.45564 28.8981,-31.45581 28.89804,-31.45604 28.89804,-31.45623 28.89861,-31.45602 28.90047,-31.45507 28.90095,-31.45546 28.90237,-31.45687 28.90341,-31.45768 28.90581,-31.45828 28.9062,-31.45825 28.90662,-31.45827 28.90882,-31.45831 28.90867,-31.46005 28.90914,-31.46001 28.90975,-31.45991 28.91036,-31.45983 28.91118,-31.46238 28.91043,-31.46337 28.91021,-31.46368 28.91018,-31.46372 28.91158,-31.46572 28.91212,-31.46652 28.91216,-31.46653 28.91211,-31.46667 28.91194,-31.46675 28.91182,-31.46673 28.91169,-31.46676 28.91311,-31.46902 28.91363,-31.46985 28.91362,-31.47053 28.91389,-31.47122 28.91425,-31.47175 28.91455,-31.47251 28.91481,-31.47277 28.91488,-31.47284 28.91531,-31.47299 28.91579,-31.47315 28.9168,-31.47328 28.91687,-31.47326 28.91693,-31.4732 28.91697,-31.47316 28.91701,-31.47305 28.91709,-31.47299 28.91715,-31.47295 28.91725,-31.47284 28.91733,-31.4728 28.91747,-31.4727 28.91764,-31.47257 28.91755,-31.47241 28.91748,-31.47224 28.91759,-31.47218 28.91764,-31.47201 28.91762,-31.47188 28.91765,-31.47174 28.91911,-31.472 28.91961,-31.47248 28.91969,-31.47266 28.91982,-31.47279 28.92102,-31.47352 28.92145,-31.47387 28.92181,-31.47405 28.92193,-31.47411 28.92292,-31.47436 28.92378,-31.47466 28.92453,-31.47514 28.92506,-31.47563 28.92578,-31.4761 28.92717,-31.47726 28.92615,-31.47783 28.92513,-31.47875 28.92512,-31.47882 28.92505,-31.47892 28.92497,-31.47899 28.92487,-31.4791 28.92475,-31.47923 28.92462,-31.47939 28.92452,-31.47953 28.92442,-31.47967 28.92434,-31.47981 28.9243,-31.47994 28.92429,-31.4801 28.92431,-31.4803 28.92434,-31.48047 28.9244,-31.48059 28.92451,-31.48072 28.92472,-31.48094 28.92487,-31.48114 28.92501,-31.48129 28.92502,-31.48131 28.92603,-31.48211 28.92733,-31.48341 28.92346,-31.48518 28.92306,-31.48492 28.92291,-31.48517 28.92251,-31.48572 28.92222,-31.48609 28.92234,-31.48619 28.92247,-31.48626 28.92259,-31.48633 28.92268,-31.48637 28.92277,-31.48641 28.92283,-31.48646 28.92293,-31.4865 28.923,-31.48656 28.92308,-31.48665 28.92313,-31.48672 28.92318,-31.4868 28.92423,-31.48745 28.92448,-31.48773 28.9246,-31.48807 28.92407,-31.48916 28.92389,-31.48942 28.92365,-31.48927 28.92281,-31.48872 28.92272,-31.48866 28.92238,-31.48839 28.92116,-31.48872 28.92036,-31.4889 28.92034,-31.4888 28.9203,-31.48877 28.92025,-31.48867 28.92025,-31.48863 28.92031,-31.48857 28.92031,-31.4885 28.92026,-31.48846 28.92026,-31.48841 28.92018,-31.48835 28.92014,-31.48823 28.92003,-31.4883 28.91995,-31.48835 28.91986,-31.48838 28.91979,-31.48835 28.91976,-31.48841 28.91968,-31.48848 28.91958,-31.48847 28.91952,-31.48851 28.91941,-31.48856 28.91938,-31.48857 28.9193,-31.48858 28.9192,-31.48853 28.91918,-31.4886 28.91908,-31.48863 28.919,-31.48866 28.9189,-31.48862 28.91877,-31.48862 28.9187,-31.48861 28.91874,-31.48831 28.91873,-31.48815 28.91875,-31.48797 28.91877,-31.48793 28.92131,-31.48763 28.92116,-31.48753 28.92105,-31.48745 28.9209,-31.4873 28.92076,-31.48719 28.92058,-31.487 28.92011,-31.4865 28.9197,-31.48604 28.91948,-31.48581 28.91917,-31.48547 28.91902,-31.4853 28.91819,-31.48628 28.91678,-31.48511 28.91716,-31.48471 28.9174,-31.48442 28.91757,-31.48424 28.91748,-31.48413 28.91743,-31.48398 28.91739,-31.48384 28.91736,-31.48366 28.9164,-31.48373 28.91636,-31.48342 28.91635,-31.48248 28.91724,-31.48244 28.91722,-31.48219 28.91719,-31.48184 28.91718,-31.4815 28.91711,-31.48117 28.91705,-31.48096 28.91695,-31.48078 28.9168,-31.48054 28.91665,-31.48031 28.91649,-31.48013 28.9163,-31.47998 28.91599,-31.4798 28.91594,-31.4798 28.91577,-31.47974 28.91546,-31.47963 28.91537,-31.47959 28.91356,-31.47904 28.91246,-31.4788 28.91088,-31.4783 28.90991,-31.47794 28.90931,-31.47765 28.90897,-31.47739 28.90824,-31.47686 28.90725,-31.47639 28.90676,-31.47608 28.90541,-31.47536 28.90535,-31.47532 28.90503,-31.47508 28.90444,-31.47457 28.90427,-31.47428 28.90384,-31.47348 28.90346,-31.47304 28.90307,-31.47242 28.90299,-31.47234 28.90277,-31.47182 28.90269,-31.47149 28.90266,-31.47111 28.90266,-31.47067 28.90265,-31.47036 28.9027,-31.46999 28.90168,-31.46999 28.90161,-31.46939 28.9012,-31.46935 28.90112,-31.46937 28.90066,-31.46939 28.90064,-31.46915 28.90057,-31.46883 28.9005,-31.46842 28.90039,-31.46767 28.90033,-31.46739 28.90028,-31.46714 28.90027,-31.46698 28.8997,-31.4658 28.8993,-31.46496 28.89923,-31.46479 28.8991,-31.46456 28.89908,-31.46453 28.89887,-31.46423 28.89875,-31.46398 28.89851,-31.46343 28.89868,-31.46334 28.89827,-31.46255 28.89812,-31.46225 28.89795,-31.46192 28.89778,-31.46148 28.8977,-31.46119 28.89761,-31.46087 28.89753,-31.46041 28.89749,-31.46009 28.89748,-31.45969 28.89747,-31.45934 28.8975,-31.45912 28.89749,-31.45865 28.89746,-31.45824 28.89733,-31.45784 28.89723,-31.45766 28.89705,-31.45736 28.89683,-31.45715 28.8966,-31.457 28.89581,-31.45656 28.89456,-31.45581 28.89233,-31.45438 28.8914,-31.45376 28.89122,-31.45359 28.8911,-31.45344 28.89099,-31.45326 28.89097,-31.45299 28.89097,-31.45275 28.89134,-31.45275 28.89146,-31.45269 28.89181,-31.4526 28.89297,-31.45226 28.89342,-31.45215 28.89395,-31.45204 28.8949,-31.45178 28.89591,-31.45147 28.896,-31.45146 28.89613,-31.4515 28.89628,-31.45149 28.89635,-31.45146 28.89641,-31.45139 28.89646,-31.45136</coordinates></LinearRing></outerBoundaryIs></Polygon></MultiGeometry></Placemark></Document></kml>