<?xml version="1.0" encoding="UTF-8"?><kml xmlns="http://www.opengis.net/kml/2.2"><Document><Placemark><name>Maqebevu</name><description>Main Place 292231</description><ExtendedData><Data name="code"><value>292231</value></Data><Data name="name"><value>Maqebevu</value></Data><Data name="description"><value>Main Place 292231</value></Data></ExtendedData><MultiGeometry><Polygon><outerBoundaryIs><LinearRing><coordinates>29.24789,-31.7047 29.24777,-31.70567 29.24772,-31.7063 29.24779,-31.70664 29.24794,-31.70771 29.2479,-31.70898 29.24545,-31.70893 29.24542,-31.70894 29.24521,-31.70935 29.24346,-31.71042 29.24237,-31.71011 29.24168,-31.7099 29.24055,-31.70947 29.24045,-31.70931 29.24036,-31.70918 29.2403,-31.70913 29.24024,-31.70905 29.24017,-31.70893 29.24011,-31.70882 29.24003,-31.70865 29.23998,-31.70862 29.24002,-31.70858 29.24002,-31.7085 29.23994,-31.70842 29.23983,-31.70843 29.23973,-31.70841 29.2397,-31.70838 29.23973,-31.70833 29.23966,-31.70831 29.23968,-31.70823 29.23959,-31.70818 29.23955,-31.7081 29.23955,-31.70804 29.23955,-31.70801 29.23961,-31.70795 29.23958,-31.70794 29.23951,-31.70792 29.2395,-31.70784 29.23948,-31.7078 29.23942,-31.70774 29.23941,-31.70763 29.23944,-31.70749 29.23935,-31.70743 29.23927,-31.70741 29.23925,-31.70731 29.23927,-31.70725 29.23928,-31.70712 29.23925,-31.70704 29.23919,-31.70696 29.23919,-31.7069 29.23923,-31.70681 29.23923,-31.70668 29.2393,-31.70658 29.23931,-31.70644 29.23936,-31.70638 29.23946,-31.70628 29.23949,-31.70621 29.23949,-31.70612 29.23948,-31.70605 29.23953,-31.70601 29.23959,-31.70596 29.23961,-31.70588 29.23976,-31.70585 29.23987,-31.70576 29.23986,-31.70566 29.23979,-31.70557 29.23976,-31.7055 29.23978,-31.70542 29.23982,-31.70531 29.23987,-31.70529 29.23992,-31.70519 29.23996,-31.70523 29.24001,-31.70519 29.24003,-31.70513 29.24006,-31.70507 29.24013,-31.70501 29.23989,-31.70408 29.23977,-31.70376 29.23964,-31.70326 29.23998,-31.70311 29.24001,-31.70309 29.2397,-31.70245 29.23924,-31.70136 29.24185,-31.70088 29.24427,-31.69989 29.24504,-31.69954 29.24587,-31.69903 29.24702,-31.69812 29.24698,-31.69903 29.24712,-31.69943 29.24749,-31.70084 29.24764,-31.70192 29.24779,-31.70272 29.24787,-31.7034 29.24789,-31.7047</coordinates></LinearRing></outerBoundaryIs></Polygon></MultiGeometry></Placemark></Document></kml>