<?xml version="1.0" encoding="UTF-8"?><kml xmlns="http://www.opengis.net/kml/2.2"><Document><Placemark><name>Efata</name><description>Sub Place 294040014</description><ExtendedData><Data name="code"><value>294040014</value></Data><Data name="name"><value>Efata</value></Data><Data name="description"><value>Sub Place 294040014</value></Data></ExtendedData><MultiGeometry><Polygon><outerBoundaryIs><LinearRing><coordinates>28.71331,-31.56431 28.714,-31.56467 28.7143,-31.56451 28.71554,-31.56458 28.71639,-31.5645 28.71705,-31.5646 28.71754,-31.56495 28.71782,-31.5654 28.71802,-31.56571 28.71863,-31.56661 28.71911,-31.56745 28.71952,-31.56786 28.71996,-31.56787 28.72051,-31.56805 28.72173,-31.56835 28.72188,-31.56842 28.72275,-31.5688 28.72348,-31.5688 28.72396,-31.56841 28.72415,-31.56817 28.72438,-31.56817 28.72455,-31.56811 28.72532,-31.57096 28.72511,-31.57177 28.72474,-31.57241 28.72458,-31.57259 28.72423,-31.57283 28.72419,-31.57286 28.723,-31.57314 28.72161,-31.5734 28.72003,-31.57258 28.71943,-31.57316 28.71812,-31.57238 28.71786,-31.57278 28.71693,-31.57219 28.7162,-31.57187 28.71608,-31.57199 28.71578,-31.57157 28.71551,-31.57121 28.71461,-31.57015 28.71481,-31.56956 28.71488,-31.56882 28.71446,-31.56835 28.71394,-31.56767 28.71306,-31.56748 28.71266,-31.56717 28.71208,-31.56655 28.71156,-31.56589 28.71131,-31.56379 28.71153,-31.56308 28.71211,-31.56331 28.71311,-31.56417 28.71331,-31.56431</coordinates></LinearRing></outerBoundaryIs></Polygon></MultiGeometry></Placemark></Document></kml>