<?xml version="1.0" encoding="UTF-8"?><kml xmlns="http://www.opengis.net/kml/2.2"><Document><Placemark><name>Joe Slovo</name><description>Main Place 294037</description><ExtendedData><Data name="code"><value>294037</value></Data><Data name="name"><value>Joe Slovo</value></Data><Data name="description"><value>Main Place 294037</value></Data></ExtendedData><MultiGeometry><Polygon><outerBoundaryIs><LinearRing><coordinates>28.73516,-31.55672 28.73558,-31.55698 28.73588,-31.55697 28.73626,-31.55683 28.73667,-31.55677 28.73695,-31.55678 28.73737,-31.55663 28.73745,-31.55658 28.73812,-31.55679 28.7385,-31.55711 28.73848,-31.55803 28.73846,-31.55853 28.73852,-31.55912 28.73861,-31.55947 28.73873,-31.55976 28.73922,-31.56061 28.7394,-31.56094 28.73971,-31.56147 28.73975,-31.56153 28.74113,-31.56105 28.74197,-31.56073 28.74235,-31.56082 28.74236,-31.56093 28.74233,-31.56136 28.74243,-31.5618 28.7426,-31.56202 28.7428,-31.56214 28.74308,-31.5622 28.74309,-31.5622 28.74313,-31.56221 28.74359,-31.56222 28.7443,-31.5623 28.74458,-31.56212 28.746,-31.55979 28.74635,-31.55891 28.7465,-31.55765 28.74845,-31.55766 28.74976,-31.55878 28.75066,-31.55976 28.75082,-31.55984 28.75102,-31.55994 28.75143,-31.56025 28.75196,-31.56019 28.75252,-31.56028 28.75363,-31.56042 28.75531,-31.56045 28.75685,-31.56075 28.75731,-31.56111 28.75807,-31.5612 28.75867,-31.56116 28.75925,-31.56091 28.75927,-31.56064 28.76028,-31.56054 28.76031,-31.5623 28.75832,-31.56248 28.75858,-31.56288 28.75889,-31.56325 28.76006,-31.56457 28.76066,-31.56527 28.75793,-31.56501 28.75594,-31.56486 28.75442,-31.56473 28.75395,-31.56467 28.75341,-31.56487 28.75293,-31.56561 28.75265,-31.56602 28.75253,-31.5665 28.75252,-31.56707 28.7528,-31.56768 28.75286,-31.5678 28.75286,-31.56782 28.75324,-31.56866 28.75356,-31.56892 28.75434,-31.5693 28.75531,-31.56956 28.75585,-31.56948 28.75627,-31.5693 28.7565,-31.56921 28.75781,-31.56866 28.75828,-31.56852 28.75877,-31.56866 28.75873,-31.56891 28.75865,-31.56935 28.75866,-31.56966 28.75867,-31.56973 28.75871,-31.56989 28.75878,-31.57009 28.7589,-31.57029 28.7592,-31.57076 28.75972,-31.57154 28.76038,-31.57252 28.76068,-31.57299 28.76136,-31.57403 28.76148,-31.57423 28.76117,-31.57441 28.76013,-31.57495 28.75946,-31.57541 28.75901,-31.57574 28.75852,-31.57638 28.75815,-31.5762 28.75798,-31.57614 28.75707,-31.57719 28.75717,-31.57788 28.75717,-31.57797 28.75673,-31.57785 28.75643,-31.57773 28.75608,-31.57757 28.75574,-31.57739 28.75562,-31.57731 28.75373,-31.57748 28.75129,-31.5777 28.74972,-31.57787 28.74973,-31.5775 28.74932,-31.57757 28.74791,-31.57767 28.7471,-31.57769 28.7469,-31.57762 28.74642,-31.5773 28.74623,-31.57715 28.74622,-31.57696 28.74614,-31.57453 28.74687,-31.57382 28.74664,-31.57314 28.74541,-31.57315 28.74444,-31.57315 28.74347,-31.57316 28.74197,-31.57318 28.74004,-31.5732 28.73876,-31.57319 28.73817,-31.57319 28.73732,-31.5732 28.73566,-31.57321 28.7351,-31.57321 28.73487,-31.57321 28.73396,-31.57322 28.73269,-31.57322 28.7322,-31.57321 28.73168,-31.57315 28.73111,-31.57305 28.73037,-31.57293 28.73022,-31.5729 28.72985,-31.57283 28.73003,-31.57186 28.72995,-31.57126 28.72993,-31.57069 28.73008,-31.57044 28.73009,-31.5702 28.72995,-31.56985 28.72985,-31.56961 28.72981,-31.56933 28.7298,-31.56925 28.72953,-31.56896 28.72954,-31.56873 28.72952,-31.56848 28.72957,-31.56802 28.72947,-31.56772 28.7289,-31.56655 28.72886,-31.56649 28.72906,-31.56627 28.72931,-31.56577 28.72947,-31.56553 28.7295,-31.56513 28.72946,-31.56486 28.72931,-31.56418 28.72977,-31.564 28.72989,-31.56388 28.72981,-31.56369 28.72952,-31.56368 28.72947,-31.56351 28.72949,-31.56334 28.72965,-31.56321 28.72965,-31.56312 28.72951,-31.56307 28.72946,-31.56301 28.72941,-31.56296 28.72958,-31.56266 28.72978,-31.56187 28.72984,-31.56089 28.72988,-31.5604 28.73009,-31.5592 28.73064,-31.55905 28.731,-31.55901 28.73139,-31.5589 28.73185,-31.55855 28.73206,-31.55844 28.73231,-31.55803 28.73236,-31.55768 28.73236,-31.55711 28.73227,-31.55661 28.73235,-31.55651 28.73251,-31.55632 28.73293,-31.55596 28.73297,-31.55592 28.73318,-31.55565 28.73345,-31.55556 28.73414,-31.55566 28.73443,-31.5559 28.73494,-31.55645 28.73516,-31.55672</coordinates></LinearRing></outerBoundaryIs></Polygon></MultiGeometry></Placemark></Document></kml>