<?xml version="1.0" encoding="UTF-8"?><kml xmlns="http://www.opengis.net/kml/2.2"><Document><Placemark><name>Mthatha</name><description>Main Place 294040</description><ExtendedData><Data name="code"><value>294040</value></Data><Data name="name"><value>Mthatha</value></Data><Data name="description"><value>Main Place 294040</value></Data></ExtendedData><MultiGeometry><Polygon><outerBoundaryIs><LinearRing><coordinates>28.71088,-31.57697 28.71084,-31.5774 28.71076,-31.57818 28.71065,-31.57862 28.71047,-31.57886 28.71045,-31.57906 28.71034,-31.57908 28.71004,-31.57911 28.70978,-31.57913 28.70943,-31.57912 28.70908,-31.57914 28.70865,-31.5791 28.70835,-31.57903 28.70811,-31.57893 28.70791,-31.5788 28.70775,-31.57866 28.7076,-31.5785 28.70739,-31.57828 28.70705,-31.57867 28.70652,-31.57928 28.70584,-31.57981 28.70555,-31.58028 28.70439,-31.57879 28.70203,-31.57798 28.70208,-31.5772 28.70132,-31.5772 28.70151,-31.57592 28.70153,-31.57478 28.70162,-31.57456 28.70163,-31.57453 28.70172,-31.57437 28.70187,-31.57416 28.70192,-31.57401 28.70192,-31.57385 28.70214,-31.57371 28.70229,-31.57371 28.70247,-31.57371 28.7025,-31.57356 28.70263,-31.57344 28.70277,-31.57332 28.70326,-31.57319 28.70339,-31.57306 28.7036,-31.57294 28.70384,-31.57288 28.70406,-31.57282 28.70421,-31.57271 28.70432,-31.57259 28.70444,-31.57249 28.70458,-31.57245 28.70467,-31.5724 28.70472,-31.57228 28.70476,-31.57218 28.70476,-31.57204 28.70724,-31.57291 28.70711,-31.57338 28.71115,-31.57432 28.71115,-31.57434 28.71117,-31.57552 28.71108,-31.57619 28.71106,-31.57629 28.71088,-31.57697</coordinates></LinearRing></outerBoundaryIs></Polygon><Polygon><outerBoundaryIs><LinearRing><coordinates>28.71699,-31.5562 28.7219,-31.55816 28.72416,-31.55903 28.72428,-31.55908 28.725,-31.55916 28.72709,-31.55954 28.72823,-31.55953 28.72922,-31.55947 28.73009,-31.5592 28.72988,-31.5604 28.72984,-31.56089 28.72978,-31.56187 28.72958,-31.56266 28.72941,-31.56296 28.72946,-31.56301 28.72951,-31.56307 28.72965,-31.56312 28.72965,-31.56321 28.72949,-31.56334 28.72947,-31.56351 28.72952,-31.56368 28.72981,-31.56369 28.72989,-31.56388 28.72977,-31.564 28.72931,-31.56418 28.72946,-31.56486 28.7295,-31.56513 28.72947,-31.56553 28.72931,-31.56577 28.72906,-31.56627 28.72886,-31.56649 28.7289,-31.56655 28.72947,-31.56772 28.72957,-31.56802 28.72952,-31.56848 28.72954,-31.56873 28.72953,-31.56896 28.7298,-31.56925 28.72981,-31.56933 28.72985,-31.56961 28.72995,-31.56985 28.73009,-31.5702 28.73008,-31.57044 28.72993,-31.57069 28.72995,-31.57126 28.73003,-31.57186 28.72985,-31.57283 28.7297,-31.5728 28.72965,-31.57279 28.72939,-31.57273 28.72865,-31.57256 28.72779,-31.57237 28.72596,-31.57198 28.72511,-31.57177 28.72474,-31.57241 28.72458,-31.57259 28.72423,-31.57283 28.72419,-31.57286 28.723,-31.57314 28.72161,-31.5734 28.72003,-31.57258 28.71943,-31.57316 28.71812,-31.57238 28.71786,-31.57278 28.71693,-31.57219 28.7162,-31.57187 28.71608,-31.57199 28.71578,-31.57157 28.71551,-31.57121 28.71461,-31.57015 28.71481,-31.56956 28.71488,-31.56882 28.71446,-31.56835 28.71394,-31.56767 28.71306,-31.56748 28.71266,-31.56717 28.71208,-31.56655 28.71156,-31.56589 28.71131,-31.56379 28.71153,-31.56308 28.71211,-31.56331 28.71311,-31.56417 28.71331,-31.56431 28.714,-31.56467 28.7143,-31.56451 28.71554,-31.56458 28.71639,-31.5645 28.71705,-31.5646 28.71754,-31.56495 28.71782,-31.5654 28.71802,-31.56571 28.71863,-31.56661 28.71911,-31.56745 28.71952,-31.56786 28.71996,-31.56787 28.72051,-31.56805 28.72173,-31.56835 28.72188,-31.56842 28.72275,-31.5688 28.72348,-31.5688 28.72396,-31.56841 28.72415,-31.56817 28.72438,-31.56817 28.72455,-31.56811 28.72472,-31.56728 28.72463,-31.56607 28.72479,-31.56434 28.7251,-31.56326 28.72521,-31.56277 28.72513,-31.56278 28.72447,-31.56287 28.72371,-31.56286 28.7209,-31.56218 28.7193,-31.56175 28.71923,-31.56324 28.71761,-31.56275 28.71807,-31.56142 28.71798,-31.56139 28.7175,-31.56117 28.71447,-31.55964 28.71452,-31.55955 28.71402,-31.55736 28.71461,-31.55664 28.71637,-31.55731 28.71699,-31.5562</coordinates></LinearRing></outerBoundaryIs></Polygon><Polygon><outerBoundaryIs><LinearRing><coordinates>28.78486,-31.5452 28.78557,-31.54553 28.78591,-31.54548 28.7864,-31.54556 28.78672,-31.54569 28.78705,-31.54593 28.78762,-31.54606 28.78801,-31.54626 28.78854,-31.54657 28.78904,-31.54689 28.7892,-31.54709 28.78942,-31.54706 28.78959,-31.5472 28.79,-31.54747 28.79034,-31.54757 28.79069,-31.5476 28.79079,-31.5476 28.79075,-31.54757 28.79075,-31.54757 28.79089,-31.54766 28.79095,-31.54771 28.79096,-31.54772 28.79107,-31.54782 28.79124,-31.54799 28.79133,-31.54816 28.79144,-31.54829 28.79153,-31.5484 28.79163,-31.54852 28.79171,-31.54869 28.79176,-31.54881 28.7918,-31.54885 28.79184,-31.54887 28.79191,-31.54894 28.79204,-31.54905 28.79206,-31.54906 28.79213,-31.54927 28.79213,-31.54943 28.79226,-31.54953 28.79242,-31.54962 28.79253,-31.54972 28.79254,-31.54987 28.79254,-31.54994 28.79252,-31.55011 28.79247,-31.55024 28.79244,-31.55042 28.79251,-31.55056 28.79255,-31.55065 28.7927,-31.55077 28.7928,-31.55086 28.79286,-31.55087 28.79291,-31.55079 28.79308,-31.55077 28.79318,-31.55073 28.79337,-31.55065 28.79345,-31.55063 28.79358,-31.55059 28.7938,-31.55067 28.79395,-31.55073 28.79403,-31.55077 28.79407,-31.55082 28.79406,-31.55101 28.79407,-31.55107 28.79407,-31.55113 28.79408,-31.55119 28.79414,-31.55124 28.79425,-31.55131 28.79435,-31.55138 28.79444,-31.5515 28.79444,-31.55161 28.79442,-31.55172 28.79437,-31.55182 28.79425,-31.55191 28.79413,-31.55197 28.79409,-31.55203 28.79408,-31.55211 28.79414,-31.55218 28.79429,-31.55228 28.79437,-31.55239 28.7945,-31.5524 28.79464,-31.55238 28.79486,-31.55232 28.79498,-31.55225 28.79516,-31.55216 28.79532,-31.5521 28.79552,-31.5521 28.79565,-31.55215 28.79575,-31.55221 28.79593,-31.5523 28.79615,-31.55239 28.79637,-31.55254 28.79648,-31.55271 28.79658,-31.55281 28.79671,-31.55292 28.79678,-31.55305 28.79689,-31.55315 28.79696,-31.55321 28.79707,-31.55335 28.79708,-31.55337 28.79719,-31.55342 28.79727,-31.55344 28.7973,-31.55346 28.79736,-31.55351 28.79761,-31.55376 28.79786,-31.55392 28.79806,-31.55403 28.79825,-31.55413 28.79848,-31.55413 28.79859,-31.55418 28.79872,-31.55422 28.79872,-31.55422 28.79882,-31.55422 28.79889,-31.55427 28.79898,-31.55435 28.79895,-31.55452 28.79886,-31.55467 28.79866,-31.55485 28.79847,-31.55506 28.79836,-31.55528 28.79823,-31.55537 28.79816,-31.55549 28.79803,-31.55562 28.79795,-31.55571 28.79782,-31.55581 28.79774,-31.55589 28.79767,-31.55595 28.79759,-31.55609 28.79756,-31.55615 28.79755,-31.5562 28.79752,-31.55625 28.79752,-31.55633 28.79754,-31.5564 28.79758,-31.55643 28.79776,-31.55648 28.79799,-31.55654 28.79827,-31.55657 28.79844,-31.55663 28.79852,-31.5567 28.79867,-31.5569 28.79871,-31.557 28.79879,-31.55712 28.7989,-31.55724 28.79905,-31.55734 28.7991,-31.55735 28.79913,-31.55736 28.79934,-31.55741 28.80008,-31.55728 28.80028,-31.55715 28.80034,-31.557 28.80042,-31.55688 28.8005,-31.55686 28.80069,-31.55675 28.80084,-31.55679 28.80093,-31.55686 28.80107,-31.55694 28.80113,-31.55694 28.8013,-31.55692 28.80149,-31.55687 28.80164,-31.55681 28.80178,-31.55674 28.80195,-31.55666 28.80209,-31.55657 28.80217,-31.55653 28.80228,-31.55648 28.80238,-31.55642 28.8024,-31.55641 28.80254,-31.55635 28.80268,-31.55635 28.80276,-31.55632 28.80281,-31.5563 28.80285,-31.55626 28.80289,-31.5562 28.80293,-31.5561 28.80296,-31.55599 28.80293,-31.55595 28.80291,-31.55588 28.80313,-31.55581 28.80332,-31.55579 28.8035,-31.55577 28.80373,-31.55576 28.80392,-31.55576 28.80399,-31.55581 28.80407,-31.55583 28.80411,-31.55587 28.80412,-31.55595 28.80427,-31.55605 28.8044,-31.55602 28.8045,-31.55602 28.80461,-31.55597 28.80477,-31.5561 28.805,-31.55625 28.80522,-31.55645 28.80548,-31.55665 28.80567,-31.55668 28.80586,-31.55681 28.80601,-31.55693 28.80624,-31.55714 28.80643,-31.55715 28.80657,-31.55731 28.80682,-31.55752 28.807,-31.55788 28.80702,-31.55807 28.80706,-31.55829 28.80705,-31.55848 28.80705,-31.55865 28.80704,-31.55882 28.807,-31.55914 28.80698,-31.55932 28.8071,-31.55943 28.80718,-31.5595 28.80721,-31.55955 28.80725,-31.5596 28.8074,-31.55977 28.80742,-31.5598 28.8075,-31.55989 28.8076,-31.55999 28.80767,-31.56009 28.80779,-31.56017 28.80802,-31.56023 28.80816,-31.56018 28.80823,-31.5601 28.80838,-31.55995 28.80844,-31.55985 28.80862,-31.55987 28.80884,-31.55996 28.80897,-31.55989 28.80903,-31.55981 28.80916,-31.55972 28.80939,-31.55966 28.80944,-31.55967 28.80952,-31.55967 28.80962,-31.55976 28.80972,-31.55975 28.80986,-31.55976 28.81016,-31.55975 28.81032,-31.55972 28.81055,-31.55977 28.81075,-31.55988 28.8107,-31.56 28.8108,-31.56008 28.81089,-31.56014 28.81116,-31.56003 28.81129,-31.55992 28.81132,-31.55987 28.81132,-31.55969 28.8113,-31.55956 28.81142,-31.55937 28.81191,-31.55937 28.81199,-31.55936 28.81206,-31.55933 28.81206,-31.55927 28.81218,-31.55917 28.81234,-31.55913 28.81254,-31.55913 28.81263,-31.55914 28.81273,-31.55915 28.81274,-31.55922 28.81292,-31.55928 28.81292,-31.55928 28.81313,-31.55925 28.81319,-31.55922 28.81348,-31.55922 28.81361,-31.55927 28.81372,-31.55933 28.81381,-31.55949 28.81373,-31.55957 28.81365,-31.5597 28.81361,-31.55983 28.81368,-31.55991 28.81384,-31.56 28.81401,-31.56011 28.81411,-31.56012 28.8142,-31.5602 28.81425,-31.56034 28.81422,-31.56041 28.81417,-31.56053 28.81416,-31.56058 28.81418,-31.5607 28.81421,-31.56079 28.81422,-31.56083 28.81445,-31.5609 28.81467,-31.5609 28.81491,-31.56082 28.81509,-31.56081 28.81529,-31.56081 28.81555,-31.56092 28.81624,-31.56131 28.8165,-31.56154 28.81667,-31.56177 28.81684,-31.56198 28.81702,-31.56223 28.81712,-31.56254 28.81719,-31.56279 28.81726,-31.56357 28.81726,-31.5637 28.81727,-31.5641 28.8173,-31.56415 28.8174,-31.5642 28.81754,-31.56426 28.81767,-31.56437 28.81773,-31.56449 28.81783,-31.56463 28.81805,-31.56497 28.81818,-31.56549 28.81825,-31.56586 28.81839,-31.5664 28.81853,-31.56684 28.81853,-31.56699 28.81852,-31.56709 28.81843,-31.56726 28.81838,-31.5674 28.81823,-31.56757 28.81819,-31.56771 28.81824,-31.56784 28.81835,-31.56791 28.81842,-31.56805 28.81843,-31.56813 28.81842,-31.56824 28.81838,-31.56826 28.81822,-31.56835 28.81812,-31.56841 28.81812,-31.56866 28.81815,-31.56879 28.81831,-31.56892 28.81836,-31.569 28.81835,-31.56924 28.81842,-31.56944 28.81842,-31.56959 28.81848,-31.56972 28.81848,-31.56986 28.81854,-31.56998 28.81858,-31.57015 28.81865,-31.57029 28.81872,-31.57044 28.81871,-31.57056 28.81871,-31.57076 28.81882,-31.57096 28.81881,-31.57107 28.81881,-31.57125 28.81879,-31.5714 28.81874,-31.57148 28.81867,-31.57163 28.81866,-31.57176 28.81868,-31.57187 28.81865,-31.57206 28.81868,-31.57223 28.81876,-31.57234 28.81889,-31.57259 28.81885,-31.57281 28.81889,-31.57304 28.81882,-31.57315 28.81863,-31.57329 28.81859,-31.57335 28.8185,-31.57346 28.81846,-31.57356 28.81839,-31.57369 28.81827,-31.57372 28.818,-31.57371 28.81777,-31.57371 28.81746,-31.57368 28.81732,-31.57364 28.81693,-31.57346 28.81681,-31.57345 28.81668,-31.57346 28.81657,-31.57351 28.81648,-31.57356 28.81645,-31.57357 28.81638,-31.57367 28.81634,-31.57371 28.81615,-31.57379 28.81599,-31.57385 28.81572,-31.57388 28.81539,-31.57395 28.81529,-31.57409 28.81526,-31.57418 28.81523,-31.57435 28.81532,-31.57458 28.81556,-31.57487 28.81569,-31.57503 28.81585,-31.57514 28.81611,-31.57531 28.81634,-31.57548 28.8164,-31.5755 28.81669,-31.57561 28.81692,-31.57582 28.81709,-31.57598 28.81724,-31.57624 28.81741,-31.57656 28.81747,-31.57685 28.81747,-31.57735 28.81732,-31.57775 28.81731,-31.57783 28.81718,-31.57801 28.81693,-31.57836 28.8168,-31.57862 28.81678,-31.57882 28.81685,-31.57906 28.81685,-31.57917 28.81688,-31.57934 28.817,-31.57952 28.81708,-31.57968 28.81717,-31.57984 28.81723,-31.57998 28.81733,-31.58016 28.81742,-31.5803 28.81758,-31.58037 28.81762,-31.5805 28.81796,-31.58098 28.8181,-31.58116 28.81821,-31.58124 28.81843,-31.58141 28.81858,-31.58154 28.81867,-31.58166 28.81885,-31.58194 28.81885,-31.58215 28.81883,-31.58229 28.8188,-31.58253 28.8188,-31.58253 28.81872,-31.58259 28.81868,-31.58262 28.81859,-31.58273 28.81852,-31.58279 28.81829,-31.58302 28.81801,-31.58345 28.81792,-31.58361 28.81762,-31.58417 28.81743,-31.58439 28.81712,-31.58456 28.81705,-31.58459 28.81654,-31.58478 28.81602,-31.58508 28.81547,-31.5855 28.81499,-31.58595 28.81494,-31.586 28.81457,-31.58651 28.81448,-31.58689 28.81446,-31.58717 28.8146,-31.58793 28.81488,-31.58838 28.81488,-31.58838 28.81524,-31.58897 28.81525,-31.58899 28.81526,-31.58901 28.81612,-31.59042 28.81689,-31.59232 28.81693,-31.59285 28.81685,-31.59333 28.81682,-31.5935 28.81678,-31.59377 28.81678,-31.59459 28.81663,-31.59534 28.81655,-31.5959 28.81645,-31.59669 28.81642,-31.59689 28.81679,-31.59868 28.81715,-31.5994 28.81734,-31.59977 28.81764,-31.60036 28.81821,-31.601 28.81859,-31.6011 28.81927,-31.60124 28.82002,-31.60142 28.8206,-31.60154 28.8206,-31.60154 28.82188,-31.60189 28.82245,-31.60222 28.82283,-31.60254 28.823,-31.60279 28.823,-31.60295 28.82278,-31.60392 28.82276,-31.60397 28.82267,-31.60425 28.82251,-31.60461 28.82255,-31.60499 28.82225,-31.60593 28.82218,-31.60654 28.82196,-31.60678 28.82178,-31.60708 28.82176,-31.60754 28.82174,-31.60794 28.82184,-31.6085 28.8219,-31.60886 28.82199,-31.60938 28.82202,-31.60953 28.82206,-31.60974 28.82219,-31.61033 28.82253,-31.61065 28.82317,-31.61124 28.82355,-31.61165 28.82431,-31.61184 28.82438,-31.61183 28.82448,-31.6118 28.82561,-31.61157 28.82659,-31.61143 28.827,-31.6112 28.82834,-31.61033 28.82959,-31.60918 28.82993,-31.60858 28.8302,-31.608 28.83043,-31.60742 28.83091,-31.6066 28.83121,-31.60598 28.83157,-31.60573 28.83189,-31.60554 28.83245,-31.60554 28.83366,-31.60602 28.8342,-31.60649 28.83445,-31.60707 28.83501,-31.60789 28.83591,-31.6094 28.83615,-31.61014 28.83608,-31.61115 28.83558,-31.61237 28.83511,-31.61295 28.83463,-31.61346 28.83449,-31.61394 28.83436,-31.61439 28.834,-31.61526 28.83366,-31.61594 28.83341,-31.61641 28.83325,-31.61705 28.83345,-31.61771 28.83377,-31.61839 28.83404,-31.61887 28.83431,-31.61955 28.83525,-31.62113 28.83582,-31.62187 28.83627,-31.62247 28.83646,-31.62282 28.83594,-31.62304 28.83486,-31.62354 28.83361,-31.62389 28.83333,-31.62416 28.83297,-31.62428 28.83243,-31.62428 28.83195,-31.62426 28.83162,-31.62426 28.83124,-31.62425 28.83102,-31.62437 28.83079,-31.62449 28.83048,-31.62448 28.8303,-31.62432 28.83006,-31.62415 28.82988,-31.62397 28.82978,-31.62401 28.82958,-31.62398 28.82938,-31.62396 28.82911,-31.62388 28.82901,-31.62378 28.82887,-31.6237 28.82876,-31.62353 28.82857,-31.62332 28.82831,-31.62319 28.82804,-31.62297 28.82795,-31.62271 28.82789,-31.62255 28.82782,-31.62238 28.82762,-31.62225 28.82734,-31.62239 28.82716,-31.62241 28.82703,-31.62231 28.82694,-31.62221 28.82669,-31.62221 28.82643,-31.62207 28.82619,-31.62201 28.82591,-31.62201 28.8257,-31.62208 28.82558,-31.62219 28.82541,-31.62218 28.82532,-31.62207 28.8251,-31.62202 28.82493,-31.62206 28.82477,-31.6221 28.82458,-31.622 28.82451,-31.62184 28.82439,-31.62185 28.8242,-31.62183 28.82416,-31.62193 28.82401,-31.62195 28.82392,-31.62193 28.82374,-31.62183 28.82366,-31.62173 28.82357,-31.62158 28.82347,-31.62157 28.82334,-31.62162 28.82329,-31.6217 28.82316,-31.62178 28.82307,-31.62171 28.82299,-31.62164 28.82281,-31.62171 28.82277,-31.6218 28.82267,-31.62182 28.82256,-31.62186 28.8224,-31.62194 28.82211,-31.622 28.82197,-31.62211 28.82181,-31.6221 28.82168,-31.62214 28.82154,-31.62216 28.82125,-31.62222 28.82116,-31.62209 28.82106,-31.62211 28.82101,-31.62217 28.82098,-31.6223 28.82073,-31.62245 28.82057,-31.62253 28.82033,-31.62245 28.82008,-31.62235 28.82004,-31.62239 28.81984,-31.6225 28.81929,-31.62263 28.81915,-31.62266 28.81886,-31.62273 28.81845,-31.62216 28.81864,-31.62172 28.81864,-31.62164 28.81861,-31.62137 28.81786,-31.62157 28.81742,-31.62165 28.81729,-31.6216 28.81743,-31.62101 28.81752,-31.62062 28.81753,-31.62037 28.81752,-31.62018 28.81758,-31.62002 28.81705,-31.61897 28.81646,-31.61915 28.81571,-31.6194 28.81492,-31.61964 28.81447,-31.61978 28.81369,-31.62003 28.81311,-31.62015 28.81227,-31.62009 28.81124,-31.62008 28.81064,-31.62008 28.81044,-31.62053 28.80977,-31.62153 28.80718,-31.62078 28.80747,-31.61993 28.80639,-31.61967 28.80229,-31.61873 28.80089,-31.61829 28.80032,-31.61813 28.80057,-31.61883 28.80072,-31.61922 28.80076,-31.61931 28.80077,-31.61932 28.80085,-31.61953 28.80123,-31.62043 28.80147,-31.62111 28.80184,-31.62122 28.8019,-31.62123 28.80208,-31.62169 28.80277,-31.62172 28.80492,-31.62182 28.80514,-31.62183 28.80531,-31.6226 28.80547,-31.62299 28.80587,-31.62369 28.80612,-31.62418 28.80639,-31.62436 28.80656,-31.62453 28.80666,-31.62467 28.80675,-31.62487 28.8067,-31.62506 28.80646,-31.62539 28.8063,-31.62538 28.80579,-31.62527 28.80556,-31.6253 28.80501,-31.6255 28.8044,-31.62563 28.80295,-31.62621 28.80264,-31.62636 28.80239,-31.62655 28.8022,-31.62673 28.80167,-31.62676 28.80132,-31.62672 28.8012,-31.62664 28.79896,-31.62587 28.79721,-31.62528 28.79647,-31.62505 28.79563,-31.62478 28.7949,-31.62462 28.79475,-31.62413 28.79472,-31.62399 28.79339,-31.62419 28.7924,-31.62418 28.79099,-31.62394 28.78921,-31.62362 28.78858,-31.62353 28.7879,-31.62341 28.78721,-31.62298 28.78672,-31.62336 28.7861,-31.62384 28.78579,-31.62409 28.78496,-31.62469 28.78432,-31.62508 28.78387,-31.62469 28.78341,-31.62421 28.78301,-31.62376 28.78267,-31.62329 28.7827,-31.62304 28.78263,-31.62261 28.78259,-31.6222 28.78272,-31.62177 28.78286,-31.62137 28.78321,-31.62065 28.78342,-31.61949 28.78278,-31.61945 28.78208,-31.61963 28.78192,-31.62005 28.78166,-31.62053 28.78129,-31.62102 28.78105,-31.62152 28.78089,-31.62196 28.78063,-31.62268 28.77948,-31.62286 28.77873,-31.62194 28.77811,-31.62127 28.77809,-31.62125 28.77736,-31.62042 28.77681,-31.61956 28.77625,-31.61888 28.77552,-31.61954 28.77448,-31.61999 28.7737,-31.62057 28.77277,-31.62139 28.77235,-31.62167 28.77172,-31.62131 28.77139,-31.62142 28.7711,-31.62153 28.77088,-31.62163 28.7707,-31.62171 28.77031,-31.62174 28.76999,-31.62192 28.76913,-31.62218 28.76842,-31.6224 28.768,-31.62243 28.7677,-31.62254 28.7675,-31.62264 28.76737,-31.6227 28.76728,-31.62277 28.76721,-31.62306 28.76706,-31.62317 28.76665,-31.62322 28.76643,-31.62347 28.76625,-31.62363 28.76606,-31.62381 28.76565,-31.62392 28.76547,-31.62415 28.76511,-31.6243 28.76474,-31.62459 28.76431,-31.62482 28.76401,-31.62469 28.76385,-31.62481 28.76357,-31.62483 28.76336,-31.62487 28.76319,-31.62498 28.76306,-31.62499 28.76305,-31.62511 28.76292,-31.62508 28.76275,-31.62519 28.76265,-31.62519 28.76216,-31.62468 28.76203,-31.6245 28.76199,-31.62421 28.76198,-31.62394 28.76186,-31.62344 28.76158,-31.62264 28.76346,-31.62081 28.76256,-31.62077 28.75861,-31.62062 28.75278,-31.62002 28.75188,-31.61965 28.75142,-31.62147 28.75143,-31.6215 28.75157,-31.62358 28.75157,-31.62394 28.75102,-31.62397 28.74982,-31.62397 28.74862,-31.62403 28.74668,-31.62408 28.74424,-31.62429 28.74415,-31.6243 28.74141,-31.62434 28.73937,-31.62451 28.73875,-31.62454 28.73762,-31.62457 28.7367,-31.62458 28.73664,-31.62423 28.73633,-31.62275 28.73615,-31.62182 28.73593,-31.62069 28.7357,-31.61958 28.73545,-31.61834 28.73527,-31.61741 28.73507,-31.61641 28.73498,-31.61591 28.73492,-31.61547 28.73496,-31.61518 28.73504,-31.61496 28.7352,-31.61473 28.73533,-31.61457 28.73547,-31.61439 28.73581,-31.61406 28.736,-31.61385 28.7363,-31.61357 28.73659,-31.61329 28.73556,-31.61282 28.7353,-31.61279 28.73522,-31.61272 28.73447,-31.61236 28.7336,-31.61196 28.73274,-31.61149 28.73226,-31.6111 28.73277,-31.6103 28.73275,-31.6099 28.73266,-31.60954 28.73211,-31.60816 28.73199,-31.6079 28.73176,-31.60705 28.7356,-31.60313 28.73679,-31.6037 28.73777,-31.60232 28.73815,-31.60174 28.73873,-31.60139 28.74029,-31.60029 28.74065,-31.60019 28.74097,-31.60005 28.74094,-31.59961 28.74091,-31.59941 28.74098,-31.59932 28.74144,-31.59924 28.74153,-31.59872 28.74198,-31.59807 28.74281,-31.59635 28.74281,-31.59634 28.74334,-31.59523 28.74376,-31.59484 28.74547,-31.59091 28.74683,-31.58745 28.74689,-31.58731 28.74806,-31.58445 28.7482,-31.58391 28.74903,-31.58062 28.74972,-31.57787 28.75129,-31.5777 28.75373,-31.57748 28.75562,-31.57731 28.75574,-31.57739 28.75608,-31.57757 28.75643,-31.57773 28.75673,-31.57785 28.75717,-31.57797 28.75717,-31.57788 28.75707,-31.57719 28.75798,-31.57614 28.75815,-31.5762 28.75852,-31.57638 28.75901,-31.57574 28.75946,-31.57541 28.76013,-31.57495 28.76117,-31.57441 28.76148,-31.57423 28.76136,-31.57403 28.76068,-31.57299 28.76038,-31.57252 28.75972,-31.57154 28.7592,-31.57076 28.7589,-31.57029 28.75878,-31.57009 28.75871,-31.56989 28.75867,-31.56973 28.75866,-31.56966 28.75865,-31.56935 28.75873,-31.56891 28.75877,-31.56866 28.75828,-31.56852 28.75781,-31.56866 28.7565,-31.56921 28.75627,-31.5693 28.75585,-31.56948 28.75531,-31.56956 28.75434,-31.5693 28.75356,-31.56892 28.75324,-31.56866 28.75286,-31.56782 28.75286,-31.5678 28.7528,-31.56768 28.75252,-31.56707 28.75253,-31.5665 28.75265,-31.56602 28.75293,-31.56561 28.75341,-31.56487 28.75395,-31.56467 28.75442,-31.56473 28.75594,-31.56486 28.75793,-31.56501 28.76066,-31.56527 28.76161,-31.56523 28.76287,-31.56513 28.76476,-31.56461 28.76643,-31.56413 28.76744,-31.56336 28.76889,-31.56152 28.7698,-31.56119 28.771,-31.56116 28.77193,-31.56128 28.77324,-31.5627 28.77383,-31.56226 28.7743,-31.56212 28.77442,-31.56209 28.7752,-31.56198 28.77634,-31.56158 28.77739,-31.56097 28.77773,-31.56067 28.77771,-31.56053 28.77755,-31.55949 28.77711,-31.55673 28.77654,-31.55328 28.77627,-31.55166 28.77593,-31.54936 28.77622,-31.54925 28.77637,-31.54911 28.77676,-31.54901 28.77724,-31.54911 28.77732,-31.5491 28.78323,-31.54849 28.78337,-31.54847 28.78548,-31.54825 28.78497,-31.54797 28.78426,-31.54764 28.78337,-31.54731 28.78244,-31.54687 28.78167,-31.54634 28.78061,-31.54553 28.78026,-31.5454 28.77975,-31.54513 28.77925,-31.54469 28.77871,-31.54436 28.77844,-31.54404 28.77974,-31.54269 28.78082,-31.54344 28.78238,-31.54403 28.78272,-31.5441 28.78279,-31.54415 28.78294,-31.54418 28.78312,-31.54421 28.78337,-31.54435 28.78338,-31.5446 28.78375,-31.54488 28.7843,-31.54513 28.78486,-31.5452</coordinates></LinearRing></outerBoundaryIs></Polygon></MultiGeometry></Placemark></Document></kml>