<?xml version="1.0" encoding="UTF-8"?><kml xmlns="http://www.opengis.net/kml/2.2"><Document><Placemark><name>De Colligny Mission Station</name><description>Sub Place 294040013</description><ExtendedData><Data name="code"><value>294040013</value></Data><Data name="name"><value>De Colligny Mission Station</value></Data><Data name="description"><value>Sub Place 294040013</value></Data></ExtendedData><MultiGeometry><Polygon><outerBoundaryIs><LinearRing><coordinates>28.71699,-31.5562 28.7219,-31.55816 28.72416,-31.55903 28.72428,-31.55908 28.725,-31.55916 28.72709,-31.55954 28.72823,-31.55953 28.72922,-31.55947 28.73009,-31.5592 28.72988,-31.5604 28.72984,-31.56089 28.72978,-31.56187 28.72958,-31.56266 28.72941,-31.56296 28.72946,-31.56301 28.72951,-31.56307 28.72965,-31.56312 28.72965,-31.56321 28.72949,-31.56334 28.72947,-31.56351 28.72952,-31.56368 28.72981,-31.56369 28.72989,-31.56388 28.72977,-31.564 28.72931,-31.56418 28.72946,-31.56486 28.7295,-31.56513 28.72947,-31.56553 28.72931,-31.56577 28.72906,-31.56627 28.72886,-31.56649 28.7289,-31.56655 28.72947,-31.56772 28.72957,-31.56802 28.72952,-31.56848 28.72954,-31.56873 28.72953,-31.56896 28.7298,-31.56925 28.72981,-31.56933 28.72985,-31.56961 28.72995,-31.56985 28.73009,-31.5702 28.73008,-31.57044 28.72993,-31.57069 28.72995,-31.57126 28.73003,-31.57186 28.72985,-31.57283 28.7297,-31.5728 28.72965,-31.57279 28.72939,-31.57273 28.72865,-31.57256 28.72779,-31.57237 28.72596,-31.57198 28.72511,-31.57177 28.72532,-31.57096 28.72455,-31.56811 28.72472,-31.56728 28.72463,-31.56607 28.72479,-31.56434 28.7251,-31.56326 28.72521,-31.56277 28.72513,-31.56278 28.72447,-31.56287 28.72371,-31.56286 28.7209,-31.56218 28.7193,-31.56175 28.71923,-31.56324 28.71761,-31.56275 28.71807,-31.56142 28.71798,-31.56139 28.7175,-31.56117 28.71447,-31.55964 28.71452,-31.55955 28.71402,-31.55736 28.71461,-31.55664 28.71637,-31.55731 28.71699,-31.5562</coordinates></LinearRing></outerBoundaryIs></Polygon></MultiGeometry></Placemark></Document></kml>