<?xml version="1.0" encoding="UTF-8"?><kml xmlns="http://www.opengis.net/kml/2.2"><Document><Placemark><name>Coffee Bay</name><description>Main Place 294453</description><ExtendedData><Data name="code"><value>294453</value></Data><Data name="name"><value>Coffee Bay</value></Data><Data name="description"><value>Main Place 294453</value></Data></ExtendedData><MultiGeometry><Polygon><outerBoundaryIs><LinearRing><coordinates>29.14859,-31.97757 29.14875,-31.97758 29.14886,-31.97758 29.14898,-31.97759 29.14905,-31.97759 29.14911,-31.9776 29.14917,-31.97764 29.14922,-31.97768 29.14995,-31.97814 29.15058,-31.97854 29.15105,-31.97886 29.1515,-31.97923 29.15212,-31.97956 29.15256,-31.9797 29.1532,-31.97989 29.15364,-31.97996 29.15325,-31.98035 29.152,-31.98192 29.15081,-31.9837 29.15046,-31.98436 29.15043,-31.98464 29.15043,-31.98478 29.15074,-31.98534 29.15074,-31.98534 29.15091,-31.98541 29.15102,-31.98545 29.152,-31.98562 29.15287,-31.98597 29.1535,-31.98628 29.15348,-31.98684 29.15324,-31.98719 29.15264,-31.98719 29.15191,-31.98729 29.15125,-31.98761 29.15087,-31.9881 29.15017,-31.9883 29.14975,-31.98848 29.14937,-31.98824 29.14905,-31.98799 29.14863,-31.98761 29.14842,-31.98736 29.14801,-31.9874 29.14779,-31.98752 29.14755,-31.98764 29.14717,-31.98803 29.14714,-31.98808 29.14696,-31.98841 29.14689,-31.98869 29.14744,-31.98893 29.14733,-31.989 29.14695,-31.98914 29.14651,-31.98926 29.14613,-31.98926 29.14591,-31.98926 29.1457,-31.98934 29.14542,-31.98947 29.14529,-31.98941 29.14488,-31.98921 29.14458,-31.98878 29.14461,-31.98872 29.14471,-31.9886 29.14479,-31.98848 29.14503,-31.98818 29.14523,-31.98803 29.14532,-31.98798 29.1453,-31.98795 29.14514,-31.98786 29.14499,-31.98775 29.14487,-31.98766 29.14475,-31.98751 29.14468,-31.98741 29.14469,-31.98738 29.14477,-31.98729 29.14482,-31.98726 29.14493,-31.98721 29.14507,-31.98717 29.14507,-31.98699 29.14532,-31.98663 29.14535,-31.98646 29.14561,-31.98635 29.14566,-31.98625 29.14572,-31.98602 29.14578,-31.98584 29.14574,-31.98584 29.14564,-31.98574 29.14462,-31.98488 29.14513,-31.9837 29.1455,-31.98286 29.14574,-31.98272 29.14592,-31.98249 29.14613,-31.9814 29.14629,-31.98102 29.1465,-31.98054 29.14747,-31.98004 29.14767,-31.97933 29.14786,-31.97916 29.14787,-31.97916 29.14794,-31.97905 29.14814,-31.97881 29.1483,-31.97854 29.14844,-31.97829 29.14847,-31.97804 29.14846,-31.97776 29.14839,-31.97752 29.14843,-31.97753 29.14843,-31.97753 29.14846,-31.97754 29.14859,-31.97757</coordinates></LinearRing></outerBoundaryIs></Polygon></MultiGeometry></Placemark></Document></kml>