<?xml version="1.0" encoding="UTF-8"?><kml xmlns="http://www.opengis.net/kml/2.2"><Document><Placemark><name>Lubhacweni</name><description>Main Place 296183</description><ExtendedData><Data name="code"><value>296183</value></Data><Data name="name"><value>Lubhacweni</value></Data><Data name="description"><value>Main Place 296183</value></Data></ExtendedData><MultiGeometry><Polygon><outerBoundaryIs><LinearRing><coordinates>28.99056,-30.91958 28.99082,-30.91966 28.99097,-30.91962 28.99114,-30.91954 28.99127,-30.91949 28.99137,-30.91946 28.9915,-30.91943 28.99164,-30.91944 28.9918,-30.91944 28.99193,-30.91949 28.99212,-30.91956 28.99224,-30.91962 28.99243,-30.91972 28.99254,-30.91979 28.99268,-30.91987 28.99286,-30.92002 28.99308,-30.92014 28.99319,-30.92023 28.99332,-30.92028 28.99391,-30.92053 28.99435,-30.92065 28.99472,-30.92071 28.99508,-30.92076 28.99536,-30.92071 28.99578,-30.92059 28.9961,-30.92052 28.99645,-30.92052 28.99649,-30.92052 28.99665,-30.92051 28.9969,-30.92046 28.99707,-30.92044 28.99722,-30.92039 28.99755,-30.92107 28.99761,-30.92132 28.99761,-30.92161 28.99733,-30.92185 28.99709,-30.92206 28.99668,-30.92246 28.99603,-30.92255 28.99517,-30.92268 28.99438,-30.9235 28.99375,-30.92398 28.99307,-30.92436 28.9919,-30.92487 28.99129,-30.92517 28.99076,-30.9252 28.98975,-30.92487 28.98962,-30.92452 28.98936,-30.92364 28.98989,-30.9235 28.99016,-30.9234 28.99029,-30.92332 28.99029,-30.92332 28.99056,-30.92303 28.99072,-30.92276 28.99078,-30.92253 28.99079,-30.92241 28.99077,-30.92202 28.99063,-30.92172 28.99045,-30.92147 28.99002,-30.9211 28.98938,-30.9207 28.98909,-30.92052 28.98824,-30.91973 28.98816,-30.91958 28.98791,-30.91909 28.98792,-30.91885 28.98908,-30.91851 28.98918,-30.91848 28.98929,-30.91863 28.98946,-30.91878 28.98971,-30.91897 28.98992,-30.91909 28.99008,-30.91921 28.9903,-30.91939 28.99056,-30.91958</coordinates></LinearRing></outerBoundaryIs></Polygon><Polygon><outerBoundaryIs><LinearRing><coordinates>29.01375,-30.87721 29.01375,-30.87769 29.01364,-30.87814 29.01366,-30.8787 29.01353,-30.87891 29.01328,-30.87954 29.01337,-30.88012 29.01343,-30.88074 29.01325,-30.88123 29.01374,-30.88137 29.0146,-30.88185 29.01516,-30.88224 29.01472,-30.88261 29.01437,-30.88303 29.01415,-30.88325 29.01405,-30.8834 29.01325,-30.88427 29.01294,-30.88444 29.01258,-30.88466 29.01224,-30.88487 29.01163,-30.88509 29.01086,-30.8853 29.01034,-30.88543 29.00995,-30.88569 29.00982,-30.88612 29.00973,-30.88668 29.0097,-30.88697 29.0096,-30.88696 29.0093,-30.88681 29.00895,-30.88666 29.00857,-30.88654 29.00838,-30.88632 29.00822,-30.8861 29.00802,-30.88587 29.00779,-30.88574 29.00759,-30.88558 29.00742,-30.88547 29.00734,-30.88524 29.00699,-30.88512 29.00675,-30.88509 29.00653,-30.88515 29.00637,-30.88515 29.00626,-30.88517 29.00611,-30.88529 29.00604,-30.88533 29.00589,-30.88521 29.00576,-30.88523 29.00567,-30.88535 29.00546,-30.88545 29.00532,-30.88547 29.00529,-30.88556 29.00547,-30.88566 29.00559,-30.88572 29.00565,-30.88582 29.00563,-30.88593 29.00555,-30.88603 29.00537,-30.88611 29.0053,-30.88615 29.00512,-30.88614 29.00505,-30.88622 29.00489,-30.88642 29.00473,-30.88648 29.00463,-30.8864 29.00452,-30.88639 29.00438,-30.88646 29.00425,-30.88651 29.00407,-30.88655 29.00388,-30.8867 29.0038,-30.88677 29.00354,-30.88684 29.00337,-30.88687 29.00324,-30.8869 29.00312,-30.8869 29.00296,-30.88687 29.00292,-30.88677 29.00283,-30.88668 29.00263,-30.8866 29.0025,-30.88651 29.00241,-30.88651 29.00225,-30.88662 29.00217,-30.88671 29.00209,-30.88676 29.00196,-30.8868 29.00179,-30.88679 29.00161,-30.88673 29.00149,-30.88673 29.00137,-30.88676 29.0013,-30.88683 29.0013,-30.88695 29.0011,-30.88703 29.00098,-30.88703 29.00094,-30.88695 29.00093,-30.88687 29.00077,-30.88685 29.00066,-30.88685 29.00051,-30.88685 29.00033,-30.8869 29.0002,-30.88697 29.00006,-30.88701 28.99992,-30.88715 28.99984,-30.8873 28.9998,-30.88738 28.99972,-30.88747 28.99955,-30.88757 28.99947,-30.88764 28.99947,-30.88767 28.99942,-30.88773 28.99933,-30.88779 28.99929,-30.88788 28.99919,-30.88799 28.99909,-30.88804 28.99879,-30.88836 28.99803,-30.88918 28.99771,-30.88938 28.99719,-30.88972 28.99697,-30.88975 28.99679,-30.89004 28.99664,-30.89006 28.99654,-30.88925 28.99656,-30.8886 28.99671,-30.88811 28.99676,-30.88804 28.99687,-30.88786 28.9968,-30.88779 28.99678,-30.88766 28.99686,-30.8873 28.99684,-30.8869 28.9967,-30.88616 28.99655,-30.88559 28.99644,-30.88472 28.99631,-30.88414 28.99613,-30.88334 28.99601,-30.88316 28.99599,-30.88294 28.99603,-30.8823 28.99611,-30.88193 28.99617,-30.88138 28.99621,-30.88107 28.99625,-30.88095 28.99628,-30.8808 28.99634,-30.88066 28.99642,-30.88042 28.99636,-30.88029 28.99632,-30.87999 28.99622,-30.87977 28.99618,-30.87962 28.99611,-30.87909 28.99607,-30.87853 28.99611,-30.87801 28.99624,-30.87806 28.99658,-30.87815 28.99688,-30.87815 28.99693,-30.87789 28.99727,-30.87776 28.99766,-30.87763 28.99809,-30.87758 28.99839,-30.87771 28.99878,-30.87771 28.99951,-30.87771 28.99986,-30.87758 29.00055,-30.87758 29.00137,-30.87763 29.00215,-30.87763 29.00301,-30.87767 29.0037,-30.87767 29.00426,-30.87767 29.00469,-30.87784 29.00503,-30.87797 29.00564,-30.87797 29.00594,-30.87789 29.00637,-30.87784 29.00685,-30.87758 29.00732,-30.87728 29.00775,-30.87733 29.00792,-30.87735 29.00805,-30.87737 29.00857,-30.87715 29.00909,-30.87715 29.0093,-30.87702 29.00952,-30.87677 29.00986,-30.87668 29.01012,-30.87638 29.01073,-30.87625 29.0115,-30.87612 29.01211,-30.87603 29.01258,-30.87586 29.01288,-30.87582 29.01327,-30.87574 29.01343,-30.87616 29.01348,-30.87638 29.01354,-30.87662 29.01366,-30.87682 29.01375,-30.87721</coordinates></LinearRing></outerBoundaryIs></Polygon></MultiGeometry></Placemark></Document></kml>