<?xml version="1.0" encoding="UTF-8"?><kml xmlns="http://www.opengis.net/kml/2.2"><Document><Placemark><name>Kabega</name><description>Sub Place 299007059</description><ExtendedData><Data name="code"><value>299007059</value></Data><Data name="name"><value>Kabega</value></Data><Data name="description"><value>Sub Place 299007059</value></Data></ExtendedData><MultiGeometry><Polygon><outerBoundaryIs><LinearRing><coordinates>25.50605,-33.94779 25.50634,-33.94692 25.50646,-33.94662 25.50652,-33.94651 25.5066,-33.94637 25.50669,-33.94624 25.50682,-33.94608 25.50735,-33.94543 25.5074,-33.94536 25.50622,-33.94511 25.50493,-33.94484 25.50401,-33.94465 25.50374,-33.94553 25.50374,-33.94554 25.5035,-33.94637 25.50335,-33.94686 25.50326,-33.9472 25.50452,-33.94747 25.5054,-33.94765 25.50605,-33.94779 25.50578,-33.94874 25.50558,-33.94938 25.50547,-33.94972 25.50542,-33.94985 25.50532,-33.95009 25.50526,-33.95029 25.5052,-33.95048 25.50519,-33.95065 25.50519,-33.95075 25.50502,-33.95071 25.50488,-33.95139 25.50475,-33.95197 25.50463,-33.95251 25.50455,-33.95289 25.50436,-33.95379 25.50425,-33.95419 25.50421,-33.95433 25.5037,-33.95431 25.50262,-33.95428 25.50089,-33.95422 25.50089,-33.95422 25.50038,-33.9542 25.49952,-33.95418 25.49905,-33.95423 25.49901,-33.9542 25.49895,-33.95417 25.49799,-33.95413 25.49688,-33.9541 25.49684,-33.95408 25.49608,-33.95406 25.49558,-33.95405 25.49528,-33.95404 25.49495,-33.95403 25.49457,-33.95401 25.49451,-33.95401 25.4938,-33.95399 25.49357,-33.95398 25.49336,-33.95397 25.4929,-33.95396 25.49265,-33.95395 25.49156,-33.95392 25.49154,-33.9538 25.4906,-33.9538 25.49028,-33.9538 25.49041,-33.95463 25.49059,-33.95576 25.49061,-33.95592 25.49079,-33.95708 25.49091,-33.95783 25.48999,-33.9579 25.48802,-33.95806 25.48807,-33.95851 25.48816,-33.95932 25.48816,-33.95936 25.48703,-33.95953 25.48618,-33.958 25.48533,-33.9566 25.48509,-33.95619 25.48438,-33.95498 25.48394,-33.95422 25.48366,-33.95374 25.48351,-33.95356 25.48335,-33.95337 25.483,-33.95295 25.48284,-33.95278 25.4828,-33.95273 25.48256,-33.95251 25.48251,-33.95246 25.48196,-33.95206 25.48131,-33.95171 25.4815,-33.95148 25.48158,-33.95141 25.48167,-33.95136 25.48176,-33.95131 25.48185,-33.95127 25.48195,-33.95123 25.48205,-33.9512 25.48215,-33.95118 25.48225,-33.95116 25.48224,-33.95107 25.4817,-33.95015 25.48159,-33.94997 25.48148,-33.94988 25.48123,-33.94945 25.48121,-33.94941 25.48119,-33.94938 25.48111,-33.94925 25.48103,-33.94911 25.48092,-33.94892 25.48081,-33.94873 25.48075,-33.94863 25.4807,-33.94855 25.48058,-33.94834 25.48054,-33.94827 25.48056,-33.94816 25.48029,-33.94769 25.4803,-33.94766 25.4803,-33.94762 25.48032,-33.94759 25.48033,-33.94756 25.48074,-33.94675 25.48121,-33.94586 25.48138,-33.94554 25.48302,-33.94539 25.48438,-33.94526 25.48627,-33.94509 25.48807,-33.94494 25.48873,-33.94491 25.48887,-33.9449 25.48921,-33.9449 25.49,-33.94488 25.49106,-33.94491 25.49207,-33.94501 25.49208,-33.94502 25.49226,-33.94503 25.49229,-33.94504 25.493,-33.94511 25.49369,-33.94522 25.49407,-33.9453 25.49429,-33.9445 25.49483,-33.94275 25.4953,-33.9412 25.49531,-33.94115 25.49604,-33.94128 25.49693,-33.94143 25.49708,-33.94087 25.49721,-33.94041 25.49727,-33.94017 25.49783,-33.94029 25.49871,-33.94046 25.49875,-33.94036 25.49885,-33.93986 25.49873,-33.93938 25.49924,-33.93929 25.49924,-33.93929 25.5001,-33.93913 25.50103,-33.93896 25.50194,-33.93881 25.502,-33.93881 25.50218,-33.93769 25.50222,-33.93746 25.50279,-33.93693 25.50231,-33.93656 25.50239,-33.9361 25.50259,-33.93485 25.50261,-33.93475 25.50313,-33.93446 25.50343,-33.93422 25.50396,-33.93368 25.50411,-33.93341 25.50473,-33.93248 25.50493,-33.93265 25.50565,-33.93336 25.50648,-33.93421 25.50701,-33.93471 25.50626,-33.9357 25.50597,-33.93605 25.50555,-33.93646 25.50416,-33.93783 25.50416,-33.93793 25.50356,-33.93851 25.50474,-33.93832 25.50567,-33.93816 25.50661,-33.93799 25.50754,-33.93781 25.50799,-33.93856 25.50883,-33.93992 25.50906,-33.94026 25.50972,-33.94126 25.51006,-33.94185 25.51007,-33.94198 25.51028,-33.94232 25.51063,-33.94288 25.51081,-33.94317 25.51122,-33.94328 25.51097,-33.944 25.51074,-33.9446 25.5107,-33.94469 25.51066,-33.94478 25.51063,-33.94488 25.51061,-33.94497 25.51059,-33.94507 25.51058,-33.94517 25.51057,-33.94527 25.51058,-33.94537 25.51059,-33.94565 25.51062,-33.94593 25.51075,-33.94673 25.51107,-33.94845 25.50852,-33.94823 25.50767,-33.94811 25.50605,-33.94779</coordinates></LinearRing></outerBoundaryIs><innerBoundaryIs><LinearRing><coordinates>25.49585,-33.95092 25.49592,-33.9511 25.49602,-33.95107 25.49647,-33.95201 25.497,-33.95257 25.49738,-33.9527 25.49835,-33.95304 25.49909,-33.95191 25.49972,-33.95097 25.50015,-33.95106 25.50023,-33.95108 25.50028,-33.95108 25.50045,-33.95069 25.50049,-33.95066 25.50075,-33.94995 25.50055,-33.94991 25.49985,-33.94976 25.49731,-33.94923 25.49532,-33.94883 25.49522,-33.94924 25.49522,-33.94935 25.49524,-33.94956 25.49526,-33.94962 25.49529,-33.9497 25.49576,-33.95072 25.49585,-33.95092</coordinates></LinearRing></innerBoundaryIs></Polygon></MultiGeometry></Placemark></Document></kml>