<?xml version="1.0" encoding="UTF-8"?><kml xmlns="http://www.opengis.net/kml/2.2"><Document><Placemark><name>KwaNobuhle</name><description>Main Place 299009</description><ExtendedData><Data name="code"><value>299009</value></Data><Data name="name"><value>KwaNobuhle</value></Data><Data name="description"><value>Main Place 299009</value></Data></ExtendedData><MultiGeometry><Polygon><outerBoundaryIs><LinearRing><coordinates>25.40707,-33.79182 25.41021,-33.79205 25.41401,-33.79205 25.41439,-33.79206 25.41436,-33.79221 25.41429,-33.79249 25.41423,-33.79261 25.41403,-33.79291 25.41379,-33.7932 25.41355,-33.79343 25.41343,-33.79364 25.41335,-33.79374 25.4132,-33.79382 25.41303,-33.79399 25.4129,-33.79409 25.41272,-33.79432 25.41253,-33.79452 25.41238,-33.79469 25.41223,-33.79485 25.412,-33.79504 25.4118,-33.79528 25.41166,-33.79549 25.41155,-33.79571 25.4114,-33.79603 25.41131,-33.79633 25.41128,-33.79658 25.41123,-33.79681 25.41118,-33.79694 25.41107,-33.79719 25.41102,-33.79734 25.41093,-33.79742 25.41083,-33.7975 25.41078,-33.79765 25.41068,-33.79777 25.41059,-33.79789 25.41057,-33.798 25.41051,-33.79807 25.41041,-33.79818 25.41029,-33.79825 25.41016,-33.79839 25.41002,-33.79849 25.40975,-33.79863 25.40954,-33.79873 25.40901,-33.79892 25.40873,-33.79904 25.40856,-33.79909 25.40819,-33.79917 25.40791,-33.79921 25.40769,-33.79925 25.40736,-33.79937 25.40714,-33.79949 25.40698,-33.79963 25.40691,-33.79988 25.40685,-33.79993 25.40674,-33.80004 25.40666,-33.80017 25.40653,-33.80031 25.40646,-33.8004 25.40642,-33.80048 25.40633,-33.80055 25.40626,-33.80063 25.40622,-33.80075 25.40623,-33.80087 25.4062,-33.80104 25.40622,-33.80107 25.40629,-33.80112 25.40639,-33.80115 25.4064,-33.80118 25.4064,-33.80126 25.40639,-33.80131 25.40634,-33.80136 25.40635,-33.80147 25.40635,-33.80154 25.40636,-33.80163 25.4064,-33.80169 25.40644,-33.80176 25.40639,-33.80181 25.40636,-33.80188 25.4063,-33.80196 25.40625,-33.80205 25.40621,-33.80211 25.40614,-33.80216 25.40604,-33.80222 25.40593,-33.80231 25.4058,-33.8024 25.40573,-33.80249 25.40569,-33.80259 25.40563,-33.80271 25.40563,-33.80284 25.40564,-33.80293 25.40566,-33.80304 25.40562,-33.80323 25.40561,-33.80347 25.40561,-33.80362 25.40559,-33.80379 25.40557,-33.8039 25.40551,-33.80403 25.40544,-33.80415 25.40539,-33.80424 25.40535,-33.80434 25.40531,-33.80439 25.40529,-33.80444 25.40526,-33.80446 25.40521,-33.80447 25.40519,-33.80451 25.40516,-33.80457 25.40512,-33.80465 25.40513,-33.80469 25.40515,-33.80474 25.40512,-33.80481 25.40506,-33.80489 25.40502,-33.80493 25.40497,-33.80498 25.40489,-33.80504 25.40488,-33.80509 25.40484,-33.80513 25.40482,-33.80518 25.40477,-33.80522 25.4047,-33.80527 25.40459,-33.80537 25.40449,-33.80543 25.40447,-33.80549 25.40446,-33.80555 25.40442,-33.80558 25.40426,-33.80563 25.40404,-33.80569 25.40371,-33.80575 25.40347,-33.80588 25.40335,-33.80594 25.40317,-33.80601 25.40305,-33.806 25.40293,-33.80605 25.40281,-33.80609 25.40267,-33.80618 25.40257,-33.80625 25.40248,-33.8063 25.40239,-33.80634 25.40233,-33.80634 25.40216,-33.80635 25.40195,-33.8064 25.40181,-33.80646 25.40172,-33.80651 25.40162,-33.80659 25.40154,-33.80665 25.40148,-33.80669 25.40138,-33.80672 25.4013,-33.80675 25.40119,-33.80683 25.40112,-33.80684 25.40105,-33.80685 25.40095,-33.80688 25.40086,-33.80691 25.40067,-33.80691 25.40055,-33.80691 25.40042,-33.80688 25.40033,-33.80685 25.40024,-33.80682 25.40018,-33.8068 25.40011,-33.8068 25.40006,-33.80677 25.39999,-33.80674 25.39988,-33.80672 25.3997,-33.8067 25.39957,-33.80666 25.39947,-33.80666 25.39938,-33.80666 25.39925,-33.80666 25.39915,-33.80665 25.39908,-33.80662 25.39894,-33.80657 25.39878,-33.80649 25.39858,-33.80643 25.39848,-33.80639 25.39839,-33.80637 25.39832,-33.80638 25.39824,-33.80639 25.39813,-33.80648 25.39804,-33.80654 25.39794,-33.80664 25.39787,-33.80671 25.3978,-33.80674 25.39775,-33.80675 25.39773,-33.80679 25.39769,-33.80688 25.39764,-33.80695 25.39749,-33.80706 25.39706,-33.80697 25.39664,-33.80689 25.39646,-33.80684 25.3963,-33.80684 25.39627,-33.80684 25.39624,-33.80685 25.39621,-33.80686 25.39618,-33.80688 25.39616,-33.8069 25.39614,-33.80693 25.39613,-33.80696 25.39612,-33.80699 25.39611,-33.80702 25.39608,-33.80719 25.39606,-33.8077 25.39607,-33.80819 25.39607,-33.80877 25.39608,-33.80956 25.39609,-33.80995 25.3961,-33.81047 25.39685,-33.81047 25.39857,-33.80971 25.39945,-33.81108 25.40016,-33.81221 25.40018,-33.81223 25.40095,-33.81189 25.40107,-33.81209 25.4014,-33.81261 25.40156,-33.81286 25.4015,-33.8132 25.40187,-33.8138 25.40185,-33.81392 25.40175,-33.81453 25.4018,-33.81458 25.40256,-33.81467 25.40267,-33.81486 25.40282,-33.8156 25.40277,-33.81639 25.40257,-33.81663 25.40246,-33.81683 25.4023,-33.81687 25.40243,-33.81706 25.40245,-33.81728 25.40251,-33.81746 25.40259,-33.81765 25.40271,-33.81787 25.40284,-33.81809 25.40312,-33.81845 25.4033,-33.81866 25.40342,-33.81891 25.40354,-33.81926 25.40366,-33.81956 25.40369,-33.81965 25.40404,-33.82022 25.40421,-33.82049 25.4045,-33.82095 25.4054,-33.82236 25.40552,-33.82242 25.40568,-33.82252 25.40649,-33.82232 25.40739,-33.82377 25.40806,-33.82483 25.40847,-33.82549 25.40917,-33.82662 25.40991,-33.82781 25.40653,-33.82858 25.40649,-33.82864 25.4065,-33.82867 25.40657,-33.82868 25.40663,-33.82871 25.40672,-33.82871 25.40685,-33.82871 25.4069,-33.82878 25.40694,-33.82899 25.40698,-33.82913 25.40696,-33.8292 25.40683,-33.82931 25.40671,-33.82932 25.40662,-33.82928 25.40659,-33.82925 25.40655,-33.82925 25.4065,-33.8292 25.40643,-33.82916 25.40633,-33.82914 25.40622,-33.82916 25.40613,-33.82919 25.40598,-33.82924 25.40592,-33.82926 25.40589,-33.82928 25.40589,-33.82933 25.40592,-33.8296 25.40597,-33.8297 25.40592,-33.82977 25.40585,-33.82992 25.40575,-33.82998 25.40567,-33.83004 25.40559,-33.83013 25.40551,-33.83023 25.40552,-33.83028 25.40558,-33.83038 25.40563,-33.83042 25.40581,-33.83056 25.40584,-33.83061 25.40586,-33.83067 25.40585,-33.83072 25.40577,-33.83076 25.40573,-33.83078 25.40565,-33.83077 25.40556,-33.83076 25.40545,-33.83075 25.40537,-33.83076 25.40526,-33.83081 25.40516,-33.83086 25.40511,-33.83091 25.40508,-33.83097 25.4051,-33.83104 25.40517,-33.83109 25.40527,-33.83116 25.40533,-33.83122 25.40536,-33.83132 25.40533,-33.83139 25.40528,-33.83146 25.40522,-33.83152 25.40514,-33.83156 25.40503,-33.83159 25.40493,-33.83161 25.4049,-33.83167 25.40495,-33.83179 25.40499,-33.83189 25.40502,-33.83204 25.40501,-33.83209 25.40498,-33.83215 25.40489,-33.83216 25.40482,-33.83221 25.40478,-33.83227 25.40474,-33.83228 25.40468,-33.83227 25.40462,-33.83225 25.40457,-33.83223 25.40449,-33.83226 25.40447,-33.83232 25.40446,-33.83242 25.40446,-33.83253 25.40454,-33.83263 25.40458,-33.83273 25.40468,-33.83277 25.40471,-33.83284 25.40476,-33.83293 25.40474,-33.833 25.4047,-33.83305 25.40452,-33.83322 25.40432,-33.83347 25.40423,-33.83349 25.40403,-33.83349 25.40397,-33.83361 25.404,-33.83384 25.40398,-33.83394 25.40407,-33.83402 25.40415,-33.83412 25.40427,-33.83415 25.40444,-33.83421 25.40467,-33.83431 25.40494,-33.83451 25.40522,-33.83478 25.4051,-33.83494 25.40512,-33.83508 25.40536,-33.83532 25.40546,-33.83542 25.40558,-33.83552 25.40573,-33.83552 25.40624,-33.83593 25.40643,-33.83622 25.40671,-33.8363 25.40689,-33.83647 25.40688,-33.83661 25.40703,-33.83672 25.40734,-33.83693 25.40755,-33.83704 25.40752,-33.83724 25.40757,-33.83741 25.4077,-33.83748 25.40786,-33.83748 25.40794,-33.8375 25.40802,-33.83759 25.40801,-33.83789 25.40791,-33.83811 25.4079,-33.83838 25.40777,-33.83849 25.40763,-33.83855 25.40744,-33.83859 25.40702,-33.83866 25.40689,-33.83877 25.40698,-33.83896 25.40694,-33.83909 25.40696,-33.83925 25.40689,-33.83937 25.4069,-33.83953 25.40709,-33.83976 25.40736,-33.84 25.40747,-33.84014 25.40746,-33.84024 25.40716,-33.84054 25.40664,-33.84087 25.40642,-33.84099 25.40622,-33.84099 25.40604,-33.84097 25.40593,-33.84111 25.40586,-33.84127 25.40594,-33.84139 25.40595,-33.84147 25.40585,-33.84163 25.40571,-33.84176 25.40565,-33.84185 25.40579,-33.84206 25.40599,-33.84233 25.40597,-33.84255 25.40576,-33.84259 25.4056,-33.84253 25.40546,-33.84241 25.4054,-33.8423 25.40522,-33.84218 25.40507,-33.84217 25.40493,-33.84224 25.40479,-33.84239 25.40462,-33.84253 25.40439,-33.84257 25.40414,-33.84258 25.40391,-33.84253 25.40349,-33.84246 25.40327,-33.84244 25.40268,-33.8424 25.40251,-33.84247 25.4023,-33.84249 25.40213,-33.84248 25.40183,-33.84247 25.40154,-33.84244 25.40131,-33.84243 25.40111,-33.84247 25.40096,-33.84254 25.40077,-33.84266 25.40072,-33.84274 25.40076,-33.84293 25.40084,-33.84313 25.40094,-33.84335 25.4011,-33.84391 25.40133,-33.84446 25.4014,-33.84474 25.4014,-33.845 25.40142,-33.84524 25.40136,-33.84543 25.40123,-33.84549 25.40106,-33.84549 25.40085,-33.84549 25.40063,-33.84548 25.40052,-33.84546 25.40042,-33.84546 25.40014,-33.84548 25.39993,-33.84536 25.39388,-33.84211 25.39084,-33.84044 25.38504,-33.83725 25.38201,-33.83558 25.38086,-33.83495 25.37517,-33.83182 25.37487,-33.83166 25.37405,-33.83121 25.37305,-33.83066 25.37275,-33.8305 25.3715,-33.82981 25.37094,-33.8295 25.36923,-33.83167 25.36719,-33.83426 25.36504,-33.83354 25.36107,-33.83221 25.35887,-33.83148 25.35546,-33.83034 25.3512,-33.82891 25.34812,-33.82789 25.34436,-33.82663 25.34431,-33.82662 25.34403,-33.8262 25.34371,-33.82573 25.34342,-33.82528 25.34313,-33.82486 25.34291,-33.82453 25.34359,-33.82339 25.34462,-33.82163 25.34501,-33.82102 25.34508,-33.82091 25.34569,-33.82001 25.34657,-33.81884 25.34755,-33.81766 25.34818,-33.817 25.34945,-33.81565 25.35127,-33.81371 25.35295,-33.81192 25.35456,-33.81019 25.35618,-33.8085 25.35769,-33.80689 25.35862,-33.8059 25.35913,-33.80535 25.3599,-33.80455 25.36138,-33.80295 25.36287,-33.80139 25.36317,-33.80108 25.36434,-33.79982 25.36477,-33.79936 25.366,-33.79804 25.36753,-33.79639 25.3688,-33.79507 25.3701,-33.79368 25.3716,-33.79209 25.37331,-33.79026 25.37406,-33.78949 25.37497,-33.79008 25.37606,-33.79081 25.37679,-33.79124 25.37699,-33.79136 25.37721,-33.79147 25.37742,-33.79157 25.37764,-33.79167 25.37786,-33.79176 25.37808,-33.79185 25.37839,-33.79195 25.3787,-33.79204 25.37901,-33.79213 25.37932,-33.79221 25.37963,-33.79229 25.37994,-33.79236 25.3811,-33.79263 25.38226,-33.79291 25.38453,-33.79344 25.38575,-33.79374 25.38587,-33.79378 25.386,-33.79383 25.38612,-33.79388 25.38624,-33.79393 25.38636,-33.79399 25.38648,-33.79405 25.38778,-33.7926 25.38875,-33.79174 25.39008,-33.79089 25.39055,-33.79056 25.39083,-33.79036 25.39169,-33.78979 25.39275,-33.78944 25.39396,-33.78912 25.39608,-33.78867 25.39816,-33.78828 25.39901,-33.78812 25.40027,-33.78755 25.40094,-33.78658 25.40135,-33.78683 25.40249,-33.78767 25.40427,-33.78942 25.40707,-33.79182</coordinates></LinearRing></outerBoundaryIs></Polygon></MultiGeometry></Placemark></Document></kml>