<?xml version="1.0" encoding="UTF-8"?><kml xmlns="http://www.opengis.net/kml/2.2"><Document><Placemark><name>KwaZakele 1</name><description>Sub Place 299005012</description><ExtendedData><Data name="code"><value>299005012</value></Data><Data name="name"><value>KwaZakele 1</value></Data><Data name="description"><value>Sub Place 299005012</value></Data></ExtendedData><MultiGeometry><Polygon><outerBoundaryIs><LinearRing><coordinates>25.59964,-33.87698 25.6006,-33.87741 25.60062,-33.87648 25.60066,-33.8747 25.60111,-33.87471 25.60214,-33.87689 25.60208,-33.87704 25.60247,-33.87786 25.60265,-33.87834 25.60243,-33.87874 25.60213,-33.87891 25.60211,-33.87902 25.60235,-33.87915 25.60272,-33.87947 25.60302,-33.87966 25.60304,-33.87968 25.60323,-33.8799 25.60354,-33.88011 25.60368,-33.88021 25.60385,-33.88041 25.60403,-33.8805 25.60418,-33.88069 25.60429,-33.88079 25.60435,-33.88083 25.60451,-33.88101 25.6047,-33.88103 25.60487,-33.8811 25.60506,-33.88124 25.60504,-33.88141 25.60502,-33.88162 25.60531,-33.88196 25.60579,-33.88246 25.60622,-33.88326 25.60677,-33.88334 25.6071,-33.88338 25.60733,-33.88338 25.60788,-33.88359 25.60838,-33.88372 25.60861,-33.88373 25.60891,-33.88437 25.60924,-33.88506 25.60945,-33.88553 25.60946,-33.88555 25.60967,-33.88609 25.60985,-33.88664 25.60999,-33.8873 25.61006,-33.88777 25.61009,-33.88798 25.61011,-33.88842 25.61011,-33.88888 25.61011,-33.88897 25.61009,-33.88914 25.61004,-33.88952 25.60992,-33.89014 25.60979,-33.89087 25.60965,-33.89142 25.60953,-33.89198 25.60937,-33.89276 25.60929,-33.89315 25.60907,-33.89321 25.609,-33.8929 25.60898,-33.89275 25.60892,-33.89266 25.60898,-33.89236 25.60895,-33.89204 25.60895,-33.89203 25.60894,-33.89186 25.6089,-33.89171 25.60887,-33.89161 25.60882,-33.89162 25.6088,-33.89153 25.6088,-33.89153 25.60878,-33.89144 25.60876,-33.89136 25.60873,-33.89127 25.60871,-33.89118 25.6087,-33.89112 25.60863,-33.89103 25.60858,-33.89095 25.60852,-33.89088 25.60847,-33.8908 25.60841,-33.89072 25.60835,-33.89065 25.6083,-33.89057 25.60824,-33.89049 25.60819,-33.89042 25.60814,-33.89036 25.60803,-33.89028 25.60801,-33.89027 25.60793,-33.89021 25.6077,-33.89006 25.60761,-33.89 25.60751,-33.88994 25.60743,-33.88982 25.60702,-33.8897 25.60664,-33.88957 25.60624,-33.88952 25.60615,-33.88993 25.60597,-33.88991 25.60566,-33.88996 25.60554,-33.88957 25.60546,-33.88941 25.60395,-33.88961 25.60322,-33.88971 25.60153,-33.88994 25.60148,-33.88995 25.60051,-33.89006 25.60044,-33.89007 25.59948,-33.89017 25.59927,-33.89018 25.59858,-33.89024 25.59763,-33.89036 25.5974,-33.89039 25.59712,-33.89042 25.59671,-33.89047 25.59669,-33.89047 25.59598,-33.89054 25.59539,-33.89051 25.5952,-33.89051 25.59469,-33.89035 25.59424,-33.8902 25.59397,-33.89012 25.59356,-33.88999 25.59334,-33.88991 25.59303,-33.8898 25.59271,-33.88969 25.59231,-33.88958 25.59219,-33.88956 25.59188,-33.8895 25.59183,-33.88944 25.59162,-33.88922 25.59123,-33.88881 25.59121,-33.88882 25.59052,-33.8892 25.58925,-33.88989 25.58826,-33.89043 25.5879,-33.88995 25.58783,-33.88986 25.58752,-33.88949 25.58721,-33.88908 25.58707,-33.8889 25.5862,-33.88781 25.5862,-33.8878 25.58568,-33.88712 25.58535,-33.8867 25.58508,-33.88634 25.585,-33.88622 25.58491,-33.88611 25.58491,-33.8861 25.58482,-33.88599 25.58472,-33.88588 25.58465,-33.8858 25.58462,-33.88578 25.58452,-33.88568 25.58452,-33.88568 25.5844,-33.88559 25.58429,-33.8855 25.58417,-33.88542 25.58405,-33.88534 25.58392,-33.88527 25.58379,-33.8852 25.58288,-33.88476 25.5834,-33.88431 25.58352,-33.8841 25.58383,-33.88358 25.58383,-33.88357 25.58395,-33.88298 25.58412,-33.88218 25.58421,-33.88169 25.58425,-33.88144 25.58436,-33.88114 25.58441,-33.88101 25.58462,-33.88035 25.58477,-33.87991 25.58478,-33.87988 25.58491,-33.87942 25.58491,-33.8794 25.58519,-33.87818 25.58528,-33.87779 25.58538,-33.87735 25.58549,-33.87688 25.58568,-33.87599 25.58588,-33.87499 25.58605,-33.87437 25.58521,-33.87365 25.58556,-33.87354 25.58646,-33.87326 25.58744,-33.87297 25.58834,-33.87272 25.58836,-33.87272 25.58858,-33.87266 25.58937,-33.87243 25.59002,-33.87225 25.59012,-33.87222 25.59025,-33.87216 25.59038,-33.87209 25.59051,-33.87202 25.59063,-33.87195 25.59075,-33.87186 25.59087,-33.87178 25.59095,-33.8717 25.591,-33.87165 25.59103,-33.87162 25.59107,-33.87157 25.5911,-33.87153 25.59117,-33.87144 25.59123,-33.87135 25.59129,-33.87126 25.59135,-33.87116 25.5914,-33.87106 25.59161,-33.87052 25.5919,-33.87065 25.59233,-33.87085 25.59314,-33.87123 25.59317,-33.87124 25.59424,-33.87149 25.59553,-33.8718 25.59623,-33.87196 25.59622,-33.87246 25.59627,-33.87319 25.59629,-33.87382 25.59635,-33.87397 25.59633,-33.8743 25.59629,-33.87449 25.59632,-33.87491 25.59639,-33.87554 25.59748,-33.87602 25.59959,-33.87696 25.59964,-33.87698</coordinates></LinearRing></outerBoundaryIs></Polygon></MultiGeometry></Placemark></Document></kml>