<?xml version="1.0" encoding="UTF-8"?><kml xmlns="http://www.opengis.net/kml/2.2"><Document><Placemark><name>Walmer</name><description>Sub Place 299007074</description><ExtendedData><Data name="code"><value>299007074</value></Data><Data name="name"><value>Walmer</value></Data><Data name="description"><value>Sub Place 299007074</value></Data></ExtendedData><MultiGeometry><Polygon><outerBoundaryIs><LinearRing><coordinates>25.58498,-33.96757 25.58544,-33.9676 25.58566,-33.96758 25.58594,-33.96757 25.58626,-33.96755 25.58654,-33.96749 25.58682,-33.96741 25.58707,-33.96733 25.58733,-33.96733 25.58764,-33.96721 25.58801,-33.96706 25.58839,-33.96696 25.58868,-33.96696 25.58909,-33.96702 25.58936,-33.96707 25.58949,-33.96723 25.58966,-33.96749 25.58965,-33.96766 25.58956,-33.96782 25.58959,-33.96802 25.58962,-33.96827 25.5896,-33.96857 25.58972,-33.96881 25.58971,-33.96893 25.58973,-33.96907 25.58987,-33.96917 25.59008,-33.96913 25.59021,-33.96905 25.59041,-33.96892 25.59074,-33.9687 25.59096,-33.96854 25.59118,-33.96836 25.59152,-33.96822 25.59191,-33.96811 25.59204,-33.96808 25.5924,-33.96826 25.59298,-33.96879 25.59322,-33.96889 25.59325,-33.96901 25.59328,-33.96915 25.59338,-33.96928 25.59348,-33.96938 25.59365,-33.96952 25.59383,-33.96965 25.59404,-33.96983 25.59415,-33.96994 25.59434,-33.97012 25.59447,-33.97032 25.59461,-33.9705 25.59477,-33.97064 25.59503,-33.97075 25.59527,-33.97084 25.59545,-33.97084 25.59566,-33.97073 25.59576,-33.97062 25.59577,-33.97044 25.59577,-33.97027 25.59577,-33.97009 25.59573,-33.96991 25.59627,-33.97007 25.59724,-33.97023 25.59762,-33.97015 25.59791,-33.97034 25.59831,-33.97038 25.59873,-33.97024 25.59922,-33.96987 25.59953,-33.96972 25.59995,-33.96959 25.60031,-33.96958 25.60054,-33.96966 25.60071,-33.96998 25.6009,-33.97048 25.60102,-33.97056 25.60102,-33.97061 25.60101,-33.97111 25.60097,-33.97174 25.60111,-33.9725 25.60126,-33.97266 25.60142,-33.97277 25.60165,-33.9728 25.60188,-33.97279 25.602,-33.97272 25.60207,-33.97267 25.60226,-33.97254 25.60223,-33.97226 25.60226,-33.97181 25.60242,-33.97149 25.60252,-33.97133 25.60265,-33.97109 25.60289,-33.97096 25.60314,-33.97085 25.60325,-33.97085 25.60346,-33.97093 25.60375,-33.97109 25.60409,-33.97138 25.60466,-33.97151 25.60504,-33.97151 25.60559,-33.97156 25.60585,-33.97156 25.60605,-33.97151 25.60605,-33.97151 25.60632,-33.97151 25.60661,-33.97156 25.60686,-33.97156 25.60721,-33.97152 25.6076,-33.97151 25.60772,-33.9715 25.60794,-33.97156 25.60827,-33.97154 25.60849,-33.97149 25.60878,-33.97141 25.60911,-33.97126 25.60938,-33.97112 25.60945,-33.97107 25.60966,-33.97093 25.60972,-33.9709 25.61024,-33.97069 25.61048,-33.97074 25.61088,-33.97086 25.61136,-33.97089 25.6126,-33.97102 25.61264,-33.97223 25.61267,-33.97398 25.61268,-33.9746 25.61268,-33.97461 25.6127,-33.97618 25.61271,-33.97653 25.6127,-33.97742 25.61268,-33.9779 25.61129,-33.97843 25.61122,-33.97845 25.61128,-33.97857 25.61149,-33.97896 25.6122,-33.98023 25.61228,-33.98037 25.61237,-33.98053 25.61248,-33.98073 25.61219,-33.98081 25.61155,-33.98102 25.61081,-33.98127 25.61003,-33.98149 25.60932,-33.98165 25.60927,-33.98166 25.60528,-33.98244 25.60524,-33.98245 25.60435,-33.98263 25.60326,-33.98284 25.60262,-33.98297 25.60215,-33.98307 25.60203,-33.98308 25.60146,-33.9832 25.60013,-33.98348 25.59871,-33.98376 25.59767,-33.98397 25.59766,-33.98397 25.59596,-33.9843 25.59558,-33.98437 25.59454,-33.98458 25.59429,-33.98463 25.59427,-33.98463 25.59395,-33.9847 25.59376,-33.98473 25.59335,-33.98477 25.59284,-33.98486 25.59147,-33.98507 25.58973,-33.98529 25.58774,-33.98557 25.58772,-33.98557 25.58588,-33.98584 25.58584,-33.98585 25.58569,-33.98587 25.58336,-33.98622 25.5826,-33.98633 25.5812,-33.98654 25.58083,-33.9866 25.58095,-33.98603 25.58114,-33.98514 25.58123,-33.98498 25.58137,-33.98413 25.58145,-33.9835 25.58036,-33.98354 25.57854,-33.98362 25.5767,-33.98372 25.57487,-33.98379 25.57316,-33.98388 25.57229,-33.98391 25.57143,-33.98395 25.57096,-33.98396 25.57085,-33.98395 25.5698,-33.98383 25.56785,-33.98368 25.56597,-33.98354 25.56449,-33.98341 25.56359,-33.98333 25.56365,-33.98272 25.56374,-33.98191 25.5637,-33.98191 25.56361,-33.9819 25.563,-33.98186 25.56155,-33.98179 25.55987,-33.98171 25.55877,-33.98165 25.55847,-33.98164 25.55681,-33.98155 25.55526,-33.98147 25.55444,-33.98144 25.55379,-33.98149 25.55329,-33.98151 25.55332,-33.98127 25.5535,-33.9796 25.55354,-33.9793 25.55371,-33.97796 25.55388,-33.97666 25.554,-33.97572 25.554,-33.97572 25.55428,-33.97575 25.55441,-33.97575 25.55458,-33.97573 25.5547,-33.97573 25.55479,-33.97571 25.55486,-33.97574 25.55495,-33.97576 25.55513,-33.97575 25.55524,-33.97582 25.55534,-33.97585 25.55541,-33.97597 25.5554,-33.97614 25.55543,-33.97619 25.55553,-33.97633 25.55561,-33.9764 25.55573,-33.97645 25.55591,-33.97643 25.55614,-33.9763 25.55627,-33.97632 25.5563,-33.97632 25.55649,-33.97632 25.55677,-33.97636 25.55698,-33.97639 25.55722,-33.97647 25.55747,-33.97647 25.55811,-33.97638 25.55848,-33.9763 25.55873,-33.97623 25.55907,-33.97617 25.55918,-33.97625 25.55932,-33.97633 25.55971,-33.97626 25.55994,-33.97604 25.5603,-33.97559 25.56055,-33.97543 25.56087,-33.97534 25.56114,-33.9751 25.56143,-33.97493 25.56164,-33.97501 25.56188,-33.97502 25.56208,-33.97505 25.56257,-33.97473 25.56288,-33.97464 25.56304,-33.97449 25.56326,-33.97432 25.56335,-33.97417 25.56353,-33.97396 25.5637,-33.97386 25.56394,-33.97383 25.56418,-33.97375 25.56444,-33.97373 25.56456,-33.97381 25.56467,-33.97398 25.56486,-33.97408 25.56513,-33.97422 25.56526,-33.97423 25.56538,-33.9742 25.56548,-33.97416 25.56554,-33.97411 25.56557,-33.97406 25.56557,-33.97399 25.56563,-33.97396 25.56574,-33.97388 25.5659,-33.97381 25.56601,-33.97374 25.56607,-33.97375 25.56615,-33.97372 25.56622,-33.97371 25.56629,-33.9737 25.5664,-33.9737 25.56647,-33.97371 25.5666,-33.97378 25.56672,-33.97385 25.56692,-33.974 25.56706,-33.97409 25.56709,-33.97414 25.56712,-33.97415 25.5672,-33.97418 25.56738,-33.97422 25.56757,-33.97425 25.56773,-33.97426 25.56788,-33.97428 25.568,-33.9743 25.56809,-33.97438 25.56815,-33.97448 25.56821,-33.97456 25.56829,-33.97458 25.56837,-33.97458 25.56845,-33.97455 25.5685,-33.9745 25.56856,-33.97447 25.56859,-33.97448 25.56865,-33.97448 25.56869,-33.97446 25.56877,-33.97446 25.56883,-33.97447 25.56889,-33.97444 25.56893,-33.97437 25.56903,-33.97434 25.56919,-33.97427 25.56952,-33.97418 25.56965,-33.97416 25.56978,-33.97413 25.56988,-33.97406 25.57003,-33.97401 25.57012,-33.97394 25.57024,-33.97387 25.57045,-33.97378 25.57059,-33.97366 25.57076,-33.97351 25.5711,-33.97326 25.57117,-33.97319 25.57122,-33.97305 25.57129,-33.97287 25.57138,-33.97276 25.5715,-33.9727 25.57173,-33.97267 25.57186,-33.97263 25.57215,-33.97261 25.57242,-33.97261 25.57259,-33.97246 25.57281,-33.97232 25.57325,-33.97197 25.57343,-33.97176 25.57384,-33.97135 25.57435,-33.97095 25.57484,-33.97035 25.57528,-33.97007 25.57574,-33.96972 25.57582,-33.96961 25.5759,-33.96938 25.57596,-33.96917 25.57595,-33.96899 25.5759,-33.96887 25.57626,-33.96865 25.57654,-33.96846 25.57671,-33.96834 25.57702,-33.96815 25.57726,-33.968 25.57742,-33.96784 25.57775,-33.96753 25.57831,-33.96727 25.57851,-33.96709 25.57867,-33.96695 25.5791,-33.9669 25.57992,-33.96698 25.58097,-33.96701 25.58211,-33.96711 25.58269,-33.96719 25.58341,-33.96727 25.58436,-33.96748 25.58458,-33.96749 25.58498,-33.96757</coordinates></LinearRing></outerBoundaryIs></Polygon></MultiGeometry></Placemark></Document></kml>