<?xml version="1.0" encoding="UTF-8"?><kml xmlns="http://www.opengis.net/kml/2.2"><Document><Placemark><name>Kamehs</name><description>Sub Place 299003003</description><ExtendedData><Data name="code"><value>299003003</value></Data><Data name="name"><value>Kamehs</value></Data><Data name="description"><value>Sub Place 299003003</value></Data></ExtendedData><MultiGeometry><Polygon><outerBoundaryIs><LinearRing><coordinates>25.36086,-33.72516 25.36234,-33.72546 25.36253,-33.72542 25.36267,-33.72539 25.36253,-33.72569 25.36244,-33.72588 25.36236,-33.7261 25.36235,-33.72617 25.36233,-33.72624 25.36232,-33.72633 25.36233,-33.72646 25.36234,-33.72655 25.36238,-33.72664 25.36244,-33.72675 25.36251,-33.72684 25.36263,-33.72693 25.36272,-33.72701 25.36292,-33.72716 25.36316,-33.72732 25.36323,-33.72737 25.36338,-33.72749 25.36354,-33.72765 25.36368,-33.72783 25.36375,-33.72796 25.36383,-33.72816 25.36387,-33.72833 25.36389,-33.72846 25.36389,-33.72852 25.36388,-33.72867 25.36385,-33.72879 25.36381,-33.72893 25.36376,-33.72906 25.36371,-33.72916 25.36362,-33.72931 25.3635,-33.72947 25.36336,-33.72957 25.36323,-33.72967 25.36309,-33.72976 25.36295,-33.72984 25.36357,-33.73066 25.36396,-33.73119 25.36396,-33.73119 25.36464,-33.73106 25.36487,-33.73103 25.36504,-33.73102 25.36534,-33.73102 25.36555,-33.73105 25.36588,-33.7311 25.36612,-33.73117 25.36639,-33.73127 25.36653,-33.73133 25.36673,-33.73144 25.36694,-33.73156 25.36711,-33.73166 25.36725,-33.73178 25.3674,-33.73193 25.36749,-33.73202 25.36762,-33.73217 25.36769,-33.73226 25.36788,-33.73256 25.36828,-33.73339 25.36743,-33.73371 25.36699,-33.73389 25.36594,-33.7343 25.36522,-33.73463 25.36437,-33.73512 25.36301,-33.73594 25.36152,-33.7342 25.36093,-33.73326 25.36081,-33.73323 25.3603,-33.73313 25.35953,-33.73298 25.3572,-33.73264 25.35666,-33.73256 25.35607,-33.7321 25.356,-33.73199 25.35598,-33.73186 25.35601,-33.73097 25.35584,-33.72876 25.35414,-33.72782 25.3557,-33.7264 25.35665,-33.72543 25.35725,-33.72515 25.35794,-33.72501 25.35941,-33.725 25.35963,-33.72503 25.36086,-33.72516</coordinates></LinearRing></outerBoundaryIs></Polygon></MultiGeometry></Placemark></Document></kml>