<?xml version="1.0" encoding="UTF-8"?><kml xmlns="http://www.opengis.net/kml/2.2"><Document><Placemark><name>Uitenhage</name><description>Main Place 299003</description><ExtendedData><Data name="code"><value>299003</value></Data><Data name="name"><value>Uitenhage</value></Data><Data name="description"><value>Main Place 299003</value></Data></ExtendedData><MultiGeometry><Polygon><outerBoundaryIs><LinearRing><coordinates>25.44339,-33.6986 25.44138,-33.70254 25.43964,-33.70596 25.43837,-33.70844 25.43752,-33.71011 25.43607,-33.71294 25.43718,-33.71364 25.44283,-33.71721 25.447,-33.71985 25.44701,-33.71986 25.45173,-33.72284 25.45617,-33.72565 25.46081,-33.72858 25.46279,-33.72984 25.46404,-33.72844 25.46719,-33.72491 25.47005,-33.72171 25.47215,-33.71936 25.47383,-33.72048 25.47681,-33.72247 25.47558,-33.72418 25.47246,-33.72849 25.46996,-33.73194 25.46707,-33.73593 25.46503,-33.73875 25.46417,-33.73994 25.46222,-33.74264 25.46142,-33.74374 25.4596,-33.74625 25.45895,-33.74715 25.45764,-33.74896 25.45398,-33.75401 25.45219,-33.75646 25.45017,-33.75922 25.44899,-33.76087 25.44851,-33.76138 25.44723,-33.76272 25.44608,-33.76393 25.44515,-33.76491 25.444,-33.76612 25.44271,-33.76746 25.44135,-33.76889 25.44007,-33.77023 25.43867,-33.7717 25.43741,-33.77302 25.43598,-33.77452 25.43486,-33.7757 25.43285,-33.77779 25.43276,-33.77832 25.43272,-33.77871 25.43269,-33.77909 25.43266,-33.77948 25.43264,-33.77987 25.43263,-33.78026 25.43262,-33.78065 25.43262,-33.78103 25.43262,-33.78134 25.43263,-33.78164 25.43265,-33.78194 25.43266,-33.78224 25.4345,-33.78236 25.43504,-33.7824 25.43731,-33.78257 25.44005,-33.78282 25.44049,-33.78285 25.44111,-33.78289 25.44265,-33.78301 25.44323,-33.78306 25.44416,-33.78313 25.44541,-33.7832 25.4462,-33.78326 25.44786,-33.7834 25.44834,-33.78344 25.44864,-33.78347 25.44894,-33.78351 25.44935,-33.78356 25.44962,-33.78359 25.44984,-33.78364 25.45049,-33.78375 25.45072,-33.7838 25.45107,-33.78387 25.4514,-33.78395 25.45171,-33.78403 25.453,-33.78436 25.45342,-33.78446 25.45564,-33.78503 25.45678,-33.78533 25.45829,-33.7857 25.45861,-33.78579 25.45879,-33.78582 25.45908,-33.78586 25.45925,-33.78588 25.46079,-33.786 25.46173,-33.78605 25.46202,-33.78606 25.46225,-33.78606 25.46251,-33.78605 25.46272,-33.78603 25.46301,-33.78601 25.46377,-33.78589 25.46518,-33.78567 25.46581,-33.78557 25.46555,-33.78607 25.4644,-33.7884 25.46299,-33.79123 25.46189,-33.79343 25.46037,-33.79657 25.46012,-33.7966 25.45929,-33.79672 25.45886,-33.79678 25.45784,-33.79693 25.45732,-33.79702 25.45724,-33.79703 25.45655,-33.79712 25.45639,-33.79713 25.45622,-33.79714 25.45606,-33.79714 25.45589,-33.79713 25.45573,-33.79711 25.45556,-33.79709 25.4554,-33.79707 25.45524,-33.79704 25.45507,-33.797 25.45454,-33.79681 25.45404,-33.79657 25.45342,-33.79609 25.45269,-33.79558 25.4523,-33.79528 25.45151,-33.79467 25.45049,-33.79392 25.44963,-33.79327 25.44891,-33.79278 25.4483,-33.79246 25.44756,-33.79227 25.44703,-33.79214 25.4466,-33.79202 25.44615,-33.79186 25.44506,-33.79129 25.44183,-33.78952 25.44005,-33.78856 25.43823,-33.78759 25.43768,-33.78735 25.43612,-33.78678 25.43313,-33.78582 25.43256,-33.78567 25.43096,-33.78697 25.42837,-33.78801 25.42791,-33.78829 25.42731,-33.78848 25.42684,-33.78867 25.42641,-33.78886 25.42631,-33.78891 25.42572,-33.78932 25.42522,-33.7895 25.42492,-33.7895 25.42454,-33.78949 25.42418,-33.78952 25.42379,-33.78966 25.42313,-33.78998 25.42245,-33.79027 25.42162,-33.79051 25.42043,-33.79088 25.41995,-33.79114 25.41934,-33.79126 25.41854,-33.7916 25.41781,-33.7918 25.41689,-33.79194 25.41597,-33.79206 25.41439,-33.79206 25.41401,-33.79205 25.41021,-33.79205 25.40707,-33.79182 25.40427,-33.78942 25.40249,-33.78767 25.40135,-33.78683 25.40094,-33.78658 25.40027,-33.78755 25.39901,-33.78812 25.39816,-33.78828 25.39608,-33.78867 25.39396,-33.78912 25.39275,-33.78944 25.39169,-33.78979 25.39083,-33.79036 25.39055,-33.79056 25.39008,-33.79089 25.38875,-33.79174 25.38778,-33.7926 25.38648,-33.79405 25.38636,-33.79399 25.38624,-33.79393 25.38612,-33.79388 25.386,-33.79383 25.38587,-33.79378 25.38575,-33.79374 25.38453,-33.79344 25.38226,-33.79291 25.3811,-33.79263 25.37994,-33.79236 25.37963,-33.79229 25.37932,-33.79221 25.37901,-33.79213 25.3787,-33.79204 25.37839,-33.79195 25.37808,-33.79185 25.37786,-33.79176 25.37764,-33.79167 25.37742,-33.79157 25.37721,-33.79147 25.37699,-33.79136 25.37679,-33.79124 25.37606,-33.79081 25.37497,-33.79008 25.37406,-33.78949 25.37331,-33.79026 25.3716,-33.79209 25.3701,-33.79368 25.3688,-33.79507 25.36753,-33.79639 25.366,-33.79804 25.36477,-33.79936 25.36434,-33.79982 25.36336,-33.79908 25.36113,-33.79753 25.35688,-33.79461 25.35683,-33.79439 25.35747,-33.79351 25.35915,-33.79105 25.36296,-33.78556 25.36665,-33.78023 25.36785,-33.77853 25.37051,-33.77731 25.36974,-33.77682 25.367,-33.77499 25.3649,-33.7736 25.36459,-33.77347 25.36334,-33.77297 25.36207,-33.77245 25.36095,-33.77199 25.36277,-33.76915 25.36537,-33.76494 25.3667,-33.76282 25.36835,-33.76018 25.37058,-33.75652 25.37032,-33.75646 25.37043,-33.75629 25.37087,-33.75558 25.37093,-33.75548 25.37106,-33.75527 25.37112,-33.75517 25.37118,-33.75507 25.37124,-33.75497 25.37131,-33.75487 25.37137,-33.75477 25.37143,-33.75467 25.3715,-33.75456 25.37156,-33.75446 25.37162,-33.75436 25.37168,-33.75426 25.37175,-33.75416 25.37181,-33.75406 25.37187,-33.75396 25.37194,-33.75385 25.372,-33.75375 25.37206,-33.75365 25.37212,-33.75355 25.37219,-33.75345 25.37225,-33.75335 25.37231,-33.75325 25.37238,-33.75315 25.37244,-33.75304 25.37252,-33.75292 25.3726,-33.75279 25.37266,-33.75269 25.37302,-33.75211 25.36926,-33.75072 25.3697,-33.7487 25.3697,-33.74856 25.36973,-33.74789 25.36969,-33.74675 25.36969,-33.74581 25.36944,-33.74581 25.36866,-33.74594 25.36835,-33.74619 25.36814,-33.7462 25.36764,-33.74617 25.36741,-33.74595 25.36751,-33.74504 25.36532,-33.74498 25.36502,-33.74436 25.36478,-33.74436 25.36469,-33.74428 25.36431,-33.74422 25.36413,-33.74395 25.36386,-33.74352 25.36393,-33.74286 25.36343,-33.743 25.36302,-33.74219 25.36248,-33.74202 25.36267,-33.74063 25.36296,-33.74025 25.36332,-33.73976 25.36325,-33.73973 25.36319,-33.73972 25.36168,-33.73942 25.36081,-33.74001 25.35941,-33.741 25.35858,-33.74151 25.35762,-33.74198 25.35706,-33.74233 25.35452,-33.74108 25.3564,-33.73998 25.35656,-33.7398 25.35793,-33.73898 25.35985,-33.73783 25.36066,-33.73735 25.36148,-33.73686 25.36291,-33.73601 25.36301,-33.73594 25.36152,-33.7342 25.36093,-33.73326 25.36081,-33.73323 25.3603,-33.73313 25.35953,-33.73298 25.3572,-33.73264 25.35666,-33.73256 25.35607,-33.7321 25.356,-33.73199 25.35598,-33.73186 25.35601,-33.73097 25.35584,-33.72876 25.35414,-33.72782 25.3557,-33.7264 25.35665,-33.72543 25.35725,-33.72515 25.35794,-33.72501 25.35941,-33.725 25.35963,-33.72503 25.36086,-33.72516 25.36234,-33.72546 25.36253,-33.72542 25.36267,-33.72539 25.36894,-33.72403 25.37082,-33.72645 25.37283,-33.72862 25.37305,-33.72915 25.3731,-33.73014 25.37843,-33.72828 25.3827,-33.7268 25.3842,-33.72803 25.39542,-33.71615 25.40043,-33.71085 25.40626,-33.70468 25.41235,-33.69824 25.41806,-33.70184 25.42464,-33.69462 25.42804,-33.69068 25.43147,-33.68685 25.43392,-33.68411 25.43963,-33.6859 25.44488,-33.68753 25.44847,-33.68866 25.44789,-33.68979 25.44675,-33.69202 25.44563,-33.69422 25.44339,-33.6986</coordinates></LinearRing></outerBoundaryIs></Polygon></MultiGeometry></Placemark></Document></kml>