<?xml version="1.0" encoding="UTF-8"?><kml xmlns="http://www.opengis.net/kml/2.2"><Document><Placemark><name>Itumeleng</name><description>Main Place 461009</description><ExtendedData><Data name="code"><value>461009</value></Data><Data name="name"><value>Itumeleng</value></Data><Data name="description"><value>Main Place 461009</value></Data></ExtendedData><MultiGeometry><Polygon><outerBoundaryIs><LinearRing><coordinates>25.44006,-29.77017 25.44016,-29.77059 25.44048,-29.77041 25.44096,-29.77102 25.44112,-29.77085 25.44168,-29.77116 25.44243,-29.7709 25.4426,-29.77084 25.44275,-29.77094 25.44241,-29.77156 25.44263,-29.77237 25.44383,-29.77287 25.44446,-29.77262 25.44524,-29.77218 25.44631,-29.77158 25.44575,-29.77106 25.44636,-29.77062 25.4472,-29.76995 25.44774,-29.76969 25.44946,-29.77049 25.44987,-29.77057 25.45103,-29.77081 25.45166,-29.77096 25.45256,-29.77081 25.45258,-29.77081 25.45435,-29.7708 25.45444,-29.77098 25.45519,-29.77257 25.45584,-29.77397 25.45568,-29.77419 25.45523,-29.77451 25.4545,-29.77475 25.45391,-29.77487 25.4537,-29.77501 25.45319,-29.7763 25.45227,-29.77868 25.45207,-29.77921 25.45147,-29.78068 25.4513,-29.78098 25.45093,-29.78118 25.45049,-29.78134 25.44937,-29.78181 25.44887,-29.78203 25.44877,-29.78216 25.44836,-29.78282 25.44716,-29.78164 25.44685,-29.78134 25.44326,-29.77781 25.44298,-29.77753 25.44066,-29.77521 25.44005,-29.77461 25.43927,-29.77386 25.43869,-29.77328 25.43811,-29.77289 25.43701,-29.7723 25.43678,-29.7722 25.43557,-29.77165 25.43452,-29.77102 25.4335,-29.77046 25.43349,-29.77046 25.43343,-29.77043 25.43222,-29.76802 25.43268,-29.76788 25.4336,-29.76692 25.43415,-29.76659 25.43358,-29.76605 25.43356,-29.76595 25.43347,-29.7653 25.43352,-29.76437 25.43355,-29.76406 25.43358,-29.76362 25.43366,-29.76259 25.43413,-29.76269 25.43519,-29.76302 25.43521,-29.76307 25.43525,-29.76315 25.43536,-29.76325 25.43539,-29.76328 25.4355,-29.76332 25.43574,-29.76336 25.43577,-29.76337 25.43582,-29.7635 25.43591,-29.76364 25.43599,-29.76376 25.43604,-29.76386 25.43611,-29.764 25.43626,-29.76418 25.43662,-29.76466 25.43666,-29.76472 25.43682,-29.76495 25.43686,-29.765 25.43692,-29.76505 25.43698,-29.76509 25.43704,-29.76515 25.43712,-29.76522 25.43718,-29.76525 25.43723,-29.76531 25.43727,-29.76537 25.43731,-29.76542 25.43736,-29.76551 25.43737,-29.76554 25.43741,-29.7656 25.43761,-29.76595 25.43769,-29.76611 25.43776,-29.76621 25.43786,-29.7664 25.43794,-29.76652 25.438,-29.7666 25.43804,-29.76668 25.4381,-29.76679 25.43811,-29.76684 25.43814,-29.76689 25.43816,-29.76693 25.43817,-29.76699 25.43823,-29.76706 25.43832,-29.76716 25.43841,-29.76728 25.43865,-29.76758 25.43872,-29.76768 25.43874,-29.76773 25.43876,-29.76778 25.43881,-29.76785 25.43886,-29.76795 25.4389,-29.76796 25.43895,-29.768 25.43899,-29.76806 25.43902,-29.76808 25.43906,-29.7681 25.43912,-29.76816 25.43919,-29.76826 25.43922,-29.76832 25.43927,-29.76843 25.43932,-29.76853 25.43933,-29.76857 25.43935,-29.76862 25.43938,-29.7687 25.43941,-29.76875 25.43947,-29.76891 25.43952,-29.76901 25.43968,-29.76938 25.43974,-29.7695 25.43978,-29.76958 25.4399,-29.76983 25.43994,-29.76992 25.44,-29.77002 25.44003,-29.77007 25.44006,-29.77017</coordinates></LinearRing></outerBoundaryIs></Polygon></MultiGeometry></Placemark></Document></kml>