<?xml version="1.0" encoding="UTF-8"?><kml xmlns="http://www.opengis.net/kml/2.2"><Document><Placemark><name>Charlesville</name><description>Sub Place 461008003</description><ExtendedData><Data name="code"><value>461008003</value></Data><Data name="name"><value>Charlesville</value></Data><Data name="description"><value>Sub Place 461008003</value></Data></ExtendedData><MultiGeometry><Polygon><outerBoundaryIs><LinearRing><coordinates>25.43851,-29.78576 25.43846,-29.78583 25.43821,-29.7858 25.43371,-29.78559 25.4326,-29.78554 25.42922,-29.78538 25.42929,-29.78428 25.42936,-29.78317 25.42943,-29.78281 25.42967,-29.78212 25.42994,-29.7817 25.43007,-29.78154 25.43033,-29.78124 25.43107,-29.78055 25.43173,-29.77992 25.43229,-29.77939 25.4328,-29.77889 25.43322,-29.7784 25.43332,-29.77825 25.43357,-29.77791 25.43388,-29.7774 25.43398,-29.77722 25.43404,-29.77709 25.43455,-29.77739 25.43456,-29.7774 25.43539,-29.77789 25.43618,-29.77837 25.43656,-29.77852 25.43683,-29.77873 25.43736,-29.77902 25.43836,-29.77966 25.43918,-29.7802 25.43957,-29.78039 25.43989,-29.78055 25.44166,-29.78173 25.43851,-29.78576</coordinates></LinearRing></outerBoundaryIs></Polygon></MultiGeometry></Placemark></Document></kml>