<?xml version="1.0" encoding="UTF-8"?><kml xmlns="http://www.opengis.net/kml/2.2"><Document><Placemark><name>Umzumbe</name><description>Local Municipality 503</description><ExtendedData><Data name="code"><value>503</value></Data><Data name="name"><value>Umzumbe</value></Data><Data name="description"><value>Local Municipality 503</value></Data></ExtendedData><MultiGeometry><Polygon><outerBoundaryIs><LinearRing><coordinates>30.59658,-30.54596 30.59648,-30.54601 30.5964,-30.54606 30.59633,-30.54614 30.59622,-30.54621 30.59613,-30.5463 30.59607,-30.54639 30.596,-30.54651 30.5959,-30.54656 30.59582,-30.54661 30.59573,-30.54669 30.59566,-30.54673 30.59562,-30.54681 30.59559,-30.54688 30.59555,-30.54692 30.5955,-30.54699 30.59544,-30.54704 30.59544,-30.54713 30.59535,-30.5472 30.59532,-30.54726 30.59529,-30.54731 30.5952,-30.5474 30.59511,-30.54744 30.59502,-30.54751 30.59492,-30.54757 30.59487,-30.54763 30.59479,-30.54771 30.59471,-30.54778 30.59458,-30.54785 30.59451,-30.54791 30.5944,-30.54794 30.59425,-30.54801 30.59416,-30.54807 30.59407,-30.5481 30.59398,-30.54818 30.59391,-30.54826 30.5938,-30.54836 30.59371,-30.54843 30.59363,-30.54846 30.59355,-30.5485 30.5935,-30.54857 30.59346,-30.54865 30.59341,-30.54873 30.59336,-30.54884 30.59328,-30.54895 30.59322,-30.54908 30.59312,-30.54921 30.59303,-30.54933 30.59293,-30.54941 30.59285,-30.54951 30.59275,-30.54971 30.59269,-30.54982 30.59264,-30.54992 30.59261,-30.54999 30.59258,-30.55009 30.59248,-30.55019 30.59243,-30.55025 30.59241,-30.55034 30.59233,-30.55044 30.5923,-30.5505 30.59223,-30.55063 30.59213,-30.55075 30.59205,-30.55086 30.592,-30.55096 30.592,-30.55102 30.59196,-30.55115 30.59194,-30.55127 30.59194,-30.55131 30.59191,-30.55142 30.59182,-30.55157 30.5918,-30.55166 30.59175,-30.55176 30.59167,-30.55184 30.59157,-30.55193 30.59151,-30.55204 30.5915,-30.55213 30.5914,-30.55228 30.59133,-30.55245 30.59133,-30.55254 30.59119,-30.55281 30.5911,-30.55288 30.59099,-30.55303 30.59077,-30.55323 30.5907,-30.5533 30.5906,-30.55341 30.5905,-30.55355 30.59042,-30.55365 30.5903,-30.55375 30.59021,-30.55388 30.59016,-30.55407 30.59016,-30.55425 30.59023,-30.55436 30.59029,-30.55444 30.59038,-30.55452 30.59043,-30.55454 30.59045,-30.55452 30.59054,-30.55454 30.59059,-30.55457 30.59066,-30.55463 30.5907,-30.55465 30.59075,-30.55474 30.59072,-30.55477 30.59083,-30.55485 30.59088,-30.55491 30.59086,-30.55494 30.59074,-30.55493 30.5907,-30.55487 30.59066,-30.55487 30.59067,-30.55493 30.59063,-30.55493 30.5906,-30.55491 30.59057,-30.55486 30.59052,-30.55479 30.59048,-30.55479 30.59053,-30.55483 30.59054,-30.55487 30.59047,-30.55489 30.59043,-30.55487 30.59041,-30.55483 30.59039,-30.55476 30.59036,-30.55474 30.59036,-30.55477 30.59031,-30.55483 30.59026,-30.55483 30.59022,-30.5548 30.59018,-30.55476 30.59012,-30.55483 30.59003,-30.55489 30.59005,-30.55495 30.59001,-30.55501 30.58998,-30.55505 30.59001,-30.55507 30.59006,-30.55512 30.59012,-30.55514 30.59013,-30.55517 30.59013,-30.5552 30.59007,-30.55521 30.58998,-30.55521 30.58992,-30.5552 30.58987,-30.55519 30.58985,-30.55514 30.58983,-30.5551 30.58975,-30.5551 30.58968,-30.55514 30.58958,-30.55517 30.58953,-30.55516 30.58946,-30.55519 30.58941,-30.55524 30.58937,-30.55531 30.58935,-30.55537 30.58922,-30.55537 30.58913,-30.55535 30.58909,-30.55536 30.58904,-30.55538 30.58904,-30.5555 30.58906,-30.55555 30.58905,-30.5556 30.589,-30.55567 30.58887,-30.55576 30.58877,-30.55581 30.58864,-30.55589 30.58852,-30.55595 30.58825,-30.55613 30.5881,-30.55621 30.588,-30.55627 30.58787,-30.55637 30.58776,-30.55646 30.58764,-30.55656 30.58753,-30.55667 30.58742,-30.55681 30.58731,-30.55698 30.5872,-30.5571 30.58706,-30.55723 30.58695,-30.55729 30.5869,-30.55737 30.58679,-30.55745 30.58669,-30.55753 30.58662,-30.55758 30.58647,-30.55764 30.58639,-30.55767 30.5863,-30.55774 30.58619,-30.55781 30.58611,-30.55788 30.58602,-30.55795 30.58596,-30.55802 30.58589,-30.55814 30.58583,-30.55824 30.5858,-30.55833 30.58573,-30.55847 30.58561,-30.5586 30.5855,-30.55874 30.58536,-30.55884 30.58526,-30.55893 30.58511,-30.55907 30.58496,-30.55916 30.5848,-30.55928 30.58467,-30.55937 30.58458,-30.55946 30.58448,-30.5595 30.58441,-30.55957 30.5844,-30.55963 30.58433,-30.5597 30.58426,-30.55978 30.58417,-30.55984 30.58412,-30.55988 30.58407,-30.55996 30.58397,-30.56006 30.58391,-30.56016 30.58389,-30.56028 30.5838,-30.5604 30.5837,-30.56053 30.58361,-30.56063 30.58355,-30.56071 30.58323,-30.56031 30.58308,-30.55999 30.583,-30.55959 30.58307,-30.55919 30.58322,-30.55885 30.58331,-30.55852 30.58334,-30.55826 30.58336,-30.55796 30.58347,-30.55779 30.58358,-30.55774 30.58382,-30.55769 30.58405,-30.55765 30.58423,-30.55764 30.58447,-30.55746 30.58468,-30.55712 30.58468,-30.55676 30.58463,-30.55666 30.58446,-30.55655 30.58405,-30.5565 30.58378,-30.5565 30.58356,-30.55657 30.58332,-30.55666 30.58306,-30.5568 30.58273,-30.55707 30.58239,-30.55745 30.58228,-30.5576 30.58201,-30.55774 30.58175,-30.55794 30.5812,-30.55844 30.58103,-30.55859 30.5808,-30.55875 30.58057,-30.55886 30.58038,-30.55899 30.58026,-30.55905 30.58012,-30.55906 30.5799,-30.559 30.5798,-30.55898 30.57952,-30.55892 30.57927,-30.55887 30.57917,-30.55876 30.57917,-30.55869 30.57911,-30.55862 30.57899,-30.55847 30.57889,-30.55831 30.57884,-30.5582 30.5788,-30.55812 30.57875,-30.55805 30.57863,-30.55801 30.57852,-30.55802 30.57832,-30.55809 30.57817,-30.55829 30.57808,-30.55838 30.57804,-30.55845 30.57801,-30.5585 30.57801,-30.55857 30.57799,-30.55863 30.5779,-30.55868 30.57784,-30.55871 30.57773,-30.55869 30.57768,-30.55867 30.57767,-30.55859 30.57761,-30.55854 30.57761,-30.55849 30.57759,-30.55842 30.57759,-30.55837 30.57761,-30.55826 30.57762,-30.55816 30.57767,-30.55801 30.57767,-30.5578 30.5777,-30.55777 30.5777,-30.55774 30.57767,-30.55772 30.57767,-30.55769 30.57776,-30.55759 30.57787,-30.55744 30.57797,-30.55731 30.57799,-30.55717 30.57798,-30.55709 30.57794,-30.55699 30.57776,-30.55687 30.57766,-30.55684 30.57751,-30.55685 30.5774,-30.55687 30.57737,-30.55686 30.5773,-30.55678 30.57724,-30.55676 30.57716,-30.55674 30.57706,-30.55675 30.57698,-30.55679 30.57691,-30.55679 30.57688,-30.55674 30.57688,-30.55669 30.57683,-30.55667 30.57667,-30.55666 30.57661,-30.55662 30.57657,-30.55657 30.57652,-30.5565 30.57652,-30.55643 30.57653,-30.55632 30.57655,-30.55628 30.57655,-30.55622 30.57652,-30.55617 30.57635,-30.55597 30.57636,-30.55592 30.57645,-30.55591 30.57657,-30.5559 30.57679,-30.55599 30.57688,-30.55604 30.57693,-30.5561 30.57696,-30.55615 30.57698,-30.55624 30.57713,-30.55629 30.57724,-30.55628 30.5774,-30.55629 30.57751,-30.55634 30.57775,-30.55632 30.57784,-30.55625 30.5779,-30.55618 30.57793,-30.55612 30.57793,-30.55603 30.57789,-30.55589 30.57785,-30.55587 30.57773,-30.55589 30.57769,-30.55588 30.57762,-30.55581 30.57761,-30.55576 30.57758,-30.55571 30.57747,-30.55568 30.57744,-30.55563 30.57746,-30.55559 30.57747,-30.55553 30.57747,-30.5554 30.57746,-30.55534 30.57743,-30.55533 30.57736,-30.5553 30.57733,-30.55525 30.5773,-30.55515 30.57734,-30.55497 30.57742,-30.55488 30.57745,-30.55484 30.57755,-30.55479 30.57772,-30.5547 30.57776,-30.55457 30.57775,-30.55448 30.57773,-30.5544 30.57768,-30.5543 30.57751,-30.55413 30.57733,-30.55407 30.57723,-30.554 30.57718,-30.55395 30.57718,-30.55389 30.57714,-30.55382 30.5771,-30.55376 30.57709,-30.55372 30.57696,-30.55366 30.57682,-30.55361 30.57663,-30.55354 30.57652,-30.5535 30.57646,-30.5534 30.57637,-30.55329 30.57627,-30.55322 30.57621,-30.55317 30.57612,-30.55301 30.5761,-30.55295 30.57604,-30.55287 30.57599,-30.5528 30.57595,-30.55265 30.57586,-30.5526 30.57586,-30.55256 30.57592,-30.55252 30.57594,-30.55248 30.5759,-30.55243 30.57582,-30.55242 30.57579,-30.55238 30.57577,-30.55233 30.57573,-30.5523 30.57565,-30.55233 30.5756,-30.55235 30.57555,-30.55242 30.57555,-30.55247 30.5755,-30.55251 30.57541,-30.55249 30.57537,-30.55246 30.57533,-30.55246 30.57529,-30.55244 30.57527,-30.5524 30.57523,-30.55238 30.57519,-30.55233 30.57514,-30.55225 30.57513,-30.55219 30.57511,-30.55212 30.5752,-30.55205 30.57526,-30.55197 30.57526,-30.55192 30.57521,-30.55183 30.57517,-30.55176 30.57508,-30.55164 30.57498,-30.55154 30.57496,-30.55146 30.57497,-30.55141 30.57501,-30.55137 30.57509,-30.55137 30.57517,-30.55136 30.5752,-30.55131 30.57516,-30.55118 30.57499,-30.55096 30.57498,-30.55089 30.57497,-30.55079 30.57496,-30.55073 30.57494,-30.55068 30.57484,-30.55046 30.57485,-30.55037 30.57495,-30.55029 30.57506,-30.55013 30.57513,-30.54998 30.57513,-30.54993 30.57512,-30.54986 30.57514,-30.54977 30.57519,-30.54969 30.5752,-30.54961 30.57518,-30.54955 30.57511,-30.54948 30.57501,-30.54949 30.57493,-30.54947 30.57491,-30.54942 30.57488,-30.54936 30.5749,-30.54922 30.57491,-30.54916 30.57501,-30.54904 30.57508,-30.54897 30.57512,-30.5489 30.57517,-30.54884 30.57516,-30.5488 30.57512,-30.54879 30.57503,-30.54879 30.57496,-30.54878 30.57486,-30.54874 30.57482,-30.54872 30.57476,-30.54866 30.57472,-30.54851 30.57472,-30.54845 30.57469,-30.54837 30.57468,-30.54832 30.57465,-30.54831 30.57455,-30.54834 30.57443,-30.5484 30.5743,-30.5485 30.57417,-30.54865 30.5741,-30.54884 30.57399,-30.54904 30.57382,-30.5492 30.57366,-30.54931 30.57305,-30.54963 30.57275,-30.54973 30.57242,-30.5498 30.57184,-30.54991 30.57166,-30.54991 30.57157,-30.54992 30.57149,-30.54992 30.57138,-30.54989 30.5713,-30.54982 30.57123,-30.54972 30.57118,-30.54962 30.57112,-30.54954 30.57108,-30.5495 30.57103,-30.54946 30.57099,-30.5494 30.57099,-30.54933 30.571,-30.54924 30.57107,-30.54914 30.5712,-30.54902 30.57151,-30.54886 30.5718,-30.5487 30.57201,-30.54858 30.57204,-30.54853 30.57209,-30.54844 30.57216,-30.54836 30.57217,-30.54829 30.57217,-30.54799 30.57214,-30.54772 30.57207,-30.54757 30.57204,-30.54746 30.57194,-30.54732 30.57184,-30.5473 30.57178,-30.5473 30.5716,-30.54722 30.57148,-30.54718 30.57134,-30.54715 30.57121,-30.54713 30.5707,-30.54707 30.57025,-30.54702 30.56994,-30.54701 30.56965,-30.54696 30.56958,-30.54696 30.56948,-30.54691 30.56939,-30.54691 30.56928,-30.5469 30.56914,-30.54689 30.56904,-30.54685 30.56895,-30.54678 30.56886,-30.54673 30.56876,-30.54674 30.56866,-30.54683 30.56857,-30.54696 30.5683,-30.54738 30.56816,-30.54744 30.56804,-30.54748 30.56794,-30.54747 30.56786,-30.54747 30.56781,-30.54746 30.56776,-30.54747 30.56772,-30.54749 30.56766,-30.54758 30.56763,-30.54776 30.56764,-30.54796 30.56764,-30.54803 30.56761,-30.54813 30.56751,-30.54825 30.56738,-30.54836 30.5672,-30.54841 30.56707,-30.54847 30.56696,-30.54856 30.56683,-30.5486 30.56667,-30.54866 30.56648,-30.5488 30.56639,-30.54889 30.56631,-30.549 30.56626,-30.54922 30.56624,-30.54932 30.56619,-30.54941 30.56609,-30.54951 30.56576,-30.54967 30.56571,-30.54969 30.56563,-30.54969 30.56556,-30.54966 30.5655,-30.54963 30.56516,-30.54953 30.56503,-30.54952 30.56489,-30.54954 30.5648,-30.54957 30.56472,-30.54956 30.56462,-30.54956 30.56449,-30.54959 30.56435,-30.54965 30.5643,-30.54968 30.56421,-30.5497 30.56413,-30.54973 30.56404,-30.54975 30.56364,-30.54975 30.5635,-30.54971 30.56345,-30.54967 30.56339,-30.54961 30.56331,-30.54951 30.56328,-30.54947 30.56326,-30.54942 30.56326,-30.54933 30.56327,-30.54929 30.56334,-30.54922 30.56343,-30.54918 30.56365,-30.54914 30.56372,-30.54913 30.56383,-30.54911 30.56409,-30.54898 30.56444,-30.54898 30.56453,-30.54895 30.56467,-30.54888 30.56485,-30.5487 30.56497,-30.54848 30.56502,-30.54825 30.56509,-30.54816 30.56514,-30.54808 30.56519,-30.54796 30.56519,-30.54786 30.56523,-30.54769 30.56526,-30.54759 30.56525,-30.54749 30.56519,-30.54737 30.56515,-30.54723 30.56514,-30.54714 30.56512,-30.54698 30.56501,-30.54679 30.56498,-30.54675 30.56498,-30.5467 30.56491,-30.54656 30.56487,-30.54649 30.5647,-30.54637 30.56455,-30.54631 30.56444,-30.54628 30.56438,-30.54626 30.56434,-30.54626 30.56428,-30.54621 30.56421,-30.54617 30.56416,-30.54615 30.56409,-30.54613 30.56401,-30.54606 30.56397,-30.54601 30.56387,-30.54599 30.5638,-30.54597 30.56366,-30.54588 30.56357,-30.5458 30.56341,-30.54564 30.56336,-30.54552 30.56335,-30.54538 30.56331,-30.5453 30.56332,-30.5452 30.5633,-30.54509 30.56324,-30.54488 30.56322,-30.54476 30.56318,-30.54469 30.56317,-30.54458 30.56309,-30.54443 30.56307,-30.5443 30.56302,-30.54425 30.56295,-30.54417 30.56289,-30.54411 30.56283,-30.54407 30.56279,-30.54401 30.5627,-30.54398 30.56261,-30.54398 30.56253,-30.54408 30.56245,-30.54419 30.56243,-30.54425 30.56243,-30.5443 30.56246,-30.54436 30.56245,-30.54442 30.56239,-30.54445 30.56236,-30.54448 30.56242,-30.54453 30.56237,-30.54459 30.56233,-30.54462 30.56233,-30.54467 30.56235,-30.54471 30.56235,-30.54474 30.56228,-30.54479 30.56223,-30.54488 30.56222,-30.54496 30.56224,-30.54504 30.56224,-30.54515 30.56223,-30.54519 30.56218,-30.54525 30.56217,-30.54531 30.56219,-30.54542 30.5622,-30.54547 30.5622,-30.54553 30.56219,-30.54558 30.56207,-30.5457 30.56205,-30.54573 30.56206,-30.54579 30.56198,-30.54591 30.56198,-30.54594 30.562,-30.546 30.56204,-30.54604 30.56207,-30.54604 30.5621,-30.54608 30.56201,-30.54617 30.56198,-30.54628 30.56194,-30.54638 30.56191,-30.54641 30.56191,-30.54654 30.56188,-30.54659 30.56184,-30.54663 30.56179,-30.54667 30.56171,-30.5467 30.56166,-30.54673 30.56162,-30.54674 30.56156,-30.54673 30.56149,-30.54671 30.56145,-30.54672 30.5614,-30.5467 30.56138,-30.54668 30.56133,-30.54667 30.56129,-30.54664 30.56126,-30.54661 30.56116,-30.54661 30.5611,-30.54657 30.56104,-30.54654 30.56097,-30.54646 30.5609,-30.54643 30.56086,-30.54637 30.56076,-30.54626 30.56064,-30.54614 30.56058,-30.54613 30.56054,-30.54606 30.56052,-30.54601 30.56052,-30.54595 30.56043,-30.54586 30.56033,-30.54582 30.56018,-30.54582 30.56008,-30.54576 30.55998,-30.54571 30.5599,-30.54569 30.55979,-30.54562 30.55969,-30.54556 30.55962,-30.54553 30.55953,-30.54556 30.5595,-30.54558 30.55948,-30.54556 30.55937,-30.54551 30.55931,-30.5455 30.55926,-30.5455 30.55912,-30.54558 30.55903,-30.54564 30.55892,-30.54567 30.55883,-30.54567 30.55877,-30.54565 30.55868,-30.54565 30.55859,-30.54568 30.55829,-30.54568 30.55822,-30.54569 30.55816,-30.54568 30.55802,-30.54567 30.55797,-30.54569 30.55785,-30.54572 30.55759,-30.54585 30.55744,-30.5459 30.55731,-30.54594 30.5572,-30.54603 30.55712,-30.54606 30.557,-30.54611 30.55694,-30.54613 30.55689,-30.54621 30.55681,-30.54625 30.55678,-30.54629 30.5567,-30.54631 30.55662,-30.54634 30.55659,-30.54637 30.55651,-30.54637 30.55645,-30.54639 30.55639,-30.54645 30.55629,-30.5465 30.55616,-30.5465 30.55608,-30.54643 30.55603,-30.5464 30.55596,-30.54634 30.55593,-30.54629 30.55589,-30.54622 30.55584,-30.54617 30.55583,-30.54613 30.55577,-30.54604 30.55576,-30.54598 30.55575,-30.54594 30.5557,-30.54586 30.55567,-30.54579 30.55566,-30.5457 30.55566,-30.54561 30.55563,-30.5455 30.55561,-30.54543 30.55561,-30.54529 30.5556,-30.54524 30.5556,-30.54518 30.55554,-30.54508 30.55548,-30.545 30.55541,-30.54496 30.55533,-30.54487 30.55527,-30.54479 30.5551,-30.54463 30.55498,-30.54455 30.55494,-30.5445 30.55487,-30.54446 30.55487,-30.54433 30.55484,-30.54424 30.55474,-30.5442 30.55463,-30.54419 30.55455,-30.54419 30.55416,-30.54427 30.55404,-30.54431 30.55391,-30.54431 30.55376,-30.54435 30.55371,-30.54437 30.55363,-30.54442 30.55354,-30.54444 30.55347,-30.54444 30.55343,-30.54443 30.55336,-30.54443 30.55322,-30.54451 30.55318,-30.54451 30.55314,-30.54448 30.5531,-30.54446 30.55308,-30.54444 30.55305,-30.5444 30.55299,-30.5444 30.55293,-30.54444 30.55289,-30.54448 30.55277,-30.5445 30.55273,-30.54451 30.55267,-30.54448 30.55261,-30.54446 30.55256,-30.54446 30.55251,-30.54448 30.55248,-30.54448 30.55241,-30.54444 30.5524,-30.5444 30.5524,-30.54433 30.55241,-30.54425 30.55241,-30.54407 30.55244,-30.54402 30.55248,-30.54394 30.55245,-30.54384 30.55248,-30.54377 30.55254,-30.54369 30.55262,-30.54361 30.55268,-30.54353 30.55268,-30.54348 30.55271,-30.54344 30.55277,-30.54339 30.55282,-30.54333 30.55286,-30.54327 30.55289,-30.54319 30.5529,-30.54302 30.5528,-30.54284 30.55281,-30.54278 30.55274,-30.5427 30.55266,-30.54262 30.55254,-30.54259 30.55249,-30.54258 30.55241,-30.54255 30.55238,-30.54254 30.55233,-30.54254 30.55223,-30.54252 30.55216,-30.54251 30.55212,-30.54251 30.55207,-30.54246 30.55203,-30.54245 30.55195,-30.5424 30.55172,-30.5424 30.55162,-30.54234 30.55144,-30.54226 30.55132,-30.54226 30.55125,-30.54222 30.55125,-30.54218 30.55122,-30.54213 30.55119,-30.54209 30.55115,-30.54209 30.55109,-30.54208 30.551,-30.54204 30.55096,-30.54202 30.55093,-30.54197 30.55081,-30.54191 30.55074,-30.54184 30.55067,-30.54179 30.55062,-30.54174 30.55058,-30.54172 30.5505,-30.54164 30.55048,-30.5416 30.55036,-30.54149 30.5503,-30.54142 30.55024,-30.54134 30.55019,-30.54128 30.55012,-30.54125 30.55009,-30.54123 30.55008,-30.54118 30.55006,-30.54113 30.55007,-30.54103 30.55004,-30.54088 30.54997,-30.54078 30.54991,-30.54071 30.54987,-30.54061 30.54985,-30.54054 30.5498,-30.54047 30.54976,-30.54039 30.54971,-30.54034 30.54967,-30.54034 30.54959,-30.5403 30.54956,-30.54021 30.54952,-30.54015 30.54947,-30.54001 30.54947,-30.53985 30.54949,-30.53979 30.54955,-30.53976 30.54958,-30.53972 30.54958,-30.53966 30.54959,-30.53959 30.54961,-30.53948 30.54961,-30.53939 30.54962,-30.53929 30.54962,-30.53922 30.54959,-30.53918 30.54952,-30.53913 30.54949,-30.53908 30.54948,-30.53898 30.54952,-30.53894 30.54952,-30.53882 30.54946,-30.53877 30.549,-30.53877 30.54896,-30.53876 30.54888,-30.53875 30.5488,-30.53875 30.54864,-30.53878 30.54859,-30.53882 30.54856,-30.53883 30.54846,-30.53886 30.54841,-30.53888 30.54836,-30.53889 30.54827,-30.53894 30.5481,-30.53896 30.54806,-30.53899 30.54801,-30.53905 30.54797,-30.53911 30.54788,-30.53916 30.54781,-30.53917 30.54768,-30.53929 30.54754,-30.53941 30.54743,-30.5395 30.5473,-30.53964 30.54717,-30.53975 30.547,-30.53983 30.54685,-30.53992 30.54679,-30.53993 30.54671,-30.53992 30.5466,-30.53992 30.54639,-30.53999 30.54623,-30.54005 30.54606,-30.54009 30.54588,-30.54012 30.54584,-30.54013 30.54574,-30.54018 30.5457,-30.54018 30.54564,-30.54016 30.54554,-30.54011 30.54549,-30.54006 30.54545,-30.54 30.54539,-30.53994 30.54536,-30.53988 30.54535,-30.53984 30.5453,-30.53975 30.54524,-30.53967 30.54515,-30.53962 30.54508,-30.53958 30.54506,-30.53953 30.54506,-30.53935 30.54501,-30.53933 30.5449,-30.53933 30.54486,-30.53924 30.54483,-30.5392 30.5447,-30.53914 30.54468,-30.53907 30.54468,-30.53898 30.54467,-30.53892 30.5446,-30.53882 30.5446,-30.53876 30.54457,-30.53871 30.54455,-30.53862 30.54454,-30.53854 30.54453,-30.53848 30.54454,-30.53841 30.54448,-30.53836 30.54441,-30.53832 30.54429,-30.5382 30.5442,-30.53817 30.54412,-30.53814 30.54399,-30.53808 30.5439,-30.53806 30.54379,-30.53806 30.5437,-30.53803 30.54344,-30.53803 30.54339,-30.53802 30.54334,-30.53802 30.54326,-30.53799 30.54323,-30.53797 30.54318,-30.53798 30.54314,-30.538 30.54306,-30.538 30.54306,-30.53794 30.54293,-30.53795 30.54289,-30.53793 30.54286,-30.53786 30.54281,-30.53792 30.54277,-30.53792 30.54274,-30.53791 30.54269,-30.53792 30.54268,-30.538 30.54267,-30.53805 30.54262,-30.53811 30.54262,-30.53814 30.54261,-30.53819 30.54259,-30.53823 30.54251,-30.53828 30.54245,-30.53836 30.54243,-30.5384 30.54244,-30.53843 30.54252,-30.53841 30.54256,-30.53842 30.54259,-30.53852 30.54258,-30.53857 30.54252,-30.53865 30.54245,-30.53872 30.54243,-30.53875 30.54234,-30.53881 30.54229,-30.53884 30.54227,-30.53889 30.54228,-30.53896 30.5423,-30.53899 30.54235,-30.53893 30.54239,-30.53895 30.54239,-30.53898 30.5424,-30.53901 30.54239,-30.53904 30.54235,-30.53921 30.54235,-30.53925 30.54232,-30.53931 30.54235,-30.53934 30.54235,-30.53944 30.54237,-30.5395 30.5424,-30.53951 30.54244,-30.53951 30.54247,-30.53957 30.54237,-30.53961 30.54235,-30.53967 30.54235,-30.53988 30.54232,-30.54001 30.54231,-30.54007 30.54229,-30.54017 30.54223,-30.54029 30.54216,-30.54034 30.54211,-30.54041 30.54204,-30.54041 30.54198,-30.54039 30.54194,-30.54037 30.5419,-30.54036 30.54185,-30.54036 30.5418,-30.54035 30.54172,-30.54031 30.54168,-30.5403 30.54158,-30.54029 30.54152,-30.54028 30.54145,-30.54024 30.54139,-30.54022 30.54139,-30.54019 30.54135,-30.54018 30.54132,-30.54018 30.54129,-30.54015 30.54123,-30.54012 30.54117,-30.54011 30.54116,-30.54007 30.54113,-30.54007 30.54107,-30.54003 30.54104,-30.54004 30.54097,-30.54002 30.54094,-30.54002 30.54091,-30.53999 30.54087,-30.53996 30.54084,-30.53996 30.54083,-30.54 30.5408,-30.54001 30.54077,-30.53996 30.54078,-30.53992 30.54078,-30.53988 30.54079,-30.53985 30.54075,-30.53981 30.54072,-30.53977 30.54065,-30.53977 30.54062,-30.53978 30.54057,-30.53977 30.54049,-30.53974 30.54042,-30.53973 30.54038,-30.5397 30.54033,-30.53968 30.54023,-30.53963 30.54016,-30.5396 30.5401,-30.53957 30.54003,-30.53957 30.53996,-30.5395 30.53987,-30.53946 30.53977,-30.53941 30.53968,-30.53941 30.53958,-30.53943 30.53953,-30.53946 30.53949,-30.53948 30.53945,-30.53949 30.53941,-30.53947 30.53937,-30.53941 30.53935,-30.53937 30.53929,-30.53933 30.53922,-30.53932 30.53916,-30.53935 30.5391,-30.53932 30.5391,-30.53927 30.53907,-30.53924 30.53894,-30.53919 30.53885,-30.5392 30.53875,-30.53923 30.53871,-30.53919 30.53871,-30.53915 30.53868,-30.53912 30.53856,-30.5391 30.53851,-30.53907 30.53846,-30.53907 30.53837,-30.5391 30.53834,-30.5391 30.5383,-30.53906 30.5383,-30.53902 30.53824,-30.53898 30.5382,-30.53898 30.53817,-30.53901 30.53814,-30.53902 30.53808,-30.539 30.53804,-30.53898 30.53797,-30.53902 30.53787,-30.539 30.53781,-30.53898 30.53772,-30.53892 30.53762,-30.53888 30.53756,-30.53886 30.5375,-30.53881 30.53742,-30.53873 30.53739,-30.53868 30.53735,-30.53864 30.53731,-30.53856 30.53725,-30.53853 30.53728,-30.53848 30.53726,-30.53843 30.53721,-30.53839 30.5372,-30.53834 30.53718,-30.53829 30.53715,-30.53823 30.53708,-30.53814 30.53705,-30.53809 30.53703,-30.53803 30.53702,-30.53799 30.53702,-30.53792 30.53697,-30.53784 30.53691,-30.53779 30.53687,-30.53777 30.53683,-30.5377 30.53676,-30.53763 30.5367,-30.53759 30.53666,-30.53758 30.53662,-30.53759 30.53659,-30.53762 30.53654,-30.53762 30.53646,-30.53761 30.53641,-30.5376 30.53628,-30.53759 30.53627,-30.53754 30.53627,-30.53746 30.53624,-30.53742 30.53617,-30.53739 30.53612,-30.53739 30.53608,-30.53742 30.53604,-30.53746 30.53601,-30.5375 30.53595,-30.53754 30.53591,-30.53758 30.53595,-30.53764 30.53595,-30.53767 30.53591,-30.53769 30.53589,-30.53771 30.53581,-30.53769 30.53568,-30.5377 30.53565,-30.53775 30.53565,-30.5378 30.53562,-30.53786 30.53556,-30.53791 30.53556,-30.53795 30.53559,-30.53802 30.53558,-30.53806 30.53556,-30.53809 30.53551,-30.5381 30.53547,-30.53809 30.53543,-30.53809 30.53535,-30.53811 30.53533,-30.53818 30.53534,-30.53824 30.53534,-30.53827 30.53533,-30.5383 30.53525,-30.53834 30.53524,-30.53837 30.5352,-30.5384 30.53511,-30.5384 30.53508,-30.53845 30.53508,-30.53853 30.53511,-30.53859 30.53515,-30.53861 30.53518,-30.53873 30.53512,-30.53882 30.53509,-30.53892 30.53511,-30.53898 30.53517,-30.53904 30.53518,-30.53911 30.53521,-30.53915 30.53526,-30.53919 30.53529,-30.53925 30.53533,-30.53929 30.53538,-30.53936 30.53542,-30.53943 30.53549,-30.53953 30.53553,-30.53954 30.53558,-30.53955 30.53562,-30.53957 30.53564,-30.53963 30.5357,-30.53968 30.53578,-30.53961 30.53586,-30.53965 30.53591,-30.53969 30.53599,-30.53973 30.53601,-30.53979 30.536,-30.53986 30.53604,-30.53991 30.53604,-30.54006 30.53606,-30.54011 30.53606,-30.54017 30.53604,-30.54024 30.53602,-30.54032 30.536,-30.54036 30.53594,-30.54041 30.53584,-30.54048 30.5358,-30.54049 30.53577,-30.54054 30.53575,-30.54058 30.53572,-30.5406 30.53566,-30.54059 30.53562,-30.54061 30.5356,-30.54065 30.53558,-30.54063 30.53555,-30.54061 30.53551,-30.54061 30.53544,-30.54065 30.53542,-30.5407 30.53537,-30.54074 30.53533,-30.54076 30.53529,-30.54074 30.53523,-30.54075 30.5352,-30.54079 30.53517,-30.54085 30.53514,-30.54088 30.53509,-30.54089 30.535,-30.54086 30.53496,-30.5409 30.53495,-30.54094 30.53488,-30.5409 30.53482,-30.54095 30.5348,-30.54097 30.53477,-30.54097 30.53471,-30.54096 30.53467,-30.54094 30.53464,-30.54095 30.53454,-30.54096 30.53445,-30.541 30.53437,-30.54105 30.53432,-30.54107 30.53427,-30.54107 30.53422,-30.54104 30.53416,-30.54106 30.53412,-30.54107 30.53403,-30.54115 30.534,-30.54117 30.53393,-30.54118 30.53385,-30.54118 30.53376,-30.54119 30.53375,-30.54114 30.53366,-30.54113 30.53358,-30.54117 30.53358,-30.54121 30.53355,-30.54124 30.53351,-30.54129 30.5334,-30.54132 30.53333,-30.54132 30.53327,-30.54134 30.53317,-30.54138 30.53304,-30.54144 30.53287,-30.54146 30.53268,-30.54153 30.53252,-30.54154 30.53233,-30.54161 30.5322,-30.54163 30.53181,-30.54171 30.53162,-30.54176 30.53151,-30.54175 30.53139,-30.54175 30.53123,-30.54179 30.53116,-30.5418 30.53114,-30.54183 30.53111,-30.54179 30.531,-30.54179 30.53094,-30.54178 30.53087,-30.54172 30.53081,-30.54164 30.5308,-30.54155 30.53078,-30.54148 30.53076,-30.54137 30.53075,-30.54125 30.53075,-30.54112 30.53077,-30.54101 30.53077,-30.54094 30.53075,-30.54088 30.5307,-30.54083 30.53065,-30.54079 30.53052,-30.54078 30.53043,-30.54079 30.53039,-30.54076 30.53033,-30.54079 30.5303,-30.54084 30.53026,-30.54088 30.53018,-30.54087 30.53013,-30.54084 30.53009,-30.5408 30.53004,-30.54076 30.53,-30.54073 30.52996,-30.54073 30.52991,-30.54074 30.52988,-30.54073 30.52984,-30.54074 30.52978,-30.54078 30.52974,-30.54079 30.5297,-30.5408 30.5297,-30.54083 30.52968,-30.54558 30.5099,-30.54017 30.50754,-30.53954 30.50781,-30.54147 30.50797,-30.54265 30.50799,-30.54278 30.50808,-30.54339 30.50831,-30.5452 30.50852,-30.54677 30.50874,-30.54839 30.50899,-30.55024 30.50925,-30.55218 30.50937,-30.55306 30.50946,-30.55377 30.50972,-30.55574 30.50996,-30.55748 30.51005,-30.5581 30.51022,-30.55934 30.51041,-30.56079 30.51049,-30.56136 30.51064,-30.56244 30.51069,-30.56299 30.51087,-30.56429 30.51106,-30.56566 30.5113,-30.5675 30.51154,-30.56921 30.51192,-30.57212 30.51218,-30.574 30.51226,-30.57463 30.512,-30.57589 30.51165,-30.57764 30.51137,-30.57903 30.51106,-30.58053 30.51103,-30.58069 30.51102,-30.58072 30.51076,-30.58195 30.51042,-30.58365 30.51005,-30.58555 30.50978,-30.58693 30.50942,-30.58866 30.50907,-30.59039 30.50883,-30.5916 30.50876,-30.59176 30.50859,-30.59187 30.50766,-30.59151 30.50618,-30.59085 30.50504,-30.59034 30.50438,-30.59003 30.50395,-30.58987 30.50318,-30.58957 30.50256,-30.58937 30.50147,-30.58928 30.50076,-30.58941 30.5003,-30.58963 30.49974,-30.59016 30.49914,-30.59062 30.49858,-30.59098 30.49804,-30.59132 30.49728,-30.59199 30.4965,-30.59263 30.49644,-30.59267 30.49617,-30.59281 30.49571,-30.59296 30.49521,-30.59293 30.49477,-30.5928 30.49381,-30.59243 30.4935,-30.59205 30.4933,-30.59115 30.49298,-30.59041 30.49262,-30.58975 30.49214,-30.58875 30.49189,-30.58803 30.49151,-30.58744 30.49087,-30.58674 30.49009,-30.58613 30.4892,-30.58549 30.48791,-30.58493 30.48719,-30.58486 30.48679,-30.58484 30.48638,-30.58486 30.48582,-30.58505 30.48542,-30.58534 30.48524,-30.58571 30.48514,-30.58613 30.48503,-30.58655 30.4846,-30.5879 30.48414,-30.58915 30.48385,-30.59009 30.48318,-30.59112 30.48245,-30.59237 30.48178,-30.59316 30.48093,-30.59367 30.47992,-30.5942 30.47921,-30.59428 30.47844,-30.59434 30.4779,-30.5943 30.47698,-30.59409 30.47605,-30.59394 30.47525,-30.59378 30.47449,-30.59353 30.47369,-30.59312 30.47319,-30.59269 30.47306,-30.59258 30.47225,-30.59162 30.47203,-30.59126 30.47191,-30.59052 30.47189,-30.58982 30.47193,-30.58902 30.4722,-30.58755 30.47235,-30.5863 30.47234,-30.58526 30.47233,-30.58452 30.47214,-30.58394 30.47193,-30.58355 30.47165,-30.58324 30.47112,-30.58299 30.47063,-30.58282 30.47022,-30.58272 30.47012,-30.58272 30.46924,-30.58268 30.46716,-30.58304 30.46512,-30.58356 30.46274,-30.5841 30.45988,-30.58487 30.45904,-30.5851 30.45834,-30.5854 30.45745,-30.58563 30.45658,-30.58575 30.45566,-30.58592 30.45479,-30.58575 30.45418,-30.58541 30.45369,-30.58448 30.45319,-30.58402 30.45225,-30.58203 30.45201,-30.58153 30.45176,-30.58103 30.45156,-30.5806 30.45123,-30.58014 30.45078,-30.57965 30.45046,-30.57937 30.44994,-30.57915 30.4494,-30.57907 30.44892,-30.57902 30.44841,-30.57903 30.44787,-30.57916 30.4475,-30.57922 30.4465,-30.57981 30.44562,-30.58041 30.44451,-30.58133 30.44391,-30.58166 30.44336,-30.58194 30.44303,-30.58197 30.44221,-30.58194 30.44144,-30.58183 30.4414,-30.5818 30.44133,-30.58176 30.4411,-30.58161 30.44074,-30.5813 30.4402,-30.58077 30.43984,-30.58011 30.43939,-30.57944 30.43867,-30.57872 30.43749,-30.57756 30.43681,-30.57695 30.43636,-30.57662 30.43579,-30.57627 30.43577,-30.57626 30.43573,-30.57624 30.43477,-30.57574 30.43374,-30.57526 30.43285,-30.57495 30.43225,-30.57485 30.43193,-30.57485 30.43148,-30.57499 30.43111,-30.57514 30.43068,-30.57546 30.43034,-30.57577 30.42975,-30.57627 30.42887,-30.57694 30.42849,-30.57718 30.42832,-30.57726 30.42824,-30.57733 30.42806,-30.57747 30.42779,-30.57761 30.4275,-30.57775 30.42734,-30.57787 30.42734,-30.57817 30.4273,-30.57935 30.42727,-30.58058 30.42723,-30.58174 30.4272,-30.58286 30.42716,-30.58422 30.42712,-30.58557 30.42708,-30.58674 30.42705,-30.58787 30.42704,-30.58807 30.42701,-30.58808 30.42697,-30.58809 30.42701,-30.58835 30.4271,-30.58918 30.42714,-30.58966 30.42718,-30.59023 30.42728,-30.5916 30.42737,-30.59297 30.42747,-30.59435 30.42756,-30.59568 30.42766,-30.59711 30.42775,-30.59845 30.42784,-30.5998 30.42794,-30.60111 30.42804,-30.60246 30.4281,-30.60326 30.42811,-30.60334 30.42822,-30.60485 30.4283,-30.60597 30.42837,-30.60682 30.42839,-30.60705 30.42809,-30.60709 30.42714,-30.60719 30.42544,-30.60739 30.42355,-30.60761 30.4207,-30.60791 30.41995,-30.60798 30.41917,-30.60809 30.41815,-30.60824 30.41805,-30.60825 30.41756,-30.6083 30.41609,-30.60847 30.41429,-30.60868 30.41342,-30.60877 30.41269,-30.60886 30.4126,-30.60898 30.41226,-30.60947 30.41143,-30.61066 30.41054,-30.61194 30.40968,-30.61318 30.40877,-30.6145 30.40791,-30.61573 30.40765,-30.61611 30.4076,-30.61618 30.40708,-30.61693 30.4062,-30.61819 30.4055,-30.61921 30.40459,-30.62052 30.40387,-30.62156 30.40312,-30.62263 30.40225,-30.62389 30.40143,-30.62507 30.40055,-30.62635 30.40026,-30.62676 30.3996,-30.62772 30.39906,-30.6285 30.3987,-30.62901 30.39867,-30.62905 30.39862,-30.62904 30.39753,-30.62878 30.3955,-30.62831 30.39355,-30.62785 30.39173,-30.62743 30.38971,-30.62696 30.38928,-30.62686 30.38801,-30.62656 30.38573,-30.62596 30.38375,-30.62543 30.38295,-30.62522 30.38193,-30.62495 30.38158,-30.62486 30.38057,-30.62459 30.38053,-30.62458 30.38047,-30.62467 30.38043,-30.62465 30.37979,-30.62438 30.37916,-30.6241 30.37776,-30.6235 30.37688,-30.62312 30.3757,-30.62261 30.37458,-30.62212 30.37285,-30.62137 30.37095,-30.62055 30.37009,-30.62018 30.36883,-30.61963 30.36781,-30.61919 30.36682,-30.61876 30.36514,-30.61804 30.3642,-30.61763 30.36284,-30.61704 30.36159,-30.6165 30.36146,-30.61644 30.3616,-30.61625 30.36181,-30.61595 30.36262,-30.6148 30.36366,-30.61331 30.36468,-30.61186 30.36526,-30.61102 30.36585,-30.61019 30.36629,-30.60956 30.36734,-30.6081 30.36819,-30.60692 30.36876,-30.60597 30.36864,-30.60581 30.36836,-30.60543 30.36733,-30.60401 30.36625,-30.60253 30.36519,-30.60108 30.36432,-30.59989 30.36322,-30.59838 30.36241,-30.59727 30.36139,-30.59587 30.36108,-30.59544 30.36031,-30.59437 30.35938,-30.59311 30.3588,-30.59234 30.35852,-30.59195 30.35778,-30.59096 30.35711,-30.59005 30.35662,-30.58939 30.35603,-30.5886 30.35555,-30.58796 30.3555,-30.58789 30.3554,-30.58777 30.35496,-30.58722 30.35383,-30.58582 30.35288,-30.5847 30.35185,-30.58347 30.35097,-30.58242 30.3501,-30.5814 30.34935,-30.5805 30.34783,-30.5787 30.34776,-30.57879 30.34741,-30.57931 30.34664,-30.58046 30.34587,-30.58159 30.34504,-30.58282 30.34435,-30.58384 30.34374,-30.58474 30.34293,-30.58594 30.34406,-30.58753 30.34447,-30.58811 30.34496,-30.5888 30.34544,-30.58949 30.34628,-30.59067 30.34668,-30.59123 30.34708,-30.5918 30.34806,-30.59318 30.34892,-30.59438 30.35023,-30.59623 30.35568,-30.60155 30.35608,-30.60168 30.35565,-30.60253 30.35364,-30.60721 30.35353,-30.60745 30.35389,-30.60981 30.35398,-30.61039 30.35406,-30.61097 30.35415,-30.61155 30.35424,-30.61212 30.3546,-30.61444 30.35465,-30.61483 30.35468,-30.61502 30.35477,-30.6156 30.35481,-30.61592 30.35484,-30.61618 30.35469,-30.61815 30.35453,-30.62012 30.35438,-30.62209 30.35422,-30.62406 30.35407,-30.62603 30.35418,-30.62672 30.35511,-30.62887 30.35787,-30.63532 30.35876,-30.63738 30.3588,-30.63746 30.35743,-30.63822 30.35469,-30.63972 30.35333,-30.64047 30.35059,-30.64197 30.34923,-30.64272 30.34786,-30.64347 30.34649,-30.64423 30.34513,-30.64497 30.34462,-30.64526 30.34405,-30.64512 30.34319,-30.64474 30.34149,-30.64385 30.34046,-30.64313 30.33983,-30.64269 30.33894,-30.64201 30.33837,-30.64151 30.33802,-30.64089 30.3377,-30.64034 30.33734,-30.63941 30.33688,-30.63868 30.33653,-30.6383 30.33614,-30.63789 30.33551,-30.63703 30.33529,-30.6365 30.33488,-30.63582 30.3345,-30.63526 30.33405,-30.63466 30.33363,-30.63399 30.33321,-30.63348 30.3329,-30.63316 30.33253,-30.63289 30.33228,-30.63262 30.33132,-30.63164 30.33103,-30.63114 30.33081,-30.63041 30.33089,-30.6298 30.33105,-30.62939 30.33117,-30.62907 30.33138,-30.62879 30.33181,-30.62854 30.33286,-30.62857 30.33346,-30.6286 30.33422,-30.62854 30.33473,-30.62836 30.33511,-30.6278 30.33516,-30.62748 30.33516,-30.62682 30.33495,-30.62572 30.33477,-30.62481 30.33454,-30.62456 30.33414,-30.62442 30.33356,-30.62433 30.33221,-30.62405 30.33087,-30.62363 30.33031,-30.62357 30.32989,-30.62359 30.32982,-30.62359 30.32963,-30.62372 30.32933,-30.62375 30.32855,-30.62348 30.32752,-30.6232 30.32581,-30.62264 30.32393,-30.62236 30.32239,-30.62204 30.32081,-30.62181 30.31938,-30.62169 30.31826,-30.62168 30.31761,-30.62176 30.31686,-30.62189 30.31597,-30.6221 30.31504,-30.62246 30.3143,-30.62284 30.31355,-30.62328 30.31284,-30.62373 30.3121,-30.62415 30.30982,-30.62584 30.3091,-30.62657 30.30868,-30.62694 30.30855,-30.62706 30.30778,-30.62755 30.30711,-30.62817 30.30671,-30.62875 30.30418,-30.63127 30.30282,-30.63246 30.30189,-30.63308 30.30063,-30.63394 30.30005,-30.63463 30.29924,-30.63524 30.29812,-30.636 30.29755,-30.63646 30.29621,-30.63739 30.29453,-30.63824 30.2935,-30.63853 30.29244,-30.63897 30.28924,-30.63973 30.28837,-30.64009 30.28781,-30.64032 30.28713,-30.64059 30.28646,-30.6408 30.28582,-30.641 30.28505,-30.64124 30.28415,-30.64153 30.28288,-30.64191 30.28246,-30.64202 30.28182,-30.64226 30.28089,-30.64229 30.2798,-30.64226 30.27893,-30.64213 30.27789,-30.64183 30.27644,-30.64063 30.27508,-30.6394 30.27429,-30.63839 30.27245,-30.6367 30.27133,-30.63501 30.27002,-30.63222 30.26929,-30.63109 30.26832,-30.62922 30.2676,-30.6281 30.26712,-30.62729 30.26569,-30.62577 30.26465,-30.62456 30.26378,-30.62414 30.26288,-30.62382 30.26133,-30.62363 30.25996,-30.62352 30.25911,-30.62364 30.25733,-30.62423 30.25517,-30.62546 30.25421,-30.62588 30.25267,-30.62648 30.25223,-30.62648 30.25163,-30.62639 30.25049,-30.62627 30.25005,-30.62617 30.24925,-30.62596 30.24879,-30.62586 30.24834,-30.6257 30.24741,-30.6252 30.24684,-30.62475 30.24626,-30.6241 30.24526,-30.62305 30.24461,-30.62239 30.24431,-30.62184 30.24398,-30.62119 30.24335,-30.61997 30.24329,-30.61961 30.24311,-30.61914 30.24303,-30.61862 30.24287,-30.6181 30.24263,-30.61747 30.24234,-30.61686 30.24192,-30.6162 30.24122,-30.61521 30.24046,-30.61406 30.24021,-30.6134 30.23989,-30.61281 30.23951,-30.61224 30.23916,-30.61192 30.23877,-30.61167 30.23826,-30.61147 30.23781,-30.6112 30.23733,-30.61082 30.23716,-30.61076 30.2371,-30.61074 30.23674,-30.61063 30.23612,-30.61091 30.23534,-30.61149 30.23483,-30.61208 30.23418,-30.61256 30.23335,-30.61317 30.23282,-30.6137 30.23265,-30.61462 30.23217,-30.61566 30.23249,-30.61774 30.23338,-30.61933 30.23408,-30.61999 30.23472,-30.62073 30.23544,-30.62132 30.23616,-30.62178 30.23853,-30.6236 30.24076,-30.62542 30.2424,-30.62711 30.24372,-30.62829 30.24438,-30.62881 30.24481,-30.62918 30.24543,-30.62987 30.24581,-30.63036 30.24606,-30.6308 30.24782,-30.63252 30.24835,-30.63309 30.24882,-30.63346 30.2494,-30.63375 30.24985,-30.634 30.2503,-30.6342 30.25073,-30.63436 30.25116,-30.63461 30.25132,-30.63505 30.25127,-30.63555 30.25109,-30.63628 30.25099,-30.63701 30.25073,-30.63754 30.25043,-30.63825 30.24984,-30.63937 30.24937,-30.64018 30.24865,-30.64124 30.24825,-30.64159 30.24774,-30.64197 30.24704,-30.64243 30.24622,-30.64291 30.24563,-30.6433 30.24532,-30.6435 30.24497,-30.64377 30.24455,-30.64416 30.24437,-30.6444 30.24413,-30.64469 30.24365,-30.6452 30.24305,-30.64581 30.24246,-30.64623 30.24173,-30.64652 30.24122,-30.64666 30.24017,-30.64694 30.23953,-30.6472 30.23912,-30.64729 30.23874,-30.64742 30.23824,-30.64752 30.23798,-30.64761 30.23749,-30.64786 30.23706,-30.64802 30.23683,-30.64801 30.2366,-30.64802 30.23621,-30.64809 30.23584,-30.64823 30.23532,-30.64836 30.23472,-30.64865 30.23422,-30.64898 30.23363,-30.64912 30.23319,-30.64918 30.23285,-30.64916 30.23252,-30.64924 30.23215,-30.64937 30.23128,-30.64973 30.23073,-30.64994 30.23042,-30.65002 30.22963,-30.6503 30.22924,-30.65049 30.22878,-30.65075 30.22805,-30.65113 30.22752,-30.65138 30.22677,-30.65158 30.22603,-30.65175 30.22532,-30.65203 30.22306,-30.65306 30.22116,-30.65392 30.22066,-30.65417 30.22019,-30.6544 30.21984,-30.65458 30.21929,-30.65487 30.21872,-30.65519 30.21826,-30.65541 30.21795,-30.65537 30.21746,-30.65531 30.21698,-30.6552 30.21642,-30.65522 30.21612,-30.65527 30.2153,-30.65531 30.21383,-30.65523 30.21254,-30.65515 30.21164,-30.65504 30.21033,-30.6549 30.20944,-30.65474 30.20862,-30.65458 30.20797,-30.65444 30.20739,-30.65427 30.20691,-30.65422 30.20628,-30.65397 30.20582,-30.65376 30.2054,-30.65358 30.20501,-30.65342 30.20448,-30.65339 30.20398,-30.65372 30.20354,-30.65406 30.20309,-30.65416 30.20221,-30.65416 30.20088,-30.65399 30.20024,-30.65384 30.19958,-30.65348 30.19912,-30.65299 30.19873,-30.6524 30.19823,-30.65205 30.19797,-30.6518 30.19777,-30.6516 30.1975,-30.65135 30.19729,-30.65114 30.19693,-30.65077 30.19673,-30.65042 30.19658,-30.64976 30.19661,-30.64936 30.19659,-30.64875 30.19677,-30.64788 30.19706,-30.6467 30.19746,-30.6449 30.19749,-30.64446 30.19759,-30.64391 30.19755,-30.64341 30.19752,-30.64305 30.19745,-30.64274 30.19734,-30.64251 30.19716,-30.64194 30.1969,-30.6415 30.19681,-30.64091 30.19659,-30.64031 30.19655,-30.63961 30.19654,-30.63904 30.19658,-30.63836 30.19692,-30.63714 30.19705,-30.6366 30.19728,-30.63569 30.19755,-30.63502 30.19794,-30.63403 30.19821,-30.63359 30.19841,-30.63313 30.19873,-30.63252 30.19905,-30.63192 30.19922,-30.63142 30.19927,-30.63096 30.19928,-30.63047 30.1993,-30.62986 30.19926,-30.62939 30.19902,-30.6289 30.19878,-30.62826 30.19825,-30.62759 30.19789,-30.62711 30.19761,-30.6266 30.19717,-30.62581 30.19674,-30.62527 30.19616,-30.62457 30.1958,-30.62427 30.19549,-30.62394 30.19526,-30.62375 30.19504,-30.62349 30.19489,-30.62321 30.19464,-30.62276 30.19457,-30.62251 30.1944,-30.62187 30.19431,-30.62105 30.19416,-30.62059 30.19393,-30.62009 30.19361,-30.6197 30.19347,-30.61959 30.1932,-30.61945 30.19288,-30.61926 30.19231,-30.61925 30.19159,-30.61936 30.19114,-30.61961 30.19058,-30.62002 30.18995,-30.62043 30.18925,-30.62092 30.18875,-30.62123 30.18869,-30.62125 30.1882,-30.62141 30.1877,-30.62157 30.18747,-30.62192 30.18721,-30.62253 30.18713,-30.62286 30.18703,-30.62328 30.18699,-30.62376 30.18698,-30.62447 30.18703,-30.62496 30.18699,-30.62546 30.18696,-30.62573 30.1869,-30.62589 30.18687,-30.62603 30.18676,-30.62622 30.18662,-30.62641 30.18626,-30.62677 30.18582,-30.62702 30.18538,-30.62721 30.18465,-30.62741 30.18434,-30.62756 30.18401,-30.62763 30.18372,-30.62774 30.18332,-30.62781 30.18286,-30.62789 30.18178,-30.62789 30.18106,-30.62787 30.18052,-30.62781 30.17997,-30.62773 30.17925,-30.62756 30.17876,-30.62741 30.17809,-30.62718 30.17753,-30.62686 30.17681,-30.62642 30.1761,-30.62576 30.1758,-30.62518 30.17548,-30.62467 30.1751,-30.62403 30.17477,-30.62339 30.17466,-30.6225 30.17454,-30.6221 30.17445,-30.62155 30.17435,-30.6209 30.17422,-30.62064 30.17418,-30.62041 30.17416,-30.61995 30.17409,-30.61962 30.1738,-30.61921 30.17355,-30.6189 30.17329,-30.61853 30.173,-30.61823 30.17208,-30.61735 30.17169,-30.61686 30.17123,-30.6161 30.17099,-30.61561 30.17095,-30.61531 30.17098,-30.6151 30.17103,-30.61496 30.17113,-30.61475 30.17124,-30.61459 30.17137,-30.61422 30.17136,-30.61394 30.17128,-30.61352 30.17107,-30.6133 30.17076,-30.61298 30.17062,-30.61285 30.17051,-30.6128 30.17006,-30.61264 30.16959,-30.61261 30.16911,-30.61268 30.1689,-30.61273 30.16868,-30.61281 30.16846,-30.6129 30.16827,-30.61297 30.16774,-30.61337 30.16681,-30.61399 30.16605,-30.61453 30.16525,-30.61521 30.16463,-30.61587 30.16384,-30.61666 30.1634,-30.61706 30.16312,-30.61737 30.16264,-30.61776 30.16212,-30.61809 30.16178,-30.61832 30.16158,-30.61841 30.16124,-30.61863 30.161,-30.61867 30.16049,-30.6189 30.1599,-30.6193 30.15887,-30.61966 30.15764,-30.62017 30.15642,-30.62052 30.15511,-30.62062 30.15418,-30.62069 30.15336,-30.62064 30.15244,-30.6205 30.15169,-30.62042 30.15125,-30.62044 30.15,-30.62053 30.14923,-30.62068 30.14863,-30.6208 30.14783,-30.6211 30.14736,-30.6215 30.14681,-30.62213 30.14652,-30.62256 30.14596,-30.62311 30.14572,-30.62349 30.14495,-30.62409 30.14461,-30.62452 30.1438,-30.62552 30.14328,-30.62652 30.14289,-30.62711 30.14197,-30.62869 30.14138,-30.62978 30.14028,-30.6311 30.13996,-30.63152 30.13939,-30.63229 30.13917,-30.63284 30.13843,-30.6345 30.13765,-30.63515 30.13665,-30.63615 30.13576,-30.63675 30.1354,-30.63709 30.13497,-30.63728 30.13459,-30.63734 30.1342,-30.63728 30.13403,-30.63727 30.13362,-30.63685 30.13353,-30.63641 30.1334,-30.63596 30.13332,-30.63546 30.13307,-30.6343 30.13291,-30.63385 30.13282,-30.6334 30.13286,-30.63293 30.13306,-30.63162 30.13314,-30.63098 30.13319,-30.6303 30.13326,-30.62974 30.13342,-30.62905 30.13358,-30.62869 30.1338,-30.62806 30.13409,-30.62759 30.13459,-30.62705 30.13546,-30.62607 30.13573,-30.62558 30.13604,-30.62503 30.13625,-30.62465 30.13629,-30.62445 30.13638,-30.62413 30.13661,-30.62341 30.1368,-30.62279 30.1371,-30.62244 30.13726,-30.6216 30.13737,-30.6209 30.13778,-30.6201 30.1381,-30.61948 30.13856,-30.61855 30.13885,-30.61803 30.13933,-30.61739 30.13973,-30.61695 30.14019,-30.61656 30.14076,-30.61606 30.14157,-30.61551 30.14218,-30.61516 30.14338,-30.61435 30.14404,-30.61388 30.14455,-30.61345 30.14502,-30.61303 30.1454,-30.61261 30.1457,-30.61219 30.14589,-30.6118 30.14599,-30.61138 30.14617,-30.61099 30.14645,-30.61045 30.14726,-30.60984 30.1477,-30.60955 30.148,-30.6092 30.14825,-30.60891 30.14852,-30.60832 30.14886,-30.60789 30.14929,-30.60753 30.1495,-30.6074 30.14974,-30.60733 30.14995,-30.60728 30.15028,-30.60727 30.15043,-30.60729 30.15062,-30.60731 30.15086,-30.60737 30.15105,-30.60744 30.15139,-30.60757 30.15233,-30.60798 30.15276,-30.60811 30.15315,-30.60816 30.15444,-30.60825 30.15533,-30.60814 30.15593,-30.60809 30.15657,-30.6078 30.15684,-30.60755 30.15703,-30.60713 30.15719,-30.60638 30.15725,-30.60573 30.15687,-30.6043 30.15685,-30.60381 30.15682,-30.6033 30.15684,-30.6027 30.15698,-30.60198 30.15721,-30.60138 30.15784,-30.60035 30.15821,-30.5996 30.15847,-30.59897 30.15853,-30.59847 30.15859,-30.59778 30.15872,-30.59618 30.15881,-30.59579 30.159,-30.5951 30.15899,-30.59465 30.15924,-30.59324 30.15927,-30.59299 30.15941,-30.5926 30.1597,-30.59224 30.15994,-30.5919 30.16022,-30.59139 30.16099,-30.59005 30.16106,-30.58977 30.16119,-30.58951 30.16127,-30.58918 30.16142,-30.58877 30.16154,-30.5884 30.16166,-30.5881 30.16203,-30.58782 30.16275,-30.58755 30.16346,-30.58727 30.16407,-30.58693 30.16459,-30.5867 30.16524,-30.5865 30.16609,-30.58622 30.16708,-30.58574 30.16778,-30.58525 30.16879,-30.58464 30.16957,-30.58408 30.16967,-30.58401 30.17023,-30.58365 30.17075,-30.58331 30.17127,-30.58276 30.1716,-30.58238 30.17197,-30.58206 30.1724,-30.5818 30.17247,-30.58166 30.17247,-30.58136 30.17222,-30.58095 30.17191,-30.58042 30.17161,-30.58012 30.17137,-30.57984 30.17091,-30.57952 30.17034,-30.57919 30.16975,-30.57889 30.16879,-30.57853 30.16866,-30.57848 30.16804,-30.57824 30.16739,-30.57805 30.16699,-30.57784 30.16664,-30.57772 30.16627,-30.57767 30.16483,-30.57739 30.16392,-30.5774 30.16279,-30.57741 30.16142,-30.57752 30.16065,-30.57756 30.15994,-30.57752 30.15958,-30.57739 30.15922,-30.57716 30.15877,-30.57653 30.15846,-30.57615 30.15832,-30.5757 30.15827,-30.5753 30.15824,-30.57503 30.15827,-30.57446 30.15835,-30.57413 30.1584,-30.57283 30.15845,-30.57202 30.15843,-30.57105 30.15825,-30.56924 30.15794,-30.568 30.15749,-30.56725 30.15748,-30.5672 30.15729,-30.56604 30.15727,-30.56594 30.15706,-30.5643 30.15713,-30.56336 30.15748,-30.56192 30.15892,-30.5602 30.15962,-30.55903 30.16032,-30.55798 30.16093,-30.55649 30.1611,-30.55577 30.16171,-30.55428 30.16174,-30.55392 30.16184,-30.55377 30.16184,-30.55352 30.16182,-30.55306 30.16174,-30.55266 30.16174,-30.55209 30.16197,-30.55139 30.16198,-30.55133 30.16206,-30.55093 30.16201,-30.55053 30.16177,-30.55007 30.16158,-30.54975 30.1613,-30.54944 30.16079,-30.54903 30.15965,-30.54867 30.15884,-30.54848 30.15699,-30.54832 30.15541,-30.5482 30.15429,-30.54834 30.1536,-30.54856 30.15165,-30.54925 30.15121,-30.54939 30.15079,-30.54955 30.14999,-30.54982 30.14957,-30.55 30.14833,-30.55088 30.14591,-30.55216 30.14488,-30.55276 30.14469,-30.55301 30.14426,-30.55354 30.1442,-30.55371 30.14407,-30.55406 30.14395,-30.55441 30.14316,-30.55678 30.14257,-30.55858 30.14221,-30.55948 30.14151,-30.5603 30.13996,-30.56172 30.1394,-30.56224 30.1391,-30.56261 30.13863,-30.56313 30.13814,-30.56405 30.13786,-30.56466 30.13761,-30.56495 30.13718,-30.56515 30.13674,-30.56513 30.13639,-30.565 30.13557,-30.56521 30.13492,-30.56528 30.13409,-30.56526 30.13264,-30.56502 30.13039,-30.56438 30.12791,-30.5636 30.12451,-30.56229 30.12283,-30.56166 30.11928,-30.55993 30.11804,-30.55933 30.11725,-30.55884 30.11486,-30.55707 30.11385,-30.55605 30.11311,-30.55512 30.11275,-30.55467 30.11233,-30.55414 30.11212,-30.55374 30.11197,-30.55311 30.11178,-30.55267 30.11151,-30.55199 30.11136,-30.55163 30.11127,-30.55141 30.11117,-30.55098 30.11089,-30.55021 30.11061,-30.54964 30.10998,-30.54852 30.10908,-30.54698 30.10867,-30.54657 30.10691,-30.54485 30.10585,-30.54377 30.10544,-30.54333 30.10491,-30.54294 30.10431,-30.54251 30.10359,-30.54214 30.10241,-30.54154 30.10132,-30.5411 30.10028,-30.5409 30.09913,-30.54098 30.09829,-30.54113 30.09765,-30.5413 30.09736,-30.54148 30.0968,-30.54172 30.09626,-30.54203 30.09565,-30.54219 30.09511,-30.54227 30.09451,-30.54247 30.09398,-30.5428 30.09368,-30.54338 30.09357,-30.54388 30.0932,-30.54441 30.09227,-30.54554 30.09062,-30.5468 30.09047,-30.54699 30.09035,-30.54706 30.09001,-30.54729 30.08949,-30.54745 30.08847,-30.54767 30.08761,-30.54766 30.08634,-30.54749 30.08557,-30.54721 30.08409,-30.54642 30.08303,-30.54548 30.08218,-30.54459 30.08089,-30.54361 30.0801,-30.54311 30.07969,-30.54294 30.07934,-30.54263 30.07931,-30.54259 30.07908,-30.54222 30.079,-30.54192 30.07877,-30.54135 30.0787,-30.54117 30.07863,-30.541 30.07858,-30.54075 30.07858,-30.54038 30.07851,-30.53992 30.07847,-30.53951 30.07846,-30.53911 30.07845,-30.53893 30.0785,-30.53855 30.07854,-30.53778 30.07851,-30.53745 30.07838,-30.53685 30.07825,-30.53623 30.07826,-30.53591 30.0783,-30.53547 30.07831,-30.53541 30.07837,-30.53519 30.07858,-30.53467 30.07874,-30.53437 30.07923,-30.53386 30.07961,-30.53373 30.08021,-30.53339 30.08087,-30.53304 30.0816,-30.53258 30.0825,-30.53216 30.08318,-30.53197 30.08402,-30.53163 30.08504,-30.53106 30.08621,-30.53049 30.08635,-30.53026 30.08666,-30.52963 30.08682,-30.52917 30.08695,-30.52899 30.08733,-30.52866 30.08827,-30.52806 30.08878,-30.52769 30.08935,-30.52744 30.08991,-30.52707 30.09038,-30.52687 30.09076,-30.52685 30.09106,-30.52701 30.09137,-30.52712 30.09187,-30.52732 30.09233,-30.52738 30.093,-30.52719 30.0937,-30.52692 30.09592,-30.52578 30.09623,-30.5256 30.09647,-30.52537 30.09694,-30.52489 30.09741,-30.52416 30.09771,-30.52367 30.098,-30.5229 30.09823,-30.52228 30.09839,-30.5219 30.0987,-30.52115 30.09894,-30.52056 30.09918,-30.5201 30.09961,-30.5193 30.0998,-30.51859 30.09987,-30.51734 30.09969,-30.51607 30.09949,-30.51586 30.09942,-30.51576 30.0991,-30.51534 30.09867,-30.51485 30.09736,-30.51355 30.0966,-30.51301 30.09547,-30.51235 30.09404,-30.51151 30.09317,-30.51128 30.09225,-30.51114 30.0905,-30.51116 30.0885,-30.5112 30.08771,-30.51113 30.0864,-30.51108 30.08526,-30.51087 30.08438,-30.5108 30.08159,-30.51084 30.08105,-30.5109 30.08004,-30.51102 30.07872,-30.51121 30.07741,-30.5114 30.07668,-30.51141 30.07601,-30.51132 30.07577,-30.51127 30.07545,-30.51118 30.07513,-30.51102 30.07488,-30.51085 30.07447,-30.51051 30.07419,-30.51024 30.07406,-30.51008 30.07373,-30.50971 30.07351,-30.50941 30.07315,-30.50887 30.07263,-30.508 30.0724,-30.50749 30.07219,-30.50724 30.07182,-30.50682 30.07153,-30.50628 30.07116,-30.50576 30.07114,-30.50516 30.07129,-30.5048 30.07157,-30.50388 30.07184,-30.50336 30.07291,-30.50233 30.07365,-30.50187 30.07531,-30.50124 30.07586,-30.50097 30.07682,-30.50048 30.07718,-30.50032 30.07787,-30.5 30.07835,-30.49961 30.07925,-30.49875 30.07976,-30.49827 30.08077,-30.49731 30.08166,-30.49662 30.08232,-30.49575 30.0826,-30.49529 30.08407,-30.49366 30.08495,-30.49291 30.08544,-30.49263 30.08818,-30.49104 30.08999,-30.49026 30.0909,-30.4899 30.09118,-30.48979 30.09175,-30.48956 30.09269,-30.48911 30.09325,-30.48885 30.09371,-30.48864 30.09452,-30.48864 30.09547,-30.48897 30.09716,-30.48924 30.10183,-30.491 30.10305,-30.49175 30.10468,-30.49216 30.10881,-30.49243 30.10998,-30.4925 30.1116,-30.4926 30.1128,-30.49243 30.11355,-30.49195 30.11415,-30.49128 30.11443,-30.4904 30.11447,-30.48995 30.11449,-30.48964 30.11454,-30.48843 30.11429,-30.48728 30.11384,-30.48643 30.11317,-30.48578 30.11215,-30.48522 30.11172,-30.48505 30.11112,-30.48476 30.11025,-30.48444 30.10947,-30.4842 30.1091,-30.48412 30.10888,-30.48407 30.10778,-30.4838 30.10702,-30.48376 30.106,-30.48369 30.10415,-30.48371 30.10298,-30.48371 30.10239,-30.48375 30.10212,-30.48377 30.10198,-30.48378 30.10056,-30.48408 30.09979,-30.48437 30.09907,-30.48471 30.09865,-30.48498 30.0982,-30.48515 30.09787,-30.48523 30.09759,-30.48528 30.09729,-30.48529 30.09656,-30.48524 30.09555,-30.48521 30.09412,-30.4851 30.09272,-30.485 30.09185,-30.48494 30.09158,-30.48494 30.091,-30.48485 30.09055,-30.48478 30.08984,-30.48467 30.08901,-30.48458 30.08793,-30.48428 30.08734,-30.48415 30.08679,-30.48391 30.08634,-30.4837 30.08591,-30.48343 30.08547,-30.48315 30.08477,-30.48284 30.08388,-30.48248 30.08344,-30.48237 30.08308,-30.48237 30.0827,-30.48244 30.08189,-30.48264 30.08126,-30.48288 30.08007,-30.48304 30.07925,-30.48317 30.07854,-30.48338 30.07808,-30.48354 30.07738,-30.48397 30.07653,-30.48461 30.07557,-30.48518 30.07442,-30.48606 30.07266,-30.48755 30.0711,-30.48843 30.07016,-30.48896 30.06939,-30.48939 30.06849,-30.48989 30.06758,-30.4904 30.06721,-30.49053 30.06672,-30.49071 30.06577,-30.4909 30.0653,-30.49107 30.06499,-30.49125 30.0643,-30.49165 30.06386,-30.49185 30.06355,-30.49186 30.06304,-30.49175 30.0626,-30.49169 30.06209,-30.49177 30.06187,-30.49183 30.06171,-30.49186 30.06149,-30.49196 30.06078,-30.49226 30.06017,-30.49245 30.0595,-30.49259 30.0587,-30.49259 30.05771,-30.49274 30.05672,-30.49285 30.05598,-30.49306 30.05518,-30.49361 30.05447,-30.49423 30.05404,-30.49524 30.05388,-30.49642 30.05356,-30.49767 30.05339,-30.49781 30.05274,-30.49859 30.05255,-30.49875 30.05226,-30.49898 30.05189,-30.49919 30.05168,-30.49925 30.05147,-30.49928 30.05128,-30.49932 30.05085,-30.49939 30.05013,-30.49937 30.04921,-30.49931 30.04857,-30.49936 30.04736,-30.49952 30.04634,-30.49973 30.04572,-30.50008 30.04531,-30.50061 30.04508,-30.50122 30.04499,-30.50197 30.04492,-30.50286 30.04489,-30.50354 30.04483,-30.50448 30.04484,-30.50495 30.04506,-30.5061 30.04525,-30.50702 30.04556,-30.50772 30.04563,-30.50787 30.04588,-30.50875 30.04587,-30.50934 30.04578,-30.51033 30.04558,-30.51131 30.0456,-30.51172 30.04546,-30.51226 30.04514,-30.51297 30.04485,-30.51337 30.04445,-30.51361 30.04418,-30.51365 30.04372,-30.51365 30.04264,-30.51361 30.04188,-30.51348 30.04161,-30.51333 30.04124,-30.51293 30.04093,-30.51248 30.04075,-30.5122 30.04054,-30.51189 30.04027,-30.51109 30.0402,-30.51087 30.03925,-30.50837 30.03859,-30.5073 30.03824,-30.50668 30.03816,-30.50584 30.03797,-30.50559 30.03775,-30.5054 30.03742,-30.50527 30.03703,-30.50518 30.03669,-30.50512 30.03628,-30.50485 30.03607,-30.50431 30.03586,-30.50313 30.03601,-30.50214 30.03643,-30.50133 30.03712,-30.50011 30.0376,-30.49886 30.03787,-30.49783 30.03793,-30.49757 30.03807,-30.49673 30.03821,-30.49635 30.03845,-30.49595 30.03893,-30.49564 30.03949,-30.49534 30.04013,-30.49499 30.04044,-30.49466 30.04118,-30.49392 30.0426,-30.49257 30.04315,-30.49153 30.04382,-30.49006 30.04451,-30.48853 30.04497,-30.48719 30.04546,-30.48653 30.04566,-30.48575 30.04565,-30.48472 30.04574,-30.48403 30.04612,-30.48306 30.04701,-30.48219 30.04805,-30.48149 30.05086,-30.48004 30.05215,-30.47882 30.05289,-30.47753 30.05344,-30.47611 30.05398,-30.47449 30.05432,-30.47293 30.05529,-30.47104 30.05594,-30.47012 30.0566,-30.46926 30.05701,-30.46855 30.05707,-30.46765 30.05696,-30.46735 30.05684,-30.467 30.05679,-30.46689 30.05673,-30.46672 30.05652,-30.46637 30.05635,-30.4661 30.05634,-30.46605 30.05609,-30.46572 30.05517,-30.46467 30.05501,-30.46445 30.05472,-30.46405 30.05435,-30.46362 30.05404,-30.46324 30.0538,-30.46281 30.05338,-30.46254 30.05327,-30.46245 30.05315,-30.46232 30.05299,-30.46205 30.05285,-30.46179 30.05268,-30.46135 30.05264,-30.46124 30.0525,-30.46083 30.05241,-30.46038 30.05245,-30.46028 30.05252,-30.46013 30.05254,-30.45994 30.05257,-30.45976 30.05255,-30.45939 30.05257,-30.45891 30.05266,-30.45853 30.05271,-30.45835 30.05273,-30.45819 30.0528,-30.45802 30.05308,-30.45761 30.05332,-30.45714 30.05354,-30.45677 30.05371,-30.4562 30.05373,-30.45598 30.05377,-30.45561 30.05371,-30.45495 30.05368,-30.45417 30.05358,-30.45371 30.05338,-30.45317 30.05327,-30.45281 30.05312,-30.45265 30.05296,-30.45246 30.05262,-30.45205 30.05246,-30.45186 30.05221,-30.45158 30.05197,-30.45134 30.05182,-30.45111 30.05165,-30.45084 30.05145,-30.45063 30.05122,-30.45045 30.05108,-30.45028 30.05083,-30.45009 30.0506,-30.44996 30.05036,-30.44993 30.05009,-30.44985 30.04946,-30.4497 30.0491,-30.44962 30.04874,-30.44956 30.04862,-30.44948 30.04834,-30.44934 30.04815,-30.44929 30.0478,-30.4491 30.04757,-30.44902 30.04721,-30.44876 30.04706,-30.44851 30.04674,-30.44821 30.04643,-30.44773 30.04613,-30.44728 30.04575,-30.44674 30.04543,-30.44626 30.04502,-30.44563 30.04453,-30.44485 30.04438,-30.44463 30.04406,-30.44409 30.04364,-30.4435 30.04336,-30.44305 30.04327,-30.44288 30.04303,-30.4427 30.04287,-30.44265 30.0425,-30.44247 30.04196,-30.44218 30.04161,-30.44193 30.04126,-30.44171 30.04102,-30.44153 30.04066,-30.44119 30.04038,-30.44082 30.04025,-30.44071 30.04014,-30.44051 30.04003,-30.44032 30.03997,-30.43997 30.03997,-30.43967 30.04004,-30.43933 30.04016,-30.43894 30.0403,-30.43865 30.04043,-30.43836 30.04052,-30.43821 30.04069,-30.4379 30.04081,-30.43774 30.04099,-30.43744 30.04117,-30.43697 30.04132,-30.43681 30.04155,-30.4365 30.04159,-30.43638 30.04164,-30.43624 30.04169,-30.43608 30.04175,-30.43592 30.04186,-30.43548 30.04212,-30.43506 30.04214,-30.43502 30.04225,-30.43471 30.04249,-30.43421 30.04284,-30.43366 30.043,-30.43347 30.04323,-30.43326 30.04349,-30.43304 30.04375,-30.43276 30.04409,-30.43245 30.0445,-30.43208 30.04462,-30.43199 30.04477,-30.43191 30.04489,-30.43182 30.04537,-30.43153 30.04573,-30.43134 30.04601,-30.43116 30.04636,-30.431 30.04681,-30.43085 30.04715,-30.43077 30.04755,-30.43069 30.04823,-30.43063 30.04877,-30.43066 30.04953,-30.43075 30.0497,-30.43081 30.04996,-30.43088 30.05036,-30.43107 30.05139,-30.43137 30.05152,-30.43143 30.05234,-30.43165 30.05255,-30.43174 30.05287,-30.43191 30.05315,-30.43198 30.05346,-30.43217 30.0536,-30.43226 30.05383,-30.43254 30.05387,-30.43278 30.05401,-30.43312 30.05404,-30.43343 30.05404,-30.43376 30.054,-30.43397 30.05397,-30.43425 30.05386,-30.43445 30.05373,-30.4349 30.05358,-30.43529 30.05347,-30.43552 30.05333,-30.43594 30.05326,-30.43623 30.05321,-30.43645 30.05314,-30.43683 30.05316,-30.43714 30.05326,-30.43733 30.05341,-30.43758 30.05362,-30.43782 30.05376,-30.43795 30.05388,-30.43807 30.0541,-30.43823 30.05421,-30.43832 30.05428,-30.43839 30.05452,-30.43856 30.05474,-30.43869 30.05502,-30.43888 30.05515,-30.43894 30.05539,-30.43906 30.05578,-30.43921 30.05595,-30.4393 30.05609,-30.43936 30.05653,-30.43938 30.05676,-30.43932 30.05716,-30.43929 30.05745,-30.4393 30.05789,-30.43939 30.05801,-30.43946 30.05821,-30.43961 30.05829,-30.43972 30.05846,-30.43985 30.05864,-30.44037 30.05865,-30.44076 30.05865,-30.44156 30.05848,-30.44237 30.0584,-30.44286 30.0584,-30.44313 30.05846,-30.44338 30.05855,-30.44378 30.05856,-30.444 30.0586,-30.44431 30.05867,-30.44444 30.05879,-30.44467 30.05906,-30.44508 30.05931,-30.44527 30.0596,-30.44553 30.0601,-30.44597 30.06034,-30.44612 30.06055,-30.44622 30.06078,-30.44632 30.06095,-30.44635 30.06109,-30.44634 30.06146,-30.44631 30.06167,-30.44629 30.06204,-30.44628 30.06245,-30.44624 30.06274,-30.44622 30.06286,-30.44619 30.06319,-30.44609 30.06367,-30.44609 30.06389,-30.44601 30.06451,-30.44592 30.06501,-30.44584 30.06595,-30.44584 30.06705,-30.4458 30.06764,-30.44581 30.06807,-30.44585 30.06816,-30.44585 30.06833,-30.44587 30.06891,-30.44597 30.06925,-30.44596 30.06974,-30.44596 30.07014,-30.44595 30.07068,-30.4459 30.07088,-30.44592 30.07097,-30.44599 30.07103,-30.44614 30.07112,-30.44633 30.07116,-30.44646 30.07122,-30.44671 30.07128,-30.44686 30.07145,-30.44707 30.07157,-30.44716 30.07169,-30.44722 30.07211,-30.44729 30.07238,-30.4473 30.07269,-30.44729 30.07287,-30.44729 30.0733,-30.44725 30.07359,-30.44722 30.07383,-30.44714 30.07417,-30.44697 30.07448,-30.44684 30.07475,-30.44673 30.07501,-30.44661 30.07538,-30.44632 30.07566,-30.44614 30.07587,-30.44592 30.07621,-30.44554 30.07624,-30.4455 30.07649,-30.44523 30.07672,-30.44498 30.07692,-30.44471 30.07714,-30.44424 30.07742,-30.4438 30.0776,-30.4436 30.07776,-30.44341 30.07791,-30.4433 30.07807,-30.44321 30.07831,-30.44309 30.07854,-30.44305 30.07885,-30.44299 30.07913,-30.44288 30.07926,-30.44284 30.07938,-30.44275 30.0795,-30.44268 30.07956,-30.44257 30.07961,-30.44241 30.07964,-30.4422 30.07966,-30.44172 30.07965,-30.44158 30.07965,-30.44148 30.07963,-30.44128 30.07962,-30.44112 30.0795,-30.44075 30.07945,-30.44032 30.0794,-30.44019 30.07929,-30.43997 30.07922,-30.43979 30.07919,-30.43969 30.07916,-30.43946 30.07908,-30.43929 30.07903,-30.43914 30.07899,-30.43893 30.07899,-30.43871 30.07898,-30.43837 30.07903,-30.43803 30.07908,-30.43748 30.07914,-30.43698 30.0792,-30.43683 30.07932,-30.43646 30.07946,-30.43621 30.07967,-30.43591 30.07981,-30.43562 30.07993,-30.43532 30.08003,-30.435 30.08011,-30.43461 30.08023,-30.43416 30.0803,-30.4336 30.08041,-30.43326 30.08048,-30.43305 30.0806,-30.43282 30.08066,-30.43271 30.08084,-30.43239 30.08102,-30.4321 30.0811,-30.43201 30.08139,-30.43163 30.08168,-30.43129 30.08181,-30.43107 30.08198,-30.43089 30.08206,-30.43077 30.08226,-30.43056 30.08267,-30.43018 30.08307,-30.42985 30.08323,-30.42978 30.08373,-30.42957 30.08408,-30.42943 30.08437,-30.42928 30.08478,-30.42898 30.08509,-30.42883 30.08553,-30.42849 30.08609,-30.42823 30.08652,-30.42794 30.08688,-30.42772 30.08708,-30.42757 30.08736,-30.42742 30.08757,-30.42723 30.08784,-30.42704 30.08834,-30.42683 30.08853,-30.42674 30.08889,-30.4265 30.08908,-30.42644 30.08929,-30.4263 30.08942,-30.42616 30.08955,-30.42599 30.08962,-30.42588 30.08977,-30.42567 30.08987,-30.42545 30.09,-30.42534 30.09025,-30.4252 30.09066,-30.42491 30.09112,-30.42463 30.09155,-30.42438 30.09203,-30.42399 30.09242,-30.42359 30.09261,-30.42336 30.09293,-30.4231 30.0933,-30.42274 30.09366,-30.42246 30.09381,-30.42232 30.09412,-30.42207 30.09448,-30.42187 30.09478,-30.42164 30.095,-30.42145 30.09518,-30.42133 30.09531,-30.42122 30.09547,-30.42111 30.09571,-30.42077 30.09601,-30.42049 30.09626,-30.42025 30.09654,-30.41996 30.09697,-30.41953 30.09746,-30.41916 30.09785,-30.41867 30.09837,-30.41826 30.09912,-30.41765 30.09942,-30.41742 30.09978,-30.41716 30.10017,-30.41691 30.10064,-30.41666 30.10082,-30.41662 30.10122,-30.41657 30.10142,-30.41651 30.10166,-30.41645 30.10181,-30.41645 30.10211,-30.41653 30.10254,-30.4166 30.10302,-30.41668 30.10327,-30.41672 30.10356,-30.41679 30.10369,-30.41681 30.10396,-30.4169 30.10417,-30.41688 30.10445,-30.41685 30.10473,-30.41697 30.10482,-30.41707 30.10506,-30.41727 30.10526,-30.41738 30.10579,-30.41761 30.10622,-30.41785 30.10644,-30.41803 30.10658,-30.41817 30.1068,-30.41838 30.10693,-30.41853 30.10713,-30.41876 30.10734,-30.41905 30.10774,-30.41931 30.10802,-30.41983 30.10821,-30.42008 30.10832,-30.42023 30.10849,-30.42068 30.10857,-30.42088 30.10873,-30.42114 30.10883,-30.42122 30.10902,-30.42157 30.10917,-30.42184 30.10952,-30.42222 30.10982,-30.4226 30.11005,-30.42302 30.1104,-30.42338 30.11056,-30.42356 30.11074,-30.42373 30.11094,-30.42391 30.11128,-30.42412 30.11152,-30.42424 30.1119,-30.42438 30.11218,-30.42456 30.11274,-30.4248 30.11341,-30.42512 30.11406,-30.42539 30.11465,-30.42567 30.1148,-30.42574 30.11505,-30.42579 30.11522,-30.42579 30.11548,-30.42583 30.11588,-30.42583 30.11617,-30.42579 30.11651,-30.42573 30.11676,-30.42564 30.11685,-30.42555 30.11712,-30.42536 30.11745,-30.42501 30.11765,-30.42485 30.1179,-30.42456 30.11799,-30.42435 30.11806,-30.42419 30.11821,-30.42388 30.11832,-30.42364 30.11844,-30.4234 30.11851,-30.42322 30.11854,-30.42315 30.11862,-30.42293 30.11867,-30.42268 30.11868,-30.42266 30.11871,-30.42256 30.11873,-30.42247 30.11879,-30.42223 30.11882,-30.42198 30.11884,-30.42159 30.11895,-30.42112 30.11909,-30.4205 30.11912,-30.42009 30.11914,-30.41967 30.1192,-30.4195 30.11926,-30.41908 30.11934,-30.4187 30.11933,-30.41849 30.11933,-30.41808 30.11936,-30.4175 30.11933,-30.41741 30.11933,-30.4167 30.11935,-30.41606 30.11934,-30.41535 30.11934,-30.41488 30.11938,-30.4143 30.1194,-30.41383 30.11943,-30.41319 30.11943,-30.41296 30.11938,-30.41251 30.11926,-30.41189 30.11915,-30.41152 30.11892,-30.41106 30.11871,-30.41047 30.11851,-30.41019 30.1183,-30.40992 30.11808,-30.40964 30.11761,-30.40906 30.1172,-30.40861 30.11681,-30.40814 30.11653,-30.40763 30.11604,-30.40702 30.11558,-30.40642 30.11524,-30.40596 30.11499,-30.40548 30.11479,-30.40511 30.11472,-30.40488 30.11461,-30.40458 30.11446,-30.40438 30.11443,-30.4042 30.11443,-30.40401 30.11449,-30.40346 30.11449,-30.40204 30.11454,-30.40204 30.12154,-30.40206 30.12937,-30.40209 30.13465,-30.40215 30.13954,-30.40218 30.13957,-30.40219 30.13971,-30.40218 30.13982,-30.40218 30.1492,-30.40222 30.16008,-30.40244 30.17145,-30.40259 30.1723,-30.40252 30.17234,-30.40253 30.17434,-30.40258 30.17961,-30.40264 30.18304,-30.40267 30.18632,-30.40272 30.18951,-30.40274 30.19264,-30.40266 30.19744,-30.40276 30.2038,-30.4029 30.20576,-30.39581 30.2061,-30.39438 30.20761,-30.39186 30.20882,-30.38985 30.21755,-30.38751 30.22269,-30.38614 30.22548,-30.38539 30.23033,-30.38293 30.2316,-30.3817 30.23708,-30.37641 30.23975,-30.374 30.24444,-30.37127 30.24604,-30.37034 30.24759,-30.37119 30.24988,-30.37246 30.25455,-30.36653 30.25522,-30.36549 30.25757,-30.36185 30.27081,-30.36906 30.27311,-30.36955 30.27868,-30.37075 30.28177,-30.37173 30.28413,-30.37248 30.28384,-30.37445 30.28838,-30.37515 30.29452,-30.3761 30.29518,-30.37219 30.29582,-30.36868 30.29753,-30.36621 30.30364,-30.35741 30.30413,-30.35221 30.30727,-30.35219 30.30943,-30.34908 30.32393,-30.32822 30.32399,-30.32813 30.32414,-30.32791 30.33826,-30.3272 30.34165,-30.32667 30.3464,-30.32188 30.35071,-30.32335 30.34937,-30.32611 30.35419,-30.32529 30.35679,-30.32785 30.35377,-30.33294 30.35115,-30.33262 30.35188,-30.33642 30.35386,-30.33652 30.35725,-30.34275 30.36089,-30.34256 30.36109,-30.34255 30.36604,-30.34229 30.36791,-30.34296 30.36926,-30.34261 30.37236,-30.34022 30.37317,-30.3396 30.38223,-30.33261 30.39066,-30.33664 30.40939,-30.32964 30.40288,-30.31881 30.40171,-30.31681 30.42391,-30.32006 30.4258,-30.32036 30.44374,-30.32297 30.44932,-30.3261 30.45578,-30.3256 30.45754,-30.31657 30.4582,-30.32616 30.46183,-30.32255 30.47295,-30.32476 30.4755,-30.32529 30.47624,-30.32544 30.48368,-30.32699 30.49009,-30.33497 30.49011,-30.33502 30.49387,-30.34314 30.49594,-30.34771 30.49983,-30.35843 30.50414,-30.35667 30.50348,-30.3627 30.50408,-30.36708 30.50412,-30.36726 30.50417,-30.36753 30.5042,-30.36775 30.50442,-30.36899 30.50468,-30.37046 30.50566,-30.37606 30.50672,-30.37667 30.51164,-30.37975 30.52064,-30.38333 30.52717,-30.38593 30.52392,-30.40287 30.52141,-30.41509 30.52236,-30.41477 30.52427,-30.41414 30.52453,-30.41403 30.52468,-30.41395 30.52473,-30.41395 30.52478,-30.41397 30.52741,-30.41306 30.52888,-30.41256 30.53089,-30.41188 30.53256,-30.41131 30.53369,-30.41094 30.53872,-30.40919 30.5429,-30.40779 30.54712,-30.40635 30.5516,-30.40483 30.55609,-30.40329 30.56045,-30.4018 30.5638,-30.40068 30.56399,-30.40064 30.56414,-30.40087 30.56431,-30.4006 30.56467,-30.40102 30.56495,-30.40152 30.56505,-30.40181 30.56515,-30.40205 30.56515,-30.40223 30.56517,-30.4025 30.56518,-30.40273 30.56519,-30.40299 30.56511,-30.40322 30.56493,-30.4035 30.5649,-30.40356 30.56472,-30.40364 30.56456,-30.40376 30.56456,-30.40382 30.56464,-30.40385 30.56472,-30.40389 30.56469,-30.40398 30.56466,-30.40405 30.56459,-30.40419 30.56455,-30.40434 30.56443,-30.4045 30.56422,-30.40468 30.56393,-30.40494 30.56366,-30.40519 30.56348,-30.40545 30.5633,-30.40576 30.56325,-30.4058 30.56326,-30.40595 30.56313,-30.40618 30.56278,-30.40685 30.56281,-30.40718 30.56277,-30.40742 30.56275,-30.40756 30.56271,-30.40788 30.56276,-30.40808 30.56269,-30.40864 30.563,-30.40956 30.56315,-30.4099 30.56351,-30.4105 30.56352,-30.41054 30.56355,-30.41057 30.56369,-30.41084 30.56393,-30.41115 30.56403,-30.41127 30.564,-30.41139 30.56402,-30.41146 30.56415,-30.41164 30.56429,-30.41179 30.56445,-30.41188 30.5647,-30.41214 30.56478,-30.41236 30.56494,-30.41263 30.56513,-30.41278 30.56546,-30.41303 30.56605,-30.41348 30.56678,-30.4138 30.56714,-30.41387 30.5675,-30.41397 30.56785,-30.41399 30.56816,-30.41398 30.56851,-30.41388 30.56895,-30.41368 30.56933,-30.41359 30.56985,-30.41325 30.57017,-30.41293 30.57041,-30.41252 30.57043,-30.41226 30.57053,-30.412 30.57065,-30.41164 30.57079,-30.41134 30.57082,-30.41117 30.57094,-30.41079 30.57092,-30.41058 30.57104,-30.41009 30.57107,-30.4098 30.57108,-30.40966 30.57116,-30.40947 30.57123,-30.40931 30.57138,-30.40915 30.57164,-30.40896 30.57175,-30.40888 30.57189,-30.40883 30.57199,-30.40875 30.57207,-30.40869 30.57215,-30.40858 30.57236,-30.40833 30.57245,-30.40818 30.57266,-30.40776 30.57304,-30.40735 30.57323,-30.40713 30.57369,-30.4066 30.57395,-30.40622 30.57411,-30.40606 30.57457,-30.40548 30.57503,-30.40497 30.57576,-30.40424 30.57607,-30.40394 30.57643,-30.40373 30.57695,-30.40348 30.57728,-30.4033 30.57796,-30.40318 30.57835,-30.40314 30.57894,-30.40317 30.57961,-30.40315 30.58017,-30.40314 30.58066,-30.40317 30.58119,-30.40324 30.58171,-30.40327 30.58217,-30.40333 30.58226,-30.40373 30.58226,-30.4048 30.58225,-30.4061 30.58225,-30.41032 30.58224,-30.41164 30.58225,-30.41312 30.58224,-30.41422 30.58223,-30.41531 30.58222,-30.41705 30.58225,-30.41714 30.58235,-30.41775 30.58249,-30.41856 30.58262,-30.41934 30.58277,-30.42013 30.5829,-30.42093 30.58303,-30.42168 30.58317,-30.42244 30.5833,-30.42319 30.58343,-30.42396 30.58356,-30.4247 30.5837,-30.42546 30.58383,-30.42625 30.58396,-30.42701 30.58408,-30.42771 30.58421,-30.42845 30.58433,-30.42911 30.58444,-30.42976 30.58457,-30.4305 30.58469,-30.43119 30.58479,-30.43179 30.5848,-30.43181 30.58493,-30.43256 30.58505,-30.43328 30.58519,-30.43406 30.58532,-30.43482 30.58544,-30.43553 30.58558,-30.43629 30.58571,-30.43705 30.58584,-30.43777 30.58605,-30.43901 30.58618,-30.43975 30.58632,-30.44053 30.58645,-30.44129 30.58658,-30.44206 30.58672,-30.44283 30.58684,-30.44355 30.58696,-30.44423 30.5871,-30.44503 30.58727,-30.44603 30.58733,-30.44636 30.58738,-30.44665 30.58751,-30.44739 30.58762,-30.44804 30.58774,-30.44874 30.58788,-30.44951 30.588,-30.4502 30.58813,-30.45092 30.58826,-30.45169 30.58839,-30.45244 30.58851,-30.45315 30.58864,-30.45389 30.58878,-30.45467 30.58891,-30.45543 30.58905,-30.45622 30.58919,-30.45702 30.58931,-30.45771 30.58938,-30.4581 30.5895,-30.45883 30.58962,-30.45948 30.58973,-30.46017 30.58985,-30.46083 30.58995,-30.46141 30.59006,-30.46203 30.59018,-30.46273 30.59028,-30.46327 30.59037,-30.46382 30.59039,-30.4639 30.59048,-30.46429 30.59054,-30.46429 30.59088,-30.46429 30.59134,-30.46433 30.59163,-30.46439 30.592,-30.46449 30.59256,-30.46459 30.59287,-30.46467 30.59315,-30.46495 30.59323,-30.46515 30.59331,-30.4653 30.59345,-30.46575 30.59349,-30.4661 30.59351,-30.46656 30.59352,-30.46697 30.59354,-30.46704 30.59359,-30.46723 30.59367,-30.46748 30.59383,-30.46803 30.59387,-30.46814 30.59394,-30.46825 30.59407,-30.46844 30.5943,-30.46878 30.59442,-30.46896 30.59451,-30.46909 30.59456,-30.46916 30.59473,-30.46934 30.59493,-30.46955 30.5951,-30.46972 30.59521,-30.46985 30.59525,-30.46988 30.59535,-30.46995 30.59576,-30.47023 30.59587,-30.47031 30.59618,-30.47052 30.59631,-30.47055 30.5971,-30.47088 30.59885,-30.47153 30.60011,-30.47211 30.60048,-30.47231 30.60092,-30.47261 30.6017,-30.47313 30.60201,-30.47339 30.6026,-30.47319 30.60237,-30.47351 30.60229,-30.47363 30.60156,-30.47465 30.60104,-30.47537 30.60052,-30.4761 30.60015,-30.47661 30.59981,-30.47708 30.59944,-30.47761 30.5992,-30.47794 30.59889,-30.47837 30.59852,-30.47888 30.59822,-30.4793 30.59801,-30.4796 30.59766,-30.48008 30.59743,-30.48041 30.59716,-30.48078 30.59684,-30.48122 30.5966,-30.48156 30.5965,-30.48169 30.59609,-30.48227 30.59564,-30.4829 30.59522,-30.48348 30.59483,-30.48403 30.5945,-30.48449 30.59408,-30.48507 30.5936,-30.48575 30.59325,-30.48623 30.5928,-30.48685 30.59226,-30.48761 30.59213,-30.48779 30.59171,-30.48838 30.59148,-30.4887 30.59115,-30.48916 30.59076,-30.4897 30.59009,-30.49064 30.58941,-30.49158 30.58874,-30.49252 30.5905,-30.49346 30.59226,-30.49441 30.59249,-30.49453 30.59325,-30.49494 30.59345,-30.49505 30.59375,-30.49521 30.59407,-30.49538 30.59425,-30.49548 30.59463,-30.49568 30.59522,-30.496 30.5956,-30.4962 30.59627,-30.49657 30.59677,-30.49683 30.59704,-30.49698 30.5971,-30.49701 30.59718,-30.49706 30.59743,-30.49719 30.59753,-30.49724 30.59824,-30.49762 30.59997,-30.49856 30.6017,-30.49949 30.60339,-30.49692 30.60358,-30.49664 30.60376,-30.49637 30.60388,-30.49619 30.60415,-30.49578 30.60436,-30.49545 30.60494,-30.49458 30.60527,-30.49408 30.60575,-30.49336 30.60595,-30.49305 30.60617,-30.49271 30.60635,-30.49244 30.60656,-30.49213 30.60675,-30.49184 30.607,-30.49146 30.60711,-30.49129 30.60737,-30.4909 30.60765,-30.49047 30.60776,-30.4903 30.60791,-30.49008 30.6081,-30.4898 30.60822,-30.48961 30.60828,-30.48951 30.60851,-30.48917 30.60884,-30.48867 30.6089,-30.48858 30.60896,-30.48861 30.60921,-30.48876 30.60996,-30.48918 30.61021,-30.48933 30.61046,-30.48947 30.6107,-30.4896 30.61093,-30.48973 30.61116,-30.48987 30.61139,-30.49 30.6115,-30.49006 30.61189,-30.49034 30.61356,-30.49156 30.61521,-30.49276 30.61623,-30.4935 30.61724,-30.49423 30.61843,-30.4951 30.61924,-30.49568 30.62074,-30.49678 30.6219,-30.49762 30.62251,-30.49807 30.6232,-30.49856 30.62416,-30.49926 30.62484,-30.49976 30.62522,-30.50003 30.62596,-30.50057 30.62634,-30.50084 30.62674,-30.50114 30.62914,-30.50288 30.6293,-30.503 30.62931,-30.50304 30.62931,-30.50311 30.62929,-30.50315 30.62922,-30.50326 30.62921,-30.50334 30.62921,-30.50339 30.62915,-30.50347 30.62909,-30.5035 30.62897,-30.50357 30.62897,-30.50362 30.62901,-30.50367 30.62896,-30.50373 30.62891,-30.5038 30.62877,-30.50387 30.62866,-30.50391 30.62857,-30.50396 30.62853,-30.50401 30.62849,-30.5041 30.62846,-30.50416 30.62838,-30.50428 30.62828,-30.50437 30.62816,-30.50451 30.62803,-30.50463 30.62793,-30.50475 30.62788,-30.50486 30.62793,-30.5049 30.62795,-30.50492 30.62792,-30.50498 30.6279,-30.50501 30.62787,-30.50507 30.6278,-30.50516 30.6277,-30.50526 30.62764,-30.50533 30.62759,-30.50538 30.62758,-30.50541 30.62754,-30.50547 30.62747,-30.5055 30.62739,-30.50553 30.62731,-30.50558 30.62718,-30.50565 30.62709,-30.50571 30.62701,-30.50579 30.62691,-30.50584 30.62686,-30.50591 30.62678,-30.50594 30.6267,-30.50593 30.62668,-30.50599 30.62669,-30.50603 30.62667,-30.50609 30.62667,-30.50616 30.62665,-30.5062 30.62655,-30.50625 30.62648,-30.50623 30.62641,-30.50619 30.62637,-30.5062 30.62638,-30.50625 30.62641,-30.50629 30.62642,-30.50634 30.62637,-30.50643 30.62629,-30.50644 30.62619,-30.50651 30.62615,-30.50661 30.62609,-30.50666 30.62595,-30.50671 30.62585,-30.50677 30.62583,-30.50686 30.62574,-30.50693 30.6256,-30.50702 30.62551,-30.50714 30.6254,-30.50726 30.62532,-30.50737 30.62523,-30.50749 30.62515,-30.50757 30.62503,-30.50765 30.62498,-30.5077 30.62498,-30.50786 30.6249,-30.508 30.62486,-30.50805 30.62482,-30.50812 30.62483,-30.50829 30.62487,-30.50833 30.62492,-30.50836 30.62492,-30.5084 30.62488,-30.5084 30.62492,-30.50848 30.62498,-30.50851 30.62508,-30.50856 30.62512,-30.50863 30.62514,-30.50869 30.62513,-30.50875 30.62511,-30.50883 30.62513,-30.50885 30.62518,-30.50892 30.62517,-30.50901 30.62515,-30.50913 30.62505,-30.50927 30.62499,-30.50936 30.62496,-30.50948 30.62491,-30.50958 30.62491,-30.50977 30.62495,-30.50984 30.62502,-30.50987 30.62508,-30.50984 30.62518,-30.5098 30.62522,-30.50981 30.62528,-30.50986 30.62536,-30.50993 30.62542,-30.51004 30.62542,-30.51011 30.62536,-30.5102 30.62534,-30.51027 30.62533,-30.51034 30.62526,-30.51042 30.62516,-30.51051 30.62512,-30.51056 30.62504,-30.51067 30.62502,-30.51071 30.62502,-30.51074 30.62501,-30.51077 30.62492,-30.51077 30.62486,-30.51073 30.62483,-30.51073 30.62478,-30.51075 30.62478,-30.5108 30.62479,-30.51089 30.62479,-30.51093 30.6248,-30.51098 30.6248,-30.51104 30.62478,-30.51109 30.62473,-30.51115 30.62473,-30.51124 30.62475,-30.51128 30.62475,-30.51133 30.62473,-30.51142 30.62477,-30.51144 30.6248,-30.51144 30.62481,-30.5115 30.62475,-30.5115 30.6247,-30.51149 30.62467,-30.5115 30.62466,-30.51156 30.62467,-30.51162 30.62467,-30.51169 30.6247,-30.51176 30.62475,-30.51179 30.62472,-30.51187 30.62477,-30.51191 30.62477,-30.51195 30.62469,-30.51199 30.62466,-30.51202 30.62468,-30.51207 30.62473,-30.51208 30.62483,-30.51208 30.62485,-30.51213 30.62488,-30.51223 30.62491,-30.51226 30.6249,-30.51232 30.62487,-30.51232 30.62484,-30.51237 30.62485,-30.51243 30.62483,-30.51249 30.62478,-30.51251 30.62472,-30.51258 30.62469,-30.51264 30.62471,-30.51268 30.62474,-30.51271 30.6246,-30.51272 30.62452,-30.51273 30.62449,-30.51279 30.62438,-30.51284 30.62426,-30.51293 30.62414,-30.51306 30.62408,-30.51311 30.62406,-30.51314 30.62399,-30.51318 30.62394,-30.51326 30.62379,-30.5134 30.62364,-30.51345 30.62357,-30.51345 30.62347,-30.51349 30.62348,-30.51353 30.62352,-30.51355 30.62353,-30.5136 30.62353,-30.51366 30.62348,-30.51369 30.62346,-30.51364 30.62343,-30.51359 30.62339,-30.5136 30.6234,-30.51366 30.6234,-30.51372 30.6233,-30.51384 30.62319,-30.51395 30.62319,-30.51405 30.62322,-30.51409 30.62315,-30.51411 30.62307,-30.51411 30.62305,-30.51414 30.62305,-30.51421 30.62298,-30.51421 30.6229,-30.51424 30.62276,-30.51438 30.62276,-30.51442 30.6227,-30.51451 30.62261,-30.51451 30.62255,-30.51454 30.62248,-30.51457 30.62237,-30.51462 30.62224,-30.51474 30.62217,-30.51483 30.62208,-30.51491 30.62206,-30.51501 30.622,-30.51511 30.62196,-30.51525 30.62196,-30.51532 30.62195,-30.51543 30.62194,-30.51552 30.62188,-30.51555 30.62186,-30.51562 30.62186,-30.51569 30.62174,-30.51572 30.62168,-30.51575 30.62168,-30.51579 30.6216,-30.51587 30.62148,-30.51598 30.62152,-30.51603 30.62144,-30.51614 30.62133,-30.51619 30.62129,-30.51629 30.62113,-30.51629 30.62106,-30.51628 30.62101,-30.51631 30.62093,-30.51629 30.62087,-30.51625 30.62067,-30.51625 30.62064,-30.51627 30.62066,-30.5163 30.62074,-30.51634 30.62068,-30.51639 30.62057,-30.51638 30.6205,-30.51636 30.62043,-30.51633 30.62037,-30.51629 30.62029,-30.51626 30.62022,-30.51624 30.62015,-30.51617 30.62012,-30.51613 30.62003,-30.5161 30.61997,-30.51614 30.61986,-30.51623 30.61977,-30.5163 30.61971,-30.51639 30.61956,-30.51645 30.6195,-30.51653 30.61935,-30.51666 30.61922,-30.51671 30.6191,-30.5168 30.61903,-30.51688 30.619,-30.51695 30.61898,-30.51702 30.61887,-30.51708 30.6187,-30.51714 30.61863,-30.51715 30.61862,-30.51721 30.61862,-30.51728 30.61856,-30.51739 30.61845,-30.51747 30.61832,-30.51747 30.61825,-30.51748 30.61816,-30.51751 30.61813,-30.51751 30.61809,-30.51756 30.61804,-30.51761 30.61804,-30.51768 30.61808,-30.51772 30.6181,-30.51776 30.61806,-30.51782 30.61797,-30.51788 30.61789,-30.51788 30.61781,-30.51782 30.61774,-30.51783 30.61769,-30.51786 30.61763,-30.51795 30.61759,-30.51795 30.61754,-30.51796 30.61753,-30.51799 30.61754,-30.51805 30.61755,-30.51812 30.61753,-30.51816 30.61749,-30.51819 30.61742,-30.51825 30.6173,-30.51836 30.61724,-30.51842 30.61713,-30.51847 30.61711,-30.51844 30.61707,-30.51844 30.61693,-30.5185 30.61687,-30.51854 30.61684,-30.51862 30.61682,-30.51871 30.6167,-30.51883 30.61659,-30.51889 30.6165,-30.51898 30.61644,-30.51899 30.61638,-30.51901 30.6163,-30.51912 30.61623,-30.51917 30.61615,-30.5192 30.61608,-30.51927 30.61597,-30.51935 30.61584,-30.51941 30.6157,-30.51955 30.6156,-30.51961 30.61551,-30.51967 30.61548,-30.51975 30.61537,-30.51983 30.6153,-30.51992 30.61518,-30.52001 30.61511,-30.52009 30.61504,-30.52015 30.61497,-30.52023 30.61483,-30.5203 30.61473,-30.52036 30.61467,-30.52042 30.61453,-30.52054 30.61435,-30.52074 30.61431,-30.52077 30.61429,-30.52082 30.61424,-30.52088 30.61419,-30.52088 30.61415,-30.52091 30.61409,-30.52101 30.61402,-30.52107 30.61395,-30.5211 30.61384,-30.52114 30.6138,-30.52114 30.61375,-30.5212 30.61366,-30.52126 30.61355,-30.52133 30.61348,-30.52143 30.61346,-30.52149 30.61339,-30.52154 30.61321,-30.52165 30.61316,-30.52172 30.6131,-30.52183 30.61296,-30.52199 30.61285,-30.52206 30.61283,-30.52212 30.61281,-30.52222 30.6127,-30.52236 30.6126,-30.52253 30.61253,-30.52268 30.61239,-30.52287 30.61231,-30.52295 30.61223,-30.52308 30.61212,-30.52323 30.61198,-30.52335 30.6119,-30.52345 30.61179,-30.52355 30.61167,-30.52367 30.61159,-30.52371 30.61149,-30.52386 30.6114,-30.52396 30.61115,-30.52421 30.6111,-30.52427 30.61105,-30.52436 30.61096,-30.52445 30.61092,-30.52453 30.61087,-30.52464 30.61079,-30.5247 30.61073,-30.52479 30.61067,-30.52491 30.61064,-30.52502 30.61055,-30.52511 30.61052,-30.52518 30.61051,-30.52524 30.61048,-30.52527 30.61045,-30.52537 30.61043,-30.52549 30.61044,-30.52557 30.61047,-30.52564 30.61047,-30.52574 30.61056,-30.52575 30.61065,-30.52578 30.61074,-30.52583 30.61081,-30.52586 30.61081,-30.526 30.61077,-30.52602 30.6107,-30.52604 30.61064,-30.52612 30.6107,-30.52616 30.61076,-30.52624 30.61076,-30.52633 30.61079,-30.5264 30.61081,-30.52647 30.61085,-30.52652 30.61087,-30.52659 30.61084,-30.52665 30.61075,-30.52672 30.61068,-30.52675 30.61062,-30.52681 30.61053,-30.52682 30.61048,-30.52685 30.6104,-30.52696 30.6103,-30.52702 30.6102,-30.5271 30.61014,-30.52713 30.61,-30.52725 30.60992,-30.52739 30.60992,-30.52751 30.60997,-30.52755 30.61002,-30.52766 30.61,-30.52773 30.60993,-30.52783 30.60984,-30.52795 30.60977,-30.52801 30.60972,-30.52807 30.60963,-30.52816 30.60952,-30.52823 30.60944,-30.52832 30.60935,-30.5284 30.60931,-30.52844 30.60925,-30.52855 30.60922,-30.52863 30.60916,-30.52875 30.6091,-30.52885 30.60909,-30.52893 30.60909,-30.52897 30.60912,-30.5291 30.60916,-30.52916 30.60925,-30.52928 30.60925,-30.52934 30.60923,-30.52937 30.60924,-30.52941 30.60918,-30.52942 30.60912,-30.52945 30.60903,-30.52945 30.60895,-30.52946 30.60871,-30.52955 30.60861,-30.5296 30.60856,-30.52969 30.6085,-30.52977 30.60839,-30.52986 30.60829,-30.52993 30.60823,-30.53001 30.6082,-30.5301 30.60816,-30.5302 30.60812,-30.53029 30.60804,-30.53037 30.60802,-30.53045 30.60795,-30.53054 30.6079,-30.53067 30.60781,-30.5308 30.6078,-30.53092 30.60777,-30.53099 30.60777,-30.53105 30.60774,-30.53111 30.6077,-30.5312 30.60763,-30.53132 30.60759,-30.53145 30.60755,-30.53152 30.60749,-30.53164 30.60747,-30.53178 30.6075,-30.53186 30.60749,-30.53193 30.60744,-30.532 30.60743,-30.53214 30.60748,-30.53221 30.60755,-30.53225 30.60764,-30.53232 30.60767,-30.53239 30.60767,-30.53253 30.6077,-30.53268 30.60772,-30.53274 30.60777,-30.53281 30.60786,-30.53284 30.60793,-30.5329 30.60799,-30.53295 30.60805,-30.53303 30.60806,-30.53309 30.60807,-30.53313 30.60813,-30.53314 30.60818,-30.53316 30.60822,-30.5332 30.60826,-30.53325 30.6083,-30.53333 30.60833,-30.5334 30.60832,-30.53348 30.60834,-30.5336 30.60842,-30.5336 30.60849,-30.53366 30.60848,-30.53371 30.60854,-30.53375 30.60864,-30.5338 30.60869,-30.53382 30.60863,-30.53386 30.60858,-30.53386 30.60863,-30.5339 30.60863,-30.53397 30.60864,-30.53402 30.60867,-30.53406 30.60859,-30.53414 30.6086,-30.5342 30.60851,-30.53429 30.60847,-30.53431 30.60849,-30.5344 30.60855,-30.53444 30.60856,-30.53447 30.60858,-30.53452 30.60864,-30.53452 30.60865,-30.53456 30.60858,-30.53461 30.60853,-30.53464 30.60845,-30.53466 30.60836,-30.5347 30.60825,-30.53479 30.60815,-30.53484 30.60812,-30.53492 30.60812,-30.53496 30.60817,-30.53501 30.60816,-30.5351 30.60815,-30.53514 30.60809,-30.53521 30.60801,-30.53523 30.60792,-30.53527 30.60792,-30.53533 30.60794,-30.53536 30.608,-30.53536 30.608,-30.53543 30.60798,-30.5355 30.60802,-30.53557 30.60801,-30.53563 30.60792,-30.53563 30.60784,-30.53566 30.6078,-30.53573 30.60785,-30.53582 30.60793,-30.53586 30.60799,-30.53588 30.60801,-30.53598 30.60795,-30.53606 30.60798,-30.53612 30.60793,-30.53624 30.60787,-30.5363 30.60782,-30.53634 30.60782,-30.53641 30.60786,-30.53644 30.60783,-30.5365 30.60776,-30.53657 30.60767,-30.53663 30.60766,-30.53668 30.60771,-30.53672 30.60771,-30.53677 30.60767,-30.53681 30.60762,-30.53687 30.60762,-30.53692 30.60754,-30.53696 30.60745,-30.537 30.60738,-30.53702 30.60738,-30.53705 30.60746,-30.5371 30.60741,-30.53718 30.6073,-30.53722 30.60728,-30.53728 30.60729,-30.53734 30.6073,-30.53739 30.60737,-30.53739 30.6074,-30.5374 30.60719,-30.53747 30.60717,-30.5375 30.60719,-30.53756 30.60714,-30.53759 30.60702,-30.53762 30.60697,-30.53765 30.60697,-30.5377 30.6069,-30.53774 30.60686,-30.53776 30.60686,-30.5378 30.60688,-30.53786 30.6069,-30.53795 30.60683,-30.53799 30.60681,-30.53805 30.60681,-30.53809 30.60686,-30.5381 30.60689,-30.5381 30.60691,-30.53813 30.60691,-30.53819 30.60686,-30.53822 30.60686,-30.53828 30.60688,-30.53838 30.60685,-30.53844 30.60678,-30.53849 30.6067,-30.53858 30.60664,-30.53865 30.60655,-30.53874 30.60643,-30.53885 30.60635,-30.53898 30.6063,-30.53907 30.60621,-30.53909 30.60605,-30.53923 30.60605,-30.5393 30.60601,-30.53937 30.60597,-30.53937 30.60598,-30.53943 30.60603,-30.53945 30.60604,-30.53949 30.60598,-30.5395 30.60593,-30.53949 30.6059,-30.53949 30.60589,-30.53956 30.60603,-30.53966 30.60608,-30.5397 30.60601,-30.53973 30.60592,-30.53972 30.60587,-30.53966 30.60583,-30.53966 30.60581,-30.5397 30.60576,-30.5397 30.60576,-30.53974 30.60572,-30.53979 30.60569,-30.53983 30.60555,-30.53993 30.60551,-30.53993 30.60548,-30.53995 30.60552,-30.53999 30.60553,-30.54003 30.60543,-30.54006 30.60535,-30.54006 30.60528,-30.54007 30.60523,-30.5401 30.60518,-30.54016 30.60515,-30.54023 30.6051,-30.54029 30.60502,-30.54035 30.60504,-30.5404 30.60511,-30.54042 30.60513,-30.54046 30.6051,-30.54054 30.605,-30.54064 30.60486,-30.54074 30.60479,-30.54082 30.60468,-30.54086 30.60463,-30.54088 30.60462,-30.54094 30.60457,-30.541 30.60449,-30.54103 30.60443,-30.54107 30.60419,-30.54107 30.60415,-30.54108 30.60405,-30.54114 30.60401,-30.54114 30.60397,-30.54115 30.60397,-30.54119 30.60401,-30.54123 30.60405,-30.5413 30.60392,-30.5413 30.60387,-30.54129 30.60381,-30.54128 30.60376,-30.5413 30.60379,-30.54133 30.60382,-30.54134 30.60387,-30.54136 30.60372,-30.54136 30.60361,-30.54138 30.60347,-30.54139 30.60341,-30.54141 30.60341,-30.54145 30.60343,-30.5415 30.6034,-30.54155 30.60332,-30.54158 30.60325,-30.54161 30.60322,-30.54158 30.60318,-30.54156 30.60315,-30.54156 30.60313,-30.54161 30.60317,-30.54164 30.60312,-30.54168 30.60307,-30.54168 30.60304,-30.54165 30.60295,-30.54169 30.60291,-30.54167 30.60284,-30.54164 30.60278,-30.54168 30.60279,-30.54174 30.60282,-30.54175 30.60286,-30.54176 30.60285,-30.54182 30.60271,-30.5419 30.60267,-30.5419 30.60264,-30.54192 30.60267,-30.54195 30.6026,-30.54202 30.60245,-30.54207 30.60239,-30.54215 30.60234,-30.54222 30.60226,-30.54228 30.60221,-30.54232 30.6021,-30.54241 30.60203,-30.54244 30.60196,-30.54246 30.6017,-30.54246 30.60164,-30.54248 30.60159,-30.54249 30.60154,-30.54253 30.60142,-30.5426 30.60133,-30.54262 30.60127,-30.54262 30.60115,-30.54264 30.60107,-30.54268 30.60104,-30.54272 30.60092,-30.54277 30.60087,-30.54278 30.6008,-30.5428 30.60069,-30.54287 30.60057,-30.54291 30.60051,-30.54296 30.60041,-30.54296 30.60038,-30.54298 30.60034,-30.54304 30.60028,-30.54307 30.60022,-30.54311 30.60017,-30.54314 30.60008,-30.54318 30.59999,-30.54327 30.59988,-30.54331 30.59984,-30.54335 30.59979,-30.54342 30.59972,-30.54345 30.59961,-30.54354 30.59953,-30.54358 30.59949,-30.54364 30.59941,-30.54372 30.59923,-30.54381 30.5991,-30.5439 30.59904,-30.54396 30.59898,-30.54401 30.59886,-30.54406 30.59882,-30.54413 30.59878,-30.54421 30.59874,-30.54427 30.59871,-30.54433 30.59858,-30.54436 30.59856,-30.54442 30.59844,-30.54453 30.59835,-30.54459 30.59828,-30.54462 30.59824,-30.54468 30.5982,-30.54475 30.59816,-30.54479 30.5981,-30.54483 30.598,-30.54487 30.59796,-30.54493 30.59783,-30.54504 30.59778,-30.54507 30.59772,-30.5451 30.59767,-30.54513 30.5976,-30.54524 30.59752,-30.54531 30.59745,-30.54533 30.59736,-30.5454 30.59725,-30.54548 30.59714,-30.54554 30.59707,-30.54561 30.59689,-30.54572 30.59675,-30.54581 30.59666,-30.54588 30.59663,-30.54591 30.5966,-30.54595 30.59658,-30.54596</coordinates></LinearRing></outerBoundaryIs></Polygon></MultiGeometry></Placemark></Document></kml>