<?xml version="1.0" encoding="UTF-8"?><kml xmlns="http://www.opengis.net/kml/2.2"><Document><Placemark><name>Qoloqolo</name><description>Main Place 503041</description><ExtendedData><Data name="code"><value>503041</value></Data><Data name="name"><value>Qoloqolo</value></Data><Data name="description"><value>Main Place 503041</value></Data></ExtendedData><MultiGeometry><Polygon><outerBoundaryIs><LinearRing><coordinates>30.21432,-30.5063 30.21465,-30.50656 30.21484,-30.50655 30.21513,-30.50641 30.21539,-30.50638 30.21593,-30.50645 30.21692,-30.50652 30.21765,-30.50672 30.21798,-30.50668 30.21884,-30.5067 30.21944,-30.50691 30.22015,-30.50742 30.22086,-30.50763 30.22229,-30.50794 30.2234,-30.50745 30.22419,-30.50701 30.22504,-30.50693 30.22583,-30.50713 30.22672,-30.50767 30.22745,-30.50824 30.22777,-30.50828 30.22843,-30.50817 30.22951,-30.50817 30.23024,-30.50813 30.2308,-30.50791 30.23094,-30.50802 30.23109,-30.50825 30.23126,-30.50856 30.23132,-30.50882 30.23138,-30.50908 30.23151,-30.50925 30.23173,-30.50944 30.23197,-30.50971 30.23199,-30.50985 30.23196,-30.50997 30.23174,-30.50997 30.23145,-30.50991 30.23118,-30.5098 30.23075,-30.50968 30.2305,-30.50964 30.23023,-30.50964 30.23011,-30.5097 30.22998,-30.50975 30.22995,-30.50989 30.22995,-30.51002 30.22996,-30.51022 30.22998,-30.51041 30.23023,-30.5106 30.23049,-30.51078 30.2309,-30.51088 30.2312,-30.51088 30.23162,-30.5109 30.23205,-30.511 30.2324,-30.51109 30.2329,-30.51119 30.23307,-30.51133 30.23308,-30.51145 30.23307,-30.51158 30.23299,-30.5117 30.23282,-30.51184 30.23271,-30.51195 30.23261,-30.51206 30.2327,-30.51217 30.233,-30.51229 30.23303,-30.51238 30.23293,-30.51258 30.2327,-30.51287 30.23265,-30.51319 30.23245,-30.51325 30.23224,-30.51313 30.23203,-30.51294 30.23177,-30.51267 30.23154,-30.51249 30.23126,-30.51241 30.23101,-30.51241 30.23061,-30.51249 30.23045,-30.5127 30.23038,-30.51286 30.23037,-30.51298 30.23056,-30.5131 30.23081,-30.51318 30.23089,-30.51332 30.23086,-30.5135 30.23072,-30.51367 30.23065,-30.5139 30.23041,-30.51422 30.23023,-30.51459 30.23003,-30.51482 30.22982,-30.51497 30.22951,-30.51521 30.22937,-30.51551 30.22903,-30.51588 30.22861,-30.51607 30.22795,-30.51616 30.22717,-30.51648 30.22579,-30.51686 30.22514,-30.51677 30.2244,-30.51677 30.22391,-30.51679 30.22374,-30.51706 30.22354,-30.51735 30.2232,-30.51736 30.22272,-30.51737 30.22165,-30.5177 30.22097,-30.5178 30.2201,-30.51832 30.2195,-30.5185 30.2185,-30.51897 30.2177,-30.51935 30.21675,-30.51985 30.21623,-30.5201 30.21548,-30.51987 30.21468,-30.51982 30.21415,-30.51997 30.21355,-30.52022 30.21295,-30.5203 30.21235,-30.52042 30.21205,-30.52075 30.21175,-30.52125 30.21128,-30.52159 30.21083,-30.52192 30.21031,-30.52244 30.21001,-30.52282 30.21001,-30.52342 30.20996,-30.52404 30.20996,-30.52435 30.21005,-30.52468 30.21005,-30.52496 30.21005,-30.52539 30.20974,-30.52581 30.20923,-30.52598 30.20864,-30.52621 30.20801,-30.52631 30.20772,-30.52664 30.20742,-30.52705 30.20707,-30.52746 30.20707,-30.52777 30.20725,-30.52823 30.20755,-30.52839 30.20786,-30.52844 30.20866,-30.52879 30.20914,-30.52902 30.20971,-30.52921 30.20996,-30.52934 30.2103,-30.52959 30.21061,-30.53 30.21067,-30.53041 30.21067,-30.53084 30.21053,-30.53114 30.21049,-30.53128 30.21048,-30.53129 30.21044,-30.53143 30.21048,-30.53187 30.21058,-30.53228 30.21077,-30.53264 30.21107,-30.53302 30.21116,-30.53337 30.21104,-30.53371 30.21081,-30.53415 30.21057,-30.53433 30.21017,-30.53437 30.20991,-30.53444 30.20924,-30.53446 30.20849,-30.53456 30.20827,-30.53462 30.20799,-30.53471 30.20776,-30.53474 30.20711,-30.53475 30.20665,-30.5348 30.20634,-30.53484 30.20606,-30.53491 30.20575,-30.53493 30.20544,-30.535 30.20516,-30.53507 30.205,-30.53513 30.20481,-30.53531 30.20467,-30.53546 30.20446,-30.5356 30.2042,-30.53586 30.2042,-30.53609 30.20423,-30.53634 30.20407,-30.53652 30.20378,-30.53661 30.20364,-30.5367 30.20355,-30.53693 30.20344,-30.53711 30.20334,-30.53729 30.2032,-30.53747 30.20312,-30.53768 30.20312,-30.53784 30.20318,-30.53804 30.20318,-30.53823 30.20312,-30.53837 30.20297,-30.53845 30.20262,-30.53841 30.2023,-30.5384 30.20193,-30.5384 30.20128,-30.53842 30.20097,-30.53842 30.20062,-30.53845 30.20031,-30.53841 30.19992,-30.53833 30.19956,-30.53844 30.19907,-30.53845 30.19844,-30.53858 30.19817,-30.53858 30.19786,-30.53858 30.19728,-30.53875 30.19707,-30.53878 30.19648,-30.53883 30.19612,-30.53888 30.19593,-30.53888 30.19562,-30.53877 30.19542,-30.53884 30.19534,-30.539 30.19533,-30.53925 30.19538,-30.53949 30.19611,-30.53996 30.19624,-30.54024 30.19605,-30.54029 30.19589,-30.54045 30.19589,-30.54067 30.19589,-30.54104 30.19571,-30.54145 30.19555,-30.54192 30.19537,-30.542 30.19519,-30.542 30.19464,-30.542 30.19399,-30.54203 30.19345,-30.54213 30.19328,-30.54237 30.19321,-30.54262 30.19334,-30.54283 30.19377,-30.54328 30.19425,-30.54382 30.19438,-30.54403 30.19437,-30.54425 30.1943,-30.54443 30.19409,-30.54464 30.19387,-30.54465 30.19357,-30.54464 30.1928,-30.54435 30.19201,-30.54397 30.19179,-30.54394 30.1914,-30.54395 30.19097,-30.54395 30.19051,-30.54403 30.19025,-30.54425 30.19021,-30.54455 30.19039,-30.54502 30.19078,-30.54576 30.19085,-30.54655 30.19134,-30.54702 30.19202,-30.54766 30.19266,-30.54792 30.1933,-30.54842 30.19435,-30.5492 30.19517,-30.54998 30.19567,-30.55046 30.19579,-30.55096 30.19581,-30.55152 30.19616,-30.55277 30.19671,-30.55377 30.19707,-30.55495 30.19666,-30.55506 30.19605,-30.55508 30.19582,-30.55511 30.19549,-30.555 30.19527,-30.55494 30.19507,-30.55489 30.19471,-30.55492 30.194,-30.55512 30.19293,-30.55557 30.19219,-30.55594 30.1908,-30.55642 30.19014,-30.55656 30.18978,-30.5568 30.18904,-30.55725 30.1887,-30.55755 30.18818,-30.55798 30.18741,-30.55851 30.18706,-30.55898 30.18695,-30.55899 30.18646,-30.55862 30.18577,-30.5583 30.18509,-30.55802 30.18468,-30.55758 30.1844,-30.55708 30.18405,-30.55665 30.1834,-30.55602 30.18284,-30.55574 30.18215,-30.55571 30.18137,-30.55624 30.18087,-30.55624 30.1803,-30.55602 30.17996,-30.55527 30.17974,-30.55508 30.17902,-30.55508 30.17843,-30.55512 30.17752,-30.55462 30.1773,-30.55365 30.17674,-30.55277 30.17652,-30.55243 30.17615,-30.55152 30.17643,-30.54986 30.17643,-30.54852 30.17646,-30.54708 30.17634,-30.5464 30.17577,-30.54593 30.1754,-30.54558 30.17546,-30.54511 30.17605,-30.5444 30.17587,-30.54365 30.17521,-30.54333 30.17509,-30.54277 30.17509,-30.54205 30.17559,-30.54143 30.17634,-30.54115 30.1769,-30.54102 30.17762,-30.54036 30.17819,-30.53982 30.17807,-30.53944 30.17805,-30.53936 30.1775,-30.53906 30.17711,-30.53869 30.17696,-30.53819 30.17693,-30.53776 30.17668,-30.53739 30.17655,-30.53699 30.17645,-30.53653 30.17608,-30.53615 30.17581,-30.53589 30.17538,-30.53534 30.17478,-30.53479 30.17476,-30.53456 30.17476,-30.53429 30.1749,-30.53405 30.17504,-30.53392 30.17517,-30.53379 30.17535,-30.53361 30.17555,-30.53343 30.17593,-30.53303 30.17633,-30.53272 30.17652,-30.53231 30.17653,-30.53193 30.17653,-30.53143 30.17653,-30.531 30.17621,-30.5306 30.17576,-30.53009 30.17538,-30.52966 30.17517,-30.52911 30.17517,-30.52897 30.17524,-30.52871 30.17538,-30.52862 30.17553,-30.52862 30.17572,-30.52862 30.17609,-30.52862 30.17619,-30.52843 30.17607,-30.52823 30.17598,-30.5278 30.17572,-30.52719 30.17548,-30.52668 30.17555,-30.52616 30.17529,-30.52587 30.17514,-30.52566 30.17516,-30.52542 30.17536,-30.52537 30.17574,-30.52506 30.17576,-30.52463 30.17543,-30.52425 30.17507,-30.52355 30.17473,-30.52313 30.17438,-30.52274 30.17416,-30.52243 30.17392,-30.52186 30.17388,-30.52139 30.1739,-30.52124 30.17395,-30.521 30.17407,-30.52071 30.17442,-30.5205 30.17462,-30.51966 30.17464,-30.51909 30.17488,-30.51876 30.17517,-30.51849 30.17552,-30.51811 30.17583,-30.51768 30.17626,-30.51733 30.17664,-30.51709 30.17734,-30.51671 30.17798,-30.5163 30.17822,-30.51601 30.17862,-30.51566 30.17881,-30.51525 30.17898,-30.51472 30.17906,-30.51432 30.1792,-30.51389 30.17944,-30.5133 30.17958,-30.51298 30.17992,-30.51248 30.1802,-30.51206 30.18049,-30.51169 30.18057,-30.5115 30.18063,-30.51127 30.1807,-30.51096 30.18076,-30.51062 30.18079,-30.51042 30.18088,-30.51025 30.181,-30.51007 30.18111,-30.50986 30.1812,-30.50973 30.18131,-30.50959 30.18137,-30.5095 30.18162,-30.50913 30.18191,-30.50911 30.18212,-30.50912 30.18229,-30.50914 30.18244,-30.5092 30.18294,-30.50951 30.18362,-30.5099 30.18451,-30.51037 30.18468,-30.51064 30.18475,-30.51106 30.18484,-30.51167 30.18518,-30.51252 30.18537,-30.51405 30.18539,-30.51426 30.18604,-30.5143 30.18652,-30.51444 30.18707,-30.51471 30.18725,-30.51488 30.18748,-30.51504 30.18788,-30.51516 30.18801,-30.51524 30.18819,-30.51547 30.18837,-30.51565 30.18849,-30.51574 30.1887,-30.51582 30.18893,-30.5159 30.18943,-30.51599 30.19009,-30.51607 30.19103,-30.51616 30.19201,-30.51618 30.19241,-30.51621 30.19269,-30.51628 30.19294,-30.51637 30.19336,-30.51656 30.19371,-30.5167 30.1941,-30.51684 30.19458,-30.51699 30.19527,-30.51718 30.19536,-30.5172 30.19537,-30.5172 30.19552,-30.51711 30.19572,-30.51692 30.196,-30.51675 30.19618,-30.51663 30.19634,-30.51653 30.19646,-30.51639 30.19676,-30.51593 30.19692,-30.51569 30.19714,-30.5152 30.19725,-30.51509 30.1975,-30.51499 30.19794,-30.51483 30.19838,-30.51462 30.19886,-30.51436 30.1993,-30.51408 30.19959,-30.51388 30.20002,-30.51351 30.2006,-30.51297 30.20078,-30.51289 30.20113,-30.51288 30.20181,-30.51289 30.20243,-30.51285 30.20269,-30.51281 30.20301,-30.51269 30.20322,-30.51255 30.20335,-30.51241 30.20343,-30.51225 30.20346,-30.51201 30.2035,-30.51175 30.2036,-30.51149 30.20378,-30.51124 30.20399,-30.51095 30.20397,-30.51082 30.20386,-30.51022 30.20374,-30.51004 30.20362,-30.50985 30.20356,-30.50967 30.20354,-30.50952 30.20354,-30.50941 30.20358,-30.50926 30.20385,-30.50901 30.20435,-30.50878 30.20506,-30.50852 30.20568,-30.50837 30.20625,-30.50809 30.20682,-30.50774 30.20749,-30.50736 30.2078,-30.50705 30.20813,-30.50651 30.20842,-30.50575 30.20861,-30.50523 30.20876,-30.5045 30.20974,-30.5046 30.21071,-30.50462 30.21129,-30.50474 30.21203,-30.50489 30.21244,-30.50503 30.2128,-30.50515 30.21307,-30.50525 30.21368,-30.5057 30.21432,-30.5063</coordinates></LinearRing></outerBoundaryIs></Polygon></MultiGeometry></Placemark></Document></kml>