<?xml version="1.0" encoding="UTF-8"?><kml xmlns="http://www.opengis.net/kml/2.2"><Document><Placemark><name>Izingolweni</name><description>Main Place 505012</description><ExtendedData><Data name="code"><value>505012</value></Data><Data name="name"><value>Izingolweni</value></Data><Data name="description"><value>Main Place 505012</value></Data></ExtendedData><MultiGeometry><Polygon><outerBoundaryIs><LinearRing><coordinates>30.14137,-30.78079 30.14099,-30.78304 30.14046,-30.78533 30.14054,-30.78606 30.14055,-30.78608 30.14057,-30.78627 30.1406,-30.78708 30.13927,-30.7882 30.13886,-30.78773 30.13823,-30.78764 30.13785,-30.788 30.13711,-30.78889 30.13584,-30.78847 30.13511,-30.78788 30.13455,-30.78677 30.13424,-30.78625 30.13363,-30.78623 30.13378,-30.7856 30.13394,-30.78535 30.13416,-30.78494 30.13361,-30.78459 30.1314,-30.78344 30.12977,-30.78273 30.12928,-30.78266 30.12831,-30.78273 30.12632,-30.78336 30.12511,-30.78348 30.12479,-30.78345 30.12447,-30.78343 30.12362,-30.78323 30.12292,-30.78294 30.12193,-30.78228 30.12131,-30.78151 30.12071,-30.78043 30.12021,-30.77962 30.11953,-30.77908 30.1188,-30.77875 30.11803,-30.77836 30.11754,-30.77802 30.11695,-30.77709 30.11646,-30.77617 30.11601,-30.77558 30.115,-30.77469 30.11201,-30.77205 30.11065,-30.77085 30.10877,-30.76911 30.10803,-30.76788 30.10778,-30.76685 30.10768,-30.76578 30.10763,-30.76522 30.10732,-30.76276 30.1072,-30.76057 30.1077,-30.75921 30.1086,-30.75939 30.10976,-30.75961 30.11361,-30.76045 30.1153,-30.76083 30.11555,-30.76088 30.12266,-30.76232 30.12293,-30.7624 30.12322,-30.76248 30.12876,-30.7637 30.13526,-30.76508 30.13916,-30.76589 30.14449,-30.76703 30.14315,-30.76828 30.14101,-30.76973 30.14183,-30.77062 30.14208,-30.77148 30.14147,-30.77199 30.14028,-30.77255 30.14014,-30.77287 30.13989,-30.77373 30.14144,-30.77556 30.14153,-30.77685 30.14185,-30.77796 30.14137,-30.78079</coordinates></LinearRing></outerBoundaryIs></Polygon></MultiGeometry></Placemark></Document></kml>