<?xml version="1.0" encoding="UTF-8"?><kml xmlns="http://www.opengis.net/kml/2.2"><Document><Placemark><name>Port Shepstone</name><description>Main Place 506014</description><ExtendedData><Data name="code"><value>506014</value></Data><Data name="name"><value>Port Shepstone</value></Data><Data name="description"><value>Main Place 506014</value></Data></ExtendedData><MultiGeometry><Polygon><outerBoundaryIs><LinearRing><coordinates>30.51421,-30.66552 30.51414,-30.66555 30.51412,-30.66559 30.51411,-30.66563 30.51413,-30.66566 30.51413,-30.6657 30.5141,-30.66574 30.51408,-30.66579 30.51405,-30.66587 30.51396,-30.66593 30.51394,-30.666 30.51394,-30.66605 30.51388,-30.66609 30.51383,-30.66613 30.51376,-30.6662 30.51374,-30.66625 30.51368,-30.66629 30.51365,-30.66634 30.51365,-30.66656 30.51363,-30.66664 30.5136,-30.6667 30.5136,-30.66678 30.51357,-30.66684 30.51354,-30.66687 30.51351,-30.66695 30.51352,-30.66699 30.51353,-30.66705 30.51353,-30.66716 30.51351,-30.66724 30.51348,-30.66728 30.51349,-30.66732 30.51349,-30.66733 30.51353,-30.66741 30.51357,-30.66742 30.51366,-30.66748 30.51367,-30.66753 30.51371,-30.66757 30.51375,-30.66759 30.51378,-30.66762 30.51382,-30.66764 30.51385,-30.66767 30.51385,-30.66772 30.51379,-30.66777 30.51371,-30.66779 30.51367,-30.66781 30.51363,-30.66785 30.5136,-30.66791 30.51361,-30.66797 30.51362,-30.66801 30.51364,-30.66803 30.51368,-30.66804 30.51371,-30.66805 30.51371,-30.66808 30.51368,-30.66808 30.51368,-30.66816 30.51363,-30.66822 30.51361,-30.66826 30.51361,-30.66831 30.51358,-30.66835 30.51351,-30.66838 30.51342,-30.66841 30.51335,-30.66846 30.51331,-30.66851 30.51324,-30.66858 30.5132,-30.66866 30.51319,-30.66874 30.51311,-30.66892 30.51312,-30.66901 30.51312,-30.66908 30.51316,-30.6692 30.51319,-30.66923 30.51324,-30.66926 30.51329,-30.66931 30.51335,-30.66934 30.51333,-30.66936 30.51327,-30.66936 30.51324,-30.66935 30.51309,-30.66935 30.51308,-30.66931 30.51306,-30.66929 30.51303,-30.66929 30.51299,-30.66931 30.51298,-30.66936 30.51296,-30.66938 30.51284,-30.66938 30.51281,-30.6694 30.51275,-30.66942 30.51269,-30.66948 30.51265,-30.66949 30.51264,-30.66953 30.51266,-30.66956 30.51269,-30.66957 30.51274,-30.66961 30.51274,-30.66964 30.51271,-30.66965 30.51268,-30.66966 30.51262,-30.66966 30.51256,-30.66968 30.51254,-30.66972 30.51253,-30.66978 30.51253,-30.66984 30.51249,-30.66991 30.51245,-30.66994 30.5124,-30.66998 30.51238,-30.67006 30.51237,-30.67011 30.51231,-30.67016 30.51228,-30.67019 30.51221,-30.67024 30.51218,-30.67027 30.51212,-30.6703 30.51202,-30.67038 30.51195,-30.67046 30.51195,-30.67051 30.51191,-30.67057 30.51186,-30.67062 30.51184,-30.67066 30.51183,-30.67068 30.51183,-30.6707 30.51181,-30.67073 30.51174,-30.67078 30.51168,-30.67085 30.51153,-30.671 30.51149,-30.67108 30.51147,-30.67118 30.51139,-30.67127 30.51133,-30.67136 30.51129,-30.67141 30.51128,-30.67147 30.51124,-30.67155 30.51123,-30.67157 30.51121,-30.67165 30.51112,-30.67172 30.51108,-30.67176 30.51106,-30.67186 30.51103,-30.67194 30.51098,-30.67205 30.51098,-30.6721 30.51093,-30.67219 30.5109,-30.67227 30.51087,-30.67229 30.51087,-30.67237 30.51082,-30.67241 30.51081,-30.67244 30.5108,-30.67248 30.51074,-30.6726 30.51069,-30.67272 30.51067,-30.6728 30.51065,-30.67286 30.51064,-30.67292 30.51064,-30.67299 30.51061,-30.67301 30.51056,-30.67302 30.51053,-30.67303 30.5105,-30.67306 30.51051,-30.67313 30.51057,-30.67315 30.51059,-30.67317 30.51058,-30.6732 30.5105,-30.67326 30.51045,-30.67333 30.51047,-30.67337 30.5105,-30.67338 30.51054,-30.67341 30.51057,-30.67345 30.5106,-30.6735 30.51065,-30.67354 30.51067,-30.67359 30.5107,-30.67362 30.51073,-30.67368 30.51074,-30.67375 30.51069,-30.6738 30.51066,-30.67385 30.51062,-30.6739 30.51058,-30.67394 30.51055,-30.67395 30.51052,-30.67399 30.51052,-30.67403 30.5105,-30.67405 30.5105,-30.6741 30.51052,-30.67412 30.51058,-30.67412 30.51061,-30.67413 30.51063,-30.67416 30.5106,-30.67424 30.51058,-30.67432 30.51054,-30.67437 30.51054,-30.67447 30.51047,-30.67454 30.51043,-30.67465 30.51044,-30.67473 30.51046,-30.67477 30.51052,-30.6748 30.51054,-30.67483 30.51051,-30.67489 30.5105,-30.67495 30.51048,-30.67499 30.51043,-30.67505 30.5104,-30.6751 30.51038,-30.67514 30.51037,-30.67517 30.51037,-30.6752 30.51038,-30.67524 30.51038,-30.67528 30.51039,-30.67532 30.51041,-30.67535 30.51043,-30.67539 30.51043,-30.67544 30.51041,-30.67549 30.51037,-30.67553 30.51027,-30.67561 30.51024,-30.67565 30.51021,-30.67572 30.51021,-30.67578 30.51019,-30.67588 30.51019,-30.67595 30.51018,-30.67601 30.51017,-30.67609 30.51016,-30.67612 30.51012,-30.67619 30.51011,-30.67623 30.5101,-30.67625 30.5101,-30.67632 30.51011,-30.67636 30.51015,-30.67638 30.51017,-30.6764 30.51019,-30.67646 30.51019,-30.67651 30.51015,-30.67657 30.51016,-30.67662 30.51018,-30.67666 30.5102,-30.67669 30.51022,-30.67674 30.51022,-30.67687 30.5102,-30.67694 30.51016,-30.677 30.51007,-30.67706 30.51002,-30.67711 30.50996,-30.6772 30.50989,-30.67724 30.50983,-30.67727 30.50975,-30.67731 30.50972,-30.67736 30.50972,-30.67742 30.50973,-30.67746 30.50973,-30.67751 30.50969,-30.67754 30.50967,-30.67756 30.50962,-30.67757 30.50957,-30.67759 30.50954,-30.67761 30.50948,-30.67762 30.50943,-30.67763 30.50937,-30.67768 30.50936,-30.67772 30.50931,-30.67774 30.50931,-30.67777 30.50934,-30.67777 30.50938,-30.6778 30.5094,-30.67783 30.50931,-30.67785 30.50927,-30.67785 30.50919,-30.67789 30.50915,-30.67793 30.5091,-30.67797 30.50905,-30.67798 30.50902,-30.67798 30.50899,-30.67801 30.509,-30.67805 30.509,-30.67811 30.50896,-30.67819 30.50895,-30.67826 30.50891,-30.67831 30.50888,-30.67835 30.50885,-30.6784 30.50884,-30.67844 30.50879,-30.67845 30.50874,-30.67845 30.50871,-30.67847 30.50866,-30.67849 30.50866,-30.67853 30.50864,-30.67855 30.50857,-30.67859 30.50856,-30.67863 30.50855,-30.67868 30.50855,-30.67871 30.50848,-30.67874 30.50844,-30.67873 30.50841,-30.67872 30.50834,-30.67874 30.50829,-30.67884 30.50817,-30.67884 30.50812,-30.67886 30.5081,-30.67891 30.5081,-30.67898 30.50809,-30.67901 30.50805,-30.6791 30.50795,-30.67916 30.50791,-30.67919 30.50788,-30.67922 30.50783,-30.67924 30.50777,-30.67927 30.5077,-30.67933 30.50766,-30.67938 30.50765,-30.67945 30.50765,-30.67959 30.50767,-30.67963 30.50767,-30.67967 30.50766,-30.67973 30.50763,-30.67974 30.50758,-30.67975 30.50752,-30.67975 30.50745,-30.67979 30.50742,-30.67985 30.5074,-30.6799 30.50736,-30.67997 30.50728,-30.68005 30.5072,-30.68008 30.50714,-30.68008 30.50709,-30.6801 30.50706,-30.68014 30.50707,-30.68017 30.50711,-30.68017 30.50712,-30.68021 30.50708,-30.68021 30.50703,-30.68024 30.50699,-30.68025 30.50698,-30.68029 30.50698,-30.68032 30.5069,-30.68036 30.50687,-30.68039 30.50686,-30.68044 30.50693,-30.68047 30.50698,-30.68048 30.50704,-30.68048 30.50708,-30.68053 30.50707,-30.68057 30.50703,-30.6806 30.50699,-30.68063 30.50698,-30.68067 30.50695,-30.68069 30.50684,-30.68071 30.50678,-30.68072 30.50671,-30.68073 30.50665,-30.68073 30.50653,-30.68077 30.50648,-30.68081 30.50641,-30.68085 30.50641,-30.68089 30.50643,-30.68094 30.50646,-30.681 30.50648,-30.68103 30.50649,-30.68107 30.5065,-30.68113 30.50648,-30.68117 30.50643,-30.6812 30.50634,-30.68121 30.50631,-30.68123 30.50625,-30.68123 30.50621,-30.68122 30.50606,-30.68123 30.50594,-30.68132 30.5059,-30.68137 30.50589,-30.6814 30.50588,-30.68144 30.50586,-30.68149 30.50583,-30.68155 30.50583,-30.68165 30.50579,-30.68168 30.50573,-30.68167 30.5056,-30.68167 30.50555,-30.6817 30.50551,-30.68173 30.5055,-30.68178 30.50551,-30.68181 30.50551,-30.68187 30.50549,-30.68191 30.50543,-30.68193 30.50539,-30.68195 30.50534,-30.68197 30.50531,-30.682 30.50531,-30.68205 30.50526,-30.68213 30.50522,-30.6822 30.50521,-30.68226 30.50513,-30.68234 30.50504,-30.68242 30.50491,-30.68248 30.50487,-30.68253 30.50482,-30.68256 30.50477,-30.68256 30.50473,-30.68255 30.5047,-30.68255 30.50469,-30.68259 30.50451,-30.6826 30.50447,-30.68263 30.50447,-30.68267 30.50445,-30.68271 30.50442,-30.68275 30.50434,-30.68277 30.50428,-30.68279 30.50425,-30.68283 30.50423,-30.68289 30.50419,-30.68295 30.50413,-30.68299 30.50407,-30.68308 30.504,-30.68314 30.50392,-30.68315 30.50385,-30.68317 30.50384,-30.68321 30.5038,-30.68329 30.50377,-30.68337 30.50373,-30.68345 30.50361,-30.68357 30.50353,-30.68368 30.50346,-30.68374 30.50339,-30.68383 30.50336,-30.68389 30.50332,-30.68396 30.50325,-30.6841 30.50322,-30.68418 30.50322,-30.68425 30.50318,-30.68431 30.50306,-30.68436 30.50301,-30.6844 30.50297,-30.68448 30.50292,-30.68454 30.50282,-30.6846 30.50275,-30.68466 30.50269,-30.68469 30.50262,-30.68473 30.50259,-30.68476 30.50252,-30.68478 30.50242,-30.68483 30.50235,-30.68486 30.5023,-30.68488 30.50226,-30.68488 30.5022,-30.68489 30.50217,-30.68489 30.50213,-30.6849 30.50203,-30.685 30.50198,-30.68501 30.50195,-30.68504 30.50191,-30.68506 30.50189,-30.6851 30.50181,-30.68516 30.50176,-30.68515 30.50171,-30.68515 30.50168,-30.68518 30.50168,-30.68522 30.50169,-30.68525 30.50171,-30.68529 30.50172,-30.68534 30.50163,-30.68539 30.50157,-30.68542 30.50154,-30.68544 30.50147,-30.68546 30.50145,-30.6855 30.50144,-30.68558 30.50145,-30.68562 30.50143,-30.68564 30.50135,-30.68568 30.50129,-30.68574 30.50125,-30.68579 30.50123,-30.68586 30.50117,-30.68589 30.50108,-30.68594 30.501,-30.68599 30.50092,-30.68603 30.50083,-30.68608 30.50076,-30.68613 30.50067,-30.68619 30.50058,-30.68629 30.50055,-30.68633 30.50044,-30.68642 30.50036,-30.6865 30.50028,-30.68659 30.50021,-30.68667 30.50017,-30.6867 30.50012,-30.68673 30.50009,-30.68678 30.50003,-30.68687 30.49995,-30.68697 30.49986,-30.68704 30.49978,-30.6871 30.49969,-30.68716 30.49964,-30.68719 30.49962,-30.68723 30.49956,-30.68732 30.49947,-30.68742 30.49925,-30.68763 30.49898,-30.68787 30.49876,-30.68806 30.49864,-30.68826 30.49862,-30.6883 30.49849,-30.68855 30.49843,-30.68862 30.49847,-30.68883 30.49847,-30.68896 30.49851,-30.68911 30.49854,-30.68921 30.49865,-30.68934 30.49871,-30.68939 30.49874,-30.68949 30.49874,-30.68974 30.49864,-30.68974 30.49856,-30.68975 30.49854,-30.68981 30.49854,-30.68987 30.49864,-30.68995 30.49872,-30.69 30.49872,-30.69014 30.49865,-30.69014 30.49854,-30.69018 30.49851,-30.69029 30.49847,-30.69046 30.49838,-30.69041 30.4983,-30.69037 30.49819,-30.69035 30.49817,-30.69039 30.49824,-30.69046 30.49822,-30.69055 30.49812,-30.6906 30.49812,-30.69072 30.49808,-30.6909 30.49793,-30.69098 30.49784,-30.69099 30.49775,-30.69109 30.49766,-30.69122 30.49761,-30.69147 30.49754,-30.69166 30.49751,-30.69176 30.49738,-30.69182 30.49714,-30.69183 30.49699,-30.69195 30.49688,-30.69203 30.4968,-30.69216 30.49675,-30.69228 30.49672,-30.69245 30.49668,-30.69261 30.49659,-30.69273 30.49645,-30.69289 30.49624,-30.69299 30.49605,-30.69318 30.49589,-30.69338 30.49578,-30.69356 30.49564,-30.69376 30.49557,-30.69412 30.49553,-30.69431 30.49546,-30.69453 30.49541,-30.69473 30.49538,-30.6949 30.4954,-30.69501 30.49541,-30.69504 30.49544,-30.69512 30.49543,-30.69518 30.49536,-30.69519 30.49531,-30.69524 30.49529,-30.69529 30.49524,-30.69532 30.4952,-30.69554 30.49517,-30.69571 30.49509,-30.69571 30.49499,-30.69578 30.49488,-30.69594 30.4947,-30.69612 30.4946,-30.69633 30.49453,-30.69646 30.49432,-30.69675 30.49411,-30.69713 30.49394,-30.69746 30.49368,-30.69775 30.49335,-30.69812 30.49311,-30.69846 30.493,-30.69861 30.49281,-30.69888 30.49261,-30.69914 30.49246,-30.69943 30.49231,-30.69966 30.49215,-30.70004 30.49208,-30.70028 30.49197,-30.70048 30.49183,-30.70078 30.49152,-30.7011 30.49128,-30.70127 30.49108,-30.70148 30.49089,-30.70173 30.49072,-30.70194 30.49053,-30.70211 30.49028,-30.70227 30.4898,-30.70252 30.48942,-30.70272 30.48909,-30.70294 30.48876,-30.70317 30.4885,-30.70335 30.48819,-30.70357 30.48806,-30.70364 30.488,-30.70364 30.48799,-30.70365 30.48792,-30.7037 30.48783,-30.70381 30.48769,-30.70394 30.48748,-30.70412 30.48727,-30.70437 30.48713,-30.7045 30.48693,-30.7047 30.48672,-30.70484 30.48657,-30.70492 30.48636,-30.70504 30.48605,-30.70516 30.48578,-30.70534 30.4856,-30.70547 30.48542,-30.70567 30.48522,-30.70582 30.48506,-30.70598 30.48497,-30.70612 30.48487,-30.70619 30.48469,-30.70633 30.48425,-30.70669 30.48414,-30.70685 30.48395,-30.70695 30.48369,-30.70727 30.48343,-30.70758 30.48319,-30.70779 30.48298,-30.70814 30.48286,-30.7083 30.48272,-30.70861 30.48255,-30.70885 30.48248,-30.70892 30.48232,-30.70903 30.48231,-30.70904 30.48208,-30.70931 30.48197,-30.70951 30.48187,-30.70968 30.48162,-30.71004 30.48138,-30.71041 30.4813,-30.71063 30.48123,-30.71074 30.48111,-30.71087 30.481,-30.71104 30.48087,-30.71115 30.48068,-30.71138 30.48057,-30.7116 30.48042,-30.71185 30.48038,-30.71209 30.48035,-30.71252 30.48041,-30.71278 30.48051,-30.71318 30.48068,-30.71334 30.48068,-30.71358 30.48058,-30.71365 30.48058,-30.7137 30.48068,-30.71374 30.4809,-30.71372 30.48102,-30.71378 30.48104,-30.71388 30.48099,-30.71396 30.48116,-30.71399 30.48121,-30.71406 30.48121,-30.71416 30.48114,-30.71423 30.481,-30.71423 30.48089,-30.71427 30.48089,-30.71439 30.48083,-30.71447 30.48083,-30.7146 30.48097,-30.71469 30.48103,-30.71481 30.48096,-30.71495 30.48096,-30.715 30.48093,-30.71502 30.48082,-30.71514 30.48073,-30.71512 30.48066,-30.7152 30.48066,-30.71544 30.48062,-30.71551 30.48051,-30.71547 30.4804,-30.71544 30.48031,-30.71538 30.4802,-30.71543 30.48019,-30.71551 30.4801,-30.71555 30.47995,-30.71547 30.47986,-30.71548 30.47986,-30.71557 30.47978,-30.71559 30.47969,-30.71558 30.47967,-30.71572 30.47952,-30.71592 30.47934,-30.716 30.47922,-30.71602 30.47892,-30.71619 30.47887,-30.71623 30.47868,-30.71638 30.47834,-30.71665 30.47803,-30.71696 30.47764,-30.7173 30.47743,-30.71756 30.47728,-30.71768 30.47701,-30.71793 30.47676,-30.71825 30.47645,-30.71858 30.47628,-30.71877 30.47609,-30.71904 30.47594,-30.71935 30.47577,-30.71977 30.47577,-30.7199 30.47578,-30.71998 30.47595,-30.71998 30.47602,-30.72005 30.47602,-30.72015 30.47597,-30.72022 30.47593,-30.7203 30.47587,-30.72037 30.4758,-30.72042 30.47576,-30.72049 30.47573,-30.72057 30.47566,-30.72063 30.47557,-30.72063 30.47553,-30.72068 30.47546,-30.7207 30.47518,-30.7207 30.47512,-30.72067 30.47501,-30.72066 30.4748,-30.7207 30.47469,-30.7208 30.47453,-30.72094 30.47443,-30.72113 30.47442,-30.72115 30.47422,-30.7213 30.474,-30.7215 30.47376,-30.72167 30.47366,-30.72181 30.47361,-30.72194 30.47361,-30.72201 30.47358,-30.72213 30.47355,-30.72219 30.47354,-30.72229 30.47349,-30.72241 30.47345,-30.72248 30.4732,-30.72248 30.47311,-30.72254 30.47307,-30.72268 30.47303,-30.72278 30.473,-30.72281 30.47294,-30.72282 30.47282,-30.72282 30.47273,-30.72291 30.47269,-30.72299 30.47264,-30.72305 30.47257,-30.72307 30.47245,-30.72312 30.47231,-30.72317 30.4722,-30.7232 30.47204,-30.72329 30.47202,-30.72338 30.47192,-30.72348 30.47172,-30.72355 30.47154,-30.72364 30.47136,-30.72375 30.47112,-30.72397 30.47084,-30.72416 30.47061,-30.72433 30.47032,-30.72464 30.47002,-30.72486 30.46984,-30.72503 30.4697,-30.72516 30.46956,-30.72532 30.46932,-30.72551 30.46899,-30.7258 30.46875,-30.72603 30.4686,-30.72617 30.46847,-30.72629 30.46828,-30.72638 30.46802,-30.72663 30.46778,-30.72694 30.46757,-30.72724 30.46749,-30.72742 30.46745,-30.72755 30.46728,-30.72769 30.46715,-30.72787 30.46704,-30.72808 30.46691,-30.72833 30.46683,-30.72849 30.46674,-30.7286 30.46666,-30.72871 30.46673,-30.72883 30.46673,-30.72894 30.46674,-30.72899 30.46684,-30.72906 30.46687,-30.72913 30.46686,-30.72923 30.46681,-30.72932 30.46673,-30.72932 30.46667,-30.72928 30.46659,-30.7293 30.46652,-30.72943 30.46635,-30.7296 30.46625,-30.72964 30.4662,-30.72958 30.46604,-30.72958 30.46593,-30.72963 30.46593,-30.72977 30.46584,-30.72982 30.46568,-30.72988 30.46559,-30.72995 30.46542,-30.7301 30.46537,-30.73029 30.4652,-30.73044 30.46497,-30.73058 30.46471,-30.73078 30.46456,-30.73093 30.46434,-30.73112 30.46414,-30.73131 30.4639,-30.7316 30.46375,-30.73175 30.46365,-30.73181 30.46338,-30.73207 30.46323,-30.73238 30.46307,-30.73254 30.46295,-30.73279 30.46284,-30.7329 30.46262,-30.73313 30.46248,-30.73345 30.4623,-30.73368 30.46215,-30.73403 30.46195,-30.73428 30.46177,-30.73451 30.46163,-30.73479 30.46144,-30.73501 30.46129,-30.73531 30.46118,-30.73546 30.46106,-30.73552 30.46094,-30.73574 30.46084,-30.73587 30.46068,-30.73611 30.46054,-30.73625 30.46042,-30.73646 30.46022,-30.73674 30.46008,-30.7369 30.45997,-30.73716 30.45985,-30.73743 30.45967,-30.73771 30.45956,-30.73808 30.45931,-30.7385 30.45911,-30.73882 30.45892,-30.73915 30.45891,-30.73917 30.45877,-30.73944 30.45853,-30.73983 30.45853,-30.73995 30.45848,-30.74009 30.45848,-30.74025 30.45848,-30.7403 30.45863,-30.74044 30.45865,-30.74045 30.4588,-30.74051 30.45911,-30.74059 30.45926,-30.74071 30.45938,-30.74078 30.45949,-30.74083 30.4596,-30.74092 30.45969,-30.74107 30.45981,-30.74124 30.45988,-30.74141 30.45994,-30.74152 30.45998,-30.74163 30.46004,-30.74175 30.46005,-30.74182 30.46005,-30.74229 30.45997,-30.74253 30.45995,-30.74267 30.4599,-30.74277 30.45983,-30.74283 30.45973,-30.74283 30.4596,-30.74286 30.45956,-30.74291 30.45943,-30.74291 30.45936,-30.74297 30.45935,-30.7431 30.45932,-30.74324 30.45926,-30.74328 30.45911,-30.74329 30.4589,-30.74342 30.45866,-30.74359 30.45848,-30.74381 30.45831,-30.74402 30.45813,-30.74433 30.45794,-30.7446 30.45783,-30.74484 30.45772,-30.74509 30.45765,-30.74525 30.45765,-30.7454 30.45775,-30.74544 30.45777,-30.74561 30.4577,-30.74566 30.45763,-30.74567 30.45753,-30.74568 30.45745,-30.7458 30.45742,-30.74585 30.45735,-30.74599 30.45735,-30.74612 30.4573,-30.74613 30.45721,-30.74616 30.4572,-30.74629 30.4572,-30.7464 30.45714,-30.74647 30.4571,-30.7465 30.4571,-30.74654 30.45721,-30.7466 30.45728,-30.74665 30.4573,-30.74681 30.45727,-30.74715 30.45725,-30.74719 30.45669,-30.74719 30.45659,-30.7472 30.45649,-30.74733 30.45647,-30.74744 30.45642,-30.74753 30.45634,-30.74753 30.4563,-30.74761 30.4561,-30.74769 30.45588,-30.74774 30.45571,-30.74778 30.45551,-30.74783 30.45545,-30.74792 30.45531,-30.74806 30.45521,-30.74823 30.45509,-30.74843 30.45499,-30.74868 30.45492,-30.74892 30.45471,-30.74911 30.45448,-30.74928 30.45433,-30.74941 30.45416,-30.74954 30.45401,-30.74958 30.45392,-30.74958 30.45382,-30.74968 30.4537,-30.7499 30.45357,-30.75013 30.45353,-30.75021 30.45347,-30.75032 30.45333,-30.75046 30.45316,-30.75075 30.45308,-30.75098 30.45292,-30.75118 30.45282,-30.75135 30.45268,-30.7515 30.45249,-30.75179 30.45233,-30.75197 30.45219,-30.75207 30.45209,-30.75215 30.4519,-30.75233 30.45183,-30.75247 30.45174,-30.7526 30.45163,-30.75273 30.45155,-30.75288 30.45131,-30.75301 30.45111,-30.75312 30.45079,-30.75329 30.4506,-30.75333 30.45046,-30.75342 30.45018,-30.75364 30.45001,-30.75381 30.44977,-30.75392 30.44958,-30.75413 30.44939,-30.75426 30.4492,-30.75458 30.44914,-30.75471 30.44904,-30.75482 30.44887,-30.75505 30.44872,-30.75527 30.44851,-30.75548 30.44841,-30.75561 30.44827,-30.75571 30.44811,-30.75591 30.44796,-30.75617 30.44785,-30.75638 30.44778,-30.75652 30.44775,-30.75659 30.44769,-30.75681 30.44766,-30.75716 30.44768,-30.75738 30.44772,-30.75756 30.44783,-30.75775 30.4479,-30.75787 30.44794,-30.75791 30.44803,-30.75801 30.44814,-30.75804 30.44831,-30.75815 30.44831,-30.75824 30.44824,-30.75831 30.44816,-30.75832 30.44809,-30.75832 30.44809,-30.75841 30.4482,-30.75846 30.44827,-30.75849 30.44827,-30.7586 30.4481,-30.7586 30.44802,-30.75865 30.44811,-30.75875 30.44821,-30.7588 30.44823,-30.75886 30.44817,-30.75893 30.44807,-30.75896 30.44806,-30.759 30.44809,-30.75912 30.44809,-30.7592 30.44795,-30.75924 30.4479,-30.75932 30.44816,-30.75938 30.4482,-30.75943 30.44813,-30.75952 30.448,-30.75952 30.4479,-30.75956 30.4479,-30.7597 30.44789,-30.7598 30.44779,-30.75983 30.44772,-30.75991 30.44772,-30.75998 30.44769,-30.76007 30.44762,-30.76011 30.44762,-30.76015 30.44761,-30.76029 30.44752,-30.76035 30.44737,-30.76035 30.44726,-30.76026 30.44712,-30.76026 30.44699,-30.76035 30.44691,-30.76043 30.44678,-30.7606 30.44669,-30.76078 30.44667,-30.76091 30.44672,-30.76108 30.44683,-30.76116 30.44696,-30.76132 30.44709,-30.76137 30.44724,-30.76147 30.44724,-30.76157 30.44723,-30.76167 30.44716,-30.76168 30.44705,-30.76168 30.44703,-30.76178 30.447,-30.76187 30.44693,-30.76187 30.44676,-30.76181 30.44669,-30.76188 30.44669,-30.76204 30.44662,-30.76208 30.44648,-30.76204 30.44643,-30.76197 30.44629,-30.76185 30.44612,-30.76184 30.44606,-30.76188 30.44606,-30.76205 30.44617,-30.76215 30.44629,-30.76225 30.44634,-30.76237 30.44636,-30.76247 30.44627,-30.76249 30.4462,-30.76249 30.4461,-30.76239 30.44599,-30.76239 30.44598,-30.76253 30.44613,-30.76258 30.44617,-30.76264 30.44617,-30.76267 30.44608,-30.76267 30.44601,-30.76264 30.44585,-30.76264 30.44585,-30.7627 30.44589,-30.76277 30.44601,-30.76282 30.44608,-30.76292 30.44608,-30.76298 30.44605,-30.76301 30.44595,-30.76298 30.44584,-30.76298 30.44584,-30.76306 30.44599,-30.7631 30.44606,-30.76316 30.44606,-30.76327 30.44602,-30.76331 30.44595,-30.76331 30.44586,-30.76336 30.44584,-30.76351 30.44574,-30.76357 30.44565,-30.76353 30.44556,-30.76347 30.44546,-30.76336 30.44541,-30.7633 30.44536,-30.76337 30.44529,-30.76344 30.44516,-30.76348 30.44512,-30.76357 30.44498,-30.76375 30.44485,-30.76386 30.44467,-30.76398 30.44459,-30.76412 30.44457,-30.76444 30.44456,-30.76455 30.44454,-30.76485 30.44467,-30.765 30.4447,-30.76506 30.4447,-30.76513 30.44454,-30.76518 30.44454,-30.76524 30.4447,-30.76527 30.44475,-30.7653 30.44477,-30.76541 30.44473,-30.76552 30.44459,-30.76552 30.44444,-30.76549 30.4444,-30.76554 30.4445,-30.76562 30.44451,-30.76569 30.44451,-30.76575 30.4444,-30.76578 30.44429,-30.76576 30.44418,-30.76572 30.44418,-30.76586 30.44426,-30.76592 30.44432,-30.76596 30.44433,-30.76608 30.44428,-30.76618 30.44414,-30.76614 30.44404,-30.76608 30.44397,-30.76608 30.44397,-30.76618 30.44404,-30.76627 30.44408,-30.76635 30.44407,-30.76638 30.44397,-30.76638 30.44388,-30.76632 30.4438,-30.76632 30.4438,-30.76642 30.44388,-30.76651 30.44392,-30.76658 30.44391,-30.76666 30.44367,-30.76666 30.44356,-30.76659 30.44352,-30.76666 30.4435,-30.76676 30.44354,-30.76683 30.44356,-30.76696 30.44335,-30.76693 30.44326,-30.76689 30.44324,-30.767 30.44332,-30.76714 30.44333,-30.76724 30.44318,-30.76724 30.44308,-30.76715 30.44293,-30.7671 30.44281,-30.76698 30.44269,-30.76698 30.44252,-30.76728 30.44241,-30.76745 30.44224,-30.76765 30.4421,-30.76784 30.44207,-30.76804 30.44194,-30.76822 30.44183,-30.76838 30.44175,-30.76849 30.44173,-30.76862 30.4418,-30.76874 30.4418,-30.76892 30.44179,-30.76901 30.44175,-30.76905 30.44172,-30.76905 30.44166,-30.76901 30.44153,-30.76894 30.44148,-30.769 30.44158,-30.76912 30.44165,-30.76923 30.44165,-30.76933 30.44159,-30.76937 30.44151,-30.76935 30.4412,-30.76929 30.44113,-30.76932 30.44099,-30.76945 30.44075,-30.76957 30.44054,-30.76973 30.44033,-30.7699 30.44018,-30.77008 30.4401,-30.77023 30.43979,-30.77047 30.43989,-30.77057 30.43995,-30.77064 30.43986,-30.77081 30.4398,-30.77075 30.43965,-30.77065 30.43962,-30.77072 30.43966,-30.77082 30.43969,-30.77087 30.43966,-30.77096 30.43958,-30.77095 30.43954,-30.77101 30.43959,-30.77103 30.43943,-30.7712 30.43931,-30.77112 30.43923,-30.77102 30.43914,-30.77103 30.43916,-30.77113 30.43917,-30.77123 30.43906,-30.77132 30.43895,-30.77126 30.43889,-30.77122 30.43886,-30.77126 30.4388,-30.77125 30.43869,-30.77123 30.43861,-30.77115 30.43854,-30.77103 30.43843,-30.77099 30.43823,-30.77117 30.43805,-30.77136 30.43779,-30.77158 30.43748,-30.77177 30.43726,-30.77199 30.43698,-30.77222 30.43667,-30.77234 30.43654,-30.77244 30.43637,-30.77261 30.43621,-30.77279 30.43597,-30.77309 30.43578,-30.7733 30.43553,-30.77356 30.43538,-30.77383 30.43512,-30.77424 30.43493,-30.77453 30.43467,-30.77498 30.4345,-30.77534 30.43445,-30.77565 30.43445,-30.77586 30.43456,-30.7759 30.43467,-30.77593 30.43473,-30.77603 30.43459,-30.77608 30.43443,-30.77608 30.43443,-30.77618 30.43449,-30.77625 30.43456,-30.77633 30.43449,-30.77645 30.43439,-30.77639 30.43432,-30.77639 30.43432,-30.77653 30.43425,-30.77659 30.43417,-30.7765 30.43407,-30.77645 30.43393,-30.77676 30.43384,-30.7767 30.4338,-30.77668 30.43368,-30.77668 30.43362,-30.77674 30.43348,-30.77689 30.43335,-30.77707 30.43313,-30.7773 30.43292,-30.77753 30.43271,-30.77778 30.43253,-30.77794 30.43238,-30.77817 30.43229,-30.77841 30.43213,-30.77863 30.43212,-30.77882 30.43222,-30.77895 30.4323,-30.77898 30.43234,-30.77909 30.43234,-30.7792 30.43228,-30.77924 30.43226,-30.77929 30.43229,-30.77933 30.43231,-30.77941 30.43225,-30.77946 30.43214,-30.77946 30.43211,-30.77955 30.43217,-30.77961 30.4322,-30.7797 30.43215,-30.77978 30.43205,-30.77979 30.43197,-30.77981 30.432,-30.77986 30.43205,-30.77994 30.43205,-30.78007 30.43194,-30.78009 30.43176,-30.78009 30.43161,-30.78019 30.43148,-30.78038 30.43142,-30.78051 30.4314,-30.78064 30.43138,-30.78079 30.43131,-30.78092 30.43122,-30.78103 30.4311,-30.78109 30.43092,-30.78116 30.43072,-30.7813 30.43047,-30.78145 30.4302,-30.78153 30.42998,-30.7816 30.42978,-30.78173 30.42966,-30.78182 30.42938,-30.78192 30.42912,-30.78204 30.42892,-30.7822 30.4288,-30.78233 30.42858,-30.78251 30.4284,-30.78273 30.42829,-30.78294 30.42814,-30.78313 30.42794,-30.78337 30.42778,-30.78356 30.42755,-30.78373 30.42733,-30.7839 30.42714,-30.78406 30.42691,-30.78423 30.42674,-30.78436 30.42657,-30.78457 30.42645,-30.78477 30.42619,-30.78492 30.42596,-30.78511 30.42582,-30.78529 30.42564,-30.78548 30.42555,-30.78557 30.42538,-30.78566 30.42518,-30.78584 30.42514,-30.7859 30.4248,-30.78501 30.42451,-30.78394 30.42449,-30.78386 30.42446,-30.78371 30.42443,-30.78361 30.42435,-30.78344 30.42412,-30.78297 30.42387,-30.78219 30.42372,-30.78183 30.42356,-30.78143 30.42234,-30.77975 30.42152,-30.77917 30.42112,-30.77891 30.42086,-30.77889 30.42031,-30.77884 30.41993,-30.77879 30.41957,-30.77872 30.41932,-30.77864 30.41901,-30.77855 30.4187,-30.77846 30.41788,-30.7782 30.4176,-30.77809 30.41735,-30.77803 30.41716,-30.77803 30.41701,-30.77804 30.41682,-30.7781 30.41666,-30.77821 30.41645,-30.77836 30.41624,-30.77854 30.41595,-30.77884 30.41556,-30.77918 30.41536,-30.77934 30.41511,-30.77953 30.41478,-30.77964 30.41454,-30.77965 30.41418,-30.7796 30.41394,-30.77951 30.41384,-30.77944 30.41372,-30.77937 30.41353,-30.77923 30.41348,-30.7792 30.41374,-30.77882 30.41429,-30.77804 30.41483,-30.77728 30.41504,-30.777 30.41524,-30.77674 30.41527,-30.7767 30.41533,-30.77662 30.41571,-30.77613 30.41603,-30.77572 30.41615,-30.77557 30.41673,-30.77489 30.41737,-30.77417 30.41794,-30.77355 30.4188,-30.77261 30.41907,-30.77232 30.41971,-30.77163 30.4201,-30.77121 30.42074,-30.77053 30.42133,-30.76986 30.42135,-30.76985 30.42139,-30.76981 30.42228,-30.76884 30.42319,-30.76788 30.42391,-30.76712 30.42472,-30.76626 30.42567,-30.76527 30.42663,-30.76417 30.42693,-30.76381 30.42708,-30.76367 30.42756,-30.76314 30.42796,-30.76273 30.42841,-30.76224 30.42875,-30.76191 30.42902,-30.76162 30.42923,-30.76141 30.42916,-30.76135 30.42557,-30.75881 30.42531,-30.75752 30.42476,-30.75407 30.42374,-30.75414 30.42327,-30.75428 30.4228,-30.75441 30.4174,-30.75597 30.4168,-30.75597 30.41607,-30.75596 30.41379,-30.75593 30.41305,-30.75592 30.41106,-30.75593 30.40917,-30.75587 30.40552,-30.75615 30.40549,-30.75612 30.40535,-30.75598 30.405,-30.75555 30.40334,-30.75401 30.4033,-30.75397 30.40274,-30.75342 30.40249,-30.7532 30.40194,-30.75356 30.40165,-30.75375 30.4004,-30.75418 30.39994,-30.75438 30.39952,-30.75412 30.39913,-30.75386 30.39909,-30.75391 30.39898,-30.7541 30.39883,-30.75408 30.39767,-30.75395 30.39709,-30.75413 30.39681,-30.75333 30.39671,-30.75298 30.39662,-30.75257 30.39656,-30.75226 30.39657,-30.75217 30.39658,-30.75205 30.39658,-30.75182 30.39657,-30.75158 30.39653,-30.75139 30.3965,-30.75114 30.39646,-30.75102 30.39644,-30.75094 30.39633,-30.75071 30.39624,-30.75063 30.39609,-30.75049 30.39583,-30.7503 30.39546,-30.7501 30.39509,-30.74991 30.39476,-30.74974 30.39456,-30.7496 30.39445,-30.74945 30.3944,-30.74932 30.39438,-30.74908 30.39433,-30.74861 30.39432,-30.74778 30.39432,-30.74773 30.39425,-30.74739 30.39419,-30.74699 30.39417,-30.74675 30.39423,-30.74655 30.39424,-30.74634 30.39424,-30.74623 30.39424,-30.74618 30.3942,-30.74613 30.39416,-30.74603 30.39409,-30.746 30.39386,-30.74584 30.39375,-30.74561 30.39379,-30.7455 30.39519,-30.74488 30.39589,-30.74457 30.39668,-30.74422 30.39692,-30.74412 30.39694,-30.7441 30.39724,-30.74396 30.39893,-30.74321 30.39915,-30.74311 30.39929,-30.74307 30.39964,-30.74292 30.40025,-30.74261 30.40068,-30.74242 30.40084,-30.74235 30.40098,-30.74229 30.4027,-30.74116 30.40438,-30.74017 30.40446,-30.74014 30.40462,-30.74 30.40468,-30.73994 30.40486,-30.73973 30.40499,-30.7396 30.40515,-30.73935 30.4053,-30.73917 30.4055,-30.739 30.40568,-30.73886 30.40578,-30.73879 30.40589,-30.73872 30.40592,-30.7387 30.40608,-30.73861 30.40628,-30.73843 30.40645,-30.73825 30.40661,-30.7381 30.40676,-30.73798 30.40697,-30.73793 30.40717,-30.7379 30.40718,-30.7379 30.4072,-30.73789 30.40734,-30.73789 30.40744,-30.7379 30.40759,-30.73792 30.40777,-30.73794 30.40795,-30.73797 30.40807,-30.73797 30.40807,-30.73797 30.40808,-30.73797 30.4082,-30.73818 30.40847,-30.73771 30.40857,-30.73755 30.40864,-30.73743 30.40865,-30.73741 30.40866,-30.73738 30.40878,-30.73713 30.40881,-30.73705 30.40992,-30.73441 30.40995,-30.73436 30.41024,-30.73383 30.41118,-30.73188 30.41134,-30.73162 30.41182,-30.73118 30.41189,-30.7311 30.41199,-30.73101 30.41229,-30.73074 30.41233,-30.7307 30.41337,-30.7296 30.41346,-30.72966 30.41374,-30.7298 30.41395,-30.72995 30.41428,-30.73026 30.41438,-30.73038 30.41494,-30.72978 30.41506,-30.72977 30.41518,-30.72981 30.41529,-30.7298 30.41547,-30.7298 30.41567,-30.7298 30.41582,-30.7298 30.41604,-30.72976 30.41627,-30.72969 30.41649,-30.72963 30.41671,-30.72962 30.41693,-30.7297 30.41724,-30.72989 30.41764,-30.73006 30.41778,-30.7302 30.41802,-30.7303 30.41822,-30.7304 30.41845,-30.7305 30.4186,-30.73056 30.4188,-30.7307 30.41914,-30.73085 30.4196,-30.73098 30.41986,-30.73114 30.42001,-30.73124 30.42034,-30.7313 30.42067,-30.73142 30.42095,-30.73156 30.42146,-30.73175 30.42194,-30.732 30.42215,-30.73211 30.42294,-30.73252 30.42309,-30.73225 30.42327,-30.73205 30.42336,-30.73193 30.42371,-30.73116 30.4239,-30.73098 30.42405,-30.73074 30.42427,-30.73025 30.42437,-30.73006 30.42448,-30.72986 30.4246,-30.72945 30.42473,-30.72923 30.42477,-30.72908 30.42492,-30.72863 30.42444,-30.72855 30.42442,-30.72855 30.42452,-30.7281 30.42452,-30.7281 30.42484,-30.72815 30.42517,-30.72789 30.42539,-30.72772 30.42546,-30.72766 30.42555,-30.72754 30.42563,-30.72744 30.42574,-30.72736 30.42585,-30.72727 30.42595,-30.7272 30.42596,-30.72719 30.42616,-30.72682 30.4263,-30.7265 30.42649,-30.72622 30.42668,-30.72599 30.42669,-30.7259 30.42666,-30.72578 30.42653,-30.72558 30.42677,-30.7253 30.42689,-30.7252 30.427,-30.72502 30.42721,-30.72474 30.42733,-30.72452 30.42743,-30.72444 30.42767,-30.72441 30.42812,-30.72447 30.42853,-30.72458 30.42868,-30.72466 30.42892,-30.72498 30.42916,-30.72508 30.42941,-30.7252 30.42964,-30.72539 30.43006,-30.7257 30.43025,-30.72551 30.43025,-30.72543 30.43023,-30.72505 30.43035,-30.72453 30.43071,-30.7242 30.43072,-30.72419 30.43074,-30.7242 30.43085,-30.72422 30.43098,-30.72439 30.43103,-30.72446 30.43104,-30.72451 30.43107,-30.72462 30.43109,-30.7248 30.43111,-30.72496 30.43144,-30.7251 30.4324,-30.72483 30.43235,-30.72467 30.43244,-30.72433 30.43244,-30.72425 30.43277,-30.72392 30.4331,-30.72364 30.43335,-30.72349 30.43331,-30.72345 30.43298,-30.72317 30.43169,-30.72223 30.43007,-30.72032 30.43007,-30.71936 30.43009,-30.71916 30.43089,-30.71906 30.43125,-30.71893 30.43444,-30.71812 30.43459,-30.71808 30.44177,-30.71466 30.44201,-30.71456 30.44196,-30.71378 30.44187,-30.71262 30.44222,-30.71257 30.44264,-30.71246 30.44297,-30.71238 30.44344,-30.71226 30.44397,-30.71214 30.44444,-30.71203 30.44471,-30.71198 30.44492,-30.71193 30.44511,-30.71189 30.4453,-30.71189 30.44547,-30.71189 30.44568,-30.71189 30.44588,-30.7119 30.44609,-30.71192 30.44632,-30.71198 30.44659,-30.71205 30.44674,-30.71208 30.4478,-30.71162 30.44856,-30.71129 30.44999,-30.71067 30.44966,-30.71004 30.44958,-30.70992 30.44958,-30.70969 30.44948,-30.70943 30.44952,-30.70929 30.44959,-30.70886 30.4496,-30.70858 30.44966,-30.70819 30.44972,-30.70787 30.44982,-30.70747 30.44985,-30.70738 30.45002,-30.7071 30.45022,-30.70678 30.45045,-30.70671 30.45061,-30.70663 30.44998,-30.70522 30.45026,-30.70517 30.45045,-30.70517 30.45069,-30.70514 30.45092,-30.70511 30.45128,-30.70513 30.45183,-30.70515 30.45214,-30.70514 30.45229,-30.70512 30.45236,-30.70511 30.45249,-30.70508 30.4526,-30.70505 30.45305,-30.7049 30.45328,-30.70487 30.4532,-30.70665 30.45308,-30.70876 30.4531,-30.70945 30.45312,-30.70969 30.45323,-30.70997 30.45346,-30.71028 30.45365,-30.71053 30.45379,-30.7107 30.45404,-30.71085 30.45433,-30.71104 30.45454,-30.71115 30.45467,-30.7112 30.45495,-30.71126 30.45543,-30.71133 30.45571,-30.71133 30.45586,-30.71132 30.45603,-30.7098 30.45685,-30.70913 30.4574,-30.70868 30.46028,-30.70612 30.4605,-30.70598 30.46066,-30.70588 30.46133,-30.70527 30.46184,-30.70479 30.4626,-30.70406 30.46425,-30.70265 30.46525,-30.70179 30.46583,-30.70122 30.4669,-30.70021 30.4674,-30.69988 30.46815,-30.69921 30.46943,-30.69807 30.46991,-30.69774 30.47047,-30.69729 30.4706,-30.69712 30.47057,-30.69708 30.471,-30.69688 30.47142,-30.6964 30.47166,-30.69625 30.4718,-30.69622 30.47199,-30.69616 30.47232,-30.69598 30.47272,-30.69572 30.47288,-30.6956 30.47324,-30.69526 30.47336,-30.69514 30.47356,-30.69489 30.47379,-30.69456 30.47391,-30.69434 30.47404,-30.69417 30.47413,-30.69406 30.47427,-30.69395 30.47442,-30.69385 30.47474,-30.6937 30.47492,-30.69358 30.47526,-30.69334 30.47549,-30.69327 30.47609,-30.69305 30.4762,-30.69296 30.47633,-30.69283 30.47656,-30.69255 30.47677,-30.69272 30.47768,-30.69341 30.47787,-30.69358 30.47839,-30.69334 30.48201,-30.69167 30.48416,-30.69068 30.48633,-30.68968 30.48643,-30.68964 30.48761,-30.68909 30.48871,-30.68741 30.48929,-30.68652 30.49095,-30.68398 30.49101,-30.68389 30.49096,-30.68379 30.49126,-30.68331 30.49104,-30.68327 30.49108,-30.68316 30.49132,-30.68293 30.49165,-30.68258 30.49181,-30.6823 30.49177,-30.68181 30.49134,-30.68149 30.49139,-30.68138 30.49168,-30.68077 30.49164,-30.6796 30.49164,-30.67959 30.49164,-30.67956 30.4917,-30.6786 30.49152,-30.67824 30.49145,-30.67733 30.49175,-30.67653 30.49166,-30.67614 30.49226,-30.67581 30.49232,-30.67577 30.49287,-30.67631 30.49312,-30.67651 30.49334,-30.67642 30.49367,-30.67609 30.49395,-30.676 30.49428,-30.67601 30.49436,-30.67609 30.49441,-30.67618 30.49456,-30.67635 30.49468,-30.67635 30.49481,-30.67615 30.49493,-30.67592 30.49501,-30.67569 30.49508,-30.67558 30.49532,-30.67551 30.49562,-30.67528 30.49574,-30.67508 30.49572,-30.67495 30.49557,-30.67491 30.49543,-30.67488 30.49528,-30.67483 30.49523,-30.67473 30.49525,-30.67458 30.49528,-30.67442 30.49539,-30.67426 30.49557,-30.67405 30.49577,-30.67394 30.49594,-30.67375 30.49605,-30.67359 30.49617,-30.67339 30.49623,-30.67325 30.49622,-30.67304 30.49637,-30.6729 30.4966,-30.67285 30.49687,-30.67284 30.49718,-30.67285 30.49757,-30.67288 30.49789,-30.67289 30.4982,-30.67287 30.49822,-30.67284 30.49822,-30.67284 30.49818,-30.67281 30.49486,-30.66978 30.49486,-30.66974 30.49487,-30.66974 30.49486,-30.66974 30.49478,-30.66967 30.49453,-30.66944 30.49429,-30.66922 30.49414,-30.66907 30.49394,-30.66886 30.49366,-30.66938 30.49347,-30.66925 30.49333,-30.6692 30.49311,-30.66913 30.49281,-30.66899 30.49265,-30.66888 30.49242,-30.66871 30.49195,-30.66844 30.49177,-30.66838 30.49159,-30.6683 30.49139,-30.66824 30.49127,-30.66819 30.49093,-30.66803 30.49051,-30.6678 30.48966,-30.6674 30.48939,-30.66726 30.48867,-30.66689 30.49011,-30.66585 30.49025,-30.66575 30.49043,-30.66574 30.49055,-30.66574 30.49426,-30.66564 30.49436,-30.66575 30.49447,-30.66576 30.49462,-30.66575 30.49471,-30.66566 30.49481,-30.66562 30.49699,-30.66555 30.49707,-30.66563 30.4975,-30.66558 30.49989,-30.66534 30.50016,-30.66539 30.50039,-30.66544 30.50058,-30.66549 30.5008,-30.6657 30.50109,-30.66585 30.50131,-30.66599 30.50143,-30.66609 30.5016,-30.66623 30.50184,-30.66646 30.50196,-30.66657 30.50213,-30.66672 30.50226,-30.66679 30.50232,-30.66672 30.50241,-30.66652 30.50254,-30.66636 30.50268,-30.6662 30.50295,-30.66595 30.5033,-30.66566 30.5037,-30.66547 30.50391,-30.66554 30.50405,-30.66556 30.5044,-30.66548 30.50473,-30.66549 30.50496,-30.66542 30.50523,-30.66544 30.50538,-30.66552 30.50543,-30.66554 30.50543,-30.66545 30.50542,-30.66509 30.50621,-30.66505 30.50622,-30.66505 30.50755,-30.66499 30.50756,-30.66498 30.50784,-30.66438 30.50801,-30.66403 30.50818,-30.66368 30.50829,-30.66345 30.5084,-30.66322 30.50845,-30.66312 30.50857,-30.66287 30.50874,-30.66251 30.50875,-30.6625 30.5088,-30.6624 30.50936,-30.66125 30.50941,-30.66115 30.50953,-30.66091 30.50972,-30.66053 30.51016,-30.65964 30.51024,-30.65947 30.5104,-30.65915 30.51058,-30.65933 30.51079,-30.65954 30.5115,-30.66024 30.51162,-30.66038 30.51206,-30.66087 30.5122,-30.66101 30.5126,-30.66143 30.51297,-30.66179 30.51329,-30.66211 30.51372,-30.66253 30.51387,-30.66267 30.51435,-30.66311 30.51447,-30.66318 30.51457,-30.66325 30.51475,-30.66335 30.51477,-30.66377 30.51475,-30.66383 30.51474,-30.66386 30.51472,-30.6639 30.51469,-30.66398 30.51467,-30.66404 30.51467,-30.66408 30.51466,-30.66409 30.51468,-30.66414 30.51471,-30.6642 30.5151,-30.66454 30.5151,-30.66463 30.51514,-30.66466 30.51514,-30.6647 30.51514,-30.66471 30.51513,-30.66474 30.51508,-30.66478 30.51502,-30.66481 30.51499,-30.66485 30.51491,-30.66485 30.51488,-30.66488 30.51488,-30.66498 30.51487,-30.66501 30.5148,-30.66503 30.51476,-30.66505 30.51473,-30.66508 30.51473,-30.66517 30.51466,-30.66521 30.5146,-30.66522 30.51454,-30.66526 30.51449,-30.66528 30.51445,-30.6653 30.51443,-30.66534 30.51443,-30.66538 30.51439,-30.66542 30.51434,-30.66542 30.51429,-30.66543 30.51425,-30.66547 30.51421,-30.66552</coordinates></LinearRing></outerBoundaryIs></Polygon></MultiGeometry></Placemark></Document></kml>