<?xml version="1.0" encoding="UTF-8"?><kml xmlns="http://www.opengis.net/kml/2.2"><Document><Placemark><name>Bhomela</name><description>Main Place 506025</description><ExtendedData><Data name="code"><value>506025</value></Data><Data name="name"><value>Bhomela</value></Data><Data name="description"><value>Main Place 506025</value></Data></ExtendedData><MultiGeometry><Polygon><outerBoundaryIs><LinearRing><coordinates>30.33635,-30.75764 30.33661,-30.75766 30.3368,-30.75761 30.3369,-30.75759 30.33715,-30.75763 30.3373,-30.75764 30.33747,-30.75769 30.33765,-30.75776 30.3377,-30.75777 30.33771,-30.75777 30.33795,-30.75784 30.33803,-30.75786 30.33818,-30.75792 30.33827,-30.75794 30.3384,-30.75798 30.33852,-30.75809 30.33863,-30.75826 30.33873,-30.75836 30.33882,-30.75847 30.33887,-30.75858 30.33885,-30.75871 30.33881,-30.75876 30.3388,-30.75888 30.33894,-30.75901 30.33906,-30.75913 30.33929,-30.75922 30.33956,-30.75929 30.33973,-30.75931 30.33989,-30.75918 30.34001,-30.75915 30.3402,-30.75919 30.34049,-30.7592 30.34067,-30.7592 30.3408,-30.75921 30.34105,-30.75921 30.34126,-30.75922 30.34145,-30.75922 30.34146,-30.75922 30.34155,-30.75922 30.34165,-30.75923 30.34175,-30.75927 30.34187,-30.75935 30.342,-30.75938 30.34212,-30.75937 30.34233,-30.75938 30.3425,-30.75938 30.34262,-30.75939 30.34276,-30.75941 30.34292,-30.75943 30.34316,-30.75947 30.34331,-30.7595 30.34353,-30.75964 30.34364,-30.75972 30.34371,-30.75975 30.34384,-30.75974 30.34398,-30.75968 30.34416,-30.75962 30.3443,-30.75958 30.34453,-30.75949 30.34463,-30.75941 30.34473,-30.75937 30.34478,-30.75934 30.34485,-30.75926 30.34488,-30.75924 30.34496,-30.75928 30.345,-30.75937 30.34501,-30.75948 30.34509,-30.75952 30.34525,-30.75949 30.34533,-30.7595 30.34554,-30.75951 30.34578,-30.75964 30.34593,-30.75973 30.3461,-30.7598 30.34626,-30.75992 30.3462,-30.76002 30.34632,-30.76016 30.34645,-30.76028 30.34656,-30.76034 30.34666,-30.76044 30.34669,-30.76047 30.34678,-30.76057 30.3468,-30.76058 30.34688,-30.76062 30.34699,-30.76067 30.34723,-30.76068 30.34759,-30.76055 30.34777,-30.76045 30.34801,-30.76038 30.34818,-30.76037 30.34835,-30.76032 30.34844,-30.7603 30.34853,-30.76026 30.34863,-30.76014 30.34875,-30.76009 30.34893,-30.76011 30.3491,-30.76012 30.34929,-30.76008 30.34952,-30.76008 30.34981,-30.76007 30.35,-30.76011 30.35023,-30.76017 30.35044,-30.76026 30.35069,-30.76045 30.35086,-30.76059 30.35096,-30.76066 30.35094,-30.76073 30.35094,-30.76083 30.35094,-30.76089 30.35094,-30.76094 30.35093,-30.76103 30.3509,-30.76109 30.35098,-30.76126 30.35104,-30.76138 30.35114,-30.76154 30.35126,-30.76158 30.35142,-30.76162 30.35157,-30.76164 30.35171,-30.76167 30.35183,-30.76167 30.3519,-30.76167 30.35205,-30.76172 30.35219,-30.76174 30.35243,-30.76175 30.35259,-30.76178 30.35272,-30.76182 30.3528,-30.76194 30.35285,-30.7621 30.35289,-30.76226 30.35297,-30.76241 30.35317,-30.76265 30.35334,-30.76278 30.35351,-30.76291 30.35379,-30.7631 30.35394,-30.76315 30.35393,-30.76342 30.35396,-30.76361 30.35404,-30.76376 30.3541,-30.76388 30.35417,-30.76394 30.35416,-30.76405 30.35405,-30.76416 30.35396,-30.76426 30.35382,-30.76444 30.35378,-30.76475 30.35374,-30.76503 30.35369,-30.76521 30.35359,-30.76533 30.35352,-30.7654 30.35331,-30.76554 30.3531,-30.76559 30.3531,-30.76577 30.3531,-30.76581 30.35308,-30.76593 30.35311,-30.76605 30.3532,-30.76622 30.35325,-30.76642 30.35324,-30.76654 30.35323,-30.76666 30.3532,-30.76683 30.35325,-30.76696 30.35312,-30.76698 30.35288,-30.76701 30.35271,-30.76707 30.35259,-30.76717 30.35249,-30.76727 30.35238,-30.76758 30.35225,-30.76791 30.35206,-30.76839 30.35193,-30.76873 30.35174,-30.76905 30.35131,-30.76948 30.35105,-30.76969 30.35058,-30.76999 30.35027,-30.77016 30.34997,-30.77038 30.34983,-30.77049 30.3497,-30.7706 30.34945,-30.77087 30.34923,-30.77103 30.349,-30.77111 30.34874,-30.7712 30.34842,-30.77132 30.34805,-30.77141 30.34785,-30.7715 30.34764,-30.77167 30.34751,-30.77186 30.34731,-30.77215 30.34709,-30.77247 30.34677,-30.77287 30.34658,-30.77309 30.34634,-30.77321 30.34602,-30.77322 30.34593,-30.77319 30.34584,-30.77317 30.3457,-30.77308 30.34558,-30.77288 30.34555,-30.7727 30.34553,-30.77245 30.34554,-30.77209 30.34554,-30.77181 30.34545,-30.77122 30.34543,-30.77098 30.34545,-30.77083 30.3455,-30.77064 30.34553,-30.77041 30.34556,-30.77021 30.34556,-30.77003 30.34559,-30.7699 30.34569,-30.76975 30.34583,-30.76945 30.34596,-30.76919 30.34601,-30.76903 30.34602,-30.76884 30.34587,-30.76859 30.34556,-30.76811 30.34506,-30.76725 30.3449,-30.76696 30.34482,-30.76688 30.34469,-30.76675 30.34464,-30.76669 30.34442,-30.76662 30.3442,-30.76661 30.34417,-30.76661 30.34394,-30.76663 30.34381,-30.76672 30.3437,-30.76686 30.3436,-30.76714 30.34358,-30.76746 30.3436,-30.76795 30.34354,-30.76819 30.34337,-30.76838 30.34296,-30.76858 30.34268,-30.76873 30.34259,-30.7689 30.3427,-30.76946 30.34294,-30.77014 30.34307,-30.77071 30.34311,-30.77088 30.34311,-30.77111 30.34305,-30.77126 30.34291,-30.77141 30.34267,-30.77151 30.34245,-30.77152 30.34213,-30.77149 30.34179,-30.77147 30.34149,-30.77149 30.3412,-30.77154 30.34114,-30.77155 30.34088,-30.77157 30.34067,-30.77156 30.3405,-30.7715 30.3403,-30.77127 30.34017,-30.77106 30.34001,-30.77048 30.33986,-30.77026 30.3396,-30.77011 30.33918,-30.77003 30.33873,-30.77001 30.33824,-30.76999 30.33802,-30.76994 30.33782,-30.76987 30.33762,-30.76975 30.33752,-30.76948 30.33756,-30.76923 30.33771,-30.76895 30.33791,-30.76872 30.33812,-30.76845 30.33833,-30.76821 30.3385,-30.76797 30.33858,-30.76777 30.33858,-30.76757 30.33851,-30.7674 30.33836,-30.76726 30.33834,-30.76724 30.33809,-30.76711 30.33784,-30.76712 30.33763,-30.76717 30.3374,-30.76726 30.33678,-30.7675 30.33636,-30.76767 30.33584,-30.76774 30.33561,-30.76773 30.3354,-30.76766 30.33514,-30.76757 30.33485,-30.76746 30.33469,-30.76728 30.33465,-30.76724 30.33438,-30.76679 30.33423,-30.76634 30.33419,-30.7662 30.3341,-30.76591 30.33402,-30.76531 30.33412,-30.76476 30.33414,-30.7644 30.33411,-30.76396 30.33402,-30.76365 30.33401,-30.76336 30.33404,-30.76325 30.33412,-30.76299 30.33421,-30.76276 30.33442,-30.76235 30.33444,-30.76227 30.33447,-30.7622 30.3345,-30.76213 30.3345,-30.76209 30.33452,-30.76206 30.33457,-30.76199 30.33472,-30.76178 30.33476,-30.7617 30.33481,-30.76161 30.33491,-30.76144 30.33499,-30.76121 30.33502,-30.76093 30.33503,-30.76069 30.33493,-30.76041 30.33473,-30.76015 30.33452,-30.75992 30.33432,-30.75976 30.33424,-30.7596 30.33417,-30.75945 30.33428,-30.75935 30.33429,-30.75932 30.3343,-30.7593 30.33433,-30.75925 30.33432,-30.75921 30.33431,-30.7591 30.33444,-30.75899 30.33452,-30.75894 30.3347,-30.7588 30.33477,-30.75875 30.33488,-30.75875 30.33493,-30.75868 30.33501,-30.75859 30.33534,-30.75761 30.33541,-30.7574 30.33556,-30.7573 30.33571,-30.75732 30.33593,-30.75753 30.33606,-30.75763 30.33635,-30.75764</coordinates></LinearRing></outerBoundaryIs></Polygon></MultiGeometry></Placemark></Document></kml>