<?xml version="1.0" encoding="UTF-8"?><kml xmlns="http://www.opengis.net/kml/2.2"><Document><Placemark><name>Margate</name><description>Main Place 506051</description><ExtendedData><Data name="code"><value>506051</value></Data><Data name="name"><value>Margate</value></Data><Data name="description"><value>Main Place 506051</value></Data></ExtendedData><MultiGeometry><Polygon><outerBoundaryIs><LinearRing><coordinates>30.42152,-30.77917 30.42234,-30.77975 30.42356,-30.78143 30.42372,-30.78183 30.42387,-30.78219 30.42412,-30.78297 30.42435,-30.78344 30.42443,-30.78361 30.42446,-30.78371 30.42449,-30.78386 30.42451,-30.78394 30.4248,-30.78501 30.42514,-30.7859 30.42506,-30.78601 30.42487,-30.78624 30.42484,-30.78629 30.42472,-30.78647 30.42447,-30.78678 30.42422,-30.78712 30.42403,-30.78744 30.42381,-30.78776 30.42363,-30.78808 30.42351,-30.78839 30.42342,-30.78874 30.42345,-30.78899 30.4235,-30.78909 30.42351,-30.78912 30.42359,-30.78927 30.4237,-30.78933 30.42385,-30.78942 30.42393,-30.78951 30.42399,-30.78967 30.42398,-30.78988 30.42393,-30.79009 30.42384,-30.79032 30.42367,-30.79038 30.42356,-30.79033 30.42352,-30.7903 30.42345,-30.79025 30.4234,-30.79033 30.4235,-30.79051 30.42348,-30.79057 30.42348,-30.79061 30.42347,-30.79064 30.42335,-30.79067 30.42335,-30.79073 30.42339,-30.79077 30.42344,-30.79083 30.42342,-30.7909 30.42329,-30.79092 30.42325,-30.79088 30.42316,-30.79086 30.42314,-30.79097 30.42317,-30.79102 30.42322,-30.79104 30.42327,-30.79111 30.42327,-30.79118 30.42316,-30.79127 30.42301,-30.79127 30.42297,-30.79131 30.42297,-30.79135 30.423,-30.79146 30.423,-30.79153 30.4229,-30.79153 30.42285,-30.79156 30.42284,-30.79164 30.42284,-30.79168 30.42271,-30.79171 30.42265,-30.7917 30.42263,-30.79168 30.42256,-30.79172 30.42246,-30.79185 30.42237,-30.79199 30.42222,-30.79218 30.42214,-30.7923 30.42212,-30.79253 30.42211,-30.79264 30.42209,-30.79281 30.42206,-30.79297 30.42191,-30.79312 30.42178,-30.79326 30.42175,-30.79334 30.42168,-30.7935 30.42168,-30.79367 30.4217,-30.79379 30.42172,-30.79388 30.42182,-30.79404 30.42194,-30.79406 30.42208,-30.79406 30.42213,-30.79411 30.42213,-30.79417 30.42207,-30.79427 30.4221,-30.79434 30.42218,-30.79436 30.42224,-30.7944 30.42226,-30.79445 30.4222,-30.7945 30.42206,-30.79453 30.42194,-30.79453 30.42194,-30.79457 30.42196,-30.79462 30.42199,-30.79466 30.42203,-30.79469 30.42202,-30.79477 30.42201,-30.79482 30.42189,-30.79481 30.42182,-30.79479 30.42179,-30.79476 30.42176,-30.79472 30.42169,-30.7947 30.42164,-30.79478 30.42166,-30.79483 30.4217,-30.79486 30.42174,-30.79493 30.4217,-30.79498 30.42159,-30.795 30.42153,-30.79497 30.42148,-30.79497 30.42144,-30.79504 30.42142,-30.79511 30.42133,-30.79515 30.42127,-30.79518 30.42129,-30.79524 30.42134,-30.79532 30.42134,-30.79543 30.42125,-30.7955 30.42117,-30.79551 30.42107,-30.7956 30.42106,-30.79562 30.42104,-30.79566 30.42087,-30.79574 30.42079,-30.79577 30.42065,-30.79584 30.42057,-30.79586 30.42051,-30.79596 30.4204,-30.79596 30.42035,-30.79594 30.4203,-30.79591 30.42023,-30.79586 30.42001,-30.79586 30.41991,-30.79598 30.41977,-30.7961 30.4196,-30.79632 30.41937,-30.79655 30.41912,-30.79679 30.41893,-30.79704 30.41877,-30.79727 30.41863,-30.79745 30.41853,-30.79761 30.41843,-30.79778 30.41834,-30.79802 30.41836,-30.79822 30.41839,-30.79837 30.41845,-30.79846 30.41852,-30.79856 30.41849,-30.79868 30.41845,-30.79871 30.41829,-30.79884 30.4182,-30.79894 30.41805,-30.79908 30.41789,-30.7992 30.41771,-30.79941 30.41757,-30.79968 30.41748,-30.79988 30.41738,-30.80005 30.41726,-30.80026 30.41716,-30.80049 30.41713,-30.80061 30.41711,-30.80075 30.41697,-30.80083 30.41687,-30.8009 30.41681,-30.80098 30.41685,-30.8011 30.41678,-30.80123 30.41672,-30.80128 30.41672,-30.80137 30.41667,-30.80147 30.41665,-30.80157 30.41661,-30.80166 30.41656,-30.80172 30.4165,-30.80175 30.41648,-30.80179 30.41647,-30.80186 30.41646,-30.80195 30.41646,-30.80213 30.4164,-30.80219 30.41634,-30.80217 30.41627,-30.80214 30.41624,-30.80221 30.41625,-30.80226 30.41625,-30.80241 30.4162,-30.80244 30.41607,-30.8024 30.41603,-30.80239 30.416,-30.80234 30.41593,-30.80234 30.41588,-30.80239 30.41588,-30.80245 30.41571,-30.80253 30.41564,-30.80251 30.41562,-30.80249 30.41558,-30.80247 30.41543,-30.80247 30.41539,-30.80244 30.41534,-30.8024 30.41527,-30.8024 30.41512,-30.80249 30.41489,-30.80273 30.41475,-30.80288 30.41459,-30.80304 30.41447,-30.80325 30.41437,-30.80337 30.41437,-30.80353 30.4144,-30.80365 30.41445,-30.80371 30.41454,-30.80377 30.41463,-30.80384 30.41464,-30.80394 30.41458,-30.804 30.41449,-30.804 30.41443,-30.80396 30.41437,-30.80399 30.41429,-30.80407 30.4142,-30.80407 30.41414,-30.80406 30.41411,-30.80405 30.41407,-30.80402 30.41401,-30.80402 30.41392,-30.80409 30.41377,-30.80426 30.41356,-30.80445 30.41335,-30.80463 30.41318,-30.80482 30.41317,-30.80484 30.41305,-30.80504 30.41296,-30.80531 30.41284,-30.80558 30.4128,-30.80592 30.4128,-30.80617 30.41274,-30.80654 30.41271,-30.80686 30.41266,-30.80724 30.41265,-30.80755 30.41263,-30.80774 30.41266,-30.80794 30.41272,-30.80817 30.41279,-30.80837 30.41282,-30.80847 30.41293,-30.80864 30.41303,-30.80871 30.41316,-30.80874 30.41324,-30.8087 30.41327,-30.80867 30.4133,-30.80862 30.41346,-30.8086 30.41355,-30.80856 30.41362,-30.8085 30.41373,-30.80845 30.41381,-30.80849 30.41389,-30.80861 30.41389,-30.80903 30.4137,-30.8092 30.41359,-30.8093 30.41348,-30.8093 30.41343,-30.8094 30.41344,-30.80947 30.41346,-30.80955 30.41344,-30.80961 30.41332,-30.8096 30.41327,-30.80956 30.4132,-30.80956 30.41316,-30.80957 30.41316,-30.80972 30.41319,-30.80979 30.41319,-30.80986 30.41313,-30.80989 30.41307,-30.80987 30.41299,-30.80985 30.41295,-30.8099 30.41296,-30.80995 30.41296,-30.81005 30.41289,-30.81011 30.41281,-30.81011 30.41279,-30.81008 30.41271,-30.81005 30.41266,-30.81009 30.41266,-30.81038 30.41245,-30.81048 30.4124,-30.81051 30.41236,-30.81061 30.41228,-30.81065 30.41218,-30.81065 30.41212,-30.81061 30.41206,-30.81058 30.412,-30.81059 30.41181,-30.81064 30.41167,-30.81071 30.4116,-30.81083 30.41153,-30.8109 30.41147,-30.81106 30.41147,-30.81106 30.4114,-30.81129 30.41141,-30.81144 30.4115,-30.81161 30.41159,-30.81171 30.41163,-30.81181 30.41169,-30.81188 30.41177,-30.81195 30.41178,-30.81204 30.41183,-30.81211 30.41183,-30.81218 30.41171,-30.81218 30.41165,-30.81219 30.41166,-30.81227 30.41172,-30.8123 30.41181,-30.81231 30.41188,-30.81234 30.41193,-30.81238 30.41194,-30.81246 30.41188,-30.8125 30.41177,-30.81252 30.41165,-30.81252 30.41161,-30.81255 30.41164,-30.81262 30.41168,-30.81264 30.41175,-30.8127 30.41178,-30.81278 30.4118,-30.81287 30.41168,-30.81292 30.41154,-30.81297 30.41155,-30.81303 30.4116,-30.81309 30.41169,-30.81314 30.41172,-30.81322 30.41172,-30.81327 30.41158,-30.81331 30.41152,-30.81331 30.41148,-30.81335 30.41151,-30.8134 30.41151,-30.81341 30.41156,-30.81345 30.41166,-30.81347 30.41173,-30.81355 30.41161,-30.81368 30.4115,-30.8137 30.4115,-30.81377 30.41155,-30.81382 30.41164,-30.81388 30.41163,-30.81404 30.41146,-30.81409 30.41137,-30.81409 30.41127,-30.81399 30.41122,-30.81398 30.41121,-30.81402 30.41121,-30.81418 30.41117,-30.8143 30.41117,-30.81456 30.41109,-30.81464 30.41094,-30.81472 30.41088,-30.81472 30.41083,-30.81474 30.41076,-30.8148 30.41076,-30.81485 30.41077,-30.81492 30.41073,-30.81499 30.41067,-30.81503 30.4106,-30.81503 30.41052,-30.81504 30.41052,-30.8151 30.41055,-30.81513 30.41055,-30.81519 30.41047,-30.81533 30.41037,-30.81533 30.41031,-30.81528 30.41024,-30.81528 30.4102,-30.81535 30.41022,-30.81543 30.4102,-30.81549 30.41009,-30.8155 30.41003,-30.81548 30.4099,-30.81548 30.40989,-30.81553 30.4099,-30.81558 30.40992,-30.81565 30.40988,-30.81573 30.40975,-30.81577 30.40968,-30.81572 30.40962,-30.81567 30.40956,-30.81567 30.40955,-30.81573 30.40955,-30.8158 30.4095,-30.81586 30.40936,-30.81592 30.40928,-30.81588 30.40921,-30.81592 30.40913,-30.81603 30.40913,-30.8161 30.40913,-30.81611 30.40912,-30.81618 30.40898,-30.81621 30.40892,-30.81618 30.40886,-30.81618 30.40884,-30.81625 30.40884,-30.81634 30.40888,-30.81642 30.40885,-30.81652 30.40867,-30.8166 30.40864,-30.81658 30.40858,-30.81652 30.40851,-30.81651 30.40846,-30.81651 30.40846,-30.81658 30.40848,-30.81661 30.40848,-30.8167 30.40847,-30.81676 30.4084,-30.81679 30.40831,-30.81678 30.40827,-30.81675 30.4082,-30.81671 30.40813,-30.81676 30.40814,-30.81681 30.40814,-30.81692 30.40806,-30.81701 30.40794,-30.81701 30.40791,-30.81698 30.40787,-30.81696 30.40781,-30.81696 30.40777,-30.81698 30.4077,-30.81703 30.40769,-30.8171 30.40767,-30.81717 30.40764,-30.81721 30.40753,-30.81717 30.40745,-30.8171 30.40732,-30.81705 30.40725,-30.81704 30.40713,-30.81712 30.40713,-30.81729 30.40706,-30.81734 30.40696,-30.8173 30.40689,-30.81725 30.40681,-30.81718 30.40672,-30.81718 30.40669,-30.81723 30.40669,-30.81734 30.40666,-30.81742 30.40662,-30.81745 30.4065,-30.81748 30.40644,-30.81744 30.40635,-30.8174 30.4063,-30.81741 30.4063,-30.81748 30.40631,-30.81755 30.40634,-30.81759 30.40637,-30.81767 30.40637,-30.81777 30.40629,-30.81782 30.40608,-30.81777 30.40606,-30.81784 30.40613,-30.81791 30.40621,-30.81793 30.40628,-30.81798 30.40629,-30.81806 30.40627,-30.81809 30.40613,-30.81808 30.40603,-30.81807 30.40595,-30.81807 30.40589,-30.81809 30.40589,-30.81822 30.40594,-30.81829 30.406,-30.81834 30.40603,-30.81845 30.40601,-30.81854 30.40592,-30.8186 30.40582,-30.81861 30.40579,-30.81863 30.40566,-30.81876 30.40559,-30.81891 30.40552,-30.81911 30.40542,-30.81929 30.40535,-30.8195 30.40529,-30.81964 30.40528,-30.81976 30.40521,-30.81997 30.40519,-30.8202 30.4052,-30.82024 30.4052,-30.82027 30.40523,-30.82038 30.40532,-30.82043 30.40547,-30.82045 30.40558,-30.8205 30.40563,-30.82058 30.40575,-30.82061 30.40589,-30.82062 30.40601,-30.82066 30.40605,-30.82073 30.40614,-30.82076 30.40622,-30.82078 30.40632,-30.82081 30.4064,-30.82087 30.40648,-30.82089 30.40651,-30.8209 30.40661,-30.82093 30.40664,-30.821 30.40666,-30.82108 30.40666,-30.82117 30.4067,-30.82124 30.40674,-30.82139 30.40673,-30.82149 30.4066,-30.82153 30.40654,-30.82153 30.40654,-30.82157 30.40669,-30.82166 30.40667,-30.82172 30.40665,-30.8218 30.40663,-30.82183 30.40656,-30.82187 30.40647,-30.82185 30.4064,-30.8218 30.40631,-30.8218 30.40626,-30.82189 30.40626,-30.822 30.40631,-30.82206 30.40638,-30.82209 30.40644,-30.82218 30.4064,-30.82229 30.40627,-30.82236 30.40614,-30.8224 30.40615,-30.82246 30.40625,-30.82259 30.4063,-30.82262 30.40632,-30.82269 30.40625,-30.82276 30.40615,-30.82276 30.40604,-30.82273 30.40601,-30.8228 30.40604,-30.82285 30.40616,-30.82288 30.40621,-30.82298 30.40621,-30.82308 30.4062,-30.82316 30.40614,-30.82323 30.40611,-30.82333 30.406,-30.82338 30.40592,-30.82338 30.40586,-30.8234 30.40587,-30.8235 30.40591,-30.82353 30.40594,-30.82355 30.40598,-30.82364 30.40597,-30.8237 30.40589,-30.82373 30.40577,-30.82369 30.40573,-30.8237 30.40573,-30.82379 30.40577,-30.82385 30.40582,-30.82393 30.40577,-30.82408 30.40572,-30.82412 30.40566,-30.82419 30.40558,-30.8242 30.40556,-30.82423 30.40558,-30.82426 30.40562,-30.82428 30.40573,-30.82429 30.4058,-30.82436 30.40577,-30.82448 30.40568,-30.8245 30.40561,-30.8245 30.40553,-30.82446 30.40547,-30.82444 30.40541,-30.82446 30.40541,-30.82456 30.40542,-30.8246 30.40553,-30.82472 30.40552,-30.82481 30.40538,-30.82484 30.40534,-30.82482 30.40526,-30.8248 30.4052,-30.82485 30.4052,-30.82492 30.4052,-30.82499 30.40523,-30.82505 30.40525,-30.82513 30.40525,-30.82521 30.40513,-30.8252 30.40505,-30.82522 30.40505,-30.82527 30.40506,-30.82533 30.40512,-30.82536 30.40517,-30.82542 30.40516,-30.82551 30.40509,-30.82553 30.405,-30.82556 30.40501,-30.82563 30.40509,-30.82567 30.40515,-30.82573 30.40518,-30.82582 30.40514,-30.8259 30.40504,-30.82594 30.40504,-30.82602 30.40507,-30.82607 30.40512,-30.82609 30.40519,-30.82609 30.40528,-30.82612 30.40533,-30.82616 30.40534,-30.82624 30.40532,-30.82631 30.40521,-30.82636 30.4051,-30.82635 30.40507,-30.82634 30.40503,-30.82637 30.40503,-30.82646 30.40509,-30.82651 30.40514,-30.82655 30.40519,-30.8266 30.40522,-30.82665 30.40519,-30.82672 30.40513,-30.82672 30.40506,-30.82668 30.40497,-30.82665 30.40489,-30.82666 30.40485,-30.82671 30.40482,-30.82683 30.40485,-30.82687 30.4049,-30.82694 30.4049,-30.82701 30.40485,-30.8271 30.40475,-30.82706 30.40468,-30.82705 30.40465,-30.82703 30.40459,-30.82695 30.40454,-30.82692 30.40447,-30.82693 30.40445,-30.82707 30.40449,-30.82716 30.40457,-30.82721 30.40468,-30.82721 30.4048,-30.82722 30.40486,-30.82728 30.40486,-30.82739 30.40475,-30.82744 30.40465,-30.82744 30.40459,-30.82742 30.40456,-30.82736 30.4045,-30.82731 30.4044,-30.82732 30.4044,-30.82743 30.40444,-30.82753 30.40456,-30.82758 30.40465,-30.82761 30.40472,-30.82762 30.40478,-30.82771 30.40478,-30.82778 30.40467,-30.8278 30.40459,-30.82779 30.40449,-30.82778 30.40444,-30.82781 30.40445,-30.82788 30.40452,-30.82793 30.40462,-30.82799 30.40464,-30.82807 30.40454,-30.82812 30.40442,-30.82812 30.40435,-30.82807 30.40427,-30.82804 30.4042,-30.82804 30.4042,-30.82812 30.40424,-30.82818 30.40432,-30.82823 30.4044,-30.82825 30.40451,-30.8283 30.40451,-30.82836 30.4045,-30.82843 30.40442,-30.82843 30.40434,-30.82848 30.40431,-30.82851 30.40423,-30.82857 30.40415,-30.82854 30.40411,-30.82852 30.40407,-30.82848 30.40406,-30.82845 30.40406,-30.8284 30.40401,-30.82835 30.4039,-30.82835 30.40383,-30.82841 30.40378,-30.8285 30.40382,-30.82855 30.40382,-30.82865 30.40381,-30.82872 30.40375,-30.82873 30.40366,-30.82872 30.40358,-30.82866 30.40352,-30.82868 30.40345,-30.82875 30.4034,-30.82882 30.40341,-30.82889 30.4035,-30.82898 30.40356,-30.82906 30.40349,-30.82915 30.40334,-30.82915 30.40327,-30.82912 30.40322,-30.82916 30.40325,-30.82923 30.40326,-30.82933 30.40322,-30.82939 30.40314,-30.82944 30.40305,-30.82944 30.40302,-30.82945 30.403,-30.82953 30.40296,-30.8296 30.40286,-30.82964 30.40283,-30.82963 30.4028,-30.8296 30.40278,-30.82956 30.40274,-30.82949 30.40267,-30.82949 30.40264,-30.8295 30.40264,-30.82961 30.40266,-30.82966 30.4027,-30.82972 30.40271,-30.82974 30.4027,-30.8298 30.40269,-30.82981 30.40261,-30.82985 30.40254,-30.82985 30.4025,-30.82981 30.40246,-30.82978 30.4024,-30.82978 30.40237,-30.8298 30.4023,-30.82983 30.40225,-30.82988 30.40223,-30.82997 30.40228,-30.83 30.40237,-30.83004 30.40237,-30.83017 30.40229,-30.83023 30.40213,-30.83032 30.40206,-30.83028 30.40202,-30.83023 30.40197,-30.83023 30.40195,-30.83029 30.402,-30.8304 30.40206,-30.83049 30.40207,-30.83061 30.40193,-30.83065 30.40187,-30.83056 30.4017,-30.83056 30.40165,-30.83066 30.40166,-30.83075 30.40164,-30.83086 30.40146,-30.83091 30.40139,-30.8309 30.40135,-30.83086 30.40131,-30.83081 30.40123,-30.83076 30.40119,-30.83084 30.40113,-30.83095 30.40104,-30.83104 30.40098,-30.83104 30.40093,-30.83101 30.40087,-30.83097 30.40084,-30.83092 30.40075,-30.83087 30.40071,-30.83087 30.40064,-30.83095 30.40064,-30.83115 30.40059,-30.8312 30.40044,-30.8312 30.40042,-30.8313 30.40043,-30.83138 30.40048,-30.83143 30.40054,-30.83148 30.40058,-30.83157 30.40048,-30.83161 30.40041,-30.83156 30.40035,-30.83159 30.40035,-30.83167 30.40036,-30.83171 30.40041,-30.83176 30.40044,-30.83186 30.40041,-30.83205 30.40035,-30.83205 30.40028,-30.83203 30.40022,-30.83204 30.40016,-30.83213 30.40017,-30.83218 30.40021,-30.83228 30.40015,-30.83238 30.40007,-30.83236 30.40003,-30.83234 30.39987,-30.83234 30.39981,-30.8324 30.39979,-30.83253 30.39982,-30.83258 30.39985,-30.83264 30.39985,-30.83272 30.39976,-30.83277 30.39969,-30.83276 30.39956,-30.8327 30.39945,-30.83276 30.39944,-30.83282 30.39943,-30.83289 30.3994,-30.83304 30.39928,-30.83316 30.39918,-30.83316 30.39913,-30.83311 30.39908,-30.83306 30.399,-30.83312 30.39902,-30.83318 30.39908,-30.83326 30.39912,-30.83338 30.39905,-30.83347 30.39893,-30.83348 30.39888,-30.83344 30.39882,-30.83342 30.39876,-30.83349 30.39876,-30.83358 30.39873,-30.83367 30.39863,-30.83378 30.39854,-30.83378 30.39852,-30.83373 30.3985,-30.83366 30.39847,-30.83358 30.39847,-30.83353 30.39836,-30.83349 30.39828,-30.83349 30.39823,-30.83361 30.39823,-30.83366 30.3983,-30.83372 30.39833,-30.83387 30.39833,-30.83387 30.39831,-30.83393 30.39814,-30.83393 30.39802,-30.83389 30.39795,-30.83388 30.39786,-30.83388 30.39776,-30.83397 30.3977,-30.8341 30.39754,-30.83413 30.39745,-30.83412 30.39739,-30.83405 30.39735,-30.83404 30.3973,-30.83404 30.39724,-30.83407 30.39726,-30.83418 30.39731,-30.83427 30.39726,-30.83442 30.39714,-30.83442 30.39708,-30.83441 30.39702,-30.83437 30.39696,-30.83437 30.39695,-30.83443 30.39695,-30.83465 30.39691,-30.83469 30.39682,-30.83471 30.39675,-30.83471 30.39669,-30.83465 30.39658,-30.83459 30.39638,-30.83459 30.39622,-30.83457 30.39605,-30.83457 30.39593,-30.8346 30.39577,-30.83473 30.39561,-30.83498 30.3955,-30.83526 30.39542,-30.83548 30.39533,-30.83566 30.39517,-30.83579 30.39516,-30.83583 30.39512,-30.83595 30.39513,-30.83615 30.39517,-30.83624 30.39528,-30.8363 30.39542,-30.83634 30.39561,-30.83643 30.39569,-30.83648 30.39587,-30.83654 30.39599,-30.83656 30.39609,-30.8366 30.39622,-30.83668 30.3963,-30.83676 30.39633,-30.83687 30.39632,-30.83695 30.39614,-30.837 30.39614,-30.83708 30.3962,-30.83713 30.39627,-30.8372 30.39634,-30.83728 30.39634,-30.83734 30.39634,-30.83737 30.39627,-30.83743 30.39616,-30.83743 30.39616,-30.83753 30.39631,-30.83764 30.39631,-30.83774 30.3962,-30.8378 30.39613,-30.83779 30.39611,-30.83789 30.39619,-30.83795 30.3963,-30.83802 30.39631,-30.83814 30.3962,-30.83827 30.39609,-30.83822 30.39601,-30.83823 30.39601,-30.83832 30.39612,-30.83844 30.39612,-30.83857 30.39606,-30.83866 30.39601,-30.83875 30.3959,-30.83875 30.39584,-30.8388 30.39589,-30.83895 30.39593,-30.83901 30.39587,-30.83911 30.39572,-30.83907 30.39567,-30.83902 30.39558,-30.83902 30.39552,-30.83908 30.39553,-30.83918 30.39558,-30.83923 30.39562,-30.83931 30.39558,-30.83942 30.39543,-30.8394 30.39534,-30.83956 30.39534,-30.83965 30.39537,-30.83979 30.3953,-30.83981 30.39522,-30.83979 30.39518,-30.83979 30.39513,-30.83984 30.39513,-30.83988 30.39522,-30.84001 30.3952,-30.84013 30.39515,-30.84025 30.39511,-30.8403 30.39503,-30.8403 30.395,-30.84034 30.39502,-30.84042 30.39515,-30.84049 30.39515,-30.84061 30.39508,-30.8407 30.39497,-30.84071 30.39492,-30.84068 30.39486,-30.84062 30.39475,-30.84058 30.39475,-30.84064 30.39478,-30.84073 30.39488,-30.84079 30.39495,-30.84095 30.39488,-30.84103 30.39481,-30.84099 30.39474,-30.84099 30.39469,-30.84101 30.3947,-30.84113 30.39471,-30.8413 30.39469,-30.84138 30.39461,-30.84138 30.39446,-30.84133 30.39442,-30.84143 30.39445,-30.84158 30.39451,-30.84164 30.39459,-30.8417 30.39459,-30.8418 30.39451,-30.84183 30.39444,-30.8418 30.39438,-30.84175 30.39431,-30.84175 30.39431,-30.84186 30.39433,-30.84194 30.39439,-30.84208 30.39428,-30.84212 30.39425,-30.84208 30.39419,-30.84207 30.39409,-30.84209 30.39408,-30.84218 30.39412,-30.84224 30.39417,-30.84228 30.39426,-30.84234 30.3943,-30.84241 30.39425,-30.84252 30.39405,-30.84247 30.39394,-30.84247 30.39392,-30.84256 30.39393,-30.84266 30.39398,-30.84269 30.394,-30.8428 30.39394,-30.84288 30.39381,-30.84299 30.39381,-30.84303 30.39381,-30.84307 30.39388,-30.84309 30.394,-30.84313 30.39407,-30.84319 30.39408,-30.8433 30.39408,-30.84335 30.39402,-30.84343 30.39395,-30.84341 30.39387,-30.84333 30.39379,-30.84327 30.3937,-30.84327 30.39362,-30.84332 30.39362,-30.84344 30.39369,-30.8435 30.39376,-30.84352 30.39383,-30.8436 30.39382,-30.84374 30.39368,-30.84377 30.39361,-30.84384 30.39346,-30.8439 30.3934,-30.84387 30.39337,-30.84382 30.39333,-30.84378 30.3933,-30.84378 30.39329,-30.84383 30.3933,-30.84392 30.3933,-30.84394 30.39341,-30.84405 30.3934,-30.84409 30.39337,-30.84415 30.39323,-30.84425 30.39313,-30.84422 30.39312,-30.8441 30.39311,-30.84401 30.39302,-30.84401 30.39292,-30.84402 30.39292,-30.84413 30.39294,-30.84432 30.39283,-30.84444 30.39279,-30.84439 30.39274,-30.84432 30.39268,-30.84426 30.39262,-30.84426 30.39262,-30.84435 30.39261,-30.84444 30.3926,-30.8445 30.39249,-30.84451 30.39242,-30.8445 30.39237,-30.84445 30.3923,-30.84444 30.39226,-30.84446 30.39226,-30.84454 30.39225,-30.84463 30.39213,-30.8447 30.3921,-30.84483 30.3921,-30.84495 30.39211,-30.84501 30.39221,-30.84502 30.3923,-30.84502 30.39241,-30.84504 30.39249,-30.84509 30.39252,-30.84521 30.39245,-30.84528 30.3923,-30.84531 30.3922,-30.84531 30.39214,-30.84532 30.39194,-30.84531 30.39186,-30.84531 30.39183,-30.8454 30.39185,-30.84546 30.39189,-30.84553 30.39189,-30.84563 30.39185,-30.84569 30.3918,-30.84576 30.39164,-30.84581 30.39158,-30.84579 30.3915,-30.84581 30.3915,-30.84587 30.39157,-30.84591 30.39164,-30.84592 30.39169,-30.84597 30.39164,-30.84608 30.39161,-30.84614 30.39157,-30.84621 30.39139,-30.84625 30.39133,-30.8462 30.39129,-30.84621 30.39129,-30.84627 30.39127,-30.8464 30.39125,-30.84652 30.3912,-30.84657 30.39117,-30.84661 30.39118,-30.84673 30.39112,-30.84681 30.39093,-30.84681 30.39093,-30.84685 30.39094,-30.84691 30.39098,-30.84695 30.39101,-30.84704 30.39095,-30.84709 30.39089,-30.8471 30.39081,-30.84709 30.39072,-30.8471 30.39072,-30.84717 30.39075,-30.84722 30.3908,-30.84729 30.39081,-30.84733 30.39073,-30.84745 30.39055,-30.84751 30.3905,-30.8475 30.39044,-30.84746 30.39041,-30.84747 30.39031,-30.84755 30.39035,-30.84759 30.39044,-30.84764 30.39045,-30.84773 30.39039,-30.84779 30.39024,-30.84788 30.39017,-30.84785 30.39013,-30.8478 30.39007,-30.84776 30.39003,-30.84779 30.39006,-30.84786 30.3901,-30.84795 30.39006,-30.84805 30.38995,-30.84821 30.38986,-30.84823 30.38981,-30.84821 30.38974,-30.84824 30.38974,-30.84838 30.38966,-30.84846 30.38955,-30.84846 30.38948,-30.84844 30.38943,-30.8484 30.38938,-30.84841 30.38938,-30.84849 30.38941,-30.84855 30.38948,-30.84859 30.38959,-30.84863 30.38968,-30.84867 30.38972,-30.84878 30.38967,-30.84883 30.38959,-30.84883 30.3895,-30.8488 30.38941,-30.84879 30.3893,-30.84884 30.38925,-30.84895 30.38931,-30.84902 30.38943,-30.84903 30.38955,-30.84913 30.38955,-30.8492 30.3895,-30.84928 30.38934,-30.84929 30.38926,-30.84928 30.3892,-30.84923 30.38913,-30.84917 30.38905,-30.84916 30.38904,-30.84921 30.38906,-30.84926 30.38917,-30.8493 30.38919,-30.84934 30.38916,-30.84942 30.38903,-30.84948 30.38892,-30.84962 30.38894,-30.84968 30.38899,-30.84977 30.389,-30.84987 30.38897,-30.84997 30.38888,-30.84998 30.38878,-30.84998 30.38872,-30.85004 30.38872,-30.85012 30.38867,-30.85021 30.38867,-30.8503 30.38855,-30.85035 30.38837,-30.85034 30.38823,-30.85028 30.38815,-30.85028 30.3881,-30.8503 30.38802,-30.85043 30.38799,-30.85049 30.38803,-30.85061 30.38803,-30.85071 30.38802,-30.85078 30.38798,-30.85081 30.38788,-30.85081 30.38779,-30.85076 30.38771,-30.85074 30.38771,-30.85084 30.38773,-30.85091 30.38774,-30.85101 30.38775,-30.85106 30.38766,-30.85116 30.38747,-30.8512 30.38734,-30.85129 30.38723,-30.85146 30.38713,-30.85146 30.38711,-30.85143 30.38705,-30.85141 30.38696,-30.85141 30.38696,-30.85147 30.38697,-30.85159 30.38696,-30.85172 30.38683,-30.85184 30.38674,-30.85184 30.38667,-30.85183 30.38663,-30.85174 30.38654,-30.85174 30.38639,-30.8519 30.38636,-30.85209 30.38636,-30.85221 30.38639,-30.85231 30.38643,-30.85241 30.38644,-30.85248 30.38662,-30.85265 30.38666,-30.85275 30.38666,-30.85288 30.38659,-30.85292 30.38653,-30.85291 30.38646,-30.85288 30.38642,-30.85288 30.38642,-30.85302 30.38634,-30.85322 30.38623,-30.85324 30.38616,-30.85324 30.38612,-30.85317 30.38609,-30.8531 30.38602,-30.85303 30.38596,-30.85303 30.38593,-30.85306 30.38593,-30.85315 30.38597,-30.85322 30.38597,-30.85331 30.3859,-30.85338 30.3858,-30.8534 30.38573,-30.85337 30.38568,-30.85332 30.38567,-30.85329 30.38567,-30.85323 30.38565,-30.85319 30.38559,-30.85319 30.38552,-30.85324 30.3854,-30.85332 30.3853,-30.85327 30.38521,-30.85317 30.38511,-30.85316 30.38503,-30.85321 30.38497,-30.85334 30.38487,-30.85338 30.38476,-30.85336 30.38465,-30.85336 30.38465,-30.85336 30.38464,-30.85344 30.38464,-30.85361 30.38456,-30.85372 30.38445,-30.85366 30.38436,-30.85363 30.38434,-30.85371 30.38437,-30.8538 30.38439,-30.85384 30.38447,-30.85385 30.38453,-30.85393 30.38452,-30.85399 30.38451,-30.85406 30.38441,-30.85416 30.38429,-30.85412 30.38423,-30.85404 30.3842,-30.85393 30.38416,-30.85387 30.38408,-30.85386 30.38408,-30.85388 30.38407,-30.85404 30.38412,-30.85419 30.38412,-30.85431 30.38403,-30.85437 30.38393,-30.85434 30.38389,-30.85419 30.38378,-30.85412 30.3837,-30.85417 30.38357,-30.85417 30.38351,-30.85428 30.38354,-30.85436 30.38362,-30.8544 30.38368,-30.85447 30.38359,-30.85463 30.38349,-30.85467 30.38346,-30.85479 30.38351,-30.85488 30.38349,-30.85498 30.38346,-30.85506 30.38327,-30.85515 30.38321,-30.85507 30.38314,-30.85501 30.38305,-30.85498 30.38302,-30.85506 30.38303,-30.85513 30.3831,-30.85525 30.3831,-30.85532 30.38303,-30.85541 30.38288,-30.85545 30.38283,-30.85543 30.38282,-30.85537 30.38276,-30.85536 30.38269,-30.85539 30.38254,-30.85549 30.38246,-30.85549 30.38241,-30.85547 30.38235,-30.85543 30.38228,-30.85543 30.38228,-30.85549 30.3823,-30.85555 30.38239,-30.8556 30.38239,-30.85573 30.38223,-30.85581 30.38215,-30.85579 30.3821,-30.85574 30.38201,-30.85559 30.38194,-30.85554 30.38183,-30.85555 30.38185,-30.8556 30.38186,-30.85564 30.38186,-30.85574 30.38184,-30.85574 30.38177,-30.85576 30.38169,-30.85576 30.3817,-30.85584 30.38173,-30.85591 30.38173,-30.85597 30.3817,-30.85604 30.38159,-30.85605 30.3815,-30.85601 30.38147,-30.85599 30.38144,-30.85595 30.38139,-30.85587 30.38132,-30.85587 30.38128,-30.85597 30.38119,-30.85599 30.38104,-30.85601 30.381,-30.85599 30.38095,-30.85595 30.38088,-30.85593 30.38079,-30.85595 30.38067,-30.85599 30.38053,-30.85599 30.38046,-30.85598 30.3804,-30.85594 30.38031,-30.85581 30.38016,-30.85579 30.37998,-30.8558 30.37998,-30.8558 30.37977,-30.85584 30.3796,-30.85589 30.37938,-30.85605 30.37919,-30.85614 30.37891,-30.8563 30.37859,-30.85648 30.37832,-30.85673 30.37809,-30.85689 30.37783,-30.85717 30.3776,-30.85737 30.37755,-30.85742 30.37735,-30.85764 30.37732,-30.85767 30.37708,-30.85791 30.37684,-30.85812 30.37653,-30.8583 30.37642,-30.85836 30.37612,-30.85852 30.37584,-30.85868 30.37581,-30.8587 30.37569,-30.85876 30.37564,-30.85879 30.3754,-30.85893 30.37511,-30.8591 30.37483,-30.85925 30.37459,-30.85945 30.37438,-30.85963 30.3742,-30.85981 30.37404,-30.85996 30.37387,-30.86017 30.37368,-30.86036 30.37354,-30.86055 30.37353,-30.86056 30.37337,-30.86072 30.37313,-30.86094 30.37311,-30.86096 30.37299,-30.86114 30.37288,-30.86124 30.37277,-30.86134 30.3726,-30.86144 30.37241,-30.86157 30.37235,-30.86161 30.37217,-30.86176 30.37203,-30.86194 30.37197,-30.86212 30.37188,-30.86235 30.37185,-30.86244 30.37179,-30.86262 30.37179,-30.86276 30.37187,-30.86285 30.37203,-30.86299 30.37213,-30.86306 30.37229,-30.86316 30.37243,-30.86324 30.37252,-30.86332 30.37255,-30.86346 30.37247,-30.8635 30.37237,-30.86353 30.37237,-30.86362 30.37248,-30.86368 30.37252,-30.86371 30.37257,-30.86382 30.37243,-30.86385 30.37235,-30.86383 30.37223,-30.86379 30.3722,-30.86384 30.3722,-30.86395 30.37208,-30.86401 30.37199,-30.864 30.37194,-30.86409 30.37199,-30.8642 30.37206,-30.86438 30.37204,-30.86441 30.37193,-30.86443 30.37186,-30.86446 30.37187,-30.86451 30.37191,-30.86453 30.37195,-30.86454 30.37201,-30.86458 30.37203,-30.86462 30.37203,-30.86469 30.37194,-30.86473 30.37186,-30.86476 30.37186,-30.86484 30.37189,-30.86489 30.37197,-30.86489 30.37205,-30.86492 30.37208,-30.86498 30.37208,-30.86508 30.37201,-30.86513 30.372,-30.86519 30.37205,-30.86522 30.37217,-30.86525 30.37213,-30.86536 30.37205,-30.86544 30.37206,-30.86553 30.37218,-30.86556 30.3723,-30.86565 30.37224,-30.86579 30.37214,-30.86583 30.37216,-30.86591 30.37227,-30.86594 30.37238,-30.866 30.37251,-30.86617 30.37245,-30.86633 30.37225,-30.86633 30.37222,-30.8663 30.37218,-30.86628 30.3721,-30.86628 30.37207,-30.86629 30.37207,-30.86641 30.37182,-30.86654 30.37178,-30.86651 30.37173,-30.86647 30.37167,-30.86648 30.37167,-30.86653 30.37168,-30.86658 30.37168,-30.86665 30.37163,-30.86669 30.37147,-30.86663 30.37139,-30.8667 30.37139,-30.86685 30.37142,-30.86692 30.37144,-30.86701 30.37149,-30.86705 30.37156,-30.86708 30.37163,-30.86708 30.37176,-30.86711 30.37185,-30.86714 30.37192,-30.86721 30.37195,-30.86729 30.37199,-30.86741 30.37199,-30.86754 30.37194,-30.8676 30.37197,-30.86764 30.37201,-30.86772 30.37198,-30.86782 30.37183,-30.86788 30.37163,-30.86788 30.37163,-30.86793 30.37164,-30.86799 30.3717,-30.86803 30.37173,-30.86811 30.37174,-30.86814 30.37164,-30.86822 30.3715,-30.86828 30.37137,-30.86826 30.37129,-30.86818 30.37125,-30.86822 30.37124,-30.86828 30.37122,-30.86836 30.37113,-30.86836 30.37107,-30.86835 30.37103,-30.8683 30.37097,-30.8683 30.37092,-30.86833 30.37091,-30.86843 30.37087,-30.86851 30.37074,-30.86852 30.37067,-30.86852 30.37059,-30.86854 30.37051,-30.86861 30.37047,-30.86866 30.37037,-30.86867 30.37037,-30.86882 30.37041,-30.86889 30.37055,-30.86897 30.37067,-30.86897 30.37079,-30.86899 30.37086,-30.86908 30.37086,-30.86916 30.37085,-30.86924 30.37073,-30.86933 30.37062,-30.86933 30.37054,-30.86934 30.37054,-30.8694 30.37055,-30.86948 30.37053,-30.86954 30.37035,-30.86954 30.37028,-30.86958 30.37029,-30.86967 30.37035,-30.8697 30.37035,-30.86979 30.37029,-30.86989 30.37017,-30.86987 30.37013,-30.86986 30.37007,-30.86986 30.37007,-30.86993 30.37009,-30.87 30.37016,-30.87005 30.37024,-30.87009 30.3703,-30.8701 30.37037,-30.87017 30.37038,-30.87025 30.3703,-30.87035 30.37016,-30.8704 30.37005,-30.87036 30.36999,-30.87031 30.36994,-30.87031 30.36995,-30.87043 30.36998,-30.87047 30.36999,-30.87048 30.37004,-30.87053 30.37005,-30.87062 30.37001,-30.87069 30.3699,-30.87074 30.36982,-30.87068 30.36976,-30.87064 30.36971,-30.87058 30.36963,-30.87056 30.36957,-30.87058 30.36953,-30.87066 30.3695,-30.87075 30.36956,-30.8708 30.36961,-30.87085 30.36954,-30.87098 30.36934,-30.87098 30.36926,-30.87093 30.36919,-30.8709 30.36913,-30.87086 30.36912,-30.87081 30.36905,-30.87074 30.36897,-30.87074 30.3689,-30.87078 30.36884,-30.87086 30.36877,-30.87087 30.36867,-30.87084 30.36861,-30.87078 30.36859,-30.87069 30.36848,-30.87065 30.36838,-30.87062 30.36818,-30.87062 30.368,-30.87068 30.3679,-30.87078 30.36785,-30.87094 30.36786,-30.87105 30.36792,-30.87114 30.36798,-30.87118 30.3681,-30.87118 30.36821,-30.87121 30.36823,-30.87129 30.36822,-30.87138 30.36815,-30.87143 30.36805,-30.87147 30.36806,-30.87155 30.36816,-30.87159 30.36825,-30.87159 30.3683,-30.87165 30.36822,-30.87173 30.36806,-30.87173 30.36802,-30.87175 30.36804,-30.87183 30.3681,-30.87187 30.36817,-30.8719 30.36819,-30.87196 30.36817,-30.87207 30.36809,-30.87211 30.36802,-30.87204 30.36796,-30.87199 30.36785,-30.87199 30.36779,-30.87204 30.36774,-30.87209 30.36765,-30.87209 30.3676,-30.87206 30.36754,-30.87199 30.36747,-30.87199 30.36747,-30.87209 30.36749,-30.87213 30.36754,-30.87224 30.36744,-30.8723 30.36734,-30.87229 30.36729,-30.87223 30.36725,-30.87213 30.36719,-30.87206 30.36708,-30.87206 30.36698,-30.87213 30.36696,-30.87225 30.36691,-30.87237 30.36691,-30.87252 30.36692,-30.8726 30.36692,-30.87271 30.36689,-30.8728 30.36683,-30.87287 30.36683,-30.873 30.36685,-30.87307 30.36685,-30.87316 30.36683,-30.87325 30.36683,-30.87332 30.36679,-30.87336 30.36679,-30.87348 30.36667,-30.87355 30.36658,-30.87355 30.3665,-30.8735 30.36645,-30.8734 30.36622,-30.87317 30.3659,-30.87317 30.36571,-30.87329 30.3656,-30.87344 30.36547,-30.87362 30.36546,-30.87364 30.36537,-30.87379 30.36527,-30.874 30.36507,-30.8741 30.36483,-30.87413 30.36458,-30.87417 30.36433,-30.87422 30.36418,-30.87429 30.36399,-30.87443 30.36382,-30.8746 30.36366,-30.8748 30.36347,-30.875 30.36333,-30.87516 30.36331,-30.87518 30.36313,-30.87539 30.36303,-30.87554 30.36305,-30.8757 30.36311,-30.8758 30.36315,-30.87593 30.3632,-30.87604 30.36321,-30.87614 30.3632,-30.87622 30.3631,-30.87622 30.36307,-30.87619 30.36303,-30.87614 30.36288,-30.87614 30.36283,-30.87618 30.36286,-30.87624 30.36286,-30.87631 30.3628,-30.87633 30.36273,-30.87632 30.36266,-30.8763 30.36264,-30.87626 30.36261,-30.87618 30.36261,-30.8761 30.36254,-30.876 30.36245,-30.87595 30.36238,-30.87591 30.36223,-30.87585 30.36208,-30.8758 30.36194,-30.8758 30.36177,-30.87583 30.36158,-30.87591 30.36137,-30.87606 30.36117,-30.87617 30.36106,-30.8763 30.36096,-30.87642 30.36087,-30.87657 30.36066,-30.87669 30.36047,-30.87677 30.36032,-30.87682 30.36019,-30.87689 30.35994,-30.87711 30.35974,-30.8773 30.35949,-30.87758 30.35921,-30.87785 30.35899,-30.87804 30.35877,-30.87821 30.35862,-30.87834 30.35844,-30.87849 30.35834,-30.87857 30.35808,-30.87877 30.35796,-30.87895 30.35796,-30.87937 30.35789,-30.87946 30.35788,-30.87965 30.35796,-30.87976 30.358,-30.87983 30.35808,-30.8799 30.35808,-30.87999 30.35794,-30.88007 30.35782,-30.88024 30.35777,-30.88049 30.35777,-30.88069 30.35782,-30.88082 30.35787,-30.88086 30.35793,-30.88093 30.35797,-30.88099 30.35805,-30.88099 30.35808,-30.88094 30.35815,-30.8809 30.35836,-30.8809 30.35843,-30.881 30.35843,-30.88118 30.35831,-30.88124 30.3582,-30.88124 30.35811,-30.88126 30.35811,-30.88133 30.35814,-30.88141 30.35814,-30.88152 30.35802,-30.88157 30.35793,-30.88157 30.35788,-30.88155 30.35778,-30.88153 30.35771,-30.8816 30.35772,-30.88169 30.35775,-30.88172 30.3577,-30.88184 30.35753,-30.88191 30.35744,-30.88188 30.35738,-30.88182 30.35736,-30.88175 30.35725,-30.88177 30.35722,-30.88188 30.35722,-30.88207 30.35712,-30.88221 30.35701,-30.88224 30.35696,-30.88229 30.35696,-30.8826 30.35695,-30.88275 30.35688,-30.88288 30.35669,-30.88304 30.35656,-30.88318 30.35642,-30.88332 30.35636,-30.88354 30.35638,-30.88365 30.35642,-30.88379 30.35645,-30.88401 30.35639,-30.88409 30.3563,-30.88412 30.35625,-30.8841 30.35613,-30.88414 30.35614,-30.88422 30.35618,-30.88432 30.35615,-30.88438 30.35606,-30.88445 30.35598,-30.88445 30.35593,-30.88441 30.35589,-30.88434 30.3558,-30.88432 30.35574,-30.88433 30.35565,-30.88436 30.35559,-30.88448 30.35549,-30.88463 30.35537,-30.88467 30.35483,-30.88467 30.35458,-30.88475 30.35441,-30.88492 30.35429,-30.8851 30.35425,-30.88532 30.35429,-30.88546 30.35432,-30.88552 30.35436,-30.88563 30.35441,-30.88576 30.35448,-30.88583 30.35451,-30.88591 30.35435,-30.88592 30.35427,-30.88596 30.35427,-30.88603 30.35433,-30.88607 30.35441,-30.8861 30.35445,-30.88613 30.35444,-30.88628 30.3543,-30.8863 30.35423,-30.88624 30.35416,-30.8863 30.35416,-30.8864 30.35418,-30.88648 30.35418,-30.88657 30.35406,-30.8866 30.354,-30.88655 30.35392,-30.88654 30.35387,-30.88659 30.35389,-30.88667 30.354,-30.88671 30.35406,-30.88679 30.354,-30.88689 30.35393,-30.88688 30.35386,-30.8868 30.35377,-30.88679 30.35376,-30.88683 30.35377,-30.88686 30.35383,-30.8869 30.35383,-30.88704 30.35373,-30.88708 30.35367,-30.88708 30.35362,-30.88713 30.35367,-30.88717 30.35374,-30.88722 30.35374,-30.88732 30.35369,-30.88736 30.35357,-30.88739 30.35351,-30.88733 30.35343,-30.88729 30.35339,-30.8873 30.35339,-30.88754 30.35338,-30.88764 30.35326,-30.8877 30.35316,-30.88767 30.35314,-30.88761 30.3531,-30.88754 30.353,-30.88754 30.35297,-30.88764 30.35297,-30.88768 30.35286,-30.88783 30.35273,-30.88782 30.35266,-30.88777 30.3526,-30.8877 30.35249,-30.88772 30.35249,-30.88792 30.35236,-30.88801 30.35226,-30.88801 30.3522,-30.88797 30.35216,-30.88791 30.35209,-30.8879 30.35206,-30.88792 30.35199,-30.88802 30.35204,-30.88811 30.35204,-30.8882 30.35194,-30.8882 30.35191,-30.88814 30.35186,-30.88809 30.35176,-30.88809 30.35176,-30.88818 30.3518,-30.88822 30.35186,-30.88827 30.35186,-30.88835 30.35188,-30.88842 30.35189,-30.88849 30.35189,-30.88864 30.35185,-30.8887 30.35184,-30.88874 30.35176,-30.88878 30.35163,-30.8888 30.35157,-30.88877 30.35154,-30.88872 30.35147,-30.88868 30.35141,-30.88868 30.3514,-30.88872 30.35135,-30.88879 30.3512,-30.88879 30.35117,-30.88875 30.35116,-30.88868 30.35116,-30.88852 30.35111,-30.88845 30.35104,-30.88845 30.35099,-30.88846 30.35099,-30.88854 30.35088,-30.88862 30.35078,-30.88861 30.35071,-30.88861 30.35053,-30.88867 30.3505,-30.88866 30.35048,-30.88862 30.35042,-30.88864 30.35041,-30.88871 30.35029,-30.88877 30.35021,-30.88875 30.35015,-30.88871 30.35011,-30.88862 30.35007,-30.88861 30.35004,-30.88863 30.35002,-30.88864 30.34993,-30.88873 30.34978,-30.88892 30.34965,-30.88912 30.34955,-30.88928 30.34948,-30.88941 30.34928,-30.88965 30.34917,-30.88984 30.34913,-30.89005 30.34913,-30.89022 30.34919,-30.89048 30.34927,-30.89062 30.34937,-30.89077 30.34946,-30.89084 30.34953,-30.89088 30.34965,-30.89092 30.34969,-30.891 30.34969,-30.89112 30.34966,-30.89116 30.34955,-30.89117 30.34955,-30.89124 30.34959,-30.89128 30.34965,-30.8913 30.34972,-30.89135 30.34975,-30.89143 30.34973,-30.89147 30.34959,-30.89147 30.34959,-30.89154 30.34963,-30.89157 30.34973,-30.89165 30.34972,-30.89171 30.34968,-30.89177 30.3496,-30.89173 30.34947,-30.89173 30.34943,-30.89179 30.34946,-30.89186 30.34955,-30.8919 30.34959,-30.89196 30.34959,-30.89203 30.34951,-30.89206 30.34941,-30.89205 30.34931,-30.892 30.34923,-30.89203 30.34924,-30.89211 30.34929,-30.89214 30.34936,-30.89217 30.3494,-30.89224 30.3494,-30.89237 30.34931,-30.89245 30.34928,-30.89245 30.34923,-30.89241 30.34913,-30.89236 30.34905,-30.89237 30.34904,-30.89244 30.34904,-30.89251 30.34908,-30.89254 30.34916,-30.89256 30.34919,-30.89264 30.34919,-30.89272 30.34906,-30.8928 30.34902,-30.89286 30.34903,-30.8929 30.34899,-30.89298 30.34888,-30.89297 30.3488,-30.89303 30.34881,-30.8931 30.34884,-30.8932 30.34884,-30.8933 30.34872,-30.89337 30.34863,-30.89338 30.34851,-30.8934 30.34843,-30.89339 30.34839,-30.89336 30.34837,-30.89331 30.34833,-30.89324 30.34825,-30.89318 30.348,-30.89318 30.34779,-30.8932 30.34767,-30.89329 30.3474,-30.89343 30.34731,-30.89353 30.34727,-30.89363 30.34724,-30.89369 30.34723,-30.89382 30.34723,-30.89382 30.34723,-30.89394 30.34724,-30.89405 30.34714,-30.89414 30.34705,-30.89411 30.34697,-30.89408 30.34694,-30.89417 30.34696,-30.89426 30.34703,-30.89428 30.34711,-30.89436 30.34711,-30.89448 30.34703,-30.89453 30.34695,-30.8945 30.34687,-30.89448 30.34687,-30.89455 30.34691,-30.8946 30.34695,-30.89468 30.3469,-30.89487 30.34669,-30.89487 30.34656,-30.89512 30.34647,-30.89531 30.34643,-30.89557 30.34642,-30.89579 30.3464,-30.896 30.34636,-30.89624 30.34629,-30.89638 30.34629,-30.89655 30.34637,-30.89667 30.34644,-30.89674 30.34658,-30.89675 30.34671,-30.89676 30.34677,-30.89685 30.34683,-30.89698 30.34692,-30.89701 30.34702,-30.89705 30.34704,-30.89713 30.34695,-30.89722 30.34699,-30.89727 30.34719,-30.89732 30.34725,-30.89742 30.34724,-30.89751 30.34718,-30.89757 30.34706,-30.89757 30.347,-30.89761 30.34701,-30.89768 30.34722,-30.8977 30.34723,-30.89782 30.34713,-30.8979 30.34696,-30.89785 30.34685,-30.89792 30.34687,-30.89801 30.34698,-30.89807 30.34706,-30.89814 30.34708,-30.89826 30.34702,-30.89836 30.34686,-30.89836 30.3468,-30.89842 30.34686,-30.89848 30.34698,-30.89854 30.34695,-30.89863 30.34679,-30.89867 30.34671,-30.89858 30.34661,-30.89855 30.34658,-30.89867 30.34663,-30.89877 30.34671,-30.89889 30.34656,-30.89896 30.34644,-30.89889 30.34627,-30.8989 30.34624,-30.89901 30.34624,-30.89909 30.3462,-30.89925 30.34607,-30.89924 30.34599,-30.89914 30.34591,-30.89912 30.34586,-30.89918 30.34588,-30.89928 30.34591,-30.89936 30.34589,-30.89944 30.34577,-30.89946 30.34568,-30.89934 30.34554,-30.89934 30.34554,-30.89945 30.34558,-30.89954 30.34568,-30.89958 30.34571,-30.89968 30.3456,-30.89973 30.34548,-30.89971 30.34536,-30.89966 30.34529,-30.8997 30.34529,-30.89982 30.34533,-30.8999 30.34533,-30.90001 30.34526,-30.90008 30.34514,-30.90011 30.34506,-30.90015 30.34507,-30.90023 30.34501,-30.90032 30.34489,-30.90037 30.34485,-30.90033 30.34475,-30.90031 30.34474,-30.90044 30.34469,-30.90062 30.34455,-30.90062 30.34447,-30.90055 30.34442,-30.90039 30.34431,-30.9004 30.34431,-30.90052 30.34437,-30.90061 30.34429,-30.90068 30.34413,-30.90058 30.34406,-30.90046 30.34401,-30.90033 30.34387,-30.90031 30.34372,-30.90033 30.34362,-30.90043 30.34347,-30.90062 30.34335,-30.90071 30.34317,-30.90093 30.34306,-30.90113 30.34305,-30.90138 30.34305,-30.90158 30.34304,-30.90174 30.34295,-30.90197 30.3428,-30.90206 30.34273,-30.90205 30.34266,-30.90203 30.34263,-30.90213 30.34276,-30.90221 30.34282,-30.90234 30.34276,-30.90251 30.34266,-30.90247 30.34255,-30.90247 30.34255,-30.90259 30.34253,-30.9027 30.34232,-30.90275 30.34218,-30.90269 30.34211,-30.9026 30.34204,-30.90262 30.34204,-30.9028 30.34199,-30.90285 30.34188,-30.90285 30.34185,-30.90278 30.34174,-30.90275 30.34172,-30.9028 30.34178,-30.90289 30.34178,-30.90299 30.34178,-30.90301 30.34173,-30.90312 30.34162,-30.90312 30.34156,-30.90308 30.3415,-30.90312 30.34148,-30.90329 30.34148,-30.90344 30.34156,-30.90349 30.34166,-30.90352 30.34165,-30.90362 30.34155,-30.90364 30.34152,-30.90369 30.34165,-30.90376 30.3418,-30.90376 30.34182,-30.90391 30.34165,-30.90395 30.34152,-30.90391 30.34142,-30.9039 30.3414,-30.90395 30.34141,-30.90404 30.34147,-30.90413 30.34152,-30.90419 30.34146,-30.90426 30.34136,-30.90428 30.34123,-30.90429 30.34117,-30.90425 30.34109,-30.90418 30.34103,-30.90419 30.34103,-30.90428 30.34105,-30.90439 30.34092,-30.90445 30.3408,-30.90445 30.34079,-30.90445 30.34077,-30.90443 30.34073,-30.9044 30.34072,-30.9044 30.34056,-30.9044 30.34052,-30.90447 30.34055,-30.90456 30.34058,-30.90466 30.34049,-30.90478 30.34036,-30.90481 30.34031,-30.90477 30.34031,-30.90467 30.34024,-30.9046 30.34017,-30.9046 30.34012,-30.90472 30.34012,-30.90485 30.33993,-30.905 30.3398,-30.90496 30.33972,-30.90496 30.33968,-30.90502 30.33966,-30.90507 30.33969,-30.90516 30.33966,-30.90526 30.33953,-30.90528 30.33947,-30.90519 30.33936,-30.90517 30.33928,-30.90522 30.33925,-30.90528 30.33928,-30.90539 30.33906,-30.9055 30.33898,-30.90547 30.33896,-30.90538 30.33884,-30.90538 30.33884,-30.90547 30.33872,-30.90556 30.33862,-30.90554 30.33859,-30.9055 30.33852,-30.90554 30.33853,-30.90564 30.33839,-30.90573 30.33823,-30.9057 30.33815,-30.90558 30.33808,-30.90545 30.33798,-30.90545 30.33783,-30.90551 30.33768,-30.9056 30.33766,-30.9057 30.33755,-30.9059 30.33743,-30.90604 30.33742,-30.90627 30.33745,-30.90646 30.33748,-30.9066 30.33757,-30.90665 30.33773,-30.90673 30.33784,-30.90677 30.33793,-30.90677 30.33797,-30.9068 30.33797,-30.90695 30.33793,-30.90705 30.33778,-30.90709 30.33773,-30.90717 30.33773,-30.90724 30.33768,-30.90736 30.33748,-30.90741 30.33739,-30.9074 30.33735,-30.90742 30.33722,-30.90742 30.33711,-30.90739 30.33702,-30.90728 30.33693,-30.90715 30.3369,-30.90696 30.33686,-30.90691 30.33661,-30.90691 30.33645,-30.90694 30.33616,-30.90705 30.33594,-30.90717 30.33578,-30.90733 30.33555,-30.90758 30.33542,-30.90773 30.33534,-30.90783 30.33513,-30.90807 30.33491,-30.90832 30.33482,-30.90845 30.3348,-30.90849 30.33463,-30.90877 30.33444,-30.90901 30.33416,-30.90935 30.33395,-30.90967 30.33378,-30.90995 30.33374,-30.9101 30.33363,-30.91004 30.3336,-30.90996 30.33118,-30.90908 30.33071,-30.909 30.33035,-30.90902 30.32998,-30.90907 30.32947,-30.90932 30.32887,-30.90971 30.32853,-30.9099 30.32817,-30.91012 30.32784,-30.91025 30.32739,-30.91027 30.32701,-30.91024 30.3266,-30.91016 30.32604,-30.91001 30.3254,-30.90984 30.3247,-30.9096 30.32409,-30.90935 30.3236,-30.90915 30.32319,-30.90894 30.323,-30.90882 30.32246,-30.90847 30.32245,-30.90846 30.32107,-30.90748 30.32068,-30.90737 30.32044,-30.90734 30.3202,-30.90732 30.32002,-30.90727 30.31987,-30.90709 30.31983,-30.90694 30.31981,-30.90675 30.31992,-30.90632 30.31991,-30.90605 30.31989,-30.90585 30.31996,-30.90551 30.32006,-30.90528 30.32022,-30.90496 30.32022,-30.9047 30.32022,-30.90453 30.32032,-30.9043 30.32054,-30.90399 30.32065,-30.90379 30.32075,-30.90362 30.32081,-30.90352 30.32081,-30.90331 30.3208,-30.90311 30.32068,-30.90297 30.32123,-30.90232 30.32141,-30.90211 30.32162,-30.90223 30.3218,-30.90235 30.32204,-30.90205 30.32216,-30.90185 30.32226,-30.90167 30.32231,-30.90156 30.32235,-30.90149 30.32239,-30.90144 30.32244,-30.90139 30.32258,-30.90127 30.32284,-30.90108 30.32306,-30.90092 30.32314,-30.90087 30.32322,-30.90082 30.32334,-30.90076 30.32351,-30.90068 30.32366,-30.90061 30.32383,-30.90052 30.32407,-30.90038 30.32419,-30.90029 30.32427,-30.90021 30.32434,-30.90013 30.32437,-30.90007 30.32441,-30.9 30.32447,-30.89988 30.32452,-30.89975 30.32465,-30.89942 30.32478,-30.8991 30.32493,-30.89867 30.32496,-30.89851 30.32498,-30.89829 30.325,-30.89812 30.32501,-30.89776 30.32502,-30.89758 30.32504,-30.89737 30.32508,-30.89714 30.32513,-30.89694 30.32522,-30.89671 30.32526,-30.89661 30.32533,-30.89646 30.32541,-30.89635 30.32553,-30.89622 30.32562,-30.89615 30.32574,-30.89606 30.32599,-30.89589 30.32615,-30.89576 30.32622,-30.89568 30.32625,-30.89563 30.32633,-30.89548 30.32635,-30.89536 30.32638,-30.89512 30.32638,-30.89492 30.32637,-30.89479 30.32797,-30.89508 30.33583,-30.89653 30.33723,-30.89254 30.33757,-30.89204 30.33809,-30.89128 30.33881,-30.89022 30.33918,-30.88967 30.33988,-30.88866 30.33994,-30.88857 30.341,-30.88701 30.34105,-30.88693 30.34105,-30.88693 30.34056,-30.88669 30.3405,-30.88666 30.34052,-30.88662 30.34067,-30.88641 30.34088,-30.88609 30.34123,-30.88557 30.34236,-30.885 30.34322,-30.88372 30.34329,-30.88362 30.3439,-30.88272 30.34561,-30.88019 30.34642,-30.87899 30.34616,-30.8785 30.34666,-30.87827 30.34716,-30.87803 30.34734,-30.87794 30.34742,-30.87808 30.3475,-30.87822 30.34757,-30.87838 30.3476,-30.87845 30.34785,-30.87834 30.35044,-30.87714 30.35124,-30.87677 30.35284,-30.87602 30.3538,-30.87284 30.35384,-30.87271 30.35546,-30.86695 30.3556,-30.86648 30.35542,-30.86633 30.35431,-30.86563 30.35355,-30.86515 30.35349,-30.86512 30.35309,-30.86487 30.34765,-30.86147 30.34729,-30.86125 30.34619,-30.86057 30.3461,-30.86083 30.3456,-30.86052 30.34507,-30.86024 30.34468,-30.86004 30.34458,-30.86011 30.34437,-30.86167 30.34427,-30.86205 30.34323,-30.86279 30.3425,-30.86326 30.34109,-30.86274 30.34045,-30.86405 30.34021,-30.86386 30.33981,-30.86355 30.33986,-30.86278 30.33987,-30.86266 30.33992,-30.86232 30.34,-30.862 30.34061,-30.86083 30.34081,-30.86052 30.34094,-30.86025 30.34127,-30.85941 30.34131,-30.85932 30.3418,-30.85818 30.34188,-30.85787 30.34203,-30.85729 30.34279,-30.85483 30.34204,-30.85465 30.3424,-30.85361 30.34103,-30.85354 30.34106,-30.85292 30.34326,-30.85295 30.34336,-30.85201 30.34329,-30.85113 30.34311,-30.85053 30.34282,-30.84965 30.3428,-30.84958 30.34416,-30.84932 30.34455,-30.84925 30.34465,-30.84923 30.34479,-30.84919 30.34488,-30.84915 30.34504,-30.84909 30.34519,-30.84903 30.34543,-30.84892 30.34558,-30.84886 30.34582,-30.84876 30.34598,-30.84869 30.34609,-30.84864 30.3462,-30.8486 30.34628,-30.84857 30.34639,-30.84855 30.34641,-30.84855 30.34646,-30.84845 30.34776,-30.84854 30.34782,-30.84858 30.34853,-30.84785 30.34888,-30.84747 30.35334,-30.84784 30.35341,-30.84777 30.35345,-30.84773 30.35553,-30.84554 30.35026,-30.84104 30.35011,-30.84091 30.34981,-30.83532 30.35865,-30.83418 30.36027,-30.83397 30.36316,-30.83359 30.36929,-30.83279 30.36931,-30.83279 30.36931,-30.83279 30.36954,-30.83281 30.36996,-30.83284 30.37015,-30.83285 30.37226,-30.83299 30.37238,-30.833 30.3728,-30.83303 30.37429,-30.83313 30.37522,-30.83319 30.37625,-30.83326 30.37631,-30.83326 30.37649,-30.8328 30.37675,-30.83217 30.37692,-30.83175 30.37709,-30.83142 30.37724,-30.83113 30.37742,-30.83084 30.37756,-30.83065 30.37769,-30.83046 30.37786,-30.83022 30.378,-30.83005 30.37815,-30.82987 30.37834,-30.82966 30.37861,-30.82939 30.37886,-30.82917 30.37912,-30.82895 30.37932,-30.82878 30.37964,-30.82854 30.37994,-30.82833 30.38025,-30.82815 30.38058,-30.82796 30.38169,-30.82739 30.38183,-30.82732 30.38273,-30.82686 30.38344,-30.82648 30.38418,-30.82605 30.38462,-30.82576 30.38506,-30.82547 30.38589,-30.82484 30.38631,-30.8245 30.38637,-30.82446 30.38696,-30.82396 30.38765,-30.82332 30.38804,-30.82298 30.38841,-30.82263 30.38965,-30.8215 30.39133,-30.82007 30.39177,-30.81969 30.39231,-30.81921 30.39398,-30.81773 30.39455,-30.81725 30.39474,-30.81708 30.39517,-30.8167 30.39554,-30.81639 30.39593,-30.81602 30.39637,-30.8156 30.39674,-30.81518 30.39702,-30.81481 30.39719,-30.8146 30.39719,-30.81459 30.39725,-30.81451 30.39737,-30.81427 30.39749,-30.81407 30.3975,-30.81405 30.39763,-30.81379 30.39772,-30.81358 30.39783,-30.81329 30.39793,-30.81299 30.39807,-30.81256 30.39812,-30.81236 30.3982,-30.81209 30.39823,-30.81199 30.39827,-30.81184 30.39845,-30.81122 30.39849,-30.81105 30.39866,-30.81048 30.39903,-30.80923 30.39955,-30.80737 30.39956,-30.80734 30.39986,-30.80626 30.40005,-30.80561 30.40052,-30.80392 30.40097,-30.8023 30.4012,-30.80152 30.40144,-30.80067 30.40177,-30.79955 30.40198,-30.799 30.40212,-30.79867 30.40216,-30.79856 30.40221,-30.79844 30.40224,-30.79838 30.4024,-30.79804 30.40252,-30.79781 30.40261,-30.79764 30.4028,-30.79729 30.40308,-30.7968 30.40368,-30.79578 30.40462,-30.79418 30.40497,-30.79359 30.4052,-30.79321 30.40538,-30.79291 30.40551,-30.79267 30.40557,-30.79257 30.406,-30.79184 30.40625,-30.79142 30.40643,-30.79112 30.40665,-30.79073 30.40728,-30.78968 30.40758,-30.78915 30.4082,-30.78811 30.40855,-30.78751 30.40924,-30.7863 30.40957,-30.78573 30.41032,-30.78446 30.41092,-30.78344 30.4111,-30.78313 30.41127,-30.78284 30.41166,-30.78219 30.41189,-30.7818 30.41211,-30.78145 30.41218,-30.78133 30.41232,-30.78108 30.413,-30.77997 30.41345,-30.77926 30.41348,-30.7792 30.41353,-30.77923 30.41372,-30.77937 30.41384,-30.77944 30.41394,-30.77951 30.41418,-30.7796 30.41454,-30.77965 30.41478,-30.77964 30.41511,-30.77953 30.41536,-30.77934 30.41556,-30.77918 30.41595,-30.77884 30.41624,-30.77854 30.41645,-30.77836 30.41666,-30.77821 30.41682,-30.7781 30.41701,-30.77804 30.41716,-30.77803 30.41735,-30.77803 30.4176,-30.77809 30.41788,-30.7782 30.4187,-30.77846 30.41901,-30.77855 30.41932,-30.77864 30.41957,-30.77872 30.41993,-30.77879 30.42031,-30.77884 30.42086,-30.77889 30.42112,-30.77891 30.42152,-30.77917</coordinates></LinearRing></outerBoundaryIs></Polygon></MultiGeometry></Placemark></Document></kml>