<?xml version="1.0" encoding="UTF-8"?><kml xmlns="http://www.opengis.net/kml/2.2"><Document><Placemark><name>Emnambithi/Ladysmith</name><description>Local Municipality 514</description><ExtendedData><Data name="code"><value>514</value></Data><Data name="name"><value>Emnambithi/Ladysmith</value></Data><Data name="description"><value>Local Municipality 514</value></Data></ExtendedData><MultiGeometry><Polygon><outerBoundaryIs><LinearRing><coordinates>29.61038,-28.53285 29.60671,-28.53652 29.60567,-28.53757 29.60465,-28.53859 29.60362,-28.53961 29.6026,-28.54064 29.59953,-28.54371 29.59882,-28.54443 29.59863,-28.54462 29.59821,-28.54504 29.59391,-28.54936 29.59177,-28.55152 29.58962,-28.55369 29.58746,-28.55585 29.58667,-28.55666 29.58422,-28.55832 29.58262,-28.5594 29.58103,-28.56048 29.57879,-28.56197 29.57635,-28.56361 29.57372,-28.56537 29.57168,-28.56673 29.56854,-28.56885 29.56565,-28.57081 29.56153,-28.57111 29.5581,-28.57043 29.55467,-28.56976 29.54783,-28.5683 29.54395,-28.56856 29.54006,-28.56883 29.53618,-28.56909 29.52522,-28.55977 29.52482,-28.55942 29.52384,-28.55858 29.52287,-28.55774 29.52095,-28.55608 29.52044,-28.55564 29.51965,-28.55496 29.51887,-28.55428 29.51715,-28.5528 29.5163,-28.55206 29.51543,-28.55132 29.51486,-28.55078 29.51153,-28.54758 29.50957,-28.54571 29.50762,-28.54384 29.50567,-28.54198 29.50372,-28.54011 29.50177,-28.53825 29.50158,-28.53808 29.50139,-28.53789 29.50099,-28.53751 29.5008,-28.53733 29.5006,-28.53714 29.50039,-28.53693 29.50018,-28.53673 29.49998,-28.53654 29.49935,-28.53594 29.49915,-28.53575 29.49852,-28.53515 29.49832,-28.53495 29.49812,-28.53476 29.49791,-28.53456 29.49771,-28.53437 29.4975,-28.53417 29.4973,-28.53398 29.49688,-28.53358 29.49668,-28.53339 29.49647,-28.53319 29.49627,-28.53299 29.49606,-28.5328 29.49586,-28.53261 29.49566,-28.53241 29.49545,-28.53221 29.49525,-28.53202 29.49483,-28.53162 29.49443,-28.53124 29.49422,-28.53104 29.4941,-28.53092 29.49401,-28.53084 29.4938,-28.53064 29.4936,-28.53044 29.49339,-28.53025 29.49318,-28.53005 29.49297,-28.52984 29.49278,-28.52966 29.49188,-28.5288 29.49178,-28.52653 29.49173,-28.52539 29.4917,-28.52453 29.49166,-28.52366 29.49163,-28.52282 29.49159,-28.52198 29.49155,-28.52082 29.49145,-28.5185 29.49142,-28.51761 29.4913,-28.5148 29.49116,-28.51123 29.49103,-28.50766 29.49089,-28.5041 29.49075,-28.50053 29.49062,-28.49696 29.49048,-28.4934 29.49034,-28.48983 29.49355,-28.48775 29.49564,-28.48646 29.49696,-28.48565 29.4983,-28.48483 29.50102,-28.48315 29.50237,-28.48233 29.50369,-28.48151 29.50506,-28.48067 29.50641,-28.47984 29.50773,-28.47903 29.50904,-28.47823 29.51038,-28.4774 29.51172,-28.47658 29.5131,-28.47573 29.51446,-28.47489 29.51584,-28.47405 29.51721,-28.47321 29.51946,-28.47182 29.52129,-28.47268 29.52285,-28.47342 29.52442,-28.47416 29.52754,-28.47564 29.52823,-28.47596 29.52892,-28.47629 29.52968,-28.47665 29.53045,-28.47701 29.53121,-28.47737 29.53198,-28.47773 29.53274,-28.47809 29.53351,-28.47845 29.53427,-28.47882 29.5358,-28.47954 29.5347,-28.47795 29.53361,-28.47637 29.53251,-28.47479 29.53141,-28.4732 29.53031,-28.47162 29.53015,-28.47139 29.52888,-28.46957 29.52762,-28.46774 29.52658,-28.46625 29.52554,-28.46475 29.52451,-28.46326 29.51942,-28.45597 29.51384,-28.44782 29.51377,-28.44773 29.5093,-28.44123 29.50617,-28.4361 29.50342,-28.43162 29.49334,-28.41506 29.48612,-28.40375 29.48542,-28.40265 29.48114,-28.40451 29.47372,-28.40773 29.46731,-28.41052 29.46505,-28.4115 29.4571,-28.41495 29.45286,-28.41679 29.44599,-28.41977 29.44462,-28.42036 29.44399,-28.42064 29.44355,-28.42082 29.44341,-28.42089 29.44303,-28.42105 29.43827,-28.42312 29.43801,-28.42282 29.43732,-28.42203 29.4373,-28.42201 29.43709,-28.42184 29.43693,-28.42171 29.43062,-28.41652 29.42995,-28.41598 29.42802,-28.41439 29.42642,-28.41307 29.4257,-28.41248 29.4237,-28.41084 29.42366,-28.41081 29.41931,-28.40732 29.41877,-28.40688 29.41077,-28.40043 29.40752,-28.398 29.40427,-28.39556 29.40103,-28.39313 29.39778,-28.3907 29.39727,-28.39031 29.39722,-28.39027 29.39698,-28.3901 29.39632,-28.3896 29.39507,-28.38866 29.39141,-28.38565 29.39049,-28.38489 29.38864,-28.38336 29.38716,-28.38215 29.38412,-28.37966 29.38326,-28.37895 29.38133,-28.37723 29.38055,-28.37654 29.3802,-28.37623 29.37993,-28.37609 29.37984,-28.37605 29.37957,-28.37591 29.37965,-28.37578 29.37967,-28.37576 29.37945,-28.37556 29.37957,-28.37544 29.37956,-28.37538 29.37884,-28.37502 29.3783,-28.37454 29.37796,-28.37437 29.37761,-28.37419 29.37772,-28.37402 29.37732,-28.37366 29.37556,-28.37211 29.37572,-28.37213 29.37593,-28.37215 29.37599,-28.37216 29.37603,-28.37216 29.37677,-28.37224 29.3771,-28.37227 29.37751,-28.37231 29.37789,-28.37235 29.3782,-28.37238 29.37908,-28.37246 29.37927,-28.37248 29.37947,-28.3725 29.37965,-28.37252 29.38033,-28.37259 29.38091,-28.37264 29.38275,-28.37282 29.38366,-28.3729 29.38397,-28.37293 29.3843,-28.37297 29.38465,-28.373 29.3849,-28.37302 29.38551,-28.37308 29.38791,-28.37332 29.38816,-28.37334 29.38842,-28.37337 29.38892,-28.37342 29.38943,-28.37347 29.38973,-28.3735 29.39,-28.37352 29.39014,-28.37354 29.39033,-28.37356 29.39186,-28.37371 29.39317,-28.37384 29.39458,-28.37398 29.39522,-28.37405 29.396,-28.37413 29.39675,-28.3742 29.39742,-28.37427 29.39883,-28.37441 29.40025,-28.37456 29.40167,-28.3747 29.4023,-28.37477 29.40308,-28.37485 29.40387,-28.37493 29.4045,-28.37499 29.40777,-28.3753 29.41103,-28.3756 29.41251,-28.37574 29.41431,-28.37591 29.41553,-28.37259 29.41672,-28.36926 29.41794,-28.36594 29.41835,-28.36482 29.41915,-28.36262 29.41981,-28.36081 29.42047,-28.35901 29.42068,-28.35844 29.4209,-28.35786 29.42112,-28.35729 29.42133,-28.35672 29.42155,-28.35615 29.42283,-28.35265 29.42317,-28.35173 29.42351,-28.35079 29.42386,-28.34982 29.42418,-28.34893 29.4255,-28.34533 29.42616,-28.34352 29.42651,-28.34258 29.42668,-28.34212 29.42685,-28.34164 29.42719,-28.34071 29.42753,-28.33977 29.4277,-28.33931 29.42791,-28.33916 29.42816,-28.33899 29.42824,-28.33894 29.42861,-28.33868 29.429,-28.33842 29.42907,-28.33837 29.42913,-28.33832 29.42952,-28.33805 29.42999,-28.33773 29.43038,-28.33745 29.43046,-28.3374 29.43093,-28.33708 29.4314,-28.33675 29.43149,-28.33669 29.43187,-28.33643 29.43234,-28.3361 29.43265,-28.33589 29.43271,-28.33584 29.43278,-28.3358 29.43308,-28.33559 29.43347,-28.33532 29.43387,-28.33504 29.43426,-28.33477 29.43466,-28.33449 29.43485,-28.33436 29.43505,-28.33422 29.43539,-28.33399 29.43545,-28.33395 29.43584,-28.33367 29.43623,-28.3334 29.43663,-28.33313 29.43711,-28.3328 29.43758,-28.33247 29.43796,-28.33221 29.43806,-28.33214 29.43803,-28.33155 29.43801,-28.33095 29.438,-28.33069 29.43798,-28.33036 29.43797,-28.33005 29.43796,-28.32977 29.43795,-28.32948 29.43793,-28.32918 29.43792,-28.32887 29.43791,-28.32859 29.43785,-28.32741 29.43785,-28.32738 29.43783,-28.32678 29.4378,-28.32619 29.43778,-28.32559 29.43759,-28.32136 29.43758,-28.32113 29.43926,-28.32028 29.43985,-28.31998 29.44036,-28.31972 29.44173,-28.31903 29.44312,-28.31832 29.44361,-28.31807 29.4441,-28.31782 29.44549,-28.31712 29.44707,-28.31631 29.44865,-28.31549 29.45032,-28.31466 29.451,-28.31432 29.45167,-28.31398 29.45335,-28.31314 29.45465,-28.31248 29.45515,-28.31223 29.45616,-28.31173 29.45875,-28.31043 29.46153,-28.30777 29.4626,-28.30675 29.46472,-28.30471 29.46684,-28.30269 29.46788,-28.30168 29.46789,-28.30167 29.46916,-28.30046 29.47168,-28.29804 29.47487,-28.29497 29.47514,-28.29472 29.47717,-28.29275 29.47926,-28.29073 29.48,-28.28701 29.48045,-28.28476 29.48074,-28.28329 29.48104,-28.28175 29.48142,-28.27984 29.48181,-28.27785 29.48241,-28.27483 29.48271,-28.27332 29.48292,-28.27225 29.48292,-28.27223 29.48293,-28.2722 29.48599,-28.27144 29.48807,-28.27091 29.49435,-28.26934 29.49569,-28.26901 29.49644,-28.26882 29.49853,-28.26829 29.50144,-28.26756 29.50465,-28.26676 29.50547,-28.26656 29.50673,-28.26624 29.50992,-28.26544 29.51028,-28.26528 29.51064,-28.26512 29.51297,-28.26407 29.51516,-28.26309 29.51886,-28.26142 29.5204,-28.26073 29.5235,-28.25934 29.53088,-28.25603 29.53565,-28.25389 29.55059,-28.2472 29.55079,-28.24748 29.55342,-28.2511 29.55605,-28.25472 29.55868,-28.25834 29.55925,-28.25818 29.56023,-28.25791 29.59552,-28.24801 29.59571,-28.24795 29.59581,-28.24793 29.59591,-28.2479 29.5961,-28.24784 29.59622,-28.24781 29.5963,-28.24779 29.59649,-28.24773 29.59669,-28.24768 29.59682,-28.24764 29.59689,-28.24762 29.59696,-28.2476 29.59708,-28.24757 29.59721,-28.24753 29.59728,-28.24751 29.59735,-28.24749 29.59747,-28.24746 29.60166,-28.24629 29.60375,-28.2457 29.60813,-28.24448 29.60904,-28.24422 29.61188,-28.24343 29.61977,-28.24122 29.61979,-28.24111 29.61982,-28.24102 29.62074,-28.23782 29.6212,-28.23621 29.62166,-28.23461 29.62194,-28.23362 29.62211,-28.23301 29.62236,-28.23212 29.62257,-28.2314 29.62349,-28.2282 29.62441,-28.22499 29.62442,-28.22495 29.62429,-28.22487 29.62386,-28.2246 29.6203,-28.22222 29.61674,-28.21983 29.61388,-28.21792 29.61318,-28.21745 29.60962,-28.21506 29.60956,-28.21503 29.61095,-28.2126 29.61142,-28.21178 29.61195,-28.21085 29.61329,-28.20852 29.61377,-28.20769 29.61585,-28.20405 29.61734,-28.20144 29.61808,-28.20016 29.61848,-28.19946 29.61942,-28.19782 29.61962,-28.19747 29.62002,-28.19677 29.6219,-28.19348 29.62237,-28.19266 29.62403,-28.18977 29.62615,-28.18606 29.62631,-28.18579 29.62634,-28.18574 29.63069,-28.18473 29.63188,-28.18445 29.63307,-28.18417 29.63558,-28.18359 29.6365,-28.18338 29.63797,-28.18303 29.64131,-28.18226 29.64689,-28.18096 29.64791,-28.18072 29.6503,-28.18017 29.65174,-28.17983 29.65269,-28.17961 29.65375,-28.17936 29.65527,-28.17901 29.65769,-28.17845 29.66214,-28.17742 29.66241,-28.17735 29.66258,-28.17731 29.66285,-28.17725 29.66285,-28.17607 29.66288,-28.17253 29.66288,-28.17135 29.66289,-28.17016 29.66291,-28.1678 29.66291,-28.16662 29.66292,-28.16544 29.66293,-28.1643 29.66295,-28.1631 29.66297,-28.16195 29.66299,-28.16076 29.66302,-28.15842 29.66306,-28.15608 29.66312,-28.1514 29.66316,-28.14905 29.66322,-28.14437 29.66326,-28.14203 29.66328,-28.14202 29.66329,-28.14202 29.66348,-28.14193 29.66496,-28.14129 29.6657,-28.14096 29.66718,-28.14032 29.66792,-28.13999 29.66867,-28.13967 29.66941,-28.13934 29.67089,-28.1387 29.66948,-28.13454 29.67695,-28.12826 29.6845,-28.12818 29.68514,-28.12181 29.68648,-28.12202 29.68783,-28.12222 29.69051,-28.12262 29.69185,-28.12283 29.6932,-28.12303 29.69588,-28.12343 29.69723,-28.12364 29.69857,-28.12384 29.69905,-28.12391 29.69926,-28.12394 29.70163,-28.12409 29.70401,-28.12424 29.70685,-28.12438 29.71251,-28.12468 29.71503,-28.12484 29.71754,-28.125 29.72006,-28.12517 29.72257,-28.12533 29.72509,-28.12549 29.7276,-28.12565 29.73121,-28.12738 29.73869,-28.13099 29.74061,-28.13478 29.74154,-28.1366 29.73981,-28.14105 29.74639,-28.1459 29.75661,-28.1526 29.75883,-28.15406 29.76498,-28.15832 29.76521,-28.15795 29.76612,-28.15649 29.76703,-28.15502 29.76793,-28.15356 29.76884,-28.1521 29.76974,-28.15063 29.77065,-28.14917 29.77164,-28.14757 29.77264,-28.14596 29.77363,-28.14435 29.77462,-28.14275 29.77507,-28.14122 29.7786,-28.13006 29.78204,-28.11917 29.78826,-28.09841 29.79228,-28.09986 29.79387,-28.10042 29.7968,-28.10143 29.81581,-28.09879 29.81713,-28.09843 29.81845,-28.09808 29.81978,-28.09772 29.82242,-28.097 29.82375,-28.09664 29.82529,-28.09622 29.82649,-28.09591 29.82933,-28.09517 29.83085,-28.09468 29.83287,-28.09414 29.83453,-28.0937 29.83618,-28.09325 29.83784,-28.09281 29.83949,-28.09236 29.84115,-28.09192 29.84286,-28.09145 29.84458,-28.09099 29.84609,-28.09059 29.84661,-28.09224 29.84767,-28.09554 29.84819,-28.09719 29.84872,-28.09884 29.84924,-28.1005 29.84982,-28.10231 29.85144,-28.10738 29.85145,-28.10741 29.85923,-28.11036 29.86336,-28.11194 29.87527,-28.1165 29.88237,-28.11923 29.89243,-28.1077 29.90073,-28.09802 29.90028,-28.0849 29.90033,-28.08455 29.9047,-28.08302 29.9065,-28.08287 29.90698,-28.08292 29.91027,-28.08353 29.91126,-28.08359 29.91302,-28.08319 29.91465,-28.0828 29.91595,-28.08236 29.91794,-28.08114 29.91851,-28.0807 29.91911,-28.08011 29.92093,-28.07803 29.92209,-28.0778 29.92318,-28.07764 29.92493,-28.07785 29.92601,-28.07755 29.92581,-28.07592 29.93808,-28.07449 29.93793,-28.07658 29.93769,-28.07982 29.93723,-28.08632 29.93723,-28.09521 29.93726,-28.09589 29.9373,-28.09657 29.93733,-28.09725 29.93737,-28.09793 29.93739,-28.09844 29.93742,-28.09894 29.93745,-28.0997 29.9376,-28.10254 29.9379,-28.10522 29.93821,-28.1079 29.93851,-28.11059 29.93882,-28.11327 29.93912,-28.11595 29.93965,-28.12058 29.94005,-28.12387 29.94035,-28.12641 29.94097,-28.13151 29.93866,-28.1394 29.93827,-28.14071 29.93787,-28.14198 29.93706,-28.14452 29.93724,-28.14464 29.93741,-28.14476 29.93759,-28.14488 29.93775,-28.145 29.93792,-28.14512 29.94232,-28.14852 29.94618,-28.15146 29.94741,-28.15233 29.95078,-28.15491 29.95534,-28.15839 29.95762,-28.16014 29.96057,-28.16239 29.96601,-28.16649 29.96927,-28.16896 29.97323,-28.17195 29.97628,-28.17426 29.97921,-28.17647 29.9821,-28.17868 29.98417,-28.18026 29.98714,-28.18252 29.99043,-28.18493 29.97814,-28.20648 29.98594,-28.22042 29.98137,-28.23005 29.97679,-28.23959 29.99119,-28.25308 29.99284,-28.25373 29.99555,-28.25479 29.99827,-28.25585 29.99844,-28.25592 29.9997,-28.25642 29.99984,-28.25648 30.00122,-28.25706 30.00262,-28.25766 30.00403,-28.25826 30.00542,-28.25885 30.00682,-28.25944 30.0096,-28.26063 30.01035,-28.26094 30.01109,-28.26126 30.01185,-28.26158 30.01265,-28.26192 30.01283,-28.262 30.01361,-28.26233 30.01444,-28.26268 30.01524,-28.26302 30.01603,-28.26336 30.01683,-28.2637 30.01759,-28.26402 30.02076,-28.26536 30.02087,-28.26541 30.02314,-28.26637 30.02542,-28.26734 30.02551,-28.26738 30.0281,-28.26848 30.02854,-28.26866 30.02958,-28.26911 30.03128,-28.26983 30.03345,-28.27076 30.03349,-28.27078 30.03349,-28.27078 30.0342,-28.27115 30.03495,-28.27191 30.03536,-28.27228 30.03551,-28.27246 30.03575,-28.27252 30.03594,-28.2728 30.036,-28.27296 30.03632,-28.27331 30.03666,-28.27373 30.03749,-28.2746 30.03777,-28.27493 30.03803,-28.2752 30.03954,-28.27695 30.04123,-28.27879 30.04186,-28.27935 30.04212,-28.27969 30.04243,-28.27996 30.04342,-28.28112 30.04536,-28.28326 30.04724,-28.2853 30.04831,-28.28649 30.04902,-28.28726 30.05098,-28.28942 30.05176,-28.29029 30.05378,-28.29244 30.05428,-28.29302 30.05455,-28.29345 30.06114,-28.30053 30.0615,-28.30093 30.06225,-28.30173 30.06239,-28.30188 30.06245,-28.30194 30.06276,-28.30228 30.06312,-28.30267 30.06321,-28.30276 30.06332,-28.30288 30.06541,-28.30513 30.06574,-28.3083 30.06583,-28.31139 30.06634,-28.31952 30.06699,-28.3278 30.06716,-28.32823 30.06901,-28.33294 30.07092,-28.33779 30.07093,-28.33785 30.07095,-28.33791 30.07252,-28.34202 30.0737,-28.34504 30.07152,-28.35201 30.07855,-28.34928 30.07858,-28.34942 30.07858,-28.34947 30.07859,-28.34952 30.07859,-28.34958 30.07858,-28.34963 30.07858,-28.34968 30.07857,-28.34973 30.07856,-28.34979 30.07855,-28.34984 30.07855,-28.34989 30.07854,-28.34995 30.07854,-28.35 30.07855,-28.35005 30.07858,-28.35023 30.07859,-28.35028 30.07859,-28.35037 30.07858,-28.35042 30.07858,-28.35047 30.07857,-28.35053 30.07858,-28.35059 30.07858,-28.3507 30.07859,-28.35076 30.07856,-28.35094 30.07855,-28.35099 30.07853,-28.35106 30.07853,-28.35127 30.07852,-28.35133 30.0785,-28.35138 30.0785,-28.35143 30.07848,-28.35149 30.07846,-28.35154 30.07843,-28.35161 30.07841,-28.35168 30.07839,-28.35173 30.07838,-28.35179 30.07837,-28.35186 30.07835,-28.3519 30.07834,-28.35195 30.07834,-28.352 30.07835,-28.35205 30.07834,-28.3521 30.07832,-28.35217 30.0783,-28.35227 30.07826,-28.35239 30.07824,-28.35244 30.07821,-28.35252 30.07818,-28.35257 30.07817,-28.35263 30.07814,-28.3527 30.0781,-28.3528 30.07806,-28.35285 30.07804,-28.3529 30.07801,-28.35295 30.07798,-28.35302 30.07796,-28.35312 30.07793,-28.35318 30.07789,-28.35325 30.07784,-28.35335 30.07778,-28.35346 30.07774,-28.35354 30.07771,-28.35361 30.07767,-28.35367 30.07761,-28.35375 30.07755,-28.35384 30.07751,-28.35391 30.07748,-28.35397 30.07746,-28.35402 30.07738,-28.35411 30.07735,-28.35417 30.0773,-28.35424 30.07726,-28.35432 30.07722,-28.35441 30.07715,-28.35455 30.07713,-28.3546 30.0771,-28.35465 30.07706,-28.35471 30.07699,-28.35481 30.07694,-28.35488 30.0769,-28.35493 30.07685,-28.355 30.0768,-28.35506 30.07674,-28.35514 30.0767,-28.35521 30.07666,-28.35527 30.07663,-28.35532 30.07658,-28.35538 30.07654,-28.35544 30.07648,-28.35552 30.07645,-28.35557 30.07641,-28.35564 30.07633,-28.35576 30.0763,-28.35582 30.07626,-28.35587 30.07622,-28.35594 30.07618,-28.356 30.07613,-28.35607 30.07609,-28.35612 30.076,-28.35621 30.07598,-28.35628 30.07596,-28.35634 30.07593,-28.35642 30.0759,-28.35647 30.07587,-28.35653 30.07583,-28.3566 30.0758,-28.35665 30.07577,-28.35672 30.07575,-28.35679 30.07572,-28.35691 30.0757,-28.35697 30.07568,-28.35704 30.07567,-28.35708 30.07564,-28.35717 30.07564,-28.35722 30.07563,-28.35728 30.0756,-28.35734 30.07557,-28.35741 30.07556,-28.35746 30.07555,-28.35752 30.07553,-28.35757 30.07551,-28.35764 30.0755,-28.35769 30.07548,-28.35774 30.07548,-28.35784 30.0703,-28.35651 30.07027,-28.35651 30.07025,-28.35647 30.06546,-28.35837 30.06318,-28.35928 30.06121,-28.36005 30.05805,-28.3614 30.05774,-28.36153 30.0578,-28.36165 30.05767,-28.36171 30.05741,-28.36181 30.05729,-28.36186 30.05717,-28.36192 30.05704,-28.36197 30.0568,-28.36207 30.05666,-28.36213 30.05654,-28.36205 30.04671,-28.35589 30.04529,-28.35759 30.04443,-28.35711 30.04368,-28.35685 30.04338,-28.35674 30.04309,-28.35664 30.04264,-28.35648 30.04145,-28.35606 30.0409,-28.35731 30.03971,-28.35698 30.03879,-28.35701 30.03522,-28.35713 30.03543,-28.35784 30.03568,-28.35867 30.03619,-28.36037 30.03669,-28.36206 30.0372,-28.36375 30.0377,-28.36544 30.03649,-28.36636 30.03405,-28.36818 30.03283,-28.3691 30.03162,-28.37001 30.02357,-28.37597 30.01553,-28.38192 30.01047,-28.38565 30.00894,-28.38607 29.99122,-28.39175 29.98678,-28.39318 30.01493,-28.40688 30.01525,-28.40702 30.01556,-28.40715 30.02587,-28.41216 30.0305,-28.4144 30.03746,-28.41776 30.04382,-28.42086 30.0477,-28.42276 30.05496,-28.42968 30.05315,-28.4327 30.04057,-28.45357 30.04013,-28.45429 30.03755,-28.45855 30.03723,-28.45906 30.03321,-28.46568 30.02841,-28.47374 30.02422,-28.4806 30.02284,-28.4827 30.01562,-28.49486 30.01184,-28.50106 30.01069,-28.50315 30.00809,-28.50871 30.00792,-28.50896 30.00653,-28.51097 30.00282,-28.51662 29.99885,-28.52267 29.98679,-28.53113 29.98486,-28.53489 29.97991,-28.54452 29.97341,-28.55714 29.97331,-28.55733 29.97321,-28.55752 29.97245,-28.55901 29.97228,-28.55935 29.97199,-28.5599 29.97079,-28.56224 29.97083,-28.56231 29.97084,-28.56234 29.9709,-28.56245 29.98264,-28.58448 29.98266,-28.5845 29.98264,-28.58465 29.98192,-28.5912 29.98166,-28.59356 29.981,-28.59924 29.98085,-28.60048 29.97966,-28.6107 29.97961,-28.61111 29.9783,-28.62263 29.97813,-28.62421 29.97738,-28.6325 29.97694,-28.63733 29.97761,-28.64444 29.97786,-28.645 29.97768,-28.64511 29.97562,-28.64663 29.97529,-28.64684 29.975,-28.64704 29.97461,-28.64732 29.97438,-28.64749 29.97407,-28.64772 29.97385,-28.64789 29.97355,-28.64811 29.97324,-28.64839 29.97289,-28.64863 29.97266,-28.64882 29.97248,-28.64898 29.9722,-28.64922 29.97202,-28.64936 29.97181,-28.64949 29.97167,-28.64958 29.97146,-28.64971 29.97126,-28.64984 29.97104,-28.64999 29.97087,-28.65007 29.97062,-28.65012 29.97044,-28.65016 29.97018,-28.65025 29.96994,-28.65032 29.96968,-28.65041 29.96943,-28.6505 29.96922,-28.65054 29.96915,-28.65055 29.96906,-28.65056 29.96893,-28.65056 29.96882,-28.65057 29.9687,-28.65063 29.96854,-28.65072 29.96837,-28.6509 29.96821,-28.65101 29.96806,-28.65111 29.96792,-28.65122 29.96777,-28.65132 29.96764,-28.6514 29.96754,-28.6515 29.96745,-28.65156 29.9674,-28.65163 29.96729,-28.65196 29.9672,-28.6521 29.96704,-28.65235 29.96697,-28.65249 29.96686,-28.65273 29.96675,-28.65286 29.96662,-28.653 29.96656,-28.65316 29.9665,-28.65339 29.9665,-28.65358 29.96654,-28.65382 29.96662,-28.65412 29.96664,-28.65429 29.96663,-28.65446 29.96668,-28.65462 29.96675,-28.65472 29.96678,-28.65483 29.96675,-28.65501 29.96675,-28.65517 29.9668,-28.6553 29.96685,-28.65547 29.96688,-28.65556 29.9669,-28.65569 29.96693,-28.6558 29.96697,-28.65593 29.96697,-28.65611 29.96699,-28.6562 29.96701,-28.65648 29.96702,-28.65668 29.96702,-28.65686 29.96703,-28.65704 29.96703,-28.65718 29.96704,-28.65734 29.96703,-28.65752 29.967,-28.65762 29.96697,-28.65773 29.96696,-28.65783 29.96688,-28.6581 29.96688,-28.6583 29.96686,-28.65849 29.96679,-28.65861 29.96675,-28.65871 29.96675,-28.65882 29.96673,-28.65896 29.96669,-28.6591 29.96656,-28.65933 29.96646,-28.65953 29.96638,-28.65962 29.96622,-28.65986 29.96608,-28.66008 29.96599,-28.66023 29.96593,-28.66041 29.96584,-28.66069 29.96582,-28.66081 29.9658,-28.66091 29.96572,-28.66105 29.96564,-28.66112 29.96557,-28.66117 29.96544,-28.66126 29.96537,-28.66136 29.9653,-28.66149 29.96523,-28.66161 29.96515,-28.66176 29.965,-28.66196 29.96493,-28.66208 29.96481,-28.66225 29.96471,-28.66234 29.96455,-28.66241 29.9642,-28.6626 29.96398,-28.66267 29.96381,-28.66278 29.96368,-28.66288 29.96356,-28.66297 29.96339,-28.66308 29.96326,-28.66321 29.96316,-28.6633 29.96309,-28.6634 29.96305,-28.66349 29.96303,-28.66365 29.96301,-28.66382 29.96301,-28.66396 29.96296,-28.66403 29.96282,-28.66412 29.96268,-28.66423 29.96254,-28.66442 29.96246,-28.66458 29.96246,-28.66483 29.96248,-28.66495 29.96249,-28.66498 29.96255,-28.6651 29.96263,-28.66522 29.96273,-28.66534 29.96282,-28.66545 29.96294,-28.66555 29.96305,-28.66564 29.96314,-28.66573 29.96324,-28.6658 29.96337,-28.66588 29.96352,-28.66592 29.9636,-28.66596 29.96372,-28.666 29.96385,-28.66603 29.96399,-28.66609 29.96406,-28.66613 29.96416,-28.66619 29.96424,-28.66624 29.96435,-28.66637 29.96445,-28.66643 29.96452,-28.6665 29.96458,-28.66661 29.96463,-28.66676 29.96465,-28.66704 29.96465,-28.66736 29.96461,-28.66753 29.96455,-28.66775 29.96449,-28.66803 29.96443,-28.66824 29.96436,-28.66841 29.96431,-28.66853 29.96423,-28.66864 29.96413,-28.6687 29.96409,-28.66875 29.96402,-28.6688 29.96391,-28.66884 29.96377,-28.66886 29.96363,-28.66892 29.9635,-28.66902 29.9634,-28.66915 29.96331,-28.66924 29.9632,-28.66934 29.96308,-28.66947 29.96294,-28.66953 29.96286,-28.66961 29.96268,-28.66972 29.96253,-28.6698 29.96236,-28.66985 29.96222,-28.66988 29.96207,-28.6699 29.96194,-28.66995 29.96187,-28.66995 29.96182,-28.66998 29.9618,-28.67006 29.9618,-28.67011 29.96177,-28.67016 29.96176,-28.67021 29.96171,-28.67025 29.96163,-28.67031 29.96158,-28.67037 29.9615,-28.67047 29.96135,-28.6706 29.96126,-28.67067 29.96123,-28.67075 29.96117,-28.67083 29.96109,-28.67093 29.961,-28.67101 29.9609,-28.67109 29.9608,-28.67118 29.96072,-28.6712 29.96062,-28.67125 29.96052,-28.67128 29.96045,-28.67138 29.96035,-28.67157 29.96026,-28.67168 29.96011,-28.67182 29.95989,-28.67193 29.95972,-28.67201 29.95938,-28.67218 29.95923,-28.67226 29.95906,-28.67232 29.95884,-28.67242 29.95859,-28.6725 29.95833,-28.67256 29.95806,-28.67263 29.95791,-28.67266 29.95776,-28.67266 29.95761,-28.67267 29.95737,-28.67267 29.95728,-28.67266 29.95718,-28.67265 29.957,-28.67263 29.95681,-28.6726 29.95659,-28.67257 29.95638,-28.67252 29.95613,-28.67249 29.9559,-28.67244 29.95569,-28.6724 29.95545,-28.67237 29.9552,-28.67232 29.95502,-28.67229 29.95483,-28.67226 29.95463,-28.67221 29.95446,-28.67218 29.95424,-28.67211 29.95395,-28.67203 29.95376,-28.67196 29.9535,-28.67188 29.95324,-28.67179 29.95303,-28.67173 29.95278,-28.67165 29.9523,-28.67151 29.95198,-28.6714 29.95179,-28.67132 29.95155,-28.67121 29.9513,-28.67114 29.95101,-28.67106 29.95063,-28.67096 29.9503,-28.67087 29.95005,-28.67079 29.94975,-28.67075 29.94948,-28.67068 29.94907,-28.67058 29.94877,-28.67053 29.9485,-28.67047 29.94829,-28.67045 29.948,-28.67041 29.94795,-28.67041 29.94759,-28.67047 29.94734,-28.67049 29.9471,-28.67051 29.94692,-28.67053 29.94668,-28.67054 29.94633,-28.67054 29.94616,-28.67049 29.94605,-28.67045 29.94594,-28.6704 29.94578,-28.67036 29.94561,-28.67034 29.94545,-28.67031 29.94528,-28.67028 29.94511,-28.67021 29.94497,-28.67018 29.94485,-28.67016 29.94473,-28.67015 29.94454,-28.67013 29.94426,-28.67017 29.94401,-28.67015 29.94361,-28.67021 29.94345,-28.67021 29.94323,-28.67023 29.943,-28.6703 29.94281,-28.67039 29.94259,-28.67053 29.9424,-28.67067 29.94221,-28.67084 29.942,-28.67094 29.94185,-28.67105 29.9417,-28.67113 29.94155,-28.6712 29.94143,-28.67126 29.9413,-28.67134 29.94102,-28.67146 29.9409,-28.67148 29.94062,-28.67162 29.94048,-28.67166 29.94038,-28.67172 29.9402,-28.67182 29.94006,-28.67189 29.93987,-28.67198 29.93974,-28.67206 29.9395,-28.67221 29.93937,-28.67229 29.93915,-28.67242 29.93892,-28.67253 29.93867,-28.67269 29.9385,-28.67282 29.9383,-28.67291 29.93811,-28.67302 29.93792,-28.6731 29.93769,-28.67325 29.93756,-28.67334 29.93742,-28.67343 29.93727,-28.67353 29.9371,-28.67363 29.93694,-28.67373 29.93678,-28.67378 29.93657,-28.6738 29.93636,-28.67379 29.93624,-28.67377 29.93614,-28.67373 29.93597,-28.67367 29.93585,-28.67365 29.9357,-28.67362 29.93558,-28.67361 29.93542,-28.67361 29.93526,-28.67366 29.93513,-28.67374 29.93498,-28.67381 29.93481,-28.67388 29.93465,-28.67397 29.93451,-28.67409 29.93442,-28.67422 29.93432,-28.67441 29.93419,-28.67458 29.93404,-28.67474 29.9339,-28.67482 29.9337,-28.67502 29.93362,-28.67511 29.93354,-28.67517 29.93343,-28.67522 29.93329,-28.67534 29.93318,-28.6754 29.93304,-28.67546 29.93284,-28.67562 29.93275,-28.67569 29.93262,-28.67583 29.93259,-28.67589 29.93255,-28.676 29.93253,-28.67614 29.93251,-28.6763 29.93251,-28.67644 29.93253,-28.67659 29.93253,-28.67675 29.93252,-28.67696 29.93254,-28.67723 29.93254,-28.67745 29.93253,-28.67762 29.9325,-28.67782 29.93247,-28.67805 29.93242,-28.67828 29.93231,-28.67854 29.93221,-28.67873 29.93214,-28.67895 29.93211,-28.6791 29.9321,-28.67927 29.93205,-28.67948 29.93197,-28.67968 29.93191,-28.67987 29.93184,-28.68007 29.93177,-28.68026 29.93174,-28.68036 29.9317,-28.68046 29.93164,-28.68059 29.9316,-28.68063 29.93146,-28.68079 29.93133,-28.68092 29.93128,-28.68105 29.93122,-28.68113 29.93114,-28.68124 29.93105,-28.68139 29.93097,-28.6815 29.9308,-28.68168 29.93063,-28.68183 29.93027,-28.68192 29.93016,-28.68194 29.93002,-28.68197 29.92991,-28.68202 29.92978,-28.68209 29.92969,-28.68213 29.92958,-28.6822 29.92939,-28.68233 29.92919,-28.68244 29.92905,-28.68254 29.92886,-28.68261 29.92866,-28.68258 29.92843,-28.68252 29.92824,-28.68242 29.92806,-28.68232 29.92785,-28.68225 29.92764,-28.68217 29.9274,-28.68211 29.92716,-28.68203 29.92477,-28.68169 29.92461,-28.68169 29.92441,-28.68165 29.92415,-28.6816 29.92393,-28.68153 29.92375,-28.68146 29.92352,-28.68135 29.92327,-28.68126 29.92312,-28.68121 29.92281,-28.68111 29.92227,-28.68078 29.92193,-28.68059 29.92164,-28.68043 29.92137,-28.68029 29.92106,-28.68009 29.92064,-28.67986 29.92034,-28.67968 29.92002,-28.67951 29.91976,-28.67938 29.91946,-28.67922 29.9192,-28.67906 29.91895,-28.679 29.91868,-28.67894 29.91836,-28.67887 29.91806,-28.67885 29.91771,-28.67882 29.91729,-28.67877 29.91692,-28.67872 29.91658,-28.67866 29.91617,-28.6786 29.91571,-28.67851 29.91529,-28.67844 29.91497,-28.67841 29.91471,-28.67836 29.91441,-28.67833 29.91388,-28.67833 29.91357,-28.67837 29.91319,-28.67839 29.91276,-28.67843 29.91247,-28.67847 29.91229,-28.67847 29.91208,-28.67849 29.91185,-28.67854 29.91159,-28.67862 29.91137,-28.67876 29.91108,-28.67883 29.91084,-28.67887 29.91077,-28.6789 29.91061,-28.67897 29.91034,-28.6791 29.91004,-28.67935 29.90986,-28.67958 29.90971,-28.67979 29.90958,-28.67998 29.9095,-28.68018 29.90936,-28.68038 29.90923,-28.68053 29.909,-28.68081 29.90886,-28.681 29.90865,-28.68125 29.90853,-28.68145 29.90837,-28.68169 29.90825,-28.68189 29.90817,-28.68203 29.90807,-28.68217 29.90799,-28.68234 29.90791,-28.68244 29.90783,-28.68258 29.90773,-28.68266 29.90763,-28.68277 29.90752,-28.68289 29.90735,-28.68299 29.90708,-28.68317 29.90682,-28.68326 29.90642,-28.68341 29.90619,-28.6834 29.90592,-28.6834 29.90563,-28.68336 29.90532,-28.68336 29.90498,-28.68335 29.90466,-28.68335 29.9044,-28.68333 29.90407,-28.68328 29.90369,-28.6832 29.90344,-28.68314 29.90328,-28.68315 29.90299,-28.68317 29.90277,-28.68316 29.90255,-28.68311 29.90226,-28.68303 29.902,-28.68291 29.90186,-28.68281 29.9016,-28.68265 29.90138,-28.68253 29.90106,-28.68243 29.90069,-28.68236 29.90026,-28.68219 29.89986,-28.68209 29.89968,-28.682 29.89931,-28.68191 29.89895,-28.68187 29.8986,-28.6817 29.8981,-28.68152 29.89767,-28.68135 29.89738,-28.6812 29.89718,-28.68113 29.89684,-28.68105 29.8966,-28.68097 29.89629,-28.68081 29.896,-28.68071 29.89577,-28.68064 29.89545,-28.68056 29.89517,-28.68051 29.89492,-28.68046 29.89464,-28.68041 29.89434,-28.68036 29.89412,-28.68033 29.89393,-28.68031 29.89375,-28.68028 29.89352,-28.68024 29.89335,-28.68022 29.89308,-28.68019 29.89283,-28.68024 29.89261,-28.68032 29.89233,-28.68041 29.89214,-28.68048 29.89192,-28.68057 29.89179,-28.68063 29.8916,-28.68072 29.89144,-28.68086 29.89133,-28.681 29.89122,-28.68112 29.89108,-28.68118 29.89089,-28.68123 29.89074,-28.68134 29.89062,-28.68143 29.89045,-28.6815 29.89026,-28.68146 29.89006,-28.68134 29.88988,-28.68124 29.88966,-28.68108 29.88952,-28.68093 29.88935,-28.68077 29.88925,-28.68064 29.88912,-28.68043 29.88901,-28.68023 29.88895,-28.68003 29.88895,-28.67973 29.88893,-28.67926 29.88893,-28.67858 29.88895,-28.67822 29.88893,-28.67798 29.88893,-28.67766 29.8889,-28.67732 29.88885,-28.67704 29.88879,-28.67683 29.8887,-28.67661 29.88859,-28.67631 29.88839,-28.67606 29.88819,-28.67575 29.88797,-28.6755 29.88781,-28.6753 29.88766,-28.67506 29.88749,-28.67478 29.88729,-28.67451 29.88719,-28.67433 29.88705,-28.67414 29.88689,-28.67392 29.88665,-28.6737 29.8864,-28.67347 29.88615,-28.67326 29.88595,-28.67306 29.88566,-28.67275 29.88548,-28.67257 29.88528,-28.67241 29.88518,-28.67233 29.8851,-28.67227 29.88489,-28.67214 29.88466,-28.67202 29.88436,-28.67183 29.88413,-28.67169 29.88395,-28.67155 29.88373,-28.67139 29.88353,-28.6712 29.8833,-28.67101 29.88318,-28.67089 29.88309,-28.67078 29.88293,-28.67062 29.88276,-28.67044 29.88254,-28.67022 29.88214,-28.66986 29.88204,-28.66974 29.88178,-28.66957 29.88163,-28.6695 29.88137,-28.66944 29.88121,-28.66944 29.881,-28.6694 29.88076,-28.66941 29.88034,-28.66945 29.87999,-28.66954 29.87969,-28.66966 29.87941,-28.66978 29.87925,-28.66988 29.87914,-28.66999 29.87903,-28.67008 29.87894,-28.67017 29.87879,-28.67023 29.87862,-28.67027 29.8785,-28.67034 29.87832,-28.67045 29.87819,-28.67053 29.87802,-28.67062 29.87781,-28.67074 29.87761,-28.6709 29.87744,-28.67098 29.87723,-28.67112 29.87699,-28.67131 29.87685,-28.67142 29.87678,-28.67146 29.87666,-28.67149 29.87656,-28.67159 29.87652,-28.67172 29.87646,-28.67181 29.87638,-28.67191 29.87625,-28.67207 29.87613,-28.67225 29.87603,-28.67242 29.87596,-28.67248 29.87583,-28.67251 29.87567,-28.67264 29.87555,-28.67289 29.87548,-28.67298 29.87533,-28.67313 29.87526,-28.67328 29.87507,-28.67347 29.87501,-28.67358 29.87498,-28.67368 29.87498,-28.67374 29.87496,-28.67382 29.87488,-28.67394 29.87479,-28.67412 29.8747,-28.67431 29.87465,-28.67435 29.87453,-28.67437 29.87441,-28.6744 29.87431,-28.67449 29.87424,-28.6746 29.87418,-28.67471 29.87413,-28.67485 29.8741,-28.67494 29.87406,-28.67507 29.874,-28.67516 29.87395,-28.67525 29.87385,-28.67532 29.87373,-28.67543 29.87367,-28.67554 29.87361,-28.6756 29.87357,-28.67571 29.87357,-28.6758 29.87336,-28.67608 29.87317,-28.6762 29.873,-28.67636 29.87285,-28.67652 29.87276,-28.67661 29.87256,-28.67683 29.87242,-28.67702 29.87233,-28.67716 29.87223,-28.67742 29.8722,-28.67769 29.87214,-28.67792 29.87211,-28.67814 29.8721,-28.67832 29.87208,-28.67852 29.87206,-28.67868 29.87205,-28.67886 29.872,-28.67903 29.87197,-28.6792 29.87191,-28.67934 29.87186,-28.67946 29.87178,-28.67957 29.87166,-28.67967 29.8715,-28.67977 29.87134,-28.67988 29.87116,-28.67997 29.8709,-28.68007 29.87069,-28.68012 29.87041,-28.68014 29.8701,-28.68015 29.86983,-28.68015 29.8696,-28.68012 29.86936,-28.6801 29.86917,-28.68003 29.86897,-28.67994 29.86875,-28.67984 29.86855,-28.67971 29.8684,-28.6796 29.86823,-28.67943 29.8681,-28.67928 29.86789,-28.67909 29.86773,-28.67893 29.86754,-28.67881 29.86734,-28.67864 29.86717,-28.67847 29.86683,-28.67825 29.86659,-28.67812 29.86638,-28.67799 29.86613,-28.67787 29.8659,-28.67772 29.86559,-28.67755 29.86541,-28.67744 29.86524,-28.67734 29.86503,-28.67728 29.86472,-28.67719 29.86444,-28.67714 29.86413,-28.67709 29.86386,-28.6771 29.86363,-28.67711 29.86307,-28.67711 29.86276,-28.67722 29.86241,-28.6773 29.86214,-28.67738 29.86181,-28.67751 29.86157,-28.67761 29.86135,-28.67768 29.861,-28.67783 29.86061,-28.67801 29.86037,-28.67811 29.86016,-28.67821 29.85995,-28.6784 29.85973,-28.67865 29.85956,-28.67886 29.85939,-28.6791 29.85922,-28.67932 29.85906,-28.67957 29.85885,-28.67986 29.85867,-28.68012 29.85851,-28.68038 29.85831,-28.68069 29.85816,-28.68092 29.85807,-28.68111 29.85791,-28.68132 29.85776,-28.68155 29.85755,-28.68183 29.85743,-28.68203 29.8573,-28.68212 29.85719,-28.68225 29.85705,-28.68244 29.85687,-28.68269 29.85671,-28.68309 29.85648,-28.68342 29.85635,-28.68356 29.85627,-28.6837 29.85615,-28.68384 29.85606,-28.68398 29.85601,-28.68414 29.856,-28.6843 29.85598,-28.68447 29.85595,-28.68463 29.85585,-28.68488 29.8558,-28.68501 29.85576,-28.68507 29.85573,-28.68515 29.85571,-28.68526 29.85568,-28.6854 29.85565,-28.68549 29.8556,-28.68557 29.85556,-28.68565 29.85548,-28.68576 29.85539,-28.68587 29.8553,-28.68595 29.85517,-28.68608 29.85513,-28.68613 29.85512,-28.68618 29.85512,-28.68625 29.85513,-28.68633 29.85515,-28.68638 29.85514,-28.68644 29.8551,-28.68648 29.85504,-28.6865 29.855,-28.68655 29.85497,-28.6866 29.85493,-28.68666 29.85484,-28.68672 29.85475,-28.68684 29.85463,-28.68692 29.85433,-28.68706 29.85419,-28.6872 29.8541,-28.68731 29.854,-28.68741 29.85394,-28.68753 29.8539,-28.68766 29.85384,-28.68784 29.85374,-28.68801 29.85362,-28.68819 29.85353,-28.68831 29.85335,-28.68848 29.85323,-28.68861 29.8531,-28.68878 29.85302,-28.6889 29.85296,-28.68898 29.8529,-28.68908 29.8528,-28.68928 29.85273,-28.68945 29.85269,-28.6896 29.85264,-28.68973 29.85261,-28.68985 29.8524,-28.69023 29.85235,-28.69035 29.85225,-28.69049 29.85215,-28.69062 29.85201,-28.69079 29.85186,-28.69095 29.8517,-28.69109 29.85153,-28.69126 29.85135,-28.69142 29.85116,-28.69157 29.85103,-28.69168 29.85089,-28.69179 29.85077,-28.69188 29.85063,-28.69201 29.85052,-28.69213 29.85003,-28.69264 29.84976,-28.69294 29.84963,-28.69319 29.84944,-28.69339 29.8492,-28.69372 29.84905,-28.69397 29.84887,-28.69418 29.84874,-28.69433 29.84858,-28.69448 29.84837,-28.69462 29.84823,-28.69477 29.8478,-28.69504 29.84747,-28.69525 29.8471,-28.69546 29.84673,-28.69563 29.84641,-28.69578 29.84613,-28.69578 29.84584,-28.6958 29.84556,-28.69583 29.84523,-28.6959 29.84482,-28.69604 29.84429,-28.69626 29.84384,-28.69648 29.84326,-28.69681 29.84282,-28.69704 29.84257,-28.69715 29.84219,-28.69736 29.84194,-28.69747 29.84163,-28.69763 29.84147,-28.69779 29.84129,-28.69787 29.84111,-28.69789 29.84098,-28.69789 29.84092,-28.69781 29.84091,-28.69771 29.84091,-28.69747 29.84087,-28.69735 29.84073,-28.69729 29.84065,-28.69727 29.84051,-28.69721 29.84033,-28.69715 29.84021,-28.69705 29.84012,-28.69698 29.84005,-28.69692 29.83989,-28.69681 29.83964,-28.69669 29.83949,-28.69663 29.83933,-28.69656 29.83911,-28.69647 29.83888,-28.69643 29.83875,-28.69639 29.83794,-28.69639 29.83736,-28.69637 29.83707,-28.69637 29.83659,-28.69634 29.83591,-28.69632 29.83557,-28.69627 29.83513,-28.69626 29.83466,-28.69622 29.8343,-28.6962 29.83395,-28.6962 29.83366,-28.69622 29.83344,-28.69628 29.83289,-28.6965 29.8327,-28.69664 29.83247,-28.69677 29.83224,-28.69684 29.83203,-28.69702 29.83182,-28.69722 29.83161,-28.69747 29.83144,-28.69765 29.8312,-28.69785 29.83105,-28.69804 29.83081,-28.69822 29.83067,-28.69827 29.83042,-28.69839 29.83016,-28.69841 29.82993,-28.69845 29.8294,-28.69845 29.82928,-28.69852 29.82914,-28.69864 29.82906,-28.69886 29.82906,-28.699 29.82896,-28.69932 29.82888,-28.6997 29.8288,-28.69986 29.8287,-28.7002 29.82869,-28.70043 29.82861,-28.70061 29.82845,-28.70084 29.82845,-28.7009 29.82844,-28.7011 29.82851,-28.70129 29.82862,-28.7018 29.82874,-28.70198 29.82875,-28.7021 29.82877,-28.70225 29.82874,-28.7024 29.82868,-28.70249 29.82862,-28.70271 29.82864,-28.70327 29.82864,-28.70368 29.82863,-28.70402 29.82863,-28.70429 29.82867,-28.70465 29.82875,-28.70501 29.82885,-28.70551 29.82887,-28.70565 29.82895,-28.70586 29.82903,-28.70595 29.82921,-28.70616 29.82942,-28.7064 29.82955,-28.70658 29.82975,-28.70688 29.82995,-28.70722 29.83023,-28.70753 29.8304,-28.70774 29.83077,-28.70811 29.83092,-28.7083 29.83101,-28.70849 29.83128,-28.70891 29.83142,-28.70912 29.83154,-28.70928 29.8318,-28.70963 29.83203,-28.70997 29.83224,-28.71019 29.83256,-28.71059 29.83269,-28.71075 29.83288,-28.71097 29.83305,-28.71111 29.83326,-28.71124 29.83345,-28.71137 29.8337,-28.71149 29.83393,-28.71156 29.83415,-28.71164 29.8344,-28.71172 29.83465,-28.71185 29.83483,-28.71196 29.83497,-28.71206 29.83517,-28.71226 29.83534,-28.71245 29.83554,-28.71273 29.8358,-28.71308 29.83592,-28.71326 29.8361,-28.7135 29.83622,-28.71367 29.83628,-28.71375 29.83636,-28.71388 29.83646,-28.71408 29.83654,-28.71421 29.83659,-28.71437 29.83663,-28.71458 29.83672,-28.71483 29.83672,-28.71502 29.83671,-28.71518 29.83668,-28.71531 29.83667,-28.71557 29.83662,-28.71594 29.83653,-28.71626 29.83646,-28.71645 29.83639,-28.71668 29.83631,-28.71684 29.83618,-28.71723 29.83612,-28.71743 29.83608,-28.71754 29.83606,-28.71767 29.83605,-28.71778 29.83605,-28.71791 29.83608,-28.71804 29.83614,-28.71818 29.83617,-28.7183 29.83622,-28.71845 29.83622,-28.7186 29.83624,-28.71871 29.83624,-28.71889 29.83618,-28.71898 29.83602,-28.71917 29.83595,-28.71933 29.83588,-28.71948 29.83582,-28.71963 29.83579,-28.71978 29.83576,-28.71991 29.83572,-28.72023 29.83575,-28.7205 29.83578,-28.72072 29.83583,-28.72092 29.83592,-28.72124 29.8361,-28.72158 29.83626,-28.72189 29.83647,-28.72211 29.83666,-28.72234 29.83696,-28.7226 29.83728,-28.72287 29.83754,-28.72305 29.83786,-28.72321 29.83818,-28.72341 29.83859,-28.72364 29.839,-28.72386 29.83931,-28.72402 29.8396,-28.72415 29.8402,-28.72439 29.84048,-28.72453 29.84081,-28.72471 29.84116,-28.72491 29.84141,-28.72501 29.84164,-28.72512 29.84187,-28.7252 29.84208,-28.72524 29.84234,-28.72531 29.8427,-28.72538 29.843,-28.72542 29.84336,-28.72545 29.84358,-28.72549 29.84386,-28.72554 29.84413,-28.72557 29.84427,-28.72561 29.84477,-28.72566 29.84493,-28.72571 29.84502,-28.72576 29.84519,-28.72592 29.84537,-28.72612 29.84551,-28.72633 29.84567,-28.7266 29.84576,-28.72679 29.8459,-28.72727 29.84592,-28.72749 29.8459,-28.72777 29.84585,-28.72801 29.84581,-28.72838 29.84575,-28.72857 29.8457,-28.72877 29.84553,-28.72926 29.84531,-28.7296 29.84514,-28.72984 29.84496,-28.73006 29.84483,-28.73024 29.84466,-28.73043 29.84451,-28.73054 29.84437,-28.73062 29.8444,-28.73078 29.84447,-28.73106 29.84614,-28.7374 29.84786,-28.7439 29.84589,-28.74752 29.84517,-28.74886 29.84335,-28.7522 29.83955,-28.75919 29.84047,-28.75965 29.84831,-28.76116 29.84266,-28.76351 29.83713,-28.76582 29.83487,-28.76245 29.82962,-28.7661 29.82434,-28.76977 29.82313,-28.7706 29.81973,-28.76267 29.81956,-28.76228 29.81897,-28.76088 29.81872,-28.76029 29.81846,-28.75967 29.81826,-28.75921 29.81817,-28.75898 29.81807,-28.75874 29.81798,-28.75854 29.81788,-28.7583 29.81779,-28.75807 29.81749,-28.75738 29.81739,-28.75714 29.81724,-28.75677 29.81647,-28.75496 29.81589,-28.75348 29.81714,-28.75316 29.8171,-28.75176 29.81708,-28.75132 29.81705,-28.75038 29.81704,-28.75018 29.81688,-28.74412 29.81798,-28.74351 29.81821,-28.74382 29.81881,-28.74357 29.81933,-28.74335 29.81849,-28.7422 29.81844,-28.74214 29.81838,-28.74207 29.81821,-28.74216 29.81737,-28.74257 29.81705,-28.74276 29.81665,-28.743 29.81586,-28.74337 29.81524,-28.74365 29.81486,-28.74381 29.81443,-28.74391 29.8137,-28.74396 29.81273,-28.74397 29.81193,-28.74382 29.81112,-28.74353 29.81043,-28.74324 29.80928,-28.74277 29.80873,-28.74266 29.80799,-28.74257 29.80748,-28.74255 29.80681,-28.74263 29.80604,-28.74268 29.80549,-28.74266 29.80499,-28.74265 29.80455,-28.74261 29.8041,-28.74267 29.8037,-28.74261 29.80334,-28.74257 29.80286,-28.74225 29.80262,-28.74193 29.80246,-28.74137 29.80237,-28.7411 29.8023,-28.74065 29.80228,-28.74024 29.80222,-28.73975 29.80223,-28.73878 29.80218,-28.73831 29.80201,-28.73802 29.80171,-28.73771 29.80143,-28.73742 29.80094,-28.73699 29.80054,-28.73668 29.80029,-28.73648 29.80017,-28.73631 29.80007,-28.73606 29.79963,-28.73556 29.79909,-28.7349 29.79823,-28.73407 29.79768,-28.73346 29.79729,-28.73302 29.79676,-28.73258 29.79608,-28.73218 29.79563,-28.73196 29.79521,-28.73174 29.79466,-28.73147 29.79425,-28.73127 29.79406,-28.73119 29.79364,-28.73102 29.79283,-28.7307 29.79162,-28.73029 29.78995,-28.72984 29.7893,-28.72969 29.78886,-28.7296 29.78866,-28.72956 29.78857,-28.72954 29.78844,-28.72948 29.7882,-28.72936 29.78796,-28.72932 29.78776,-28.7293 29.78744,-28.72925 29.78704,-28.72919 29.78692,-28.7292 29.78669,-28.72914 29.78643,-28.72905 29.78599,-28.72887 29.78545,-28.72861 29.78502,-28.72832 29.78462,-28.72806 29.78421,-28.72796 29.78373,-28.72783 29.78326,-28.72779 29.78287,-28.72783 29.78249,-28.7279 29.78211,-28.7281 29.78181,-28.7284 29.78152,-28.72883 29.78142,-28.72928 29.78143,-28.72978 29.78153,-28.73019 29.78189,-28.73076 29.78234,-28.73129 29.78295,-28.73198 29.78342,-28.73258 29.78427,-28.73336 29.78475,-28.73377 29.78513,-28.73409 29.78577,-28.73464 29.78625,-28.73501 29.78727,-28.73568 29.78835,-28.73632 29.78889,-28.73666 29.78946,-28.737 29.78987,-28.7374 29.79003,-28.73789 29.78998,-28.73826 29.78994,-28.73864 29.78975,-28.73902 29.78958,-28.73937 29.78939,-28.7397 29.7892,-28.74001 29.78896,-28.74032 29.78877,-28.74053 29.78846,-28.74066 29.78802,-28.74078 29.78734,-28.7409 29.7867,-28.74092 29.78604,-28.74095 29.78524,-28.74097 29.78446,-28.74098 29.78336,-28.74089 29.78159,-28.74055 29.78044,-28.74037 29.77939,-28.74022 29.77802,-28.7399 29.77714,-28.73972 29.77588,-28.73945 29.77522,-28.73931 29.77468,-28.73918 29.77421,-28.73917 29.77384,-28.7392 29.77363,-28.73918 29.77323,-28.73909 29.77301,-28.73911 29.7728,-28.73918 29.77255,-28.73927 29.77191,-28.73924 29.7715,-28.73913 29.77086,-28.73911 29.77007,-28.73916 29.76925,-28.73923 29.7686,-28.7392 29.76779,-28.73905 29.76671,-28.73877 29.76582,-28.73847 29.76502,-28.7382 29.76437,-28.73798 29.76364,-28.73783 29.76296,-28.73778 29.7623,-28.73773 29.76183,-28.73771 29.7616,-28.73773 29.76149,-28.73779 29.76133,-28.73789 29.76125,-28.73795 29.76114,-28.73802 29.76075,-28.73817 29.76022,-28.73846 29.75968,-28.7386 29.75913,-28.73852 29.75866,-28.73824 29.75817,-28.73772 29.75801,-28.73711 29.75776,-28.73631 29.75745,-28.7357 29.75724,-28.73545 29.75664,-28.73535 29.75601,-28.73549 29.75503,-28.73576 29.75405,-28.73614 29.75319,-28.73648 29.75235,-28.73679 29.75222,-28.73678 29.75168,-28.73699 29.75101,-28.73716 29.75041,-28.73722 29.74987,-28.73728 29.74931,-28.73737 29.74833,-28.73733 29.74655,-28.73726 29.7457,-28.73719 29.74507,-28.73704 29.74442,-28.73673 29.74331,-28.73615 29.7425,-28.73558 29.74187,-28.73513 29.74141,-28.73463 29.7404,-28.73392 29.73963,-28.7337 29.73909,-28.73357 29.73834,-28.73349 29.73807,-28.73361 29.73767,-28.73392 29.73748,-28.7343 29.73749,-28.73492 29.73758,-28.73539 29.7386,-28.73711 29.73917,-28.73779 29.73942,-28.73826 29.74025,-28.73986 29.74102,-28.74107 29.74147,-28.74148 29.74186,-28.74172 29.74189,-28.74192 29.74206,-28.7425 29.74195,-28.74313 29.74174,-28.74354 29.74121,-28.74389 29.74076,-28.7441 29.74019,-28.74432 29.73953,-28.74453 29.7389,-28.74478 29.73792,-28.74523 29.73725,-28.74566 29.73621,-28.74616 29.73573,-28.74634 29.73533,-28.74663 29.73479,-28.74707 29.73438,-28.7474 29.73398,-28.74751 29.73354,-28.74761 29.73296,-28.74766 29.7325,-28.74755 29.73197,-28.74735 29.73135,-28.74694 29.73088,-28.74662 29.73041,-28.74625 29.72996,-28.74587 29.72957,-28.74554 29.72912,-28.74519 29.72878,-28.7448 29.72834,-28.74439 29.72791,-28.74416 29.72743,-28.74393 29.72706,-28.74384 29.72648,-28.74381 29.72614,-28.74385 29.72523,-28.74398 29.72468,-28.74412 29.72397,-28.74437 29.72301,-28.74464 29.72244,-28.74478 29.72194,-28.74474 29.72115,-28.7447 29.72041,-28.74449 29.71976,-28.74435 29.71904,-28.74431 29.71843,-28.74412 29.7181,-28.74391 29.71775,-28.7436 29.71727,-28.74307 29.71694,-28.74252 29.71684,-28.74202 29.71682,-28.74173 29.71653,-28.74097 29.71619,-28.74043 29.71533,-28.73922 29.7147,-28.73872 29.71393,-28.7385 29.7135,-28.7385 29.7126,-28.73857 29.71167,-28.73871 29.71072,-28.73894 29.71012,-28.73922 29.70939,-28.73961 29.70709,-28.74088 29.70587,-28.74149 29.70526,-28.74172 29.70463,-28.74187 29.70389,-28.74211 29.70299,-28.74232 29.70245,-28.74255 29.70156,-28.74305 29.70051,-28.74407 29.70018,-28.74425 29.69988,-28.74437 29.69959,-28.7444 29.69898,-28.74452 29.69823,-28.74479 29.69744,-28.74506 29.69694,-28.74516 29.69648,-28.74507 29.69586,-28.74493 29.69536,-28.74473 29.69475,-28.74448 29.69404,-28.74428 29.69329,-28.74413 29.69252,-28.74413 29.69188,-28.74412 29.69133,-28.74414 29.69104,-28.74416 29.6904,-28.74427 29.68982,-28.74449 29.68906,-28.74485 29.68726,-28.74562 29.68669,-28.74588 29.68572,-28.74631 29.68502,-28.74653 29.68427,-28.7468 29.68317,-28.74719 29.68199,-28.74743 29.6812,-28.7475 29.67932,-28.74755 29.67827,-28.7475 29.67773,-28.74741 29.67724,-28.74723 29.67672,-28.74706 29.67644,-28.74689 29.67609,-28.7468 29.6759,-28.74683 29.67563,-28.74676 29.67508,-28.74646 29.67442,-28.74629 29.67361,-28.74624 29.67301,-28.74624 29.67126,-28.74644 29.67046,-28.74679 29.66998,-28.74716 29.66969,-28.74765 29.66952,-28.74803 29.6693,-28.74851 29.66907,-28.74895 29.66885,-28.74937 29.66858,-28.7498 29.66831,-28.75021 29.66794,-28.75077 29.66749,-28.75134 29.66732,-28.75169 29.66721,-28.75181 29.66691,-28.75195 29.66674,-28.75206 29.66661,-28.7522 29.66649,-28.75242 29.66635,-28.7527 29.66613,-28.75333 29.66582,-28.75449 29.66563,-28.7551 29.66538,-28.75578 29.66503,-28.75629 29.6648,-28.75663 29.66441,-28.75689 29.66411,-28.75702 29.6636,-28.75714 29.66317,-28.75728 29.66239,-28.75731 29.66187,-28.75729 29.66134,-28.75723 29.66049,-28.75694 29.65983,-28.75658 29.65924,-28.75622 29.65862,-28.75584 29.65797,-28.75538 29.65751,-28.75515 29.65699,-28.75497 29.65663,-28.75477 29.65647,-28.75466 29.65631,-28.75463 29.65612,-28.75464 29.65594,-28.75473 29.65543,-28.75484 29.65478,-28.7549 29.65425,-28.75499 29.65364,-28.75511 29.65294,-28.75519 29.65221,-28.75532 29.65152,-28.75545 29.65113,-28.75547 29.65042,-28.75559 29.64966,-28.75564 29.64902,-28.75573 29.64856,-28.75579 29.64791,-28.75596 29.64745,-28.75607 29.64726,-28.75613 29.64712,-28.75613 29.64681,-28.75608 29.64663,-28.75593 29.64647,-28.75579 29.64626,-28.75566 29.64598,-28.7555 29.64569,-28.75533 29.64548,-28.75504 29.64552,-28.75473 29.64573,-28.75451 29.64604,-28.75429 29.64636,-28.75391 29.64675,-28.75354 29.64708,-28.75322 29.64722,-28.753 29.64737,-28.75277 29.64754,-28.75244 29.64759,-28.75233 29.64786,-28.7521 29.64808,-28.75191 29.64851,-28.75179 29.64914,-28.7518 29.65003,-28.75171 29.65054,-28.75163 29.65118,-28.75134 29.6515,-28.75121 29.65189,-28.75104 29.65217,-28.75092 29.65249,-28.75082 29.65287,-28.75064 29.65321,-28.75043 29.65346,-28.7502 29.65364,-28.75003 29.65383,-28.74991 29.65414,-28.74974 29.65481,-28.74934 29.65515,-28.74918 29.65535,-28.74906 29.65546,-28.74891 29.6555,-28.74877 29.65547,-28.74863 29.65539,-28.74845 29.65504,-28.74813 29.65436,-28.74757 29.65402,-28.74724 29.65369,-28.74691 29.65345,-28.74663 29.65318,-28.74644 29.65298,-28.74614 29.65291,-28.74582 29.65212,-28.74491 29.65149,-28.74435 29.65117,-28.74411 29.65072,-28.74378 29.65039,-28.74347 29.64987,-28.74296 29.64958,-28.74262 29.64932,-28.7423 29.64902,-28.74193 29.6488,-28.74166 29.64837,-28.74095 29.64789,-28.7403 29.64757,-28.73982 29.64724,-28.73946 29.64688,-28.73908 29.64635,-28.73845 29.64601,-28.73812 29.64587,-28.73795 29.6457,-28.73769 29.64553,-28.73753 29.64533,-28.73746 29.64508,-28.73748 29.64475,-28.73745 29.64457,-28.7373 29.64438,-28.7371 29.64416,-28.7367 29.64393,-28.73616 29.64365,-28.73553 29.64351,-28.73514 29.64337,-28.73472 29.64322,-28.73388 29.64315,-28.73355 29.64306,-28.73318 29.64287,-28.73263 29.64274,-28.73223 29.64244,-28.73182 29.64216,-28.73162 29.64205,-28.73147 29.64201,-28.7313 29.64171,-28.73096 29.64146,-28.73083 29.64108,-28.73074 29.64081,-28.73063 29.64061,-28.73046 29.64046,-28.73025 29.64027,-28.72995 29.63998,-28.72965 29.63954,-28.72921 29.6393,-28.72899 29.63903,-28.72873 29.63882,-28.72855 29.63861,-28.72827 29.63845,-28.72792 29.63833,-28.72748 29.63822,-28.72714 29.63815,-28.72672 29.63808,-28.72632 29.63793,-28.72568 29.63785,-28.72532 29.6378,-28.72524 29.63773,-28.72505 29.63767,-28.72478 29.63759,-28.72436 29.63753,-28.72413 29.63738,-28.72396 29.63716,-28.72375 29.63713,-28.72365 29.63719,-28.72348 29.63732,-28.72338 29.63748,-28.72336 29.63788,-28.72345 29.63825,-28.72355 29.63841,-28.7235 29.63852,-28.72339 29.63858,-28.72327 29.63861,-28.72313 29.63852,-28.72281 29.63821,-28.72245 29.63736,-28.72196 29.63659,-28.72168 29.63499,-28.72123 29.63411,-28.721 29.63366,-28.72091 29.63291,-28.72079 29.6325,-28.72069 29.63219,-28.72056 29.63174,-28.72034 29.63152,-28.72019 29.63084,-28.71966 29.63023,-28.71918 29.62968,-28.71875 29.629,-28.71823 29.62847,-28.71791 29.62791,-28.7176 29.62705,-28.71714 29.62657,-28.71688 29.62559,-28.71635 29.62513,-28.71607 29.62482,-28.71589 29.62419,-28.71551 29.62369,-28.71506 29.62337,-28.71456 29.62312,-28.71429 29.62281,-28.71397 29.62248,-28.71371 29.62214,-28.71344 29.62191,-28.7132 29.62167,-28.71295 29.62143,-28.71277 29.62125,-28.71271 29.62106,-28.71265 29.62063,-28.71238 29.62016,-28.71219 29.61925,-28.71208 29.61863,-28.71204 29.61817,-28.71198 29.61747,-28.71195 29.61688,-28.71198 29.61648,-28.71206 29.61609,-28.71215 29.61559,-28.71229 29.61518,-28.71246 29.61491,-28.71267 29.61463,-28.71301 29.61441,-28.71334 29.61412,-28.71378 29.61387,-28.71416 29.61363,-28.71462 29.61352,-28.7149 29.61342,-28.71524 29.61329,-28.71565 29.61322,-28.71581 29.61311,-28.71597 29.61294,-28.71612 29.61279,-28.71626 29.61268,-28.71638 29.61232,-28.71695 29.61202,-28.7173 29.61162,-28.7176 29.61116,-28.71794 29.61062,-28.71812 29.60976,-28.71805 29.60925,-28.71799 29.60866,-28.71786 29.60808,-28.71767 29.60766,-28.71751 29.60734,-28.71723 29.60712,-28.71682 29.60706,-28.71649 29.60705,-28.71627 29.60707,-28.71604 29.60718,-28.71564 29.60728,-28.71516 29.60736,-28.71442 29.60735,-28.71376 29.60732,-28.71339 29.6072,-28.71291 29.60715,-28.7125 29.60718,-28.7123 29.60745,-28.71179 29.60782,-28.71132 29.60803,-28.71101 29.60828,-28.71073 29.60877,-28.71011 29.60907,-28.70979 29.60933,-28.70952 29.60962,-28.70931 29.61002,-28.70909 29.61054,-28.70888 29.61107,-28.70864 29.61153,-28.70843 29.612,-28.70826 29.61243,-28.7081 29.61319,-28.70794 29.61375,-28.70782 29.61454,-28.70769 29.61498,-28.70762 29.61532,-28.70757 29.61572,-28.70751 29.61593,-28.70741 29.61605,-28.7073 29.61615,-28.70721 29.61625,-28.70719 29.61636,-28.70722 29.61649,-28.70734 29.61664,-28.70739 29.61679,-28.70741 29.61716,-28.70742 29.61781,-28.70739 29.6182,-28.70738 29.61867,-28.70736 29.61903,-28.70737 29.61964,-28.70729 29.61998,-28.70725 29.62026,-28.70719 29.62046,-28.70716 29.6207,-28.70719 29.62088,-28.70726 29.62106,-28.70732 29.62131,-28.7074 29.62172,-28.70748 29.62214,-28.70762 29.62246,-28.70776 29.62281,-28.70791 29.62308,-28.70811 29.62351,-28.70846 29.62374,-28.70862 29.62409,-28.70892 29.62441,-28.70912 29.62477,-28.70909 29.62505,-28.70895 29.6253,-28.70868 29.62559,-28.70812 29.62584,-28.70746 29.62598,-28.70703 29.62602,-28.7067 29.62596,-28.70642 29.62582,-28.70606 29.62559,-28.7057 29.62513,-28.70534 29.62468,-28.70512 29.62426,-28.70484 29.62389,-28.70454 29.62356,-28.70427 29.62335,-28.70406 29.62316,-28.7035 29.62305,-28.70298 29.62314,-28.70269 29.62322,-28.70211 29.62355,-28.70179 29.62412,-28.70141 29.62458,-28.70119 29.62499,-28.701 29.62555,-28.70082 29.62594,-28.70062 29.6262,-28.70013 29.62616,-28.69966 29.62596,-28.69932 29.6256,-28.69898 29.62516,-28.6987 29.62447,-28.69846 29.62373,-28.69824 29.62221,-28.69781 29.62161,-28.69748 29.62072,-28.69695 29.62025,-28.69657 29.6196,-28.69612 29.61917,-28.6957 29.61883,-28.69531 29.61857,-28.69476 29.61836,-28.6943 29.61813,-28.69366 29.61802,-28.69317 29.61786,-28.69272 29.61756,-28.69205 29.61756,-28.69176 29.61762,-28.69144 29.61758,-28.6911 29.61758,-28.69071 29.61771,-28.69017 29.61788,-28.6896 29.61804,-28.6892 29.61824,-28.68873 29.61855,-28.68821 29.61873,-28.68783 29.61895,-28.68746 29.61924,-28.68716 29.61973,-28.68659 29.62076,-28.68527 29.62098,-28.68495 29.62102,-28.68461 29.62112,-28.68414 29.62105,-28.68369 29.62092,-28.68346 29.62079,-28.6833 29.62057,-28.68303 29.62017,-28.68252 29.61912,-28.68119 29.61878,-28.6808 29.61861,-28.68071 29.61805,-28.68066 29.61735,-28.68068 29.61635,-28.681 29.6156,-28.68123 29.61447,-28.68143 29.61325,-28.6816 29.61213,-28.68159 29.61087,-28.6816 29.609,-28.68162 29.60772,-28.68167 29.60711,-28.68152 29.60668,-28.6814 29.60608,-28.68103 29.60579,-28.68077 29.60515,-28.68021 29.60479,-28.67986 29.60458,-28.67957 29.60452,-28.67926 29.60447,-28.679 29.60432,-28.678 29.6042,-28.67696 29.6041,-28.67647 29.60397,-28.67599 29.60383,-28.67547 29.6036,-28.67487 29.60339,-28.67449 29.60323,-28.67409 29.60318,-28.67379 29.60328,-28.67356 29.6034,-28.67327 29.60356,-28.67291 29.60393,-28.67262 29.60433,-28.6725 29.60488,-28.67248 29.60541,-28.67261 29.60575,-28.67271 29.60611,-28.67285 29.60688,-28.67328 29.60819,-28.67396 29.60887,-28.67425 29.60958,-28.67445 29.61012,-28.67463 29.61125,-28.67457 29.61201,-28.67456 29.61239,-28.67448 29.61263,-28.67432 29.61281,-28.67415 29.61301,-28.67392 29.61336,-28.67351 29.61346,-28.67314 29.61349,-28.67291 29.61361,-28.67264 29.61366,-28.67243 29.61385,-28.67186 29.61413,-28.67113 29.61431,-28.67068 29.61445,-28.67002 29.61453,-28.66977 29.61473,-28.66918 29.61484,-28.66883 29.61497,-28.66841 29.61512,-28.66791 29.61532,-28.66732 29.61552,-28.66681 29.61559,-28.66626 29.61561,-28.66608 29.61555,-28.66597 29.61508,-28.66564 29.61444,-28.66524 29.61394,-28.665 29.61341,-28.66479 29.61241,-28.66424 29.61174,-28.66384 29.61123,-28.66346 29.61093,-28.6632 29.6105,-28.66273 29.61029,-28.66246 29.61011,-28.66227 29.60988,-28.66211 29.60906,-28.66169 29.6086,-28.66146 29.60815,-28.6613 29.60795,-28.66112 29.60753,-28.66065 29.60722,-28.66034 29.60698,-28.65992 29.60688,-28.65971 29.60655,-28.65955 29.60611,-28.65946 29.60584,-28.65951 29.60523,-28.65974 29.60486,-28.66005 29.60438,-28.66067 29.604,-28.66161 29.60375,-28.66238 29.60341,-28.66345 29.60291,-28.66439 29.60252,-28.66514 29.60166,-28.66716 29.60046,-28.66968 29.59969,-28.671 29.59904,-28.67184 29.59837,-28.67243 29.59584,-28.67492 29.59416,-28.67657 29.59365,-28.67694 29.59314,-28.67718 29.5924,-28.6775 29.59163,-28.67812 29.59116,-28.6787 29.59069,-28.67941 29.59005,-28.68022 29.58946,-28.68113 29.58939,-28.68158 29.58948,-28.68189 29.58971,-28.6822 29.59008,-28.68248 29.59072,-28.68285 29.59172,-28.68345 29.59269,-28.68401 29.59361,-28.68448 29.59492,-28.68523 29.59571,-28.68559 29.59672,-28.68599 29.59726,-28.68611 29.59885,-28.68662 29.59981,-28.68723 29.6001,-28.68764 29.60025,-28.68799 29.60056,-28.68852 29.60112,-28.68939 29.60112,-28.69012 29.60103,-28.69034 29.60068,-28.69079 29.60021,-28.6913 29.59985,-28.69189 29.59943,-28.69244 29.59824,-28.69421 29.59778,-28.69491 29.59751,-28.69529 29.59707,-28.69556 29.59658,-28.69582 29.596,-28.69607 29.59496,-28.69647 29.59389,-28.6968 29.59238,-28.69722 29.59148,-28.69748 29.59089,-28.69756 29.5903,-28.69756 29.58978,-28.69749 29.58943,-28.6973 29.5891,-28.69707 29.58848,-28.6967 29.58807,-28.69633 29.58784,-28.69596 29.58773,-28.6955 29.58771,-28.69503 29.58778,-28.69444 29.58788,-28.69328 29.58789,-28.69281 29.58785,-28.69214 29.58789,-28.69164 29.58788,-28.69107 29.58783,-28.69065 29.5877,-28.69029 29.58754,-28.68994 29.58719,-28.6896 29.58678,-28.68941 29.58632,-28.68937 29.58573,-28.68944 29.58531,-28.68951 29.58491,-28.68957 29.58385,-28.68982 29.58329,-28.68998 29.58262,-28.69003 29.582,-28.68994 29.58158,-28.6898 29.58113,-28.6897 29.58078,-28.68973 29.58012,-28.68959 29.57935,-28.68933 29.57878,-28.6892 29.57821,-28.68906 29.57744,-28.68873 29.57682,-28.68845 29.57626,-28.68808 29.57599,-28.68787 29.57551,-28.68758 29.57471,-28.68698 29.57427,-28.6865 29.57405,-28.68617 29.57383,-28.68572 29.57378,-28.68547 29.57375,-28.68529 29.57369,-28.68508 29.57354,-28.68489 29.57327,-28.68473 29.57272,-28.68459 29.57215,-28.68458 29.57157,-28.68457 29.5713,-28.68458 29.57043,-28.68468 29.56997,-28.68481 29.5696,-28.68492 29.56878,-28.68524 29.56806,-28.68553 29.56769,-28.68568 29.56699,-28.68597 29.56665,-28.68611 29.56603,-28.68633 29.56531,-28.6867 29.56455,-28.68722 29.56325,-28.6882 29.56272,-28.68855 29.56252,-28.68863 29.56235,-28.68867 29.56171,-28.68907 29.56121,-28.68965 29.56079,-28.6903 29.56045,-28.69068 29.56002,-28.69087 29.5596,-28.69097 29.55899,-28.69101 29.55861,-28.69103 29.55815,-28.69099 29.55766,-28.69096 29.55725,-28.69091 29.5569,-28.69087 29.55657,-28.69075 29.55632,-28.69064 29.55597,-28.69033 29.55582,-28.69004 29.55572,-28.68974 29.55571,-28.68943 29.5557,-28.68904 29.55584,-28.68846 29.55597,-28.68793 29.55624,-28.687 29.55648,-28.68619 29.5566,-28.6858 29.55681,-28.68513 29.55691,-28.68469 29.5571,-28.68405 29.55745,-28.68312 29.55781,-28.68198 29.55795,-28.68158 29.55824,-28.68071 29.55844,-28.68003 29.55851,-28.67958 29.55861,-28.67919 29.55871,-28.6789 29.55883,-28.67867 29.55914,-28.67806 29.55934,-28.67771 29.55948,-28.67751 29.56009,-28.6769 29.56052,-28.67653 29.56084,-28.67623 29.56114,-28.67596 29.56138,-28.67567 29.56158,-28.67544 29.56185,-28.67517 29.56213,-28.67488 29.56263,-28.6746 29.56295,-28.67449 29.56331,-28.67437 29.56396,-28.67424 29.56443,-28.6741 29.56493,-28.67395 29.56555,-28.67397 29.5667,-28.67414 29.5679,-28.67456 29.56864,-28.6747 29.56936,-28.67477 29.56989,-28.67464 29.57012,-28.67443 29.5703,-28.67426 29.57044,-28.67397 29.57052,-28.67365 29.57075,-28.67322 29.57098,-28.6729 29.57122,-28.67256 29.57159,-28.67202 29.57193,-28.67153 29.57208,-28.67113 29.57222,-28.67076 29.57227,-28.67043 29.5722,-28.67013 29.57171,-28.66935 29.57115,-28.66891 29.57074,-28.66856 29.57024,-28.668 29.5694,-28.66735 29.56886,-28.66686 29.56818,-28.66648 29.56781,-28.66617 29.56759,-28.66586 29.56747,-28.66568 29.56739,-28.66549 29.56741,-28.66538 29.56745,-28.66536 29.57021,-28.66376 29.57852,-28.65899 29.58112,-28.65733 29.58372,-28.65566 29.58631,-28.654 29.58891,-28.65234 29.5915,-28.65067 29.5941,-28.64901 29.59608,-28.64739 29.59297,-28.646 29.58986,-28.6446 29.58675,-28.64321 29.58364,-28.64181 29.58053,-28.64042 29.58036,-28.64035 29.57877,-28.63963 29.57936,-28.6393 29.5796,-28.63916 29.58237,-28.63757 29.58514,-28.63599 29.5895,-28.63349 29.59256,-28.63119 29.5931,-28.63078 29.59363,-28.63036 29.59416,-28.62995 29.5947,-28.62954 29.59527,-28.6291 29.59585,-28.62866 29.59699,-28.62778 29.59757,-28.62735 29.59814,-28.62691 29.59994,-28.62554 29.60128,-28.62451 29.60163,-28.62424 29.60311,-28.62312 29.60459,-28.62199 29.60607,-28.62087 29.60677,-28.62034 29.60774,-28.61959 29.60922,-28.61848 29.61069,-28.61736 29.61216,-28.61625 29.61336,-28.61534 29.6152,-28.61394 29.61704,-28.61255 29.61832,-28.61241 29.61906,-28.61232 29.61982,-28.61225 29.62056,-28.61218 29.62128,-28.61211 29.62201,-28.61204 29.62278,-28.61197 29.62354,-28.61189 29.62428,-28.61182 29.62494,-28.61176 29.62567,-28.61169 29.62642,-28.61162 29.62794,-28.61148 29.62871,-28.61141 29.62947,-28.61133 29.63022,-28.61126 29.63098,-28.61119 29.63168,-28.61113 29.63244,-28.61105 29.63318,-28.61098 29.63394,-28.61091 29.63436,-28.61087 29.63443,-28.61087 29.63457,-28.6109 29.6357,-28.6112 29.63684,-28.6115 29.6391,-28.6121 29.64024,-28.6124 29.6425,-28.613 29.64291,-28.61253 29.64361,-28.61173 29.64431,-28.61092 29.645,-28.61012 29.64514,-28.60995 29.6452,-28.60989 29.64576,-28.60983 29.64633,-28.60978 29.64804,-28.6096 29.64861,-28.60955 29.64917,-28.60949 29.65031,-28.60937 29.65088,-28.60932 29.6495,-28.60781 29.64674,-28.60481 29.64637,-28.60438 29.64594,-28.6039 29.64549,-28.60337 29.64449,-28.60224 29.6438,-28.60145 29.6431,-28.60065 29.64241,-28.59986 29.64171,-28.59906 29.64101,-28.59825 29.64031,-28.59745 29.63962,-28.59667 29.63894,-28.59589 29.63824,-28.59508 29.63759,-28.59435 29.63754,-28.59429 29.63684,-28.59351 29.63611,-28.59271 29.63538,-28.5919 29.63467,-28.59112 29.63456,-28.591 29.63448,-28.59091 29.63739,-28.58856 29.64612,-28.58154 29.64903,-28.57919 29.65194,-28.57685 29.65686,-28.57287 29.66021,-28.57017 29.66355,-28.56746 29.6664,-28.56515 29.66669,-28.56493 29.66998,-28.56232 29.66664,-28.55983 29.66662,-28.55981 29.66652,-28.55974 29.66624,-28.55968 29.66505,-28.55945 29.66362,-28.55897 29.66389,-28.55776 29.65999,-28.55484 29.65764,-28.55309 29.6553,-28.55134 29.65295,-28.54959 29.64793,-28.54583 29.64578,-28.54507 29.64152,-28.54358 29.64123,-28.54348 29.64076,-28.54332 29.63718,-28.5421 29.63359,-28.54088 29.63001,-28.53965 29.62926,-28.53939 29.62864,-28.53917 29.62495,-28.53787 29.62472,-28.53779 29.62447,-28.53771 29.62365,-28.53742 29.61369,-28.534 29.61038,-28.53285</coordinates></LinearRing></outerBoundaryIs></Polygon></MultiGeometry></Placemark></Document></kml>