<?xml version="1.0" encoding="UTF-8"?><kml xmlns="http://www.opengis.net/kml/2.2"><Document><Placemark><name>Ladysmith</name><description>Main Place 514018</description><ExtendedData><Data name="code"><value>514018</value></Data><Data name="name"><value>Ladysmith</value></Data><Data name="description"><value>Main Place 514018</value></Data></ExtendedData><MultiGeometry><Polygon><outerBoundaryIs><LinearRing><coordinates>29.79868,-28.52437 29.79899,-28.52521 29.80098,-28.5248 29.80159,-28.52576 29.80168,-28.5257 29.80178,-28.52565 29.80209,-28.52543 29.80232,-28.52526 29.80264,-28.52502 29.80328,-28.52453 29.80341,-28.52442 29.80368,-28.52416 29.80511,-28.52271 29.80585,-28.52193 29.80598,-28.52202 29.80756,-28.52293 29.80769,-28.52278 29.80822,-28.52256 29.80884,-28.5225 29.81055,-28.52272 29.81121,-28.52293 29.81161,-28.5233 29.81123,-28.52435 29.8113,-28.52499 29.81325,-28.52597 29.81398,-28.52623 29.81409,-28.52629 29.81457,-28.5266 29.81472,-28.52666 29.81765,-28.52779 29.81879,-28.52893 29.82132,-28.52892 29.82376,-28.52948 29.82586,-28.5311 29.82109,-28.53353 29.8209,-28.53403 29.82442,-28.53508 29.83046,-28.5369 29.8345,-28.54167 29.83686,-28.54446 29.842,-28.55052 29.84285,-28.55153 29.84483,-28.55387 29.84491,-28.55397 29.8448,-28.55889 29.84475,-28.56121 29.84474,-28.5618 29.84474,-28.56181 29.84474,-28.56185 29.84471,-28.56361 29.84469,-28.56486 29.84469,-28.5649 29.84464,-28.56877 29.8446,-28.57189 29.84461,-28.57192 29.84522,-28.57303 29.8484,-28.57886 29.84867,-28.57935 29.85006,-28.58188 29.85069,-28.58304 29.85388,-28.58542 29.85949,-28.5896 29.86044,-28.59031 29.86198,-28.59307 29.86301,-28.59489 29.86328,-28.59538 29.86596,-28.60017 29.86578,-28.60486 29.86574,-28.60585 29.86425,-28.60722 29.86397,-28.607 29.8634,-28.60684 29.86278,-28.60659 29.86205,-28.60647 29.86098,-28.60701 29.85999,-28.60778 29.85916,-28.60825 29.85823,-28.60866 29.85745,-28.60942 29.85682,-28.60995 29.85601,-28.6103 29.85554,-28.61078 29.8546,-28.61193 29.85443,-28.61238 29.85404,-28.61268 29.85252,-28.6127 29.85207,-28.61252 29.8519,-28.61206 29.8519,-28.61176 29.85188,-28.61158 29.85171,-28.61141 29.85138,-28.61115 29.85109,-28.61113 29.85083,-28.61117 29.85059,-28.61126 29.85006,-28.61111 29.84974,-28.61102 29.84922,-28.61104 29.84847,-28.61132 29.84786,-28.61156 29.84708,-28.61214 29.84547,-28.61277 29.8436,-28.61346 29.84261,-28.61388 29.84099,-28.61423 29.84021,-28.61413 29.83965,-28.61392 29.83932,-28.61383 29.8389,-28.61347 29.83832,-28.61219 29.83822,-28.61172 29.83827,-28.61145 29.83831,-28.61117 29.83824,-28.61054 29.83816,-28.6102 29.83804,-28.60997 29.83781,-28.60971 29.8376,-28.60934 29.83747,-28.60898 29.83731,-28.60833 29.83718,-28.60763 29.83712,-28.60706 29.83711,-28.6068 29.83712,-28.60633 29.83724,-28.60591 29.83728,-28.60555 29.83731,-28.60516 29.83725,-28.60474 29.83714,-28.60373 29.83707,-28.60324 29.83699,-28.60303 29.83691,-28.60282 29.83655,-28.60234 29.83608,-28.60189 29.83586,-28.60168 29.83556,-28.60157 29.83503,-28.60152 29.83396,-28.60137 29.83321,-28.60117 29.83265,-28.60107 29.83226,-28.60101 29.83166,-28.60073 29.83098,-28.60043 29.83042,-28.60023 29.82977,-28.60019 29.82951,-28.60018 29.82911,-28.60011 29.82881,-28.60001 29.82863,-28.60001 29.82848,-28.60001 29.82824,-28.60021 29.82792,-28.60095 29.82769,-28.60141 29.82756,-28.60154 29.8272,-28.60168 29.82654,-28.6018 29.82597,-28.60186 29.82548,-28.60223 29.8252,-28.60224 29.82282,-28.60625 29.82033,-28.60836 29.81706,-28.60828 29.81543,-28.6081 29.81391,-28.60803 29.8135,-28.60826 29.81316,-28.60844 29.81284,-28.60861 29.81194,-28.60868 29.80829,-28.60897 29.8075,-28.60825 29.80537,-28.6063 29.80244,-28.60363 29.80235,-28.60355 29.8016,-28.60287 29.79987,-28.60129 29.79562,-28.60016 29.79537,-28.59968 29.79544,-28.59819 29.79554,-28.59619 29.79505,-28.59553 29.79484,-28.59537 29.79395,-28.59511 29.79403,-28.59482 29.79428,-28.59442 29.7911,-28.59051 29.79015,-28.59364 29.7826,-28.59522 29.7786,-28.59605 29.76935,-28.59414 29.76082,-28.59237 29.75882,-28.59061 29.75882,-28.59061 29.75875,-28.59058 29.75339,-28.5878 29.74489,-28.5834 29.74171,-28.58176 29.74092,-28.5825 29.74036,-28.58299 29.73979,-28.5835 29.73965,-28.58344 29.73289,-28.58061 29.73374,-28.5784 29.7077,-28.57224 29.70813,-28.57155 29.71088,-28.57011 29.71362,-28.56747 29.71596,-28.56521 29.71778,-28.56346 29.72083,-28.56051 29.72377,-28.55768 29.72575,-28.55576 29.72716,-28.55527 29.73016,-28.55424 29.73412,-28.55287 29.7371,-28.55185 29.74027,-28.55075 29.74272,-28.54991 29.74571,-28.54887 29.74753,-28.54825 29.74936,-28.54762 29.75301,-28.54635 29.75327,-28.54626 29.75365,-28.54613 29.75656,-28.54513 29.75763,-28.54476 29.75768,-28.54474 29.75998,-28.54412 29.76376,-28.54309 29.76597,-28.54249 29.76755,-28.54206 29.76897,-28.54168 29.76846,-28.54053 29.76778,-28.5387 29.76721,-28.53707 29.76697,-28.53632 29.76659,-28.53522 29.76645,-28.53476 29.76634,-28.53438 29.76618,-28.53379 29.76595,-28.53298 29.76581,-28.53275 29.76557,-28.53204 29.76552,-28.53175 29.7652,-28.53082 29.76498,-28.53022 29.76467,-28.52931 29.76453,-28.52882 29.76478,-28.5288 29.76573,-28.52875 29.76666,-28.52869 29.7672,-28.52867 29.76793,-28.52864 29.76848,-28.52859 29.7692,-28.52855 29.76973,-28.52851 29.76988,-28.5285 29.7703,-28.52846 29.77112,-28.52842 29.77203,-28.52837 29.7725,-28.52834 29.77309,-28.52832 29.77341,-28.5283 29.77407,-28.52826 29.77592,-28.52815 29.77683,-28.52805 29.77758,-28.52792 29.77809,-28.52781 29.77912,-28.52744 29.77959,-28.52724 29.77963,-28.52722 29.78176,-28.52609 29.78299,-28.52545 29.78619,-28.52379 29.78848,-28.52266 29.78996,-28.52187 29.79129,-28.52124 29.79184,-28.52109 29.79307,-28.52101 29.79454,-28.52124 29.79623,-28.52181 29.79742,-28.52264 29.79777,-28.52296 29.79824,-28.52347 29.79868,-28.52437</coordinates></LinearRing></outerBoundaryIs></Polygon></MultiGeometry></Placemark></Document></kml>