<?xml version="1.0" encoding="UTF-8"?><kml xmlns="http://www.opengis.net/kml/2.2"><Document><Placemark><name>Steadville</name><description>Sub Place 514018015</description><ExtendedData><Data name="code"><value>514018015</value></Data><Data name="name"><value>Steadville</value></Data><Data name="description"><value>Sub Place 514018015</value></Data></ExtendedData><MultiGeometry><Polygon><outerBoundaryIs><LinearRing><coordinates>29.83095,-28.55046 29.83176,-28.5511 29.83259,-28.55178 29.83406,-28.55297 29.8345,-28.55332 29.83517,-28.55387 29.83604,-28.55465 29.83573,-28.55478 29.83566,-28.5548 29.83552,-28.55484 29.83538,-28.55484 29.83511,-28.55481 29.83497,-28.55483 29.83485,-28.55486 29.83476,-28.55486 29.83467,-28.55491 29.83462,-28.55493 29.83455,-28.55492 29.8345,-28.55492 29.83438,-28.55492 29.83426,-28.55493 29.8342,-28.55497 29.83407,-28.55514 29.83394,-28.55514 29.83378,-28.55517 29.83365,-28.55525 29.83353,-28.55528 29.8334,-28.55529 29.83337,-28.55532 29.83329,-28.55539 29.83322,-28.55546 29.83314,-28.55554 29.833,-28.55563 29.83287,-28.5557 29.83273,-28.5558 29.83261,-28.55591 29.8326,-28.55591 29.83242,-28.55598 29.83237,-28.55602 29.83237,-28.55612 29.83241,-28.55616 29.83247,-28.55623 29.83248,-28.5563 29.83237,-28.55632 29.83231,-28.55632 29.83226,-28.55631 29.83218,-28.5563 29.83211,-28.55624 29.83207,-28.55619 29.832,-28.55614 29.83192,-28.55614 29.83182,-28.55615 29.83175,-28.5562 29.83169,-28.55625 29.83163,-28.55631 29.83156,-28.5564 29.8315,-28.55653 29.83146,-28.55663 29.83124,-28.55686 29.83117,-28.55691 29.83103,-28.55715 29.83087,-28.55746 29.83074,-28.55764 29.83061,-28.55779 29.83047,-28.55786 29.83028,-28.55794 29.83012,-28.558 29.83006,-28.55803 29.83004,-28.55807 29.83001,-28.55811 29.83001,-28.55815 29.83004,-28.55816 29.83009,-28.5582 29.83011,-28.55823 29.83013,-28.55828 29.83011,-28.5583 29.83012,-28.55833 29.83013,-28.55836 29.83016,-28.55838 29.8302,-28.55843 29.83024,-28.55849 29.83026,-28.55856 29.83022,-28.5586 29.83015,-28.55862 29.83006,-28.55862 29.82998,-28.55863 29.82991,-28.55865 29.82985,-28.55868 29.82976,-28.55871 29.82964,-28.55873 29.82958,-28.55873 29.82953,-28.55873 29.82947,-28.5587 29.8294,-28.55869 29.82934,-28.55869 29.82927,-28.55871 29.82922,-28.55875 29.82917,-28.55882 29.8291,-28.55896 29.82909,-28.55908 29.82908,-28.55909 29.82905,-28.55914 29.82905,-28.55919 29.82905,-28.55926 29.82904,-28.55934 29.82904,-28.5594 29.82902,-28.55945 29.82895,-28.55951 29.82892,-28.55952 29.82888,-28.55951 29.82884,-28.55949 29.8288,-28.55945 29.82875,-28.5594 29.82871,-28.55936 29.82865,-28.55932 29.82862,-28.55932 29.82858,-28.55932 29.82855,-28.55935 29.8285,-28.55941 29.82846,-28.55949 29.82841,-28.5596 29.82823,-28.55989 29.82821,-28.55991 29.82815,-28.56 29.82811,-28.56011 29.8281,-28.56019 29.8281,-28.56032 29.82811,-28.56044 29.82811,-28.56051 29.82807,-28.56058 29.82804,-28.56066 29.82802,-28.56075 29.82801,-28.56084 29.82797,-28.56101 29.82796,-28.56104 29.82793,-28.5611 29.82792,-28.56111 29.82787,-28.56116 29.82772,-28.56124 29.82763,-28.56132 29.82756,-28.56143 29.82743,-28.56156 29.82739,-28.56166 29.82738,-28.56171 29.82742,-28.56174 29.82745,-28.56176 29.82748,-28.5618 29.8275,-28.56183 29.8275,-28.56186 29.8275,-28.56191 29.82748,-28.56195 29.82744,-28.562 29.8274,-28.56204 29.82733,-28.56208 29.82727,-28.5621 29.82711,-28.5621 29.82704,-28.5621 29.82701,-28.56217 29.82697,-28.56231 29.82695,-28.56238 29.82688,-28.56244 29.82681,-28.56249 29.8267,-28.56253 29.82663,-28.56256 29.8266,-28.56263 29.82664,-28.56266 29.82664,-28.5627 29.8266,-28.56276 29.82655,-28.56291 29.82649,-28.56302 29.8264,-28.56309 29.82634,-28.56317 29.82625,-28.56329 29.82615,-28.56349 29.82605,-28.56366 29.82604,-28.56382 29.82603,-28.56398 29.82606,-28.56415 29.82608,-28.56422 29.82607,-28.56429 29.82599,-28.56439 29.82583,-28.5645 29.82577,-28.56456 29.82567,-28.56464 29.82559,-28.56467 29.82547,-28.56468 29.82536,-28.56471 29.82527,-28.56477 29.82525,-28.56478 29.82517,-28.56486 29.82515,-28.56498 29.82516,-28.56509 29.82516,-28.56516 29.82509,-28.56527 29.825,-28.5654 29.82484,-28.56569 29.82472,-28.5658 29.8246,-28.56583 29.82451,-28.56611 29.82448,-28.56624 29.82446,-28.56631 29.82441,-28.56635 29.8243,-28.56639 29.82424,-28.56646 29.82415,-28.56663 29.82419,-28.5668 29.82419,-28.56692 29.82419,-28.56693 29.8241,-28.56708 29.82405,-28.56723 29.82405,-28.56723 29.8241,-28.56737 29.82416,-28.56747 29.82413,-28.56765 29.82403,-28.56799 29.82399,-28.56809 29.82401,-28.5682 29.82406,-28.56829 29.82403,-28.56838 29.824,-28.56844 29.82399,-28.56858 29.82401,-28.56874 29.82414,-28.56864 29.82427,-28.56845 29.82441,-28.56835 29.8247,-28.56827 29.82487,-28.56819 29.82497,-28.56809 29.82505,-28.56807 29.82515,-28.5681 29.8252,-28.56815 29.82524,-28.56827 29.82536,-28.56836 29.82554,-28.56832 29.82563,-28.56822 29.82571,-28.56817 29.82583,-28.56815 29.82593,-28.56815 29.82614,-28.56819 29.82633,-28.56824 29.82659,-28.56827 29.827,-28.56827 29.82732,-28.56825 29.82774,-28.56819 29.82805,-28.56818 29.82827,-28.56811 29.82836,-28.56812 29.82856,-28.56817 29.82867,-28.5682 29.82872,-28.56825 29.82875,-28.56828 29.82923,-28.56847 29.8296,-28.56862 29.83002,-28.56879 29.83068,-28.56909 29.83074,-28.56912 29.83084,-28.56893 29.83089,-28.56892 29.8311,-28.56897 29.83154,-28.56915 29.83203,-28.56919 29.83225,-28.56922 29.83266,-28.56944 29.83295,-28.5695 29.83316,-28.56952 29.83332,-28.56953 29.83348,-28.56955 29.83382,-28.56961 29.83465,-28.56986 29.83485,-28.56908 29.83514,-28.56798 29.83519,-28.56783 29.83562,-28.56611 29.83584,-28.56522 29.83605,-28.56442 29.83616,-28.56443 29.83634,-28.56443 29.83646,-28.56444 29.83655,-28.56444 29.83661,-28.56446 29.83667,-28.56451 29.83672,-28.56455 29.83676,-28.56457 29.8368,-28.56456 29.83684,-28.56458 29.83688,-28.56461 29.83699,-28.56465 29.83704,-28.56465 29.83711,-28.56462 29.8372,-28.56457 29.83734,-28.56451 29.83742,-28.5645 29.8376,-28.5645 29.83768,-28.56451 29.83783,-28.56453 29.83805,-28.56457 29.83816,-28.56457 29.83823,-28.5645 29.83826,-28.56443 29.83831,-28.56438 29.83836,-28.56433 29.83842,-28.56431 29.83853,-28.5643 29.8386,-28.56434 29.83865,-28.56439 29.83875,-28.56448 29.83884,-28.56456 29.83895,-28.56461 29.83908,-28.56461 29.83918,-28.56455 29.83927,-28.56453 29.83935,-28.56453 29.83945,-28.56456 29.83961,-28.56461 29.83976,-28.56461 29.83996,-28.56457 29.84008,-28.56454 29.84032,-28.56457 29.84038,-28.56457 29.84051,-28.56458 29.84061,-28.5646 29.84069,-28.56461 29.8408,-28.56456 29.84087,-28.5645 29.84094,-28.56442 29.84101,-28.56439 29.84115,-28.5644 29.84123,-28.56441 29.84134,-28.56438 29.84143,-28.56434 29.84152,-28.5643 29.84161,-28.56427 29.84179,-28.56426 29.84195,-28.56423 29.84213,-28.56428 29.84223,-28.56442 29.8424,-28.5646 29.84262,-28.56477 29.84281,-28.56479 29.84292,-28.56484 29.84306,-28.56494 29.84323,-28.56495 29.84347,-28.56489 29.84357,-28.56489 29.84381,-28.56491 29.84391,-28.56491 29.84397,-28.56491 29.84401,-28.56494 29.84408,-28.56506 29.84415,-28.56508 29.84429,-28.56507 29.8444,-28.56501 29.8445,-28.56493 29.84463,-28.56491 29.84469,-28.5649 29.84464,-28.56877 29.8446,-28.57189 29.84461,-28.57192 29.83917,-28.57223 29.83864,-28.57223 29.83658,-28.57223 29.83571,-28.57222 29.8355,-28.5722 29.83546,-28.57221 29.83541,-28.57225 29.8354,-28.57228 29.83536,-28.57231 29.83534,-28.57236 29.83531,-28.57248 29.83527,-28.57256 29.83525,-28.57261 29.83523,-28.57266 29.83523,-28.57274 29.8352,-28.57282 29.83514,-28.57284 29.8349,-28.57295 29.83476,-28.57299 29.83449,-28.57301 29.8343,-28.57301 29.83404,-28.57297 29.83389,-28.57292 29.83373,-28.57347 29.83344,-28.57455 29.8332,-28.57548 29.83304,-28.57608 29.83298,-28.57631 29.8329,-28.57661 29.83253,-28.57814 29.83227,-28.57904 29.83217,-28.57948 29.83163,-28.58157 29.83146,-28.58217 29.83118,-28.58208 29.83054,-28.5819 29.83022,-28.5818 29.83008,-28.58178 29.83,-28.5818 29.82961,-28.58191 29.82951,-28.58195 29.82872,-28.58229 29.82669,-28.58311 29.82622,-28.5834 29.82621,-28.58342 29.82613,-28.58354 29.82609,-28.5836 29.82593,-28.58366 29.82565,-28.58376 29.82554,-28.58379 29.82539,-28.58385 29.8252,-28.58392 29.82488,-28.58405 29.82474,-28.5841 29.82443,-28.58417 29.82416,-28.58425 29.82397,-28.58431 29.82362,-28.58443 29.82339,-28.58451 29.82336,-28.58454 29.82328,-28.58458 29.82323,-28.58465 29.82314,-28.58471 29.82302,-28.58475 29.82282,-28.58483 29.82244,-28.58494 29.82219,-28.58503 29.82202,-28.5851 29.82191,-28.58517 29.82184,-28.58521 29.82175,-28.58522 29.8216,-28.58528 29.82146,-28.58537 29.82127,-28.58551 29.82109,-28.58563 29.82086,-28.58576 29.82066,-28.58591 29.82051,-28.58607 29.82036,-28.58621 29.82028,-28.58626 29.82003,-28.58657 29.81973,-28.58695 29.81937,-28.58742 29.81909,-28.5877 29.81695,-28.58767 29.81599,-28.58775 29.81538,-28.58782 29.8147,-28.58791 29.81424,-28.58784 29.81375,-28.58763 29.81331,-28.58722 29.813,-28.58687 29.81293,-28.58673 29.81274,-28.58639 29.81255,-28.58594 29.81248,-28.58568 29.81247,-28.58548 29.81245,-28.58529 29.81249,-28.58502 29.81256,-28.58483 29.81276,-28.58395 29.81286,-28.58326 29.81308,-28.58254 29.81337,-28.58118 29.81348,-28.58081 29.81341,-28.5805 29.81342,-28.58048 29.81351,-28.5801 29.81365,-28.57981 29.81385,-28.5797 29.8141,-28.57933 29.81445,-28.57889 29.81471,-28.57842 29.81475,-28.57835 29.81486,-28.5781 29.81489,-28.57772 29.81503,-28.57723 29.81512,-28.57701 29.8152,-28.57699 29.81537,-28.57701 29.81568,-28.5769 29.81588,-28.57662 29.81605,-28.57648 29.81617,-28.57644 29.81637,-28.57639 29.81656,-28.5764 29.81677,-28.57638 29.81689,-28.57636 29.81729,-28.57607 29.81762,-28.5758 29.81808,-28.57556 29.81808,-28.57536 29.81785,-28.57452 29.81779,-28.57414 29.8176,-28.57372 29.81748,-28.57317 29.81739,-28.57301 29.81728,-28.57293 29.81713,-28.57286 29.81694,-28.57281 29.81679,-28.57278 29.81652,-28.57275 29.81626,-28.5728 29.81583,-28.57289 29.81555,-28.57301 29.81535,-28.57313 29.81496,-28.57351 29.81445,-28.57404 29.81366,-28.57459 29.81335,-28.5749 29.81305,-28.5754 29.813,-28.57556 29.8122,-28.57819 29.8119,-28.57893 29.81157,-28.57943 29.81109,-28.58 29.81078,-28.58047 29.8104,-28.581 29.80959,-28.58181 29.809,-28.58229 29.8082,-28.58279 29.80783,-28.58305 29.80751,-28.58342 29.80743,-28.58353 29.80715,-28.58379 29.80707,-28.58388 29.80659,-28.58414 29.80636,-28.58417 29.80592,-28.58409 29.80535,-28.58389 29.80451,-28.58342 29.80399,-28.58292 29.80387,-28.5828 29.80338,-28.58241 29.80265,-28.58189 29.8025,-28.58166 29.80198,-28.58093 29.80188,-28.58039 29.80164,-28.57931 29.80164,-28.57877 29.80182,-28.57797 29.8019,-28.5777 29.80207,-28.57755 29.80237,-28.57743 29.8027,-28.57739 29.80299,-28.57739 29.80321,-28.57742 29.80353,-28.57753 29.80386,-28.57765 29.80421,-28.57769 29.80462,-28.57764 29.80542,-28.57741 29.80605,-28.57717 29.80744,-28.57649 29.808,-28.57608 29.80828,-28.57591 29.80867,-28.57549 29.809,-28.57516 29.8093,-28.57485 29.80952,-28.57452 29.80985,-28.57406 29.81,-28.57373 29.81009,-28.57355 29.81023,-28.57303 29.81038,-28.57256 29.81046,-28.57245 29.81065,-28.57226 29.81074,-28.57212 29.81086,-28.57174 29.81111,-28.57122 29.81115,-28.57088 29.81133,-28.57035 29.81186,-28.56956 29.81219,-28.56927 29.81247,-28.56899 29.8127,-28.56865 29.81297,-28.56842 29.81318,-28.5682 29.8136,-28.56776 29.81373,-28.56739 29.81376,-28.56667 29.8136,-28.56596 29.81347,-28.56554 29.81356,-28.56522 29.81358,-28.56498 29.81346,-28.56466 29.81314,-28.56435 29.81277,-28.56397 29.8125,-28.56368 29.81224,-28.5633 29.81194,-28.56308 29.8117,-28.56299 29.81165,-28.56296 29.81143,-28.56281 29.81109,-28.56268 29.8106,-28.56255 29.81008,-28.56241 29.80948,-28.56235 29.80922,-28.56238 29.80891,-28.56252 29.80881,-28.56256 29.80812,-28.56265 29.80744,-28.56277 29.80728,-28.56281 29.80715,-28.56303 29.80704,-28.56323 29.80693,-28.56368 29.80693,-28.56426 29.80684,-28.56459 29.80669,-28.565 29.80645,-28.5653 29.80603,-28.56553 29.80554,-28.56575 29.805,-28.56587 29.80463,-28.56587 29.80399,-28.56587 29.80342,-28.56584 29.80309,-28.56584 29.80296,-28.56574 29.80279,-28.56559 29.80253,-28.56541 29.80202,-28.5651 29.80175,-28.56492 29.80141,-28.56481 29.80122,-28.56455 29.80111,-28.56419 29.80108,-28.56395 29.80117,-28.56336 29.80131,-28.56188 29.80135,-28.56132 29.80135,-28.56119 29.80135,-28.56104 29.80143,-28.56092 29.80149,-28.56082 29.80156,-28.56073 29.80158,-28.56066 29.80169,-28.56033 29.8018,-28.55993 29.80186,-28.55975 29.80271,-28.55749 29.80282,-28.55761 29.8032,-28.55795 29.80347,-28.55814 29.80352,-28.55813 29.80378,-28.55812 29.80422,-28.55815 29.80454,-28.55816 29.80491,-28.55823 29.80542,-28.55842 29.80582,-28.55857 29.80608,-28.55889 29.80621,-28.55902 29.80624,-28.55904 29.80656,-28.5593 29.80667,-28.55936 29.80686,-28.55946 29.80711,-28.55958 29.80757,-28.55972 29.80808,-28.56006 29.80842,-28.56013 29.8089,-28.56016 29.80902,-28.56013 29.80907,-28.56013 29.80937,-28.55997 29.80965,-28.5598 29.80984,-28.55967 29.80952,-28.5592 29.80934,-28.55862 29.80929,-28.55795 29.80925,-28.55777 29.80928,-28.55762 29.80948,-28.55746 29.81031,-28.5571 29.8106,-28.55733 29.81078,-28.5574 29.81107,-28.55739 29.81149,-28.55739 29.81206,-28.55738 29.81302,-28.55734 29.81309,-28.55739 29.81311,-28.55746 29.81308,-28.55754 29.81307,-28.55758 29.8131,-28.55773 29.81319,-28.55798 29.81319,-28.55804 29.81326,-28.55817 29.81328,-28.55848 29.81333,-28.55858 29.81353,-28.55866 29.81368,-28.55877 29.81378,-28.55887 29.81378,-28.55887 29.81392,-28.55893 29.81402,-28.55888 29.81414,-28.55877 29.81422,-28.55859 29.81435,-28.55828 29.81442,-28.55815 29.8145,-28.55806 29.8146,-28.558 29.81461,-28.55798 29.8148,-28.55775 29.81503,-28.55772 29.81545,-28.55773 29.81588,-28.55767 29.81627,-28.55749 29.81654,-28.55725 29.81671,-28.55689 29.81675,-28.55662 29.8169,-28.55628 29.8171,-28.55606 29.81711,-28.55607 29.81711,-28.55604 29.81712,-28.55602 29.81723,-28.55589 29.81749,-28.5558 29.81779,-28.55575 29.81818,-28.55563 29.81889,-28.55537 29.81933,-28.55526 29.81952,-28.55526 29.81996,-28.5553 29.82031,-28.5553 29.82041,-28.55522 29.82047,-28.55515 29.8205,-28.55498 29.82044,-28.55473 29.8203,-28.55445 29.82026,-28.55433 29.82033,-28.55428 29.82054,-28.55416 29.82073,-28.55411 29.82087,-28.55416 29.821,-28.55423 29.82128,-28.55435 29.82147,-28.55433 29.82188,-28.55413 29.82209,-28.55398 29.82238,-28.55376 29.82251,-28.55358 29.82257,-28.55336 29.8227,-28.55315 29.82285,-28.55292 29.82291,-28.55284 29.8231,-28.55261 29.82333,-28.5524 29.82364,-28.55223 29.8238,-28.55221 29.82401,-28.55221 29.82412,-28.55208 29.82423,-28.55191 29.82424,-28.55172 29.82428,-28.55158 29.82456,-28.55136 29.8246,-28.55134 29.82497,-28.55113 29.82529,-28.55089 29.82552,-28.55089 29.82569,-28.5509 29.82589,-28.55095 29.82602,-28.55099 29.82616,-28.55099 29.82622,-28.55093 29.82627,-28.5508 29.82623,-28.55067 29.82625,-28.55063 29.82629,-28.5506 29.8264,-28.55058 29.82649,-28.55055 29.82662,-28.55054 29.82674,-28.55051 29.82681,-28.55045 29.82685,-28.55035 29.82681,-28.5502 29.82665,-28.55004 29.82663,-28.54989 29.82671,-28.54971 29.82692,-28.54947 29.82709,-28.54928 29.82715,-28.54921 29.82748,-28.54892 29.82778,-28.54867 29.82797,-28.54837 29.82836,-28.54853 29.8286,-28.54867 29.82884,-28.54883 29.82925,-28.54908 29.8297,-28.54944 29.83095,-28.55046</coordinates></LinearRing></outerBoundaryIs></Polygon></MultiGeometry></Placemark></Document></kml>