<?xml version="1.0" encoding="UTF-8"?><kml xmlns="http://www.opengis.net/kml/2.2"><Document><Placemark><name>Ezakheni</name><description>Main Place 514019</description><ExtendedData><Data name="code"><value>514019</value></Data><Data name="name"><value>Ezakheni</value></Data><Data name="description"><value>Main Place 514019</value></Data></ExtendedData><MultiGeometry><Polygon><outerBoundaryIs><LinearRing><coordinates>29.85943,-28.55011 29.85957,-28.55032 29.85988,-28.55029 29.86017,-28.55052 29.86034,-28.55071 29.86064,-28.55085 29.86077,-28.55098 29.86085,-28.55105 29.86094,-28.55104 29.86102,-28.55104 29.86109,-28.55104 29.86126,-28.55108 29.86144,-28.55116 29.86159,-28.55118 29.86176,-28.55119 29.86194,-28.55118 29.86215,-28.55116 29.86221,-28.55114 29.86231,-28.55114 29.86241,-28.55118 29.86255,-28.55119 29.86266,-28.55127 29.86276,-28.5513 29.86284,-28.55125 29.86287,-28.55124 29.86289,-28.55155 29.86297,-28.55207 29.86327,-28.5526 29.86366,-28.55262 29.86405,-28.55261 29.8643,-28.55258 29.86455,-28.55259 29.86464,-28.55257 29.86471,-28.55259 29.86478,-28.55268 29.86483,-28.55268 29.86489,-28.55267 29.86496,-28.55267 29.86505,-28.55263 29.86518,-28.55257 29.8653,-28.55255 29.86538,-28.55254 29.86546,-28.55254 29.86556,-28.55254 29.86562,-28.55255 29.86566,-28.55256 29.8657,-28.55259 29.86582,-28.5527 29.86601,-28.55285 29.86606,-28.55293 29.86611,-28.55301 29.86626,-28.55312 29.86635,-28.55319 29.86628,-28.55347 29.8662,-28.55363 29.8662,-28.55374 29.86624,-28.55379 29.86633,-28.55376 29.8664,-28.55376 29.86649,-28.55377 29.86652,-28.5538 29.86652,-28.55391 29.86652,-28.55398 29.86657,-28.55408 29.86672,-28.55418 29.86693,-28.55429 29.86718,-28.55459 29.86649,-28.55532 29.86616,-28.55578 29.86579,-28.55626 29.8655,-28.55673 29.86539,-28.55746 29.86536,-28.55774 29.86539,-28.55792 29.8655,-28.55795 29.86562,-28.558 29.86589,-28.55806 29.86625,-28.55806 29.86655,-28.55806 29.86693,-28.55813 29.86741,-28.55831 29.8679,-28.55855 29.86865,-28.55878 29.86915,-28.55883 29.8696,-28.55899 29.87012,-28.55926 29.87078,-28.55946 29.87109,-28.55957 29.87122,-28.55968 29.87127,-28.55984 29.87138,-28.56031 29.87151,-28.56076 29.87158,-28.56092 29.87166,-28.56179 29.87164,-28.56264 29.87165,-28.56314 29.8716,-28.56368 29.87159,-28.56411 29.87159,-28.56482 29.87165,-28.56553 29.87166,-28.56553 29.87431,-28.56638 29.87675,-28.56711 29.88061,-28.56833 29.8823,-28.56884 29.88293,-28.56867 29.8874,-28.56697 29.88954,-28.56635 29.89681,-28.56296 29.89916,-28.56204 29.9001,-28.56166 29.90376,-28.56018 29.9073,-28.5586 29.9096,-28.55751 29.90969,-28.55775 29.90982,-28.5582 29.91008,-28.55917 29.91045,-28.56037 29.91066,-28.56091 29.9109,-28.56173 29.91108,-28.56234 29.91127,-28.56297 29.91134,-28.56304 29.91187,-28.56327 29.91201,-28.56337 29.91226,-28.56355 29.91251,-28.56369 29.91285,-28.56397 29.91313,-28.56425 29.91333,-28.56458 29.91364,-28.56486 29.91423,-28.56511 29.91498,-28.56527 29.91603,-28.56547 29.91644,-28.56563 29.91607,-28.56701 29.9127,-28.56779 29.91337,-28.56992 29.91337,-28.56992 29.91423,-28.57269 29.91531,-28.57248 29.91721,-28.57213 29.91817,-28.57194 29.91935,-28.57171 29.92165,-28.57128 29.92213,-28.57118 29.92383,-28.57088 29.9255,-28.57056 29.92676,-28.57031 29.92855,-28.56998 29.92985,-28.56973 29.93188,-28.56936 29.93297,-28.56914 29.93431,-28.56891 29.93488,-28.5688 29.93563,-28.56858 29.93601,-28.56844 29.93533,-28.5712 29.93428,-28.57316 29.9337,-28.57446 29.93318,-28.57641 29.93291,-28.57657 29.93225,-28.57694 29.92999,-28.57687 29.92809,-28.57692 29.92742,-28.5773 29.92671,-28.5779 29.92652,-28.57819 29.92628,-28.57828 29.92598,-28.57844 29.92542,-28.57895 29.92485,-28.57963 29.92459,-28.58032 29.92439,-28.58061 29.92401,-28.58109 29.92328,-28.58171 29.92366,-28.58188 29.92452,-28.58224 29.9248,-28.58253 29.92519,-28.58277 29.92563,-28.58298 29.92628,-28.58328 29.92656,-28.58384 29.92666,-28.58417 29.92609,-28.58515 29.92468,-28.58687 29.92391,-28.58876 29.92352,-28.5898 29.9237,-28.59006 29.9234,-28.59069 29.92311,-28.59151 29.92893,-28.59158 29.92933,-28.59158 29.92936,-28.59418 29.92937,-28.59432 29.92958,-28.59447 29.92958,-28.59486 29.92956,-28.59571 29.92971,-28.59573 29.92978,-28.59574 29.92995,-28.59578 29.93015,-28.59585 29.93033,-28.5959 29.93055,-28.596 29.93073,-28.5961 29.93091,-28.59623 29.93107,-28.59633 29.93122,-28.59646 29.93136,-28.59659 29.93155,-28.59682 29.93179,-28.59714 29.93184,-28.59721 29.9322,-28.59779 29.93306,-28.59908 29.9336,-28.5999 29.93368,-28.60002 29.9338,-28.60027 29.93389,-28.60056 29.93396,-28.60074 29.9343,-28.6017 29.93432,-28.60181 29.93431,-28.60193 29.93428,-28.60207 29.93414,-28.60227 29.93401,-28.60236 29.93377,-28.60251 29.93353,-28.60267 29.93332,-28.60283 29.93307,-28.60308 29.93285,-28.60335 29.93263,-28.60364 29.93261,-28.60367 29.93209,-28.60433 29.93149,-28.60512 29.93152,-28.60515 29.93158,-28.6052 29.9319,-28.60538 29.93262,-28.6058 29.93293,-28.60598 29.93345,-28.6063 29.93379,-28.60658 29.93398,-28.6068 29.93414,-28.60705 29.93426,-28.60721 29.9344,-28.60754 29.9345,-28.60784 29.93453,-28.6079 29.93477,-28.60856 29.93491,-28.60894 29.93503,-28.60927 29.93516,-28.60962 29.93572,-28.61117 29.93591,-28.61167 29.93637,-28.61291 29.93675,-28.61392 29.93709,-28.61486 29.93762,-28.61633 29.93776,-28.61668 29.93802,-28.61709 29.93865,-28.61811 29.93898,-28.61863 29.93972,-28.61981 29.93977,-28.6199 29.93986,-28.62005 29.93996,-28.62033 29.94003,-28.62064 29.94009,-28.62096 29.94008,-28.62138 29.94,-28.62171 29.93994,-28.62191 29.9398,-28.62223 29.93969,-28.62239 29.93939,-28.62276 29.93867,-28.62368 29.93807,-28.62446 29.93811,-28.62463 29.93816,-28.6249 29.9381,-28.62512 29.93797,-28.62523 29.93786,-28.62533 29.93776,-28.6254 29.93766,-28.62559 29.93765,-28.62573 29.93761,-28.62588 29.93759,-28.62599 29.93747,-28.62607 29.93736,-28.62612 29.93726,-28.62631 29.93723,-28.6265 29.93723,-28.62652 29.93712,-28.62686 29.93705,-28.62719 29.93706,-28.62727 29.93708,-28.62743 29.93708,-28.62761 29.9371,-28.62771 29.93714,-28.62783 29.93713,-28.62791 29.93707,-28.62807 29.93704,-28.62818 29.93704,-28.62852 29.93709,-28.62876 29.93724,-28.62896 29.93741,-28.62925 29.93755,-28.62945 29.93759,-28.62958 29.93771,-28.62972 29.93774,-28.63 29.93778,-28.63017 29.93769,-28.63029 29.93769,-28.63058 29.93772,-28.63076 29.93777,-28.63089 29.938,-28.631 29.93817,-28.63133 29.93833,-28.63151 29.93848,-28.63169 29.9385,-28.63188 29.93835,-28.63214 29.9381,-28.63242 29.93783,-28.63255 29.9373,-28.63261 29.93707,-28.6326 29.93676,-28.63264 29.93593,-28.63274 29.93465,-28.63292 29.93424,-28.63312 29.93385,-28.63336 29.93285,-28.63458 29.93212,-28.63559 29.93187,-28.63596 29.93151,-28.63634 29.93138,-28.63651 29.93106,-28.63674 29.93079,-28.63701 29.93054,-28.63724 29.93028,-28.63745 29.9299,-28.63764 29.92973,-28.63763 29.9296,-28.63803 29.92903,-28.63867 29.92879,-28.63901 29.92859,-28.63939 29.92821,-28.63964 29.92786,-28.63964 29.92734,-28.63958 29.92662,-28.63961 29.92594,-28.63976 29.92505,-28.64016 29.92394,-28.64004 29.92392,-28.64002 29.92326,-28.63924 29.92277,-28.63871 29.92249,-28.63788 29.92191,-28.63729 29.92158,-28.63671 29.92152,-28.63631 29.92184,-28.63602 29.92229,-28.63558 29.92249,-28.63509 29.92271,-28.63449 29.92263,-28.63413 29.92231,-28.63399 29.92169,-28.63388 29.92061,-28.6339 29.91984,-28.6343 29.91961,-28.63445 29.9194,-28.63459 29.91821,-28.63537 29.91761,-28.63582 29.9163,-28.63731 29.91511,-28.63874 29.91362,-28.64041 29.91306,-28.64134 29.91218,-28.64313 29.91199,-28.64346 29.91177,-28.64376 29.91125,-28.64409 29.91082,-28.6444 29.91082,-28.64472 29.91053,-28.64521 29.90961,-28.64641 29.90872,-28.64703 29.90774,-28.64763 29.9066,-28.64763 29.90593,-28.64748 29.90499,-28.64699 29.90452,-28.64633 29.90442,-28.64584 29.90462,-28.64502 29.90463,-28.644 29.90413,-28.6427 29.90387,-28.6419 29.9029,-28.64111 29.90229,-28.64044 29.90219,-28.63995 29.90254,-28.63828 29.90249,-28.6381 29.90234,-28.63751 29.90215,-28.63761 29.90197,-28.63762 29.90181,-28.63762 29.90176,-28.63772 29.90169,-28.63771 29.90164,-28.63756 29.90146,-28.63749 29.90131,-28.63749 29.90123,-28.63762 29.90116,-28.63771 29.90099,-28.63763 29.90081,-28.63764 29.90067,-28.63767 29.90051,-28.63763 29.90044,-28.63753 29.90034,-28.63746 29.90022,-28.63748 29.8999,-28.63757 29.89969,-28.6377 29.89952,-28.63779 29.89934,-28.63796 29.89923,-28.63817 29.89912,-28.63827 29.89901,-28.63825 29.8988,-28.63808 29.89852,-28.63812 29.89828,-28.63826 29.89807,-28.6384 29.89788,-28.63836 29.89781,-28.6384 29.89759,-28.63852 29.89715,-28.63865 29.89685,-28.63858 29.89673,-28.63865 29.89658,-28.63868 29.89655,-28.63877 29.89661,-28.63884 29.8967,-28.63889 29.8967,-28.63896 29.8967,-28.63907 29.89678,-28.63919 29.89687,-28.63919 29.89695,-28.63925 29.89697,-28.63941 29.8969,-28.63946 29.89674,-28.63953 29.89672,-28.63973 29.89672,-28.63981 29.8966,-28.63989 29.89653,-28.64 29.89653,-28.64009 29.89649,-28.64019 29.89609,-28.64023 29.89601,-28.64035 29.89578,-28.64052 29.8956,-28.64059 29.89555,-28.64063 29.89541,-28.64073 29.89533,-28.64079 29.89513,-28.64099 29.89499,-28.6411 29.89494,-28.64114 29.89482,-28.64131 29.89466,-28.64149 29.89452,-28.6416 29.89449,-28.64178 29.89447,-28.64209 29.89447,-28.64232 29.89448,-28.64252 29.89448,-28.64267 29.89435,-28.64274 29.89405,-28.64279 29.8939,-28.64287 29.89362,-28.64306 29.89341,-28.6432 29.89334,-28.64331 29.89318,-28.64341 29.89291,-28.64335 29.89254,-28.64323 29.89223,-28.64319 29.89182,-28.6431 29.89143,-28.64298 29.8914,-28.64298 29.89124,-28.64293 29.89077,-28.64277 29.88985,-28.64242 29.88898,-28.64212 29.88864,-28.64204 29.88853,-28.64201 29.88821,-28.64197 29.88779,-28.64197 29.88723,-28.64197 29.88614,-28.64197 29.88601,-28.64198 29.88524,-28.64198 29.88462,-28.64195 29.88431,-28.6419 29.88392,-28.6418 29.88369,-28.64175 29.88309,-28.6415 29.88291,-28.64138 29.88264,-28.64122 29.88246,-28.64109 29.88212,-28.64081 29.88185,-28.64055 29.88174,-28.64045 29.88091,-28.63965 29.88017,-28.63893 29.88003,-28.6388 29.87941,-28.63823 29.8789,-28.63785 29.87854,-28.63759 29.87811,-28.63733 29.87773,-28.63713 29.87714,-28.63685 29.87668,-28.63671 29.8766,-28.63663 29.87665,-28.63647 29.87693,-28.63549 29.8771,-28.63489 29.87722,-28.63446 29.87746,-28.63365 29.87794,-28.63193 29.87827,-28.63075 29.87845,-28.63008 29.87855,-28.62961 29.87858,-28.62949 29.87899,-28.62805 29.87915,-28.62743 29.8795,-28.62619 29.87963,-28.62576 29.87972,-28.62541 29.88018,-28.6238 29.88032,-28.62335 29.88045,-28.62281 29.88044,-28.62253 29.88042,-28.62228 29.8801,-28.62074 29.88005,-28.62048 29.88016,-28.62046 29.88112,-28.62029 29.88149,-28.62023 29.88194,-28.62014 29.88253,-28.61997 29.88291,-28.61984 29.88328,-28.6197 29.88332,-28.61968 29.88396,-28.61939 29.88431,-28.61924 29.88449,-28.61917 29.88516,-28.61888 29.88543,-28.61876 29.88593,-28.61853 29.88642,-28.61832 29.8872,-28.61798 29.88756,-28.61782 29.88848,-28.6174 29.88885,-28.61724 29.88958,-28.61691 29.8902,-28.61665 29.89052,-28.6165 29.89095,-28.61632 29.89172,-28.61598 29.89207,-28.61584 29.89368,-28.61843 29.89426,-28.61836 29.89483,-28.61844 29.89561,-28.6188 29.89609,-28.619 29.89657,-28.61926 29.89701,-28.61926 29.89762,-28.61912 29.89817,-28.61876 29.89882,-28.61846 29.89923,-28.6183 29.89953,-28.61782 29.90017,-28.61704 29.90078,-28.61622 29.90174,-28.61523 29.90232,-28.61415 29.90305,-28.6126 29.90364,-28.61179 29.90413,-28.61076 29.90408,-28.60999 29.90381,-28.60946 29.90282,-28.60903 29.90209,-28.60901 29.9012,-28.60916 29.89991,-28.60926 29.89925,-28.60962 29.89872,-28.60994 29.89822,-28.61033 29.89792,-28.61049 29.89772,-28.61072 29.89721,-28.61127 29.89655,-28.61147 29.89582,-28.61127 29.89522,-28.61099 29.89493,-28.61056 29.89442,-28.61006 29.89367,-28.60924 29.89303,-28.6088 29.89281,-28.60874 29.89228,-28.60905 29.89183,-28.60896 29.89117,-28.60861 29.89067,-28.60826 29.89054,-28.60827 29.88997,-28.60829 29.88881,-28.60846 29.88721,-28.60848 29.88514,-28.60855 29.88495,-28.60855 29.88394,-28.60864 29.88316,-28.60875 29.88243,-28.60907 29.88208,-28.60935 29.88192,-28.60974 29.88218,-28.61017 29.88186,-28.61061 29.88188,-28.61132 29.88209,-28.61177 29.88206,-28.61235 29.88172,-28.61363 29.88124,-28.61445 29.88035,-28.61567 29.87984,-28.61594 29.87911,-28.61596 29.87773,-28.61571 29.87648,-28.61544 29.87551,-28.61523 29.87393,-28.61461 29.8733,-28.61409 29.87297,-28.61358 29.87284,-28.61299 29.87282,-28.61223 29.87252,-28.61182 29.87222,-28.61145 29.87194,-28.61141 29.87089,-28.61161 29.86979,-28.61186 29.86888,-28.61212 29.86803,-28.61248 29.86739,-28.61253 29.86663,-28.61248 29.86563,-28.61241 29.86442,-28.61209 29.86348,-28.61212 29.86235,-28.61255 29.86116,-28.61301 29.85966,-28.61376 29.85894,-28.61393 29.85855,-28.61392 29.85821,-28.61338 29.85817,-28.61283 29.85887,-28.61205 29.86009,-28.61111 29.86156,-28.61063 29.86245,-28.61024 29.86419,-28.60951 29.86499,-28.60905 29.86535,-28.60852 29.86519,-28.60809 29.86492,-28.60772 29.86425,-28.60722 29.86574,-28.60585 29.86578,-28.60486 29.86596,-28.60017 29.86328,-28.59538 29.86301,-28.59489 29.86198,-28.59307 29.86044,-28.59031 29.85949,-28.5896 29.85388,-28.58542 29.85069,-28.58304 29.85006,-28.58188 29.84867,-28.57935 29.8484,-28.57886 29.84522,-28.57303 29.84461,-28.57192 29.8446,-28.57189 29.84464,-28.56877 29.84469,-28.5649 29.84469,-28.56486 29.84471,-28.56361 29.84474,-28.56185 29.84474,-28.56181 29.84474,-28.5618 29.84475,-28.56121 29.8448,-28.55889 29.84491,-28.55397 29.84483,-28.55387 29.84623,-28.55345 29.84935,-28.5525 29.85314,-28.55126 29.85353,-28.55117 29.85382,-28.55095 29.85394,-28.55089 29.85407,-28.55086 29.85417,-28.55085 29.8543,-28.55086 29.85442,-28.55088 29.85446,-28.55088 29.85452,-28.55088 29.85465,-28.5508 29.85479,-28.55068 29.85488,-28.55062 29.85514,-28.55061 29.85532,-28.55062 29.85562,-28.55064 29.85643,-28.55047 29.85789,-28.54993 29.85895,-28.5499 29.85943,-28.55011</coordinates></LinearRing></outerBoundaryIs></Polygon></MultiGeometry></Placemark></Document></kml>