<?xml version="1.0" encoding="UTF-8"?><kml xmlns="http://www.opengis.net/kml/2.2"><Document><Placemark><name>Limit Hill</name><description>Sub Place 514018014</description><ExtendedData><Data name="code"><value>514018014</value></Data><Data name="name"><value>Limit Hill</value></Data><Data name="description"><value>Sub Place 514018014</value></Data></ExtendedData><MultiGeometry><Polygon><outerBoundaryIs><LinearRing><coordinates>29.81555,-28.53183 29.81587,-28.53186 29.81597,-28.53186 29.81604,-28.53187 29.8161,-28.53189 29.81622,-28.53195 29.81645,-28.53203 29.81655,-28.53208 29.81669,-28.53214 29.81706,-28.53226 29.81717,-28.5323 29.81722,-28.53235 29.81727,-28.53246 29.81733,-28.53258 29.81738,-28.53268 29.81737,-28.53276 29.81731,-28.53289 29.81309,-28.53695 29.81291,-28.5369 29.8125,-28.53682 29.81225,-28.53677 29.81213,-28.53678 29.81196,-28.53683 29.81182,-28.53697 29.81173,-28.53702 29.81162,-28.53705 29.81154,-28.537 29.81142,-28.53688 29.81134,-28.53681 29.81128,-28.53678 29.81117,-28.53676 29.8111,-28.53679 29.81107,-28.53686 29.81106,-28.53701 29.81101,-28.53707 29.81088,-28.53711 29.81069,-28.53707 29.81056,-28.53699 29.81041,-28.537 29.81017,-28.53709 29.80964,-28.53756 29.80872,-28.53841 29.80831,-28.53882 29.8083,-28.53882 29.80816,-28.53895 29.80786,-28.53915 29.80687,-28.54004 29.80563,-28.54105 29.80531,-28.54127 29.80374,-28.53976 29.80219,-28.53834 29.80137,-28.53759 29.80125,-28.53748 29.80067,-28.53695 29.80052,-28.53683 29.80091,-28.53648 29.80155,-28.53594 29.80228,-28.53531 29.80358,-28.53422 29.80391,-28.53393 29.80452,-28.53343 29.80526,-28.53278 29.80611,-28.53203 29.80619,-28.53196 29.80621,-28.53193 29.8064,-28.53177 29.80693,-28.53132 29.80742,-28.53092 29.80787,-28.53059 29.80827,-28.53034 29.80877,-28.53004 29.809,-28.52989 29.80952,-28.52956 29.81022,-28.52913 29.81156,-28.52829 29.81212,-28.52793 29.81237,-28.52798 29.81242,-28.52808 29.81259,-28.52835 29.81269,-28.52846 29.81283,-28.52863 29.81291,-28.52873 29.81293,-28.52888 29.81297,-28.52894 29.81303,-28.52901 29.81307,-28.5291 29.81307,-28.52923 29.81303,-28.52942 29.81301,-28.52956 29.81304,-28.52962 29.81313,-28.52975 29.81321,-28.52986 29.81328,-28.52999 29.81334,-28.53015 29.81343,-28.5303 29.81351,-28.53041 29.81364,-28.53054 29.81376,-28.53071 29.81388,-28.53094 29.81396,-28.53115 29.81405,-28.53135 29.81411,-28.53138 29.81417,-28.5314 29.81442,-28.53149 29.81445,-28.53151 29.81462,-28.53157 29.81504,-28.53169 29.81529,-28.53175 29.81555,-28.53183</coordinates></LinearRing></outerBoundaryIs></Polygon></MultiGeometry></Placemark></Document></kml>