<?xml version="1.0" encoding="UTF-8"?><kml xmlns="http://www.opengis.net/kml/2.2"><Document><Placemark><name>uMhlathuze</name><description>Local Municipality 538</description><ExtendedData><Data name="code"><value>538</value></Data><Data name="name"><value>uMhlathuze</value></Data><Data name="description"><value>Local Municipality 538</value></Data></ExtendedData><MultiGeometry><Polygon><outerBoundaryIs><LinearRing><coordinates>31.75684,-28.91594 31.75634,-28.91618 31.75536,-28.91662 31.75345,-28.91748 31.75155,-28.91835 31.74964,-28.91921 31.74946,-28.9193 31.74905,-28.91886 31.74855,-28.91871 31.7482,-28.91866 31.74785,-28.91879 31.74757,-28.91904 31.74747,-28.91913 31.74703,-28.91957 31.74676,-28.91979 31.74628,-28.9198 31.74613,-28.91973 31.74601,-28.91934 31.74586,-28.91914 31.74545,-28.91899 31.74491,-28.91875 31.7446,-28.91851 31.74417,-28.91845 31.74401,-28.91846 31.74392,-28.91853 31.74391,-28.91874 31.74408,-28.91915 31.74414,-28.91938 31.74405,-28.91951 31.74394,-28.91959 31.74382,-28.91961 31.74372,-28.91959 31.74357,-28.9194 31.74329,-28.91909 31.74306,-28.91891 31.7428,-28.91878 31.74245,-28.91877 31.74205,-28.9188 31.74144,-28.91902 31.741,-28.9192 31.74061,-28.91938 31.74036,-28.91954 31.74033,-28.91965 31.74036,-28.91974 31.7403,-28.92002 31.74019,-28.92014 31.73997,-28.92017 31.73987,-28.92018 31.73968,-28.92014 31.73949,-28.91993 31.73913,-28.91953 31.73848,-28.91892 31.73815,-28.9186 31.7379,-28.91834 31.73777,-28.91826 31.73769,-28.91823 31.73761,-28.91826 31.73752,-28.91838 31.7374,-28.91858 31.7373,-28.91868 31.73722,-28.91873 31.73713,-28.91877 31.73705,-28.91876 31.73697,-28.91873 31.73688,-28.91869 31.73685,-28.91862 31.73676,-28.91849 31.7366,-28.91836 31.73624,-28.91827 31.73592,-28.91821 31.7356,-28.9181 31.73536,-28.918 31.73519,-28.91796 31.73495,-28.91804 31.73455,-28.91829 31.7341,-28.91851 31.7338,-28.91861 31.73354,-28.91864 31.73331,-28.91859 31.7332,-28.91854 31.73308,-28.91834 31.73298,-28.91799 31.73298,-28.91782 31.73286,-28.91766 31.73269,-28.91751 31.73254,-28.91743 31.73238,-28.91746 31.73231,-28.91757 31.73223,-28.9177 31.73211,-28.91778 31.7319,-28.9177 31.73157,-28.91758 31.73129,-28.91749 31.73108,-28.91737 31.7307,-28.9172 31.73044,-28.91709 31.73028,-28.9171 31.73022,-28.91718 31.73025,-28.91736 31.73029,-28.9175 31.73015,-28.9177 31.72999,-28.91789 31.7298,-28.91797 31.72957,-28.91805 31.72927,-28.91823 31.72898,-28.91842 31.72868,-28.91849 31.72846,-28.91859 31.72829,-28.91857 31.72817,-28.91841 31.72809,-28.91822 31.72793,-28.91798 31.72775,-28.91774 31.72766,-28.91753 31.72761,-28.91729 31.72749,-28.91718 31.72728,-28.91716 31.72709,-28.91721 31.72698,-28.91726 31.72695,-28.91741 31.72682,-28.91744 31.72671,-28.91737 31.72648,-28.91724 31.72625,-28.91717 31.72614,-28.91714 31.72592,-28.91704 31.72582,-28.91702 31.72572,-28.91706 31.72565,-28.91715 31.72556,-28.91729 31.7254,-28.91746 31.72515,-28.91771 31.72504,-28.91788 31.72494,-28.91797 31.7248,-28.91794 31.72473,-28.91781 31.72478,-28.91767 31.72481,-28.91751 31.72474,-28.91739 31.72461,-28.91733 31.7244,-28.91731 31.72412,-28.91726 31.72382,-28.91725 31.72348,-28.91728 31.72333,-28.91727 31.72315,-28.91721 31.72291,-28.9172 31.72262,-28.91718 31.72252,-28.91719 31.72235,-28.91722 31.72219,-28.91714 31.72204,-28.917 31.72185,-28.91699 31.72168,-28.91693 31.72138,-28.91689 31.72114,-28.91684 31.72094,-28.9168 31.72078,-28.91681 31.72065,-28.91693 31.72052,-28.91708 31.72035,-28.91727 31.72014,-28.91741 31.71999,-28.91758 31.71986,-28.91784 31.71976,-28.91803 31.71978,-28.9181 31.71976,-28.91816 31.71966,-28.91825 31.71927,-28.91845 31.7191,-28.91851 31.71892,-28.9186 31.71865,-28.91865 31.71847,-28.91872 31.71815,-28.9188 31.7179,-28.91897 31.71757,-28.91909 31.71732,-28.91904 31.71694,-28.91896 31.71673,-28.91888 31.71643,-28.91876 31.71619,-28.91866 31.71598,-28.91851 31.71572,-28.91833 31.71561,-28.9182 31.71533,-28.91787 31.71503,-28.91759 31.71482,-28.91736 31.7147,-28.91722 31.71451,-28.91695 31.71419,-28.91666 31.71381,-28.91632 31.71366,-28.91614 31.71348,-28.916 31.7133,-28.91574 31.71314,-28.91551 31.71288,-28.91524 31.71247,-28.91494 31.71217,-28.91482 31.71195,-28.91472 31.71166,-28.91466 31.71155,-28.91466 31.71145,-28.91477 31.7114,-28.91484 31.71119,-28.91492 31.711,-28.9149 31.71079,-28.91479 31.71062,-28.9147 31.71014,-28.9146 31.70992,-28.91463 31.70984,-28.91479 31.70979,-28.91434 31.71014,-28.91407 31.71054,-28.91375 31.71084,-28.91333 31.71108,-28.91283 31.71101,-28.91233 31.71123,-28.91192 31.71118,-28.91158 31.71083,-28.91121 31.71037,-28.91091 31.70987,-28.91076 31.70904,-28.91084 31.70858,-28.91091 31.70832,-28.91075 31.70822,-28.91029 31.70814,-28.90964 31.70791,-28.90922 31.70746,-28.90921 31.70691,-28.9094 31.70614,-28.90967 31.70594,-28.90944 31.70578,-28.90872 31.70578,-28.90853 31.70687,-28.90724 31.70844,-28.90594 31.71047,-28.90502 31.71229,-28.90302 31.71443,-28.9026 31.71773,-28.90205 31.71829,-28.90066 31.71917,-28.90038 31.72015,-28.89936 31.72116,-28.90022 31.72192,-28.90041 31.7227,-28.89975 31.72414,-28.8994 31.72496,-28.89971 31.72562,-28.89938 31.72661,-28.89679 31.72652,-28.89582 31.72851,-28.89439 31.73144,-28.89388 31.73567,-28.89152 31.73574,-28.89129 31.73611,-28.89018 31.73788,-28.88919 31.73986,-28.88855 31.74036,-28.88835 31.74378,-28.8844 31.7455,-28.88342 31.74577,-28.88236 31.74645,-28.8815 31.74662,-28.88128 31.74701,-28.88033 31.7473,-28.87935 31.75043,-28.87919 31.75143,-28.87917 31.75167,-28.87857 31.75159,-28.87829 31.75084,-28.87821 31.74998,-28.8783 31.74971,-28.87806 31.7496,-28.87769 31.74964,-28.87727 31.74982,-28.8768 31.7499,-28.87646 31.7496,-28.87594 31.74931,-28.87531 31.74914,-28.87473 31.7489,-28.87392 31.74867,-28.87357 31.74837,-28.87352 31.74784,-28.87388 31.74761,-28.87386 31.74752,-28.87358 31.74776,-28.87275 31.74798,-28.87246 31.74845,-28.87202 31.74851,-28.87176 31.74917,-28.87154 31.75002,-28.87144 31.75069,-28.8713 31.75227,-28.87097 31.75318,-28.87137 31.75418,-28.87104 31.7548,-28.86982 31.75559,-28.86792 31.75515,-28.86541 31.75535,-28.86452 31.75603,-28.86467 31.7564,-28.86493 31.7573,-28.86504 31.75785,-28.86515 31.75852,-28.8652 31.75887,-28.86528 31.75933,-28.86504 31.75997,-28.86538 31.7606,-28.86539 31.76086,-28.86555 31.76101,-28.86614 31.76119,-28.8667 31.76148,-28.8665 31.76157,-28.86592 31.76214,-28.86554 31.76262,-28.86525 31.76292,-28.8649 31.76312,-28.86441 31.76336,-28.86373 31.7637,-28.86326 31.76396,-28.8628 31.76445,-28.86203 31.76459,-28.8616 31.76477,-28.86113 31.76492,-28.86055 31.76501,-28.8601 31.76499,-28.8596 31.76521,-28.85872 31.76545,-28.85781 31.76561,-28.85713 31.76565,-28.85652 31.7665,-28.85272 31.76685,-28.85267 31.76753,-28.85251 31.76834,-28.85237 31.76926,-28.85241 31.76943,-28.85234 31.7698,-28.8526 31.76955,-28.853 31.76958,-28.8533 31.76987,-28.85339 31.77044,-28.85326 31.77095,-28.85297 31.77103,-28.85281 31.77096,-28.85266 31.77115,-28.85249 31.77137,-28.85202 31.77223,-28.85205 31.77256,-28.85199 31.77285,-28.85173 31.77356,-28.85164 31.77396,-28.85155 31.77447,-28.85152 31.77497,-28.85133 31.77543,-28.85129 31.77601,-28.85139 31.77608,-28.85101 31.77682,-28.85101 31.77711,-28.85097 31.77758,-28.85071 31.77766,-28.8507 31.77801,-28.85063 31.77853,-28.85063 31.77935,-28.85062 31.77972,-28.85044 31.78024,-28.85001 31.78009,-28.84942 31.78018,-28.84899 31.78023,-28.84879 31.78044,-28.84869 31.78061,-28.84873 31.78071,-28.84875 31.78084,-28.84878 31.78145,-28.84893 31.78209,-28.8492 31.78273,-28.84935 31.78351,-28.84924 31.78408,-28.84901 31.78482,-28.84917 31.78508,-28.84913 31.78538,-28.84893 31.78636,-28.8487 31.78708,-28.84826 31.78731,-28.84825 31.78748,-28.84824 31.78776,-28.84836 31.7879,-28.84875 31.78799,-28.84927 31.78798,-28.84978 31.78808,-28.85022 31.78833,-28.85061 31.78879,-28.85113 31.78872,-28.85162 31.78864,-28.85194 31.78842,-28.85224 31.78857,-28.85261 31.78996,-28.85193 31.79129,-28.85161 31.79235,-28.85052 31.79294,-28.84989 31.79394,-28.84897 31.79446,-28.84839 31.79499,-28.84847 31.79545,-28.84808 31.79586,-28.84786 31.79696,-28.84666 31.79733,-28.84644 31.79832,-28.84577 31.79912,-28.846 31.79941,-28.8462 31.79956,-28.8463 31.79973,-28.8463 31.80134,-28.84627 31.80333,-28.84902 31.80481,-28.85053 31.8108,-28.848 31.81515,-28.84609 31.81763,-28.84364 31.81773,-28.84358 31.82047,-28.84198 31.82392,-28.8369 31.8323,-28.83156 31.83402,-28.82643 31.83458,-28.82478 31.83438,-28.82443 31.83402,-28.82416 31.83389,-28.82407 31.83374,-28.82397 31.83366,-28.82393 31.83354,-28.82385 31.83341,-28.82378 31.83295,-28.82385 31.83265,-28.82374 31.83236,-28.82362 31.83203,-28.82352 31.83171,-28.82342 31.83138,-28.82331 31.83098,-28.82317 31.83067,-28.82308 31.83026,-28.82293 31.82992,-28.82285 31.82961,-28.82278 31.82928,-28.82271 31.82896,-28.82261 31.82848,-28.82245 31.8282,-28.82227 31.82796,-28.82203 31.82783,-28.82173 31.82772,-28.82139 31.82764,-28.82108 31.8276,-28.82072 31.82757,-28.82038 31.82754,-28.81997 31.82754,-28.81898 31.82757,-28.81856 31.82759,-28.81822 31.82759,-28.81724 31.82758,-28.81672 31.82758,-28.81634 31.82756,-28.81593 31.82754,-28.81547 31.82752,-28.81514 31.82747,-28.81471 31.82743,-28.81414 31.8274,-28.81371 31.82735,-28.81327 31.82731,-28.81269 31.82725,-28.81206 31.82716,-28.81151 31.82709,-28.81089 31.827,-28.8102 31.82689,-28.80951 31.82685,-28.80919 31.82682,-28.80897 31.82682,-28.80829 31.82688,-28.80786 31.82695,-28.80757 31.82697,-28.80729 31.82701,-28.807 31.82701,-28.80662 31.82696,-28.8063 31.82693,-28.80609 31.82685,-28.80584 31.82675,-28.80554 31.82654,-28.8051 31.82635,-28.80466 31.82621,-28.80422 31.82608,-28.80384 31.82595,-28.80333 31.82581,-28.80282 31.8257,-28.80235 31.82568,-28.80233 31.82558,-28.80196 31.82545,-28.80155 31.82532,-28.80125 31.82513,-28.80076 31.82495,-28.80028 31.82477,-28.79984 31.82464,-28.79956 31.82447,-28.79921 31.82426,-28.79882 31.82403,-28.79847 31.82388,-28.79819 31.82355,-28.79765 31.82321,-28.79707 31.82298,-28.79671 31.82275,-28.79649 31.82244,-28.79608 31.82196,-28.79542 31.8215,-28.79483 31.8211,-28.79429 31.82081,-28.79387 31.82054,-28.79348 31.82018,-28.79304 31.81981,-28.79268 31.81934,-28.7923 31.81931,-28.79229 31.81907,-28.79213 31.81875,-28.79194 31.8185,-28.79172 31.81829,-28.79155 31.81812,-28.79134 31.81793,-28.79098 31.81778,-28.79068 31.81772,-28.7905 31.81769,-28.79025 31.81766,-28.78991 31.81766,-28.78912 31.81771,-28.78874 31.8178,-28.78835 31.8179,-28.78791 31.81799,-28.78754 31.81811,-28.78717 31.8182,-28.78677 31.81831,-28.78636 31.81842,-28.78603 31.81854,-28.78562 31.81855,-28.78559 31.81865,-28.78527 31.8187,-28.78499 31.81875,-28.78464 31.81882,-28.78418 31.81887,-28.78386 31.81892,-28.78359 31.81895,-28.78337 31.81905,-28.78279 31.8191,-28.78235 31.81916,-28.78203 31.81922,-28.78181 31.81932,-28.78157 31.81945,-28.78127 31.8196,-28.78094 31.81976,-28.7806 31.81992,-28.78029 31.82016,-28.77983 31.82038,-28.7794 31.82063,-28.77899 31.82091,-28.77844 31.82112,-28.77806 31.82129,-28.77769 31.82144,-28.77738 31.82161,-28.77684 31.82181,-28.77627 31.82199,-28.7758 31.82214,-28.77531 31.82227,-28.77492 31.82238,-28.7746 31.82264,-28.77386 31.82281,-28.77335 31.82293,-28.773 31.82307,-28.77273 31.82321,-28.7723 31.8233,-28.77199 31.8233,-28.77167 31.82318,-28.77135 31.82299,-28.77099 31.82265,-28.77054 31.82249,-28.77032 31.82226,-28.77005 31.82202,-28.76974 31.82179,-28.76952 31.82154,-28.76929 31.82121,-28.76902 31.82086,-28.76877 31.82037,-28.76844 31.81987,-28.76816 31.81943,-28.76797 31.8186,-28.7676 31.81801,-28.76727 31.81757,-28.76706 31.81727,-28.76695 31.81688,-28.76683 31.81644,-28.7667 31.81597,-28.76662 31.81561,-28.76656 31.81531,-28.76654 31.81497,-28.76648 31.81443,-28.76647 31.81391,-28.76645 31.81353,-28.76647 31.81323,-28.76656 31.81289,-28.76672 31.81263,-28.76687 31.81238,-28.76703 31.8122,-28.76723 31.81215,-28.76729 31.81182,-28.76779 31.81154,-28.76817 31.81125,-28.76871 31.811,-28.76923 31.81073,-28.76979 31.81051,-28.77029 31.81033,-28.77065 31.81014,-28.77111 31.80982,-28.77184 31.80952,-28.77247 31.80934,-28.77289 31.80907,-28.77337 31.80879,-28.77391 31.80853,-28.77438 31.80809,-28.7752 31.80783,-28.77575 31.80753,-28.77626 31.80727,-28.77681 31.80699,-28.77726 31.8068,-28.77759 31.80661,-28.77784 31.80637,-28.77813 31.80611,-28.77838 31.80584,-28.77859 31.80567,-28.77872 31.80542,-28.77885 31.80515,-28.77896 31.80486,-28.77907 31.80457,-28.77916 31.80429,-28.77927 31.80398,-28.77938 31.80362,-28.77953 31.80337,-28.77968 31.80302,-28.77981 31.80251,-28.77995 31.80202,-28.78008 31.80158,-28.78018 31.80116,-28.78021 31.80072,-28.78023 31.80034,-28.78023 31.79984,-28.78016 31.79935,-28.78016 31.79903,-28.78013 31.79861,-28.78014 31.79827,-28.78013 31.7978,-28.78013 31.79734,-28.78012 31.79696,-28.7801 31.79648,-28.78004 31.79591,-28.77998 31.7956,-28.77995 31.79522,-28.77993 31.79476,-28.77989 31.79435,-28.77983 31.79387,-28.77977 31.79347,-28.77968 31.79302,-28.77956 31.79269,-28.77943 31.79229,-28.77934 31.79179,-28.77921 31.79134,-28.77912 31.79085,-28.77903 31.79044,-28.77901 31.78995,-28.77897 31.78948,-28.77895 31.78908,-28.7789 31.78862,-28.77877 31.78812,-28.77859 31.78764,-28.77841 31.78722,-28.77826 31.78682,-28.77812 31.78637,-28.77794 31.78588,-28.7777 31.78537,-28.77747 31.78494,-28.77727 31.78455,-28.77709 31.7841,-28.77682 31.78402,-28.77677 31.78374,-28.77657 31.78332,-28.7763 31.78292,-28.77598 31.78263,-28.77576 31.78232,-28.77551 31.78211,-28.77531 31.78179,-28.77502 31.78142,-28.77465 31.78111,-28.77438 31.7808,-28.77404 31.78044,-28.77366 31.78015,-28.77332 31.77985,-28.77299 31.77961,-28.77274 31.7793,-28.77241 31.77909,-28.77213 31.77877,-28.77175 31.77848,-28.7714 31.77821,-28.77109 31.77792,-28.77071 31.77762,-28.7703 31.77739,-28.76991 31.77712,-28.76953 31.77684,-28.76909 31.77659,-28.76879 31.77636,-28.76852 31.77606,-28.76824 31.77576,-28.76794 31.77545,-28.76768 31.7752,-28.76746 31.77484,-28.76722 31.77454,-28.76703 31.77427,-28.76689 31.77401,-28.76677 31.77374,-28.7667 31.77336,-28.76661 31.773,-28.76658 31.77248,-28.76655 31.77215,-28.7666 31.77184,-28.76671 31.77162,-28.7669 31.77134,-28.76717 31.77109,-28.76746 31.77085,-28.76792 31.77057,-28.76829 31.77028,-28.76877 31.76991,-28.76937 31.76964,-28.76981 31.76939,-28.77017 31.76912,-28.77057 31.76881,-28.77095 31.76874,-28.77105 31.76847,-28.77131 31.76802,-28.77167 31.76776,-28.77188 31.76736,-28.77217 31.76693,-28.77232 31.76643,-28.77249 31.76588,-28.77263 31.76539,-28.77274 31.76493,-28.77283 31.76439,-28.77292 31.76379,-28.77303 31.76324,-28.77306 31.76272,-28.77307 31.76166,-28.77317 31.76109,-28.77318 31.76049,-28.77322 31.75977,-28.77325 31.75922,-28.77329 31.75861,-28.77331 31.75799,-28.77331 31.7573,-28.77336 31.7569,-28.77339 31.75647,-28.77336 31.75608,-28.77333 31.75574,-28.77327 31.75536,-28.77318 31.75514,-28.77305 31.75496,-28.77291 31.75473,-28.77268 31.75451,-28.77244 31.75441,-28.77231 31.75436,-28.77226 31.75427,-28.77204 31.75419,-28.77178 31.75408,-28.77141 31.75403,-28.77111 31.75397,-28.77079 31.7539,-28.77029 31.75388,-28.76975 31.75391,-28.76912 31.75394,-28.76877 31.75408,-28.76831 31.75427,-28.7678 31.75447,-28.76733 31.75466,-28.76696 31.75492,-28.7666 31.75523,-28.76624 31.75551,-28.76589 31.75578,-28.7656 31.75615,-28.76529 31.75646,-28.76509 31.75668,-28.76495 31.75704,-28.76484 31.75754,-28.76472 31.75796,-28.76463 31.7585,-28.76457 31.75902,-28.76448 31.75946,-28.76445 31.76012,-28.76429 31.76055,-28.76421 31.76099,-28.76415 31.76149,-28.76408 31.762,-28.76403 31.76267,-28.76397 31.76325,-28.76389 31.76392,-28.76379 31.76439,-28.76375 31.76508,-28.76364 31.76556,-28.76355 31.76618,-28.76346 31.7667,-28.76333 31.76717,-28.76323 31.76762,-28.76308 31.76805,-28.76291 31.7683,-28.76277 31.76864,-28.7626 31.76889,-28.76241 31.769,-28.76227 31.76918,-28.76201 31.76934,-28.76185 31.76964,-28.76154 31.76994,-28.76118 31.77019,-28.7609 31.77047,-28.76064 31.77072,-28.76037 31.77093,-28.76015 31.77109,-28.75996 31.77116,-28.75975 31.77116,-28.7595 31.77112,-28.7593 31.771,-28.75916 31.77079,-28.75902 31.77046,-28.75883 31.76989,-28.75859 31.7693,-28.7584 31.7687,-28.75832 31.76834,-28.75824 31.76797,-28.75818 31.7675,-28.75805 31.76707,-28.75794 31.76661,-28.75782 31.76613,-28.75771 31.76567,-28.75759 31.76513,-28.75746 31.76461,-28.75737 31.76414,-28.75733 31.76379,-28.7573 31.76339,-28.75728 31.76295,-28.75726 31.76255,-28.7572 31.7621,-28.75715 31.76205,-28.75691 31.76201,-28.75668 31.76196,-28.75647 31.76196,-28.7563 31.76199,-28.75618 31.76204,-28.75609 31.76216,-28.75599 31.76239,-28.75581 31.76248,-28.75574 31.76255,-28.75571 31.7627,-28.75568 31.76292,-28.75566 31.76311,-28.75559 31.76324,-28.75544 31.76345,-28.75534 31.7637,-28.75527 31.76386,-28.75521 31.76405,-28.75507 31.76426,-28.7549 31.76436,-28.75465 31.76441,-28.75438 31.76442,-28.7541 31.76442,-28.75365 31.76464,-28.75329 31.76482,-28.7531 31.76498,-28.75301 31.76517,-28.753 31.76535,-28.75301 31.76553,-28.75295 31.76562,-28.75293 31.76576,-28.75273 31.76594,-28.75256 31.76609,-28.75244 31.76623,-28.7524 31.76694,-28.7524 31.76718,-28.75234 31.76737,-28.75216 31.76754,-28.75189 31.76759,-28.75181 31.76774,-28.7516 31.76793,-28.75129 31.7681,-28.75101 31.76835,-28.75073 31.76859,-28.75038 31.76882,-28.75005 31.76913,-28.74972 31.76937,-28.74938 31.76953,-28.7491 31.7696,-28.74901 31.76966,-28.74891 31.76969,-28.74877 31.76974,-28.74839 31.76981,-28.74792 31.76987,-28.74748 31.76994,-28.74709 31.76999,-28.74689 31.76997,-28.74667 31.7699,-28.7464 31.76984,-28.74608 31.76984,-28.7458 31.76994,-28.74556 31.77031,-28.74542 31.77059,-28.74536 31.77083,-28.74524 31.77106,-28.74517 31.77133,-28.74496 31.77158,-28.74469 31.77162,-28.74431 31.77162,-28.74402 31.77164,-28.74359 31.77171,-28.74343 31.77192,-28.74303 31.77198,-28.74277 31.77215,-28.74247 31.77219,-28.74233 31.77221,-28.7423 31.77197,-28.74232 31.77153,-28.74236 31.77159,-28.74227 31.77544,-28.7376 31.77957,-28.73256 31.78324,-28.72809 31.78356,-28.72766 31.78362,-28.72758 31.78409,-28.72701 31.78806,-28.72222 31.7967,-28.71594 31.80451,-28.71027 31.80536,-28.70965 31.81362,-28.70365 31.81372,-28.70355 31.81375,-28.70355 31.81397,-28.70358 31.81424,-28.70357 31.81453,-28.70359 31.81473,-28.70361 31.81494,-28.70361 31.81517,-28.70363 31.81538,-28.70367 31.81564,-28.70372 31.81583,-28.70378 31.81601,-28.70385 31.81617,-28.7039 31.81634,-28.70396 31.81654,-28.70403 31.81676,-28.70406 31.81709,-28.70409 31.81738,-28.70412 31.81764,-28.70412 31.81801,-28.70406 31.81821,-28.70403 31.81856,-28.70396 31.81871,-28.70392 31.81896,-28.70389 31.81922,-28.70391 31.81942,-28.704 31.81966,-28.70415 31.81987,-28.70424 31.82012,-28.70442 31.8203,-28.7045 31.82057,-28.70454 31.82089,-28.70454 31.82124,-28.70447 31.82154,-28.70436 31.82192,-28.7042 31.82219,-28.70417 31.82253,-28.70417 31.82285,-28.70423 31.82305,-28.70428 31.82315,-28.70429 31.82329,-28.70443 31.82338,-28.70457 31.82354,-28.70475 31.82369,-28.70494 31.82387,-28.7051 31.82398,-28.70521 31.82417,-28.7053 31.8244,-28.70535 31.82473,-28.70535 31.82509,-28.70522 31.82541,-28.70513 31.82571,-28.70515 31.82605,-28.70517 31.82639,-28.70526 31.82663,-28.70543 31.82681,-28.70554 31.827,-28.70564 31.82713,-28.70573 31.82728,-28.7059 31.82743,-28.706 31.82778,-28.70597 31.82799,-28.70597 31.82829,-28.70601 31.8285,-28.70601 31.82869,-28.70608 31.82891,-28.70617 31.82911,-28.70631 31.82932,-28.70647 31.8297,-28.70666 31.83004,-28.7068 31.83034,-28.70708 31.83066,-28.70726 31.83104,-28.70752 31.83133,-28.70772 31.83159,-28.70791 31.8319,-28.70808 31.8322,-28.70825 31.83243,-28.70838 31.83278,-28.70848 31.83313,-28.70854 31.83353,-28.70854 31.83388,-28.70848 31.83411,-28.70848 31.83452,-28.70846 31.83466,-28.70847 31.83488,-28.70856 31.83508,-28.70865 31.83531,-28.70878 31.83555,-28.70896 31.83578,-28.70913 31.83603,-28.70932 31.83616,-28.70949 31.83623,-28.70967 31.83627,-28.70999 31.83626,-28.71034 31.83626,-28.71085 31.83631,-28.71101 31.83643,-28.71116 31.83649,-28.71122 31.83655,-28.71129 31.83667,-28.71129 31.8368,-28.7113 31.83699,-28.71132 31.83722,-28.71136 31.83741,-28.71145 31.83757,-28.7116 31.83775,-28.71183 31.83785,-28.71201 31.83794,-28.71215 31.83807,-28.71222 31.83827,-28.71223 31.8384,-28.71224 31.83862,-28.71229 31.83878,-28.71234 31.83895,-28.71239 31.83919,-28.71251 31.83932,-28.71262 31.83946,-28.71283 31.83962,-28.71303 31.83971,-28.7134 31.83974,-28.71383 31.83974,-28.71443 31.83972,-28.71511 31.83971,-28.71582 31.83971,-28.71602 31.83966,-28.71624 31.83958,-28.71653 31.83946,-28.71683 31.83933,-28.71718 31.83925,-28.71746 31.83914,-28.71776 31.83913,-28.718 31.83908,-28.71843 31.83902,-28.71874 31.83896,-28.71906 31.83896,-28.71915 31.839,-28.71923 31.83904,-28.71925 31.83914,-28.71926 31.83929,-28.7193 31.83942,-28.71932 31.83958,-28.71939 31.83978,-28.71948 31.83989,-28.71953 31.84008,-28.71962 31.84023,-28.71968 31.84039,-28.71978 31.84059,-28.71988 31.84085,-28.72 31.84104,-28.72007 31.8412,-28.72014 31.84142,-28.7202 31.84158,-28.72023 31.84197,-28.72023 31.84212,-28.72019 31.84228,-28.7201 31.8424,-28.72001 31.8425,-28.71997 31.84258,-28.71995 31.84268,-28.71993 31.84285,-28.72 31.84293,-28.72005 31.84305,-28.72011 31.84314,-28.72014 31.84325,-28.72016 31.84339,-28.72016 31.84358,-28.72014 31.84376,-28.72 31.8439,-28.71993 31.8442,-28.71996 31.8444,-28.72002 31.84456,-28.72006 31.84476,-28.72006 31.84493,-28.71991 31.845,-28.71967 31.84502,-28.71951 31.84505,-28.71934 31.84507,-28.71917 31.8452,-28.71903 31.84549,-28.71895 31.84572,-28.71895 31.84607,-28.71907 31.84625,-28.71915 31.84637,-28.71916 31.84663,-28.71911 31.84683,-28.71897 31.84709,-28.7188 31.84724,-28.71862 31.84751,-28.71836 31.84779,-28.71809 31.84795,-28.7179 31.84822,-28.7175 31.8484,-28.71725 31.84856,-28.71701 31.84879,-28.71673 31.84911,-28.71637 31.84933,-28.71614 31.84958,-28.71592 31.84997,-28.71572 31.85021,-28.71564 31.85032,-28.7156 31.85054,-28.71554 31.85077,-28.71548 31.85098,-28.71541 31.85134,-28.71532 31.85163,-28.71522 31.85202,-28.71504 31.85221,-28.71494 31.85241,-28.71487 31.85255,-28.71487 31.85274,-28.71492 31.85287,-28.71497 31.85302,-28.71507 31.85311,-28.71516 31.85319,-28.7152 31.85329,-28.71521 31.85366,-28.71521 31.85388,-28.71517 31.85414,-28.71508 31.85433,-28.71506 31.85453,-28.71504 31.85484,-28.71511 31.85516,-28.71523 31.85547,-28.71537 31.85561,-28.71546 31.85577,-28.71553 31.856,-28.71558 31.85618,-28.71562 31.85674,-28.7158 31.85698,-28.7159 31.85723,-28.71602 31.85751,-28.7162 31.8577,-28.71634 31.85794,-28.71644 31.8581,-28.71655 31.85831,-28.71667 31.85852,-28.71688 31.85869,-28.71701 31.85882,-28.71713 31.85895,-28.71722 31.85917,-28.71731 31.85937,-28.7174 31.85963,-28.71746 31.8599,-28.71746 31.86031,-28.71749 31.86061,-28.71744 31.86096,-28.71739 31.86117,-28.71731 31.86145,-28.71729 31.86207,-28.71729 31.86231,-28.7173 31.86247,-28.71731 31.86265,-28.71725 31.86287,-28.71711 31.86308,-28.71695 31.86336,-28.71678 31.86362,-28.71662 31.86382,-28.71655 31.86413,-28.71641 31.86442,-28.71634 31.86472,-28.7163 31.8651,-28.71625 31.86536,-28.71625 31.8656,-28.71628 31.86577,-28.71631 31.86585,-28.71632 31.86617,-28.71639 31.86646,-28.71651 31.86669,-28.71661 31.86697,-28.71671 31.86726,-28.71676 31.86756,-28.71679 31.8679,-28.71674 31.86815,-28.71667 31.86863,-28.71639 31.86905,-28.71611 31.86929,-28.71583 31.86953,-28.71553 31.86973,-28.7153 31.87003,-28.71508 31.87045,-28.71485 31.87071,-28.71467 31.87117,-28.71442 31.87158,-28.7141 31.8718,-28.71396 31.87232,-28.71364 31.87248,-28.71354 31.87259,-28.71349 31.87273,-28.71346 31.87294,-28.71349 31.87312,-28.71358 31.87338,-28.71373 31.87368,-28.71383 31.87396,-28.71391 31.87432,-28.71394 31.87461,-28.71391 31.87489,-28.71391 31.87524,-28.71388 31.87544,-28.71391 31.87562,-28.71397 31.87573,-28.71406 31.87587,-28.71424 31.87591,-28.71438 31.87596,-28.71451 31.87606,-28.71466 31.8762,-28.71478 31.87633,-28.71497 31.87643,-28.71502 31.87668,-28.71507 31.87689,-28.71503 31.87703,-28.71483 31.8772,-28.71462 31.87748,-28.7143 31.87773,-28.714 31.87799,-28.71368 31.8782,-28.7134 31.87836,-28.7132 31.87855,-28.71292 31.8787,-28.71259 31.87894,-28.71229 31.87922,-28.71203 31.87954,-28.71177 31.87988,-28.71162 31.88025,-28.71148 31.8807,-28.71139 31.88118,-28.71121 31.88171,-28.71111 31.8821,-28.71106 31.88241,-28.71098 31.88281,-28.71088 31.88326,-28.71074 31.88351,-28.71063 31.88364,-28.71057 31.88413,-28.71041 31.8846,-28.71025 31.88507,-28.71013 31.88548,-28.70996 31.88588,-28.70978 31.88619,-28.70967 31.88651,-28.70963 31.88689,-28.70966 31.88729,-28.70971 31.88771,-28.70963 31.888,-28.70946 31.88823,-28.70932 31.88857,-28.7092 31.88865,-28.70912 31.88865,-28.70896 31.8885,-28.7087 31.88829,-28.70834 31.8882,-28.70813 31.88806,-28.70785 31.88786,-28.70758 31.88764,-28.70739 31.88737,-28.70726 31.88716,-28.70717 31.88692,-28.70713 31.88667,-28.70711 31.88651,-28.70702 31.88629,-28.70685 31.88618,-28.7067 31.88601,-28.70646 31.88587,-28.70628 31.88576,-28.70613 31.88562,-28.70604 31.88539,-28.70599 31.88527,-28.70597 31.88517,-28.70597 31.88503,-28.70605 31.88495,-28.70619 31.88481,-28.7064 31.88464,-28.70659 31.88455,-28.70666 31.88438,-28.70666 31.8842,-28.7066 31.88399,-28.70641 31.88385,-28.70627 31.88373,-28.70609 31.88352,-28.70581 31.88334,-28.70563 31.88322,-28.70541 31.88308,-28.70512 31.88293,-28.7048 31.88275,-28.70446 31.88255,-28.7042 31.88232,-28.70395 31.88209,-28.70378 31.88176,-28.70353 31.88157,-28.70343 31.88132,-28.7033 31.8811,-28.70324 31.88084,-28.70324 31.88069,-28.7033 31.88051,-28.70334 31.88038,-28.70334 31.88019,-28.70329 31.88003,-28.70322 31.87982,-28.70315 31.87972,-28.70308 31.87962,-28.70298 31.87953,-28.70292 31.8794,-28.70289 31.87922,-28.70288 31.8789,-28.70297 31.87866,-28.70305 31.87853,-28.70315 31.87843,-28.70322 31.87834,-28.70325 31.87822,-28.70325 31.87797,-28.70326 31.87769,-28.70325 31.87735,-28.70316 31.87696,-28.70308 31.8765,-28.70297 31.8761,-28.70287 31.87573,-28.70277 31.87527,-28.70264 31.87496,-28.70251 31.8745,-28.70237 31.87423,-28.7022 31.87394,-28.70204 31.87377,-28.70186 31.87372,-28.70162 31.87369,-28.70139 31.8738,-28.70106 31.87382,-28.70084 31.87381,-28.70063 31.87372,-28.70041 31.87357,-28.70023 31.8733,-28.70009 31.87278,-28.69996 31.87251,-28.69995 31.87232,-28.69986 31.87213,-28.69972 31.87181,-28.69953 31.87159,-28.6994 31.8714,-28.69928 31.8712,-28.69914 31.87105,-28.69897 31.87083,-28.69868 31.87065,-28.69833 31.87054,-28.69813 31.87046,-28.69782 31.87041,-28.69745 31.87037,-28.69717 31.87033,-28.69688 31.87033,-28.69664 31.87041,-28.69641 31.87056,-28.69628 31.87077,-28.69619 31.87099,-28.69612 31.8713,-28.696 31.87166,-28.69586 31.87192,-28.69568 31.8722,-28.6955 31.87236,-28.69522 31.87247,-28.69497 31.87243,-28.69477 31.87233,-28.69458 31.87215,-28.6945 31.87191,-28.69435 31.87173,-28.69426 31.87155,-28.69413 31.8714,-28.694 31.87127,-28.69389 31.87115,-28.69368 31.87115,-28.69345 31.8712,-28.69312 31.87124,-28.69277 31.87126,-28.6924 31.87129,-28.69209 31.87133,-28.69179 31.87144,-28.69156 31.87155,-28.69135 31.87162,-28.69124 31.87162,-28.69105 31.87155,-28.69087 31.87144,-28.69073 31.87133,-28.69064 31.87108,-28.69046 31.87093,-28.69018 31.87063,-28.68988 31.87047,-28.6897 31.87031,-28.68945 31.87013,-28.68924 31.86999,-28.68905 31.8699,-28.68884 31.86973,-28.68846 31.86957,-28.68813 31.86943,-28.68779 31.86931,-28.68756 31.86916,-28.6873 31.86905,-28.68703 31.86899,-28.68688 31.86889,-28.68673 31.86877,-28.68659 31.86863,-28.68645 31.86855,-28.68639 31.8685,-28.68627 31.8685,-28.68614 31.86856,-28.686 31.86871,-28.68581 31.86889,-28.68553 31.86905,-28.68521 31.86925,-28.68486 31.86934,-28.6846 31.86967,-28.68405 31.86976,-28.6838 31.86987,-28.68352 31.86987,-28.68332 31.86982,-28.68312 31.86966,-28.68298 31.86947,-28.68287 31.86931,-28.68281 31.86902,-28.68268 31.86888,-28.68251 31.86878,-28.68231 31.86874,-28.68203 31.86874,-28.68184 31.86869,-28.68156 31.86861,-28.68138 31.8685,-28.68118 31.86833,-28.68096 31.86818,-28.68078 31.86805,-28.68056 31.86796,-28.6805 31.86789,-28.68037 31.86785,-28.68016 31.86782,-28.67988 31.86782,-28.67929 31.86802,-28.67912 31.86845,-28.67869 31.87099,-28.67655 31.87353,-28.67442 31.87551,-28.67311 31.87919,-28.67067 31.88243,-28.66852 31.88567,-28.66638 31.88849,-28.66451 31.89131,-28.66265 31.89376,-28.66102 31.89435,-28.6606 31.89498,-28.6599 31.89771,-28.65686 31.90045,-28.65381 31.90318,-28.65077 31.90369,-28.6502 31.90369,-28.6502 31.90376,-28.65009 31.90378,-28.65005 31.90386,-28.65005 31.90391,-28.65006 31.90395,-28.65007 31.904,-28.65009 31.90406,-28.6501 31.9041,-28.65008 31.90419,-28.65002 31.90426,-28.64997 31.90431,-28.64996 31.90435,-28.64997 31.90442,-28.64997 31.9045,-28.64999 31.90472,-28.64999 31.90476,-28.65 31.9048,-28.65002 31.90486,-28.65003 31.90494,-28.65002 31.905,-28.65 31.90512,-28.65 31.90516,-28.65004 31.90526,-28.65006 31.90532,-28.65006 31.90538,-28.65007 31.90543,-28.6501 31.90546,-28.65012 31.90553,-28.65012 31.90561,-28.65011 31.90571,-28.65013 31.90575,-28.65014 31.9058,-28.65016 31.90588,-28.65016 31.90595,-28.65013 31.90598,-28.65008 31.90602,-28.65006 31.90611,-28.65006 31.90616,-28.65007 31.90622,-28.65007 31.90626,-28.65004 31.9063,-28.65005 31.90634,-28.65005 31.90643,-28.65002 31.9065,-28.64996 31.9066,-28.64995 31.90665,-28.64994 31.90674,-28.64996 31.90681,-28.64998 31.90687,-28.65003 31.90691,-28.6501 31.90694,-28.65015 31.90692,-28.6502 31.90686,-28.65022 31.9068,-28.65029 31.90674,-28.65039 31.90674,-28.65051 31.90683,-28.6506 31.9069,-28.65061 31.90696,-28.65062 31.90703,-28.6506 31.90709,-28.65054 31.90713,-28.65048 31.90716,-28.65045 31.90727,-28.65044 31.90737,-28.65041 31.90746,-28.65034 31.90748,-28.65025 31.90748,-28.65021 31.90751,-28.65012 31.90755,-28.65005 31.90762,-28.64994 31.90769,-28.64986 31.90778,-28.64977 31.90789,-28.64967 31.90798,-28.64959 31.90809,-28.64951 31.90828,-28.64944 31.90842,-28.64938 31.90851,-28.64934 31.90864,-28.64929 31.90875,-28.64923 31.90888,-28.64915 31.90901,-28.64911 31.9091,-28.64907 31.90917,-28.64905 31.90928,-28.64907 31.90934,-28.64909 31.90938,-28.64912 31.90957,-28.64912 31.90967,-28.64915 31.90975,-28.64921 31.90978,-28.64926 31.90982,-28.64927 31.90988,-28.64923 31.90992,-28.64912 31.90992,-28.649 31.90987,-28.64883 31.90982,-28.64871 31.90976,-28.64859 31.90972,-28.64844 31.90969,-28.6483 31.9097,-28.64826 31.90976,-28.64817 31.90982,-28.64805 31.90981,-28.648 31.90978,-28.64798 31.90974,-28.64794 31.90973,-28.64789 31.90976,-28.64777 31.90982,-28.64767 31.90993,-28.64754 31.91002,-28.64746 31.9101,-28.6474 31.91017,-28.64736 31.91024,-28.64735 31.91033,-28.64736 31.91039,-28.64737 31.91049,-28.6474 31.91059,-28.64742 31.91074,-28.6474 31.91083,-28.64737 31.91096,-28.64731 31.91118,-28.64711 31.91129,-28.64706 31.91149,-28.64703 31.9116,-28.64701 31.91174,-28.64693 31.91182,-28.64681 31.91197,-28.64666 31.912,-28.64659 31.91206,-28.64651 31.91215,-28.64646 31.91225,-28.64645 31.91236,-28.64645 31.91248,-28.64651 31.91253,-28.64657 31.91261,-28.64666 31.91273,-28.64666 31.91291,-28.64662 31.913,-28.64652 31.91308,-28.64641 31.91308,-28.64631 31.91312,-28.64621 31.9132,-28.64613 31.91328,-28.64583 31.91331,-28.6457 31.91337,-28.64557 31.91341,-28.64541 31.91345,-28.64529 31.9135,-28.64522 31.91356,-28.64517 31.91363,-28.64514 31.9137,-28.64512 31.91379,-28.64513 31.91386,-28.64514 31.91393,-28.64514 31.91405,-28.64512 31.9141,-28.64505 31.91413,-28.64503 31.91418,-28.64502 31.91428,-28.64503 31.91441,-28.64503 31.91447,-28.64498 31.91453,-28.64495 31.91459,-28.64495 31.91466,-28.64489 31.9147,-28.64486 31.91479,-28.64486 31.91494,-28.64484 31.91506,-28.64481 31.91517,-28.64479 31.9154,-28.6447 31.91564,-28.6446 31.91581,-28.64452 31.91592,-28.64444 31.91607,-28.64436 31.91619,-28.6443 31.91635,-28.64421 31.91642,-28.64413 31.91655,-28.644 31.91664,-28.64389 31.91686,-28.64367 31.91692,-28.64356 31.91696,-28.64346 31.91699,-28.64331 31.91703,-28.6432 31.91705,-28.64313 31.91708,-28.64309 31.91718,-28.64299 31.91728,-28.64285 31.91735,-28.64269 31.91741,-28.64255 31.91744,-28.64249 31.91749,-28.64242 31.91757,-28.64233 31.91766,-28.64222 31.91769,-28.64212 31.91772,-28.64198 31.91773,-28.6418 31.91773,-28.64162 31.91775,-28.6415 31.91774,-28.64139 31.91774,-28.64123 31.91772,-28.64109 31.91771,-28.64095 31.91771,-28.64083 31.91774,-28.64066 31.91776,-28.64049 31.91779,-28.64038 31.91787,-28.6401 31.91791,-28.63999 31.91793,-28.63988 31.91799,-28.63974 31.91805,-28.63961 31.91807,-28.63952 31.91807,-28.63944 31.91808,-28.63933 31.91808,-28.63907 31.91803,-28.63894 31.918,-28.63884 31.91795,-28.63878 31.91784,-28.63875 31.91771,-28.63871 31.91757,-28.63868 31.91744,-28.63865 31.91729,-28.63864 31.91713,-28.6386 31.91701,-28.63856 31.91694,-28.63855 31.91685,-28.63854 31.91673,-28.63854 31.9166,-28.63853 31.91646,-28.6385 31.91633,-28.63847 31.91618,-28.63846 31.91607,-28.63845 31.91599,-28.63844 31.91586,-28.63846 31.91569,-28.6385 31.91553,-28.63856 31.91541,-28.6386 31.91522,-28.63863 31.91506,-28.63868 31.91492,-28.63875 31.91483,-28.63876 31.91473,-28.63875 31.91463,-28.63875 31.91443,-28.63876 31.91419,-28.63878 31.91394,-28.63877 31.91377,-28.63876 31.91342,-28.63871 31.9133,-28.6387 31.91324,-28.6387 31.91316,-28.63872 31.9131,-28.63875 31.913,-28.63878 31.9129,-28.6388 31.9128,-28.63881 31.91267,-28.63881 31.91243,-28.63876 31.91217,-28.63872 31.91185,-28.63867 31.9116,-28.63858 31.91132,-28.63851 31.91119,-28.63845 31.91105,-28.63838 31.91084,-28.63829 31.91065,-28.63819 31.91049,-28.6381 31.91031,-28.63801 31.91017,-28.63793 31.90999,-28.63787 31.90982,-28.63777 31.90964,-28.63767 31.9095,-28.63758 31.90942,-28.63749 31.90936,-28.63744 31.90926,-28.63735 31.90915,-28.63722 31.90905,-28.63711 31.90897,-28.63698 31.90891,-28.63685 31.90888,-28.6367 31.90887,-28.6366 31.90886,-28.63644 31.90887,-28.63631 31.9089,-28.63619 31.90897,-28.63606 31.90911,-28.63584 31.90927,-28.63561 31.90939,-28.6354 31.90948,-28.63524 31.90958,-28.63496 31.90967,-28.63482 31.90977,-28.63468 31.90985,-28.63455 31.90992,-28.63439 31.91001,-28.63421 31.91008,-28.63413 31.91018,-28.634 31.91027,-28.6339 31.91038,-28.63383 31.91047,-28.63377 31.91055,-28.63369 31.91062,-28.63361 31.91073,-28.63354 31.91085,-28.63349 31.91097,-28.63345 31.91112,-28.63342 31.91126,-28.6334 31.91137,-28.63337 31.91149,-28.63334 31.91167,-28.6333 31.91183,-28.63324 31.912,-28.63317 31.91216,-28.63307 31.91233,-28.63293 31.91248,-28.63277 31.91259,-28.63262 31.91271,-28.63244 31.91279,-28.63227 31.91286,-28.63212 31.9129,-28.63197 31.91297,-28.63181 31.91301,-28.63165 31.91308,-28.63144 31.91311,-28.63123 31.91315,-28.63111 31.91325,-28.63073 31.91327,-28.63064 31.91331,-28.6305 31.9133,-28.63037 31.91332,-28.63005 31.91333,-28.62983 31.91335,-28.62961 31.9134,-28.62943 31.91348,-28.62926 31.91348,-28.62907 31.91347,-28.62899 31.91344,-28.62891 31.91344,-28.6288 31.91348,-28.62876 31.91353,-28.62874 31.91368,-28.62875 31.91373,-28.62876 31.9138,-28.6288 31.91384,-28.62881 31.91415,-28.62881 31.91434,-28.62885 31.91445,-28.62889 31.91457,-28.62897 31.91473,-28.62895 31.91483,-28.62893 31.91492,-28.62893 31.91505,-28.62896 31.91519,-28.6291 31.91535,-28.62933 31.91549,-28.62957 31.91559,-28.62973 31.91571,-28.62992 31.91586,-28.63013 31.916,-28.63041 31.91609,-28.63054 31.91614,-28.63063 31.91625,-28.63078 31.91634,-28.63088 31.91646,-28.63103 31.91654,-28.63121 31.91659,-28.63131 31.91662,-28.63144 31.91662,-28.6317 31.91661,-28.63177 31.91663,-28.63189 31.91665,-28.63195 31.91665,-28.63216 31.91664,-28.63228 31.91661,-28.63249 31.91656,-28.63264 31.91648,-28.6328 31.91642,-28.63297 31.91627,-28.63315 31.91614,-28.63327 31.91607,-28.63337 31.916,-28.63346 31.91598,-28.63356 31.91597,-28.63365 31.91599,-28.63373 31.91602,-28.63376 31.91609,-28.63378 31.91615,-28.63381 31.91624,-28.63382 31.91632,-28.63382 31.91647,-28.63378 31.9166,-28.63374 31.91664,-28.63373 31.91671,-28.63373 31.91676,-28.63377 31.91681,-28.63385 31.91684,-28.63393 31.91684,-28.63412 31.91685,-28.63417 31.91687,-28.63422 31.91688,-28.63433 31.91689,-28.63437 31.91693,-28.63441 31.91693,-28.63444 31.91689,-28.63447 31.91688,-28.63452 31.91684,-28.63455 31.91684,-28.6346 31.91686,-28.63464 31.91689,-28.63468 31.91688,-28.63474 31.91688,-28.63479 31.91689,-28.63489 31.91695,-28.63499 31.91699,-28.63508 31.91708,-28.63516 31.91719,-28.63526 31.91727,-28.63533 31.91736,-28.63539 31.91742,-28.63546 31.91744,-28.63551 31.91746,-28.63554 31.91752,-28.63559 31.91759,-28.63564 31.91773,-28.63573 31.91785,-28.63581 31.91801,-28.63591 31.91815,-28.63599 31.91828,-28.63605 31.91854,-28.63613 31.91862,-28.63613 31.91874,-28.63615 31.91882,-28.63614 31.91893,-28.63612 31.91903,-28.6361 31.91911,-28.63609 31.91921,-28.63608 31.91934,-28.63605 31.91948,-28.63602 31.91961,-28.63596 31.91976,-28.63589 31.91992,-28.63581 31.92002,-28.63573 31.92008,-28.63568 31.92015,-28.63565 31.92024,-28.6356 31.92034,-28.63556 31.92043,-28.63553 31.9205,-28.63549 31.92056,-28.63545 31.92061,-28.63536 31.92059,-28.63531 31.92059,-28.63527 31.92062,-28.63512 31.92067,-28.63504 31.92072,-28.63493 31.92075,-28.63485 31.92082,-28.63481 31.92086,-28.63477 31.92091,-28.63471 31.92095,-28.63468 31.9211,-28.63466 31.92117,-28.63463 31.92129,-28.63461 31.92139,-28.63458 31.92148,-28.63453 31.92154,-28.63447 31.92159,-28.63446 31.92165,-28.63443 31.9217,-28.63437 31.92176,-28.6343 31.92185,-28.63425 31.92194,-28.63416 31.92201,-28.6341 31.92211,-28.63399 31.92223,-28.63371 31.92228,-28.63362 31.9223,-28.63354 31.92235,-28.63347 31.92255,-28.63337 31.92267,-28.6333 31.92278,-28.63323 31.92289,-28.63314 31.92298,-28.63306 31.92299,-28.63299 31.92297,-28.63292 31.92293,-28.63283 31.92293,-28.63278 31.92291,-28.63268 31.92289,-28.63263 31.92285,-28.63258 31.92283,-28.6325 31.92282,-28.63236 31.92285,-28.6323 31.923,-28.63222 31.92308,-28.63214 31.92314,-28.63204 31.92323,-28.63196 31.92335,-28.63184 31.92345,-28.63176 31.92353,-28.63162 31.92359,-28.63153 31.9238,-28.63146 31.92395,-28.63139 31.92408,-28.63129 31.92419,-28.6312 31.92424,-28.63113 31.92429,-28.63104 31.92438,-28.63097 31.92446,-28.63094 31.92461,-28.63084 31.92477,-28.63077 31.92486,-28.63068 31.92495,-28.63056 31.925,-28.63039 31.92505,-28.63027 31.92511,-28.63013 31.92521,-28.63 31.92536,-28.62986 31.92556,-28.62968 31.9257,-28.62957 31.92587,-28.6294 31.92607,-28.62921 31.92621,-28.62907 31.92634,-28.62892 31.92651,-28.62875 31.92671,-28.62857 31.92683,-28.62842 31.92695,-28.62828 31.92711,-28.62812 31.92722,-28.62798 31.92726,-28.62788 31.92729,-28.62778 31.92735,-28.62766 31.92742,-28.62757 31.92755,-28.62751 31.92764,-28.62745 31.92778,-28.62741 31.9279,-28.62739 31.928,-28.62734 31.92807,-28.62733 31.92817,-28.62733 31.92829,-28.62737 31.92843,-28.62742 31.92858,-28.6275 31.92866,-28.62759 31.92873,-28.62765 31.92879,-28.62777 31.92885,-28.62786 31.92889,-28.62793 31.92898,-28.62805 31.92901,-28.62812 31.92904,-28.62822 31.92909,-28.62834 31.92911,-28.62842 31.92925,-28.6286 31.92935,-28.62873 31.92945,-28.62888 31.92953,-28.62903 31.92964,-28.62915 31.92973,-28.62928 31.92984,-28.62942 31.92986,-28.62949 31.92986,-28.62952 31.92988,-28.62958 31.92992,-28.6296 31.92997,-28.62964 31.93002,-28.62969 31.93006,-28.62976 31.93011,-28.62982 31.93013,-28.62988 31.93015,-28.62992 31.93018,-28.62993 31.93022,-28.62994 31.93027,-28.62998 31.93033,-28.63004 31.93037,-28.6301 31.93041,-28.63013 31.93047,-28.63018 31.93056,-28.63023 31.93065,-28.6303 31.93074,-28.63038 31.93079,-28.63044 31.93087,-28.63052 31.93094,-28.63057 31.93101,-28.63064 31.93104,-28.63068 31.93109,-28.63076 31.93111,-28.63084 31.93113,-28.63094 31.93115,-28.63105 31.93117,-28.63112 31.93117,-28.63119 31.93119,-28.63126 31.9312,-28.63133 31.93121,-28.63142 31.93121,-28.63149 31.93123,-28.63157 31.93123,-28.63177 31.93122,-28.63189 31.93118,-28.63203 31.93113,-28.63211 31.93106,-28.63219 31.93103,-28.63221 31.93099,-28.63221 31.93096,-28.63219 31.93086,-28.63213 31.93077,-28.63211 31.93072,-28.63209 31.93067,-28.63209 31.93058,-28.6321 31.93056,-28.63214 31.93053,-28.63221 31.93053,-28.63234 31.93054,-28.63246 31.93058,-28.63268 31.93063,-28.63281 31.9307,-28.63297 31.93073,-28.63304 31.93076,-28.63309 31.93077,-28.63317 31.9308,-28.63324 31.9308,-28.63329 31.93079,-28.63336 31.93079,-28.63343 31.93076,-28.6335 31.93069,-28.63353 31.93069,-28.63358 31.93072,-28.63363 31.93074,-28.63368 31.93078,-28.63374 31.93083,-28.6338 31.93086,-28.63389 31.93088,-28.63393 31.93093,-28.63397 31.93101,-28.63398 31.93108,-28.63399 31.93113,-28.634 31.9312,-28.63407 31.93123,-28.63413 31.93127,-28.63424 31.93129,-28.63436 31.93132,-28.63446 31.93135,-28.6346 31.93133,-28.63477 31.93127,-28.63493 31.93116,-28.63506 31.93108,-28.63515 31.93103,-28.63532 31.93098,-28.63553 31.93093,-28.63581 31.93088,-28.63601 31.93082,-28.63618 31.93073,-28.6364 31.93066,-28.63659 31.93062,-28.63682 31.93048,-28.6372 31.93045,-28.63733 31.9304,-28.63742 31.93033,-28.63753 31.93018,-28.63768 31.93004,-28.63776 31.92997,-28.63778 31.9299,-28.63778 31.92985,-28.6378 31.92977,-28.63784 31.92962,-28.63788 31.92944,-28.63788 31.92926,-28.63789 31.9291,-28.63795 31.92889,-28.63797 31.92873,-28.63797 31.92855,-28.63801 31.92842,-28.63809 31.92835,-28.63818 31.9283,-28.63826 31.92823,-28.63838 31.92815,-28.63848 31.92799,-28.63863 31.92792,-28.63871 31.92787,-28.63879 31.92785,-28.63886 31.92783,-28.63892 31.92776,-28.63902 31.92771,-28.63906 31.92766,-28.63905 31.92761,-28.63905 31.92758,-28.63907 31.92755,-28.63914 31.92754,-28.63921 31.92752,-28.63929 31.92746,-28.63934 31.92742,-28.63937 31.92734,-28.63949 31.92731,-28.63955 31.92727,-28.6396 31.92722,-28.63959 31.92709,-28.63959 31.92701,-28.63962 31.92698,-28.63965 31.92692,-28.63965 31.92681,-28.63966 31.92673,-28.63971 31.92669,-28.63976 31.92652,-28.63988 31.92643,-28.63995 31.9263,-28.6401 31.92624,-28.6402 31.92617,-28.6403 31.92608,-28.6404 31.92601,-28.64049 31.92594,-28.64062 31.9259,-28.64078 31.92588,-28.64093 31.92591,-28.64107 31.92597,-28.64126 31.92601,-28.64141 31.92605,-28.64155 31.92605,-28.64171 31.92606,-28.64184 31.92607,-28.64199 31.92609,-28.64214 31.92611,-28.64223 31.92612,-28.6424 31.9261,-28.64268 31.92612,-28.64295 31.92613,-28.64307 31.92613,-28.64321 31.92617,-28.64343 31.92619,-28.64362 31.9262,-28.64374 31.92622,-28.64389 31.92625,-28.64407 31.92627,-28.64412 31.92631,-28.64418 31.92634,-28.64425 31.92641,-28.64433 31.92648,-28.64435 31.92655,-28.64436 31.9266,-28.64438 31.92669,-28.64439 31.92677,-28.64438 31.92691,-28.64438 31.92699,-28.6444 31.92703,-28.64443 31.92708,-28.64444 31.92712,-28.64445 31.92721,-28.64446 31.92728,-28.64447 31.92744,-28.64447 31.92752,-28.64448 31.92781,-28.64448 31.92799,-28.6445 31.92811,-28.64448 31.9283,-28.64441 31.92839,-28.64436 31.92853,-28.64434 31.9289,-28.64434 31.92907,-28.64432 31.92919,-28.64429 31.92922,-28.64428 31.92934,-28.64425 31.92939,-28.64419 31.92944,-28.64416 31.92949,-28.64416 31.92955,-28.64417 31.92959,-28.6442 31.92963,-28.64424 31.92967,-28.64424 31.92976,-28.64423 31.92981,-28.6442 31.92988,-28.6442 31.92996,-28.64421 31.93003,-28.64424 31.93008,-28.64426 31.93016,-28.64428 31.93032,-28.64434 31.93039,-28.64439 31.93051,-28.64447 31.93058,-28.64451 31.93061,-28.64459 31.93066,-28.64471 31.93069,-28.64481 31.93073,-28.64487 31.93077,-28.64494 31.93079,-28.64497 31.93081,-28.64504 31.93086,-28.64521 31.93088,-28.64529 31.93089,-28.64536 31.93094,-28.64556 31.93094,-28.64617 31.93093,-28.64626 31.93095,-28.64638 31.93096,-28.64652 31.93097,-28.64665 31.931,-28.64677 31.931,-28.6469 31.93097,-28.64702 31.93094,-28.64713 31.93088,-28.64725 31.93085,-28.64733 31.93075,-28.64736 31.93066,-28.64742 31.93058,-28.64745 31.93049,-28.64751 31.93036,-28.64757 31.93021,-28.64769 31.93008,-28.64776 31.93002,-28.64782 31.92999,-28.64786 31.92999,-28.64789 31.92997,-28.64792 31.92992,-28.64797 31.92985,-28.648 31.92974,-28.64807 31.92967,-28.64812 31.92959,-28.64817 31.92949,-28.64826 31.92934,-28.64834 31.92922,-28.64841 31.92912,-28.64848 31.92902,-28.64853 31.92897,-28.64857 31.92886,-28.64864 31.92875,-28.64872 31.92859,-28.64882 31.92853,-28.64886 31.92847,-28.64889 31.92839,-28.64894 31.9283,-28.64897 31.92822,-28.64904 31.92816,-28.64912 31.92806,-28.64921 31.92803,-28.64925 31.928,-28.64933 31.92797,-28.6494 31.92794,-28.64958 31.92793,-28.64967 31.92795,-28.64977 31.928,-28.6499 31.92812,-28.6501 31.92819,-28.65024 31.92832,-28.6504 31.9284,-28.65051 31.92845,-28.6506 31.92853,-28.65072 31.9286,-28.6508 31.9287,-28.65094 31.92884,-28.65116 31.92935,-28.65187 31.92943,-28.65198 31.92954,-28.65214 31.92968,-28.6523 31.92984,-28.65246 31.92992,-28.65251 31.93002,-28.65255 31.93013,-28.65259 31.93023,-28.65263 31.93033,-28.65265 31.93047,-28.65267 31.93059,-28.65267 31.93074,-28.65262 31.9309,-28.65258 31.93102,-28.65254 31.93113,-28.65251 31.93127,-28.6524 31.93136,-28.65234 31.93143,-28.65224 31.93154,-28.65213 31.93159,-28.65207 31.93166,-28.65201 31.93171,-28.65197 31.93179,-28.65188 31.93186,-28.6518 31.93198,-28.65175 31.93212,-28.65168 31.9322,-28.65161 31.93233,-28.65148 31.93245,-28.65134 31.9325,-28.65129 31.93259,-28.65118 31.9327,-28.65108 31.9328,-28.65095 31.93285,-28.65079 31.9329,-28.65067 31.93294,-28.65054 31.93294,-28.65044 31.93297,-28.65028 31.93302,-28.65006 31.93306,-28.64992 31.93309,-28.64978 31.93311,-28.64963 31.93311,-28.64943 31.93312,-28.6493 31.9331,-28.64914 31.93308,-28.649 31.93303,-28.64893 31.93301,-28.64883 31.93297,-28.64873 31.93294,-28.64864 31.93293,-28.6485 31.9329,-28.64835 31.9329,-28.64821 31.93289,-28.64812 31.93283,-28.64793 31.93273,-28.64765 31.93267,-28.64754 31.93262,-28.64733 31.93259,-28.64714 31.93258,-28.64702 31.93258,-28.64689 31.93259,-28.64675 31.93262,-28.64659 31.93267,-28.64642 31.93273,-28.64625 31.93279,-28.64612 31.9329,-28.64592 31.93301,-28.64578 31.93316,-28.64571 31.93324,-28.64566 31.93337,-28.64561 31.93352,-28.64556 31.93367,-28.64549 31.93376,-28.64547 31.93387,-28.64546 31.93398,-28.64541 31.93411,-28.64536 31.93437,-28.64532 31.93451,-28.64529 31.9346,-28.64526 31.93468,-28.64523 31.93475,-28.6452 31.93484,-28.6452 31.93507,-28.64523 31.93526,-28.64526 31.93544,-28.64533 31.93555,-28.64539 31.93562,-28.64541 31.93573,-28.64546 31.9358,-28.64551 31.93586,-28.64555 31.93591,-28.64558 31.93597,-28.64561 31.93604,-28.64564 31.93609,-28.64569 31.93615,-28.64574 31.93627,-28.6458 31.93633,-28.64589 31.93636,-28.64595 31.93638,-28.64606 31.93641,-28.64616 31.93644,-28.64623 31.93645,-28.64631 31.93648,-28.64643 31.93663,-28.64676 31.93672,-28.64688 31.93677,-28.64694 31.93684,-28.64701 31.9369,-28.64706 31.93695,-28.64711 31.93698,-28.64716 31.93704,-28.64721 31.93712,-28.64722 31.9372,-28.64726 31.93727,-28.6473 31.93731,-28.64736 31.93737,-28.64747 31.93745,-28.64756 31.93771,-28.64772 31.93785,-28.64778 31.93799,-28.64782 31.93816,-28.64792 31.93828,-28.64801 31.9384,-28.64811 31.93852,-28.64824 31.93866,-28.64839 31.93877,-28.64854 31.93887,-28.64865 31.9389,-28.64874 31.93892,-28.64898 31.93892,-28.64909 31.93895,-28.64917 31.93896,-28.64924 31.93899,-28.64931 31.93903,-28.64937 31.93913,-28.64943 31.93919,-28.64949 31.93924,-28.64957 31.93928,-28.6496 31.93935,-28.64967 31.93944,-28.64974 31.93954,-28.64987 31.93962,-28.65 31.93967,-28.65009 31.93972,-28.65019 31.93975,-28.65027 31.93981,-28.65037 31.93986,-28.65046 31.93989,-28.65057 31.93996,-28.65066 31.94,-28.65074 31.94005,-28.6508 31.94011,-28.65087 31.9402,-28.65099 31.94027,-28.65107 31.94036,-28.65117 31.94042,-28.65123 31.94049,-28.65127 31.94063,-28.65142 31.94071,-28.65147 31.94078,-28.65152 31.94089,-28.65159 31.94098,-28.65167 31.94106,-28.65174 31.94115,-28.65182 31.94125,-28.65192 31.94134,-28.652 31.94139,-28.65206 31.94145,-28.65208 31.94153,-28.65211 31.9417,-28.65215 31.94188,-28.65215 31.94208,-28.65216 31.94223,-28.65212 31.94238,-28.65201 31.94251,-28.65188 31.94261,-28.65176 31.94264,-28.65165 31.94269,-28.65156 31.94268,-28.65148 31.94268,-28.65136 31.9427,-28.65121 31.94279,-28.65097 31.94284,-28.65082 31.94283,-28.6507 31.94283,-28.65062 31.94284,-28.65057 31.94296,-28.65042 31.94308,-28.65031 31.9432,-28.65023 31.94335,-28.65012 31.94352,-28.65 31.9437,-28.64988 31.94386,-28.64979 31.944,-28.6497 31.94416,-28.64964 31.94438,-28.64955 31.94459,-28.64949 31.9448,-28.64944 31.94498,-28.64937 31.94508,-28.64934 31.94516,-28.64934 31.94523,-28.64939 31.94523,-28.64944 31.94524,-28.64954 31.94524,-28.64977 31.94525,-28.65 31.94524,-28.65024 31.94524,-28.65044 31.94522,-28.65062 31.94516,-28.65089 31.94511,-28.65106 31.94507,-28.65126 31.94498,-28.65145 31.94491,-28.65173 31.9449,-28.65196 31.9449,-28.6524 31.94492,-28.65257 31.94498,-28.6528 31.94507,-28.65296 31.9452,-28.65316 31.94528,-28.65327 31.94542,-28.65345 31.94561,-28.65362 31.9458,-28.65374 31.94606,-28.65391 31.94624,-28.6541 31.94628,-28.65426 31.94629,-28.65443 31.9463,-28.65457 31.94631,-28.65468 31.94631,-28.6548 31.9463,-28.6549 31.94628,-28.65502 31.94629,-28.65515 31.94632,-28.65525 31.94636,-28.65535 31.94645,-28.6555 31.9466,-28.65561 31.94676,-28.65571 31.94689,-28.6558 31.94696,-28.65584 31.94706,-28.65591 31.94721,-28.65601 31.94733,-28.65608 31.94741,-28.65613 31.9475,-28.65622 31.94761,-28.65628 31.94771,-28.65633 31.94782,-28.65642 31.94792,-28.6565 31.94802,-28.65655 31.94818,-28.6566 31.94833,-28.65665 31.94849,-28.65672 31.94861,-28.65679 31.9487,-28.65685 31.94879,-28.65692 31.94888,-28.65692 31.94891,-28.65693 31.94895,-28.65697 31.94897,-28.657 31.94901,-28.65707 31.94903,-28.65709 31.94909,-28.65721 31.9491,-28.6573 31.94914,-28.65739 31.94918,-28.65754 31.94918,-28.65766 31.94914,-28.65775 31.94903,-28.65787 31.94897,-28.65801 31.94893,-28.65812 31.9489,-28.6582 31.94886,-28.65824 31.9488,-28.65828 31.94871,-28.65837 31.9486,-28.65846 31.94848,-28.65857 31.94837,-28.65866 31.94825,-28.65879 31.94809,-28.65895 31.94805,-28.65901 31.94799,-28.65911 31.94794,-28.65926 31.94789,-28.65946 31.94783,-28.65959 31.94779,-28.65968 31.94777,-28.65972 31.94771,-28.6598 31.94763,-28.65987 31.94756,-28.65994 31.94748,-28.66 31.94739,-28.66003 31.94731,-28.66007 31.94726,-28.6601 31.94717,-28.66016 31.94704,-28.66022 31.94693,-28.66027 31.94682,-28.66036 31.94673,-28.66042 31.94668,-28.66047 31.94665,-28.66052 31.9465,-28.66052 31.94646,-28.66054 31.94642,-28.66059 31.94638,-28.66063 31.94634,-28.66065 31.94625,-28.66065 31.94619,-28.66062 31.94615,-28.66059 31.94608,-28.66055 31.94599,-28.66052 31.9459,-28.66051 31.94582,-28.66053 31.94574,-28.66061 31.94572,-28.6607 31.9457,-28.66077 31.94564,-28.66082 31.9456,-28.66086 31.94555,-28.66093 31.94548,-28.66097 31.94544,-28.66101 31.94536,-28.66101 31.94523,-28.66104 31.94516,-28.66108 31.94513,-28.66111 31.94512,-28.66116 31.94512,-28.66122 31.94515,-28.66133 31.94522,-28.66144 31.94526,-28.66148 31.94529,-28.66157 31.94539,-28.66176 31.94547,-28.66187 31.94555,-28.66203 31.94561,-28.66212 31.94567,-28.6622 31.94573,-28.6623 31.94575,-28.66238 31.94578,-28.66248 31.94578,-28.66299 31.94579,-28.66309 31.9458,-28.66316 31.94583,-28.66325 31.94585,-28.66332 31.94588,-28.66337 31.94592,-28.66341 31.94594,-28.66344 31.94599,-28.66348 31.94606,-28.66353 31.9461,-28.66356 31.94624,-28.66362 31.94632,-28.66363 31.94641,-28.66364 31.94652,-28.66365 31.94657,-28.66366 31.94667,-28.66369 31.94675,-28.6637 31.94685,-28.66374 31.94696,-28.66379 31.94706,-28.66384 31.94716,-28.66391 31.94725,-28.66397 31.94731,-28.66402 31.94738,-28.66406 31.94741,-28.6641 31.94745,-28.66413 31.94752,-28.66422 31.94754,-28.66425 31.94758,-28.66429 31.94764,-28.66432 31.94772,-28.66435 31.9478,-28.66439 31.94801,-28.66453 31.94811,-28.66459 31.94821,-28.66466 31.94835,-28.66473 31.94846,-28.66481 31.94858,-28.66487 31.94871,-28.66492 31.94884,-28.66499 31.94895,-28.66503 31.94907,-28.66506 31.94921,-28.66509 31.94937,-28.66512 31.94949,-28.66516 31.94961,-28.66518 31.94976,-28.66521 31.94989,-28.66523 31.95,-28.66524 31.95008,-28.66524 31.95017,-28.66525 31.95028,-28.66526 31.9504,-28.66524 31.9505,-28.66519 31.95063,-28.66512 31.95087,-28.66503 31.95101,-28.66501 31.95115,-28.66498 31.9514,-28.66495 31.95155,-28.66492 31.95166,-28.66489 31.95197,-28.66489 31.95213,-28.66487 31.95226,-28.66485 31.95257,-28.66481 31.95277,-28.66479 31.95294,-28.66479 31.95309,-28.66476 31.95345,-28.6647 31.95362,-28.66467 31.95382,-28.66462 31.95403,-28.66456 31.95425,-28.66448 31.95444,-28.6644 31.95459,-28.66435 31.95476,-28.66429 31.95487,-28.66422 31.95501,-28.66413 31.95513,-28.66408 31.95527,-28.66402 31.95538,-28.66399 31.95551,-28.66396 31.95564,-28.66394 31.95572,-28.66395 31.95581,-28.66395 31.95591,-28.66393 31.95599,-28.66392 31.95606,-28.66392 31.95616,-28.6639 31.95623,-28.6639 31.95636,-28.66392 31.9565,-28.66394 31.9566,-28.66397 31.95671,-28.66401 31.95679,-28.66404 31.95686,-28.66408 31.95691,-28.66411 31.95707,-28.66411 31.95717,-28.66409 31.95736,-28.66408 31.95751,-28.66407 31.95759,-28.66405 31.95787,-28.66405 31.95797,-28.66408 31.95803,-28.66409 31.9581,-28.66411 31.95814,-28.66411 31.9582,-28.66413 31.95827,-28.66413 31.9584,-28.66409 31.95852,-28.66407 31.95867,-28.66403 31.95889,-28.66403 31.959,-28.66407 31.95911,-28.6641 31.95918,-28.66414 31.95923,-28.66415 31.95928,-28.66413 31.9593,-28.66411 31.95931,-28.66408 31.96245,-28.66086 31.96559,-28.65763 31.96872,-28.65441 31.97089,-28.65219 31.97103,-28.65204 31.97308,-28.64994 31.97744,-28.64546 31.98057,-28.64224 31.9837,-28.63903 31.988,-28.63461 31.99118,-28.63135 31.99141,-28.63111 32.00031,-28.62198 32.00063,-28.62214 32.0012,-28.62249 32.00208,-28.62304 32.00256,-28.62333 32.00303,-28.62363 32.00351,-28.62393 32.00398,-28.62422 32.00494,-28.62482 32.00508,-28.62491 32.00565,-28.62535 32.00551,-28.62548 32.00541,-28.62565 32.00521,-28.6257 32.00512,-28.62585 32.00508,-28.62597 32.00505,-28.62615 32.00499,-28.6263 32.00498,-28.62641 32.005,-28.62655 32.00501,-28.62667 32.00497,-28.62682 32.00487,-28.62697 32.00479,-28.62705 32.00478,-28.62718 32.0049,-28.62734 32.00493,-28.62737 32.00497,-28.62744 32.00497,-28.62753 32.0049,-28.62763 32.00485,-28.62766 32.00477,-28.62769 32.00471,-28.62776 32.00472,-28.62785 32.00472,-28.62792 32.00477,-28.62811 32.00481,-28.62821 32.00486,-28.62831 32.0049,-28.62841 32.00497,-28.62848 32.00498,-28.62854 32.00498,-28.62861 32.0049,-28.62866 32.00482,-28.62868 32.0047,-28.62869 32.00454,-28.62872 32.00446,-28.62878 32.00436,-28.62882 32.00434,-28.62889 32.00429,-28.62893 32.00418,-28.62893 32.0041,-28.62897 32.00403,-28.62902 32.00402,-28.62913 32.004,-28.6293 32.00395,-28.62932 32.00389,-28.62934 32.00374,-28.62933 32.00373,-28.62937 32.00374,-28.62953 32.00376,-28.62962 32.00372,-28.62968 32.00364,-28.62975 32.00354,-28.62981 32.00341,-28.62987 32.00324,-28.62995 32.00307,-28.63 32.00291,-28.63002 32.00278,-28.63003 32.0026,-28.63003 32.00248,-28.63009 32.00236,-28.63014 32.00229,-28.63025 32.00225,-28.63037 32.00216,-28.63047 32.00198,-28.63057 32.00182,-28.63061 32.0017,-28.63062 32.00153,-28.63058 32.00139,-28.63045 32.00116,-28.63035 32.001,-28.63033 32.00088,-28.63035 32.00063,-28.63036 32.00048,-28.6304 32.00036,-28.63048 32.00029,-28.63055 32.00021,-28.6306 32.00011,-28.63067 32.00001,-28.63075 31.99983,-28.63076 31.99969,-28.63088 31.99964,-28.631 31.99978,-28.63115 31.9999,-28.63122 32.00004,-28.63128 32.00008,-28.63135 32.00008,-28.63147 32.00011,-28.6317 32.00014,-28.63185 32.0001,-28.63203 32.00004,-28.63218 31.99993,-28.63235 31.99978,-28.63256 31.99975,-28.63269 31.99972,-28.63283 31.99969,-28.63294 31.99958,-28.63295 31.99946,-28.63296 31.99935,-28.63311 31.9993,-28.6333 31.99926,-28.6334 31.9992,-28.63354 31.99919,-28.63366 31.99912,-28.63374 31.99907,-28.6339 31.99909,-28.63412 31.9991,-28.63434 31.9991,-28.63455 31.99915,-28.63472 31.99917,-28.63491 31.99919,-28.63504 31.99921,-28.63508 31.99927,-28.63523 31.99933,-28.63545 31.99939,-28.63564 31.99946,-28.63568 31.99964,-28.63572 31.99974,-28.63575 31.99992,-28.63588 32.00019,-28.636 32.00057,-28.63613 32.00077,-28.63618 32.00091,-28.63625 32.00104,-28.63638 32.00114,-28.63656 32.00121,-28.63678 32.00124,-28.63695 32.00132,-28.63724 32.00132,-28.63745 32.00134,-28.63764 32.00135,-28.63772 32.00145,-28.63802 32.00152,-28.63819 32.00158,-28.6383 32.00168,-28.63844 32.00177,-28.63859 32.00184,-28.63869 32.00202,-28.63872 32.00213,-28.63886 32.00228,-28.63912 32.0023,-28.63934 32.0023,-28.63952 32.00227,-28.6397 32.00222,-28.63987 32.00217,-28.64001 32.00208,-28.64017 32.00201,-28.64029 32.00197,-28.64046 32.00192,-28.6406 32.00184,-28.64074 32.00173,-28.64086 32.00161,-28.64093 32.00135,-28.64112 32.00121,-28.64128 32.0011,-28.64144 32.00099,-28.64156 32.00094,-28.64168 32.00078,-28.64182 32.00065,-28.64196 32.00057,-28.6421 32.0005,-28.64222 32.00047,-28.64238 32.0005,-28.64253 32.00049,-28.64267 32.00043,-28.64282 32.00033,-28.64298 32.00029,-28.6431 32.00027,-28.64323 32.00031,-28.64336 32.00037,-28.64361 32.00041,-28.64378 32.00043,-28.644 32.00049,-28.64427 32.00058,-28.64449 32.00067,-28.64462 32.0008,-28.64472 32.00093,-28.64476 32.00127,-28.64493 32.00146,-28.64501 32.00156,-28.64505 32.00173,-28.64514 32.00185,-28.64518 32.00194,-28.64522 32.00207,-28.64529 32.00212,-28.64537 32.00214,-28.6455 32.00204,-28.64559 32.00198,-28.64566 32.00183,-28.64577 32.00171,-28.64594 32.0016,-28.64611 32.00154,-28.64618 32.0015,-28.64633 32.00138,-28.64649 32.00114,-28.64663 32.00092,-28.64675 32.00071,-28.6469 32.00054,-28.64696 32.00035,-28.6471 32.00017,-28.64722 32.00009,-28.64737 32.00003,-28.64755 31.99995,-28.64772 31.99995,-28.64796 31.99996,-28.64819 32.00003,-28.64837 32.00024,-28.64845 32.00038,-28.64842 32.00051,-28.64836 32.00065,-28.64826 32.00079,-28.64818 32.001,-28.64808 32.00127,-28.64805 32.00141,-28.64809 32.00163,-28.64817 32.00177,-28.64827 32.00195,-28.64831 32.00215,-28.64834 32.00241,-28.64839 32.00262,-28.64843 32.00274,-28.6486 32.0028,-28.64875 32.00287,-28.64888 32.00301,-28.64903 32.0033,-28.64922 32.00343,-28.64923 32.00357,-28.64927 32.0037,-28.64935 32.00379,-28.64945 32.00388,-28.64962 32.00397,-28.64977 32.0041,-28.64995 32.00425,-28.65016 32.00428,-28.65023 32.0043,-28.65029 32.00431,-28.65041 32.00429,-28.65055 32.00427,-28.6507 32.00433,-28.65082 32.00445,-28.65092 32.00452,-28.65092 32.00471,-28.65091 32.00476,-28.65083 32.00487,-28.65066 32.00499,-28.65066 32.00512,-28.6507 32.00532,-28.65073 32.00548,-28.65069 32.00558,-28.65061 32.00567,-28.65052 32.00569,-28.65047 32.00568,-28.65035 32.00564,-28.65024 32.00563,-28.65012 32.00572,-28.65008 32.00585,-28.65002 32.00592,-28.64994 32.0061,-28.6497 32.00621,-28.64955 32.00628,-28.64937 32.00643,-28.64921 32.00657,-28.64902 32.00667,-28.6488 32.00682,-28.64872 32.007,-28.64856 32.0072,-28.64848 32.00752,-28.64837 32.00763,-28.64831 32.00799,-28.64831 32.00816,-28.64829 32.00839,-28.64832 32.00858,-28.64837 32.00873,-28.64834 32.00885,-28.64827 32.00903,-28.64825 32.00924,-28.6482 32.00941,-28.64814 32.00962,-28.64797 32.00973,-28.64784 32.0098,-28.64775 32.00998,-28.64767 32.0102,-28.64766 32.01038,-28.64772 32.01055,-28.6478 32.01075,-28.64785 32.01091,-28.64788 32.01107,-28.64776 32.01125,-28.64754 32.0113,-28.6475 32.01138,-28.64749 32.01155,-28.64748 32.01174,-28.64745 32.01192,-28.64743 32.01207,-28.64743 32.01227,-28.64744 32.01281,-28.64745 32.01285,-28.6474 32.01297,-28.64742 32.01313,-28.64742 32.01327,-28.64747 32.01352,-28.64748 32.01364,-28.64754 32.01413,-28.64771 32.01447,-28.64782 32.0148,-28.64788 32.01511,-28.6479 32.01531,-28.64788 32.01546,-28.64776 32.01559,-28.64765 32.01585,-28.64747 32.01594,-28.64739 32.01601,-28.64731 32.01616,-28.64719 32.0164,-28.64717 32.01669,-28.64711 32.01696,-28.64707 32.01719,-28.64701 32.01736,-28.64699 32.0175,-28.64692 32.01771,-28.64691 32.01794,-28.64687 32.01816,-28.64678 32.0183,-28.64671 32.01856,-28.64659 32.01875,-28.64642 32.01902,-28.6464 32.01912,-28.64621 32.0192,-28.64617 32.01933,-28.64612 32.01945,-28.64612 32.01955,-28.64618 32.01974,-28.64624 32.01984,-28.64623 32.02004,-28.64625 32.02029,-28.6463 32.02047,-28.64629 32.02054,-28.64627 32.02062,-28.64617 32.02083,-28.6461 32.02104,-28.64604 32.02123,-28.64604 32.0214,-28.64608 32.02161,-28.64613 32.02185,-28.64622 32.02205,-28.64632 32.02223,-28.64635 32.02242,-28.64645 32.02247,-28.64652 32.02251,-28.64666 32.0225,-28.64678 32.02236,-28.64685 32.02221,-28.6469 32.02214,-28.64702 32.02219,-28.64714 32.02231,-28.64723 32.02248,-28.64728 32.02266,-28.64731 32.02284,-28.64739 32.02299,-28.64748 32.0231,-28.64757 32.02323,-28.64778 32.02327,-28.64791 32.02332,-28.64804 32.02343,-28.64843 32.02353,-28.64859 32.0237,-28.64868 32.02385,-28.64869 32.02402,-28.64869 32.02418,-28.64859 32.02427,-28.64848 32.0243,-28.64831 32.02434,-28.64814 32.02442,-28.64804 32.02459,-28.64805 32.02476,-28.6481 32.02494,-28.64818 32.02504,-28.64832 32.02509,-28.64843 32.02509,-28.64858 32.0251,-28.64863 32.02515,-28.64868 32.02528,-28.6487 32.0254,-28.6487 32.02553,-28.64871 32.0258,-28.64876 32.02595,-28.64887 32.02601,-28.64896 32.02609,-28.64909 32.02637,-28.64923 32.02659,-28.64931 32.02677,-28.64943 32.02698,-28.64959 32.02711,-28.64971 32.02723,-28.64997 32.0273,-28.6502 32.0273,-28.65046 32.02734,-28.65065 32.02733,-28.65092 32.02733,-28.65118 32.0273,-28.65139 32.02719,-28.65158 32.02705,-28.65179 32.02693,-28.65191 32.02672,-28.65203 32.0264,-28.65227 32.02619,-28.65237 32.02595,-28.65256 32.02586,-28.65272 32.02588,-28.65293 32.02597,-28.65314 32.02615,-28.6533 32.02639,-28.65339 32.02658,-28.65339 32.02675,-28.65336 32.02697,-28.65332 32.02713,-28.65321 32.02731,-28.65321 32.02742,-28.65324 32.02752,-28.65331 32.02763,-28.65346 32.02768,-28.6536 32.02778,-28.65391 32.02776,-28.65413 32.02771,-28.65432 32.02765,-28.65449 32.02762,-28.65469 32.02769,-28.65482 32.02773,-28.65496 32.02775,-28.65508 32.02776,-28.65519 32.02783,-28.65543 32.02772,-28.65568 32.02767,-28.65586 32.02752,-28.65612 32.02746,-28.65631 32.0274,-28.65648 32.02733,-28.65663 32.0273,-28.65678 32.0273,-28.65687 32.02735,-28.65697 32.02755,-28.65704 32.02779,-28.65712 32.02793,-28.65714 32.02833,-28.65725 32.02853,-28.65729 32.02877,-28.65737 32.02895,-28.65742 32.02929,-28.65746 32.02959,-28.65745 32.02981,-28.65742 32.02999,-28.65735 32.03004,-28.6573 32.03008,-28.65727 32.03013,-28.65716 32.03013,-28.657 32.03004,-28.65684 32.02998,-28.65672 32.02992,-28.65655 32.02988,-28.65639 32.02996,-28.65619 32.03002,-28.65605 32.03013,-28.65592 32.03016,-28.65579 32.03014,-28.65573 32.03023,-28.6556 32.03023,-28.65555 32.03021,-28.65545 32.03023,-28.6553 32.0303,-28.65516 32.03039,-28.65494 32.03052,-28.65477 32.03066,-28.65459 32.03072,-28.65451 32.03081,-28.65445 32.03088,-28.65437 32.03093,-28.65424 32.031,-28.65407 32.0311,-28.6539 32.0312,-28.65378 32.0313,-28.6537 32.0315,-28.65361 32.03168,-28.65371 32.03176,-28.65391 32.03183,-28.6541 32.03193,-28.65435 32.032,-28.65457 32.03201,-28.65474 32.03207,-28.65491 32.03212,-28.65509 32.03219,-28.65525 32.03245,-28.65545 32.03265,-28.65572 32.03287,-28.65597 32.03303,-28.65615 32.0333,-28.65647 32.03342,-28.65657 32.0336,-28.65679 32.03372,-28.65699 32.0339,-28.65726 32.03414,-28.65749 32.03443,-28.65775 32.03457,-28.65786 32.03482,-28.658 32.03506,-28.65807 32.03523,-28.65812 32.03547,-28.6582 32.03581,-28.65823 32.03606,-28.65818 32.03618,-28.65817 32.03655,-28.65819 32.03673,-28.65818 32.03681,-28.65819 32.03718,-28.65826 32.0374,-28.65835 32.03754,-28.65837 32.03789,-28.65856 32.03799,-28.65883 32.03803,-28.659 32.03804,-28.65903 32.03809,-28.65915 32.03809,-28.65957 32.03801,-28.65968 32.03782,-28.65973 32.03761,-28.65973 32.03735,-28.65974 32.03711,-28.65973 32.03676,-28.65976 32.03643,-28.65981 32.03618,-28.65984 32.03592,-28.65988 32.03565,-28.65991 32.03542,-28.65995 32.03529,-28.66002 32.03504,-28.6603 32.03493,-28.6606 32.03484,-28.66088 32.03477,-28.66109 32.03465,-28.66142 32.03447,-28.6616 32.03418,-28.6618 32.03399,-28.66191 32.03368,-28.66198 32.03339,-28.66209 32.03321,-28.66215 32.03293,-28.66224 32.03273,-28.66231 32.03252,-28.66246 32.03236,-28.66261 32.03227,-28.66289 32.03218,-28.66308 32.03206,-28.66329 32.03193,-28.66355 32.03186,-28.66376 32.03179,-28.6642 32.03181,-28.66445 32.03184,-28.66479 32.03174,-28.6651 32.0316,-28.66532 32.03135,-28.66532 32.03116,-28.66536 32.03092,-28.66541 32.03073,-28.66545 32.03048,-28.66546 32.03025,-28.66546 32.03007,-28.66542 32.02977,-28.66539 32.02937,-28.66536 32.02919,-28.66546 32.02894,-28.6655 32.0288,-28.66551 32.02863,-28.66556 32.02832,-28.66563 32.02815,-28.66569 32.028,-28.66578 32.02783,-28.66587 32.02775,-28.66598 32.02772,-28.66606 32.02769,-28.66616 32.02767,-28.6663 32.02771,-28.66646 32.02783,-28.66653 32.02801,-28.66655 32.02824,-28.66658 32.02839,-28.66663 32.02849,-28.66678 32.02851,-28.66686 32.02853,-28.66693 32.02853,-28.66701 32.02849,-28.66715 32.0285,-28.66736 32.0285,-28.66749 32.02845,-28.66766 32.02843,-28.66774 32.02836,-28.6679 32.02833,-28.66804 32.02831,-28.66818 32.02831,-28.66849 32.02829,-28.66862 32.02818,-28.66882 32.02797,-28.66899 32.02787,-28.66908 32.02766,-28.66921 32.02748,-28.66931 32.02734,-28.6694 32.02725,-28.66947 32.02715,-28.66954 32.02711,-28.66972 32.02706,-28.66992 32.027,-28.67004 32.02688,-28.67032 32.02689,-28.67061 32.02689,-28.67078 32.02696,-28.67102 32.02705,-28.67109 32.02716,-28.67125 32.02732,-28.67146 32.02741,-28.6716 32.02756,-28.67178 32.02771,-28.67198 32.02785,-28.6722 32.02807,-28.67244 32.02822,-28.67262 32.02842,-28.6728 32.02858,-28.6729 32.02872,-28.67298 32.02886,-28.67307 32.02902,-28.67324 32.02916,-28.67336 32.02927,-28.67357 32.02932,-28.67369 32.0294,-28.67391 32.02943,-28.67408 32.02946,-28.6742 32.02947,-28.67437 32.02946,-28.6745 32.0294,-28.6747 32.02932,-28.67489 32.02919,-28.67512 32.02886,-28.67545 32.02853,-28.6757 32.02824,-28.67592 32.02809,-28.67613 32.02793,-28.6764 32.02769,-28.67688 32.02758,-28.67721 32.02745,-28.67749 32.02732,-28.67765 32.02722,-28.67774 32.02701,-28.6778 32.02682,-28.67778 32.02662,-28.67772 32.02644,-28.67765 32.02623,-28.67752 32.02608,-28.67737 32.0259,-28.67714 32.0258,-28.67692 32.0257,-28.67667 32.02565,-28.67647 32.02548,-28.67614 32.02527,-28.67598 32.02517,-28.67589 32.02498,-28.67577 32.02483,-28.67568 32.02464,-28.67562 32.02447,-28.67563 32.02425,-28.67564 32.02406,-28.6757 32.02389,-28.67585 32.02388,-28.67589 32.02386,-28.67602 32.02386,-28.67649 32.02389,-28.67663 32.02398,-28.67684 32.02402,-28.67705 32.02402,-28.67724 32.024,-28.67745 32.02395,-28.67763 32.02381,-28.67778 32.02363,-28.67788 32.0232,-28.67798 32.02322,-28.67796 32.02276,-28.678 32.02242,-28.67801 32.02203,-28.678 32.02178,-28.67798 32.02129,-28.6779 32.02094,-28.67782 32.02059,-28.67772 32.02047,-28.67766 32.01977,-28.67766 32.01962,-28.67767 32.0193,-28.67769 32.01907,-28.67776 32.01894,-28.67788 32.01891,-28.67803 32.01893,-28.67827 32.01906,-28.67843 32.01918,-28.67856 32.01941,-28.67877 32.01973,-28.67906 32.01991,-28.67923 32.01998,-28.67942 32.02004,-28.67958 32.02004,-28.68004 32.01992,-28.68017 32.01961,-28.68032 32.01942,-28.68041 32.01884,-28.68058 32.01846,-28.68067 32.01816,-28.68081 32.01806,-28.68085 32.01792,-28.68111 32.01788,-28.68138 32.01796,-28.68176 32.01796,-28.68191 32.01806,-28.68219 32.0182,-28.68243 32.01843,-28.68283 32.01858,-28.683 32.01871,-28.68314 32.01887,-28.68332 32.01908,-28.68349 32.01923,-28.68359 32.01945,-28.6837 32.01962,-28.68376 32.0202,-28.68416 32.02031,-28.68429 32.02039,-28.6845 32.02049,-28.68468 32.02049,-28.68483 32.02037,-28.6851 32.02015,-28.68524 32.01993,-28.68537 32.01974,-28.68547 32.01968,-28.6855 32.01951,-28.68562 32.01929,-28.68571 32.01909,-28.68585 32.01903,-28.68589 32.01968,-28.68688 32.01981,-28.68709 32.02005,-28.68731 32.02027,-28.68743 32.02063,-28.68758 32.02085,-28.68762 32.02088,-28.68762 32.02111,-28.68764 32.02132,-28.68761 32.02146,-28.68758 32.02181,-28.68745 32.02203,-28.68731 32.02232,-28.68718 32.02272,-28.68709 32.02303,-28.68708 32.02355,-28.68721 32.02383,-28.68726 32.02414,-28.68729 32.02439,-28.68728 32.02465,-28.68726 32.02507,-28.68721 32.02531,-28.68729 32.02557,-28.68728 32.02576,-28.68727 32.0259,-28.68726 32.02626,-28.68728 32.02639,-28.6873 32.02658,-28.68739 32.02662,-28.6875 32.02673,-28.68766 32.02685,-28.68772 32.02702,-28.68779 32.02713,-28.68794 32.02725,-28.68804 32.02738,-28.6881 32.02758,-28.6881 32.02773,-28.68811 32.02783,-28.68814 32.02794,-28.68819 32.02803,-28.6882 32.02812,-28.68823 32.02822,-28.68827 32.0283,-28.68837 32.02839,-28.68844 32.02846,-28.68853 32.02848,-28.68862 32.02849,-28.68865 32.02851,-28.68868 32.02856,-28.68877 32.02859,-28.68886 32.02861,-28.68898 32.02859,-28.68909 32.02855,-28.68918 32.02854,-28.68924 32.02845,-28.68925 32.02825,-28.68926 32.02795,-28.68933 32.02845,-28.68953 32.02878,-28.68946 32.02948,-28.68936 32.03016,-28.68953 32.03353,-28.69073 32.03411,-28.69092 32.03445,-28.69099 32.03471,-28.69105 32.03491,-28.69109 32.03498,-28.69111 32.03583,-28.69117 32.03664,-28.69091 32.03732,-28.69045 32.03772,-28.68978 32.03779,-28.68961 32.0379,-28.68937 32.03803,-28.68913 32.03831,-28.68866 32.03849,-28.68831 32.03856,-28.68815 32.03865,-28.68795 32.0387,-28.68781 32.03883,-28.68751 32.03909,-28.68688 32.03933,-28.68633 32.03948,-28.68597 32.03977,-28.68528 32.03997,-28.68455 32.04021,-28.68367 32.04043,-28.68324 32.04056,-28.683 32.04109,-28.68195 32.04158,-28.68139 32.04286,-28.67992 32.04376,-28.67889 32.04401,-28.67908 32.04815,-28.67464 32.0479,-28.67447 32.04808,-28.67428 32.0526,-28.66926 32.05487,-28.66675 32.05713,-28.66424 32.06653,-28.67551 32.07311,-28.68338 32.07338,-28.6837 32.07342,-28.68376 32.07337,-28.68396 32.07349,-28.68392 32.06851,-28.70341 32.07461,-28.70368 32.08313,-28.70407 32.08351,-28.70409 32.08824,-28.7043 32.10603,-28.71049 32.12088,-28.70344 32.14422,-28.70204 32.15291,-28.70713 32.1543,-28.70793 32.15365,-28.70816 32.15293,-28.70872 32.15199,-28.70978 32.15119,-28.71085 32.15071,-28.71163 32.14981,-28.71237 32.14862,-28.71243 32.14732,-28.71244 32.14602,-28.71199 32.14538,-28.71241 32.14398,-28.71292 32.14339,-28.71355 32.1429,-28.7141 32.14291,-28.71489 32.14264,-28.71579 32.14161,-28.71667 32.14128,-28.71756 32.14117,-28.71889 32.14045,-28.71983 32.1403,-28.72006 32.13986,-28.72073 32.13949,-28.72183 32.139,-28.72274 32.13878,-28.72354 32.1386,-28.72448 32.13953,-28.72386 32.13982,-28.72384 32.14051,-28.7238 32.14166,-28.72439 32.14193,-28.7251 32.14315,-28.72547 32.14312,-28.72691 32.14268,-28.72742 32.14196,-28.72797 32.14139,-28.72836 32.1406,-28.72908 32.14003,-28.72938 32.13923,-28.72996 32.13854,-28.73053 32.13798,-28.73127 32.13741,-28.73209 32.13625,-28.73291 32.13543,-28.73369 32.13445,-28.73438 32.13366,-28.73533 32.13302,-28.73613 32.13236,-28.73705 32.13167,-28.738 32.13102,-28.73866 32.13033,-28.73917 32.13021,-28.74004 32.12949,-28.74112 32.12838,-28.74195 32.12775,-28.74261 32.12718,-28.74319 32.12616,-28.74439 32.12573,-28.74567 32.12587,-28.74668 32.12595,-28.74736 32.12601,-28.74814 32.12593,-28.74868 32.12615,-28.74883 32.12617,-28.74885 32.13407,-28.75433 32.13588,-28.75559 32.14221,-28.75998 32.14424,-28.76138 32.14484,-28.76091 32.14464,-28.76119 32.14447,-28.76142 32.14423,-28.76175 32.14395,-28.7621 32.14364,-28.7624 32.14337,-28.76265 32.14304,-28.76296 32.14287,-28.76319 32.14249,-28.76355 32.14223,-28.76379 32.14204,-28.7641 32.14182,-28.76432 32.14144,-28.76467 32.14126,-28.76479 32.14101,-28.76501 32.14074,-28.76529 32.14049,-28.76565 32.14022,-28.76587 32.13997,-28.76622 32.13971,-28.76657 32.13951,-28.7668 32.13924,-28.7671 32.13901,-28.76734 32.13883,-28.76757 32.13857,-28.76786 32.13822,-28.76824 32.13794,-28.76859 32.13762,-28.76898 32.13729,-28.76926 32.13704,-28.76949 32.13677,-28.76974 32.13641,-28.77003 32.13609,-28.77034 32.13585,-28.77063 32.13553,-28.77093 32.13515,-28.77131 32.13478,-28.77166 32.13452,-28.77193 32.13428,-28.77219 32.1341,-28.77243 32.1338,-28.7727 32.13376,-28.77274 32.13322,-28.77322 32.1329,-28.77348 32.13263,-28.7737 32.13225,-28.77386 32.13212,-28.77397 32.13211,-28.77407 32.13209,-28.77413 32.132,-28.77421 32.13181,-28.77429 32.13154,-28.77461 32.13125,-28.77499 32.13097,-28.7753 32.13064,-28.77574 32.1303,-28.77613 32.12986,-28.77656 32.12945,-28.77698 32.1291,-28.77736 32.12874,-28.7777 32.12835,-28.7781 32.1279,-28.77851 32.12757,-28.77887 32.12722,-28.77924 32.1269,-28.77957 32.12652,-28.77997 32.12629,-28.78023 32.12603,-28.78047 32.12582,-28.78073 32.12562,-28.78098 32.12532,-28.78128 32.12502,-28.78155 32.12458,-28.7819 32.12413,-28.7823 32.12378,-28.78257 32.12344,-28.78286 32.1231,-28.78314 32.12273,-28.78344 32.1224,-28.78366 32.12205,-28.78392 32.12175,-28.78414 32.12144,-28.78437 32.12108,-28.78456 32.1208,-28.78472 32.12054,-28.78493 32.12022,-28.78515 32.11992,-28.78531 32.11958,-28.78555 32.11922,-28.78578 32.11889,-28.786 32.11855,-28.78616 32.11817,-28.78637 32.11786,-28.78657 32.1176,-28.78675 32.11731,-28.7869 32.11707,-28.78707 32.11675,-28.78732 32.1164,-28.78758 32.11611,-28.7878 32.11581,-28.78802 32.11549,-28.78832 32.11519,-28.78854 32.11495,-28.78869 32.11474,-28.78882 32.11445,-28.78905 32.11418,-28.7893 32.11382,-28.78951 32.11358,-28.78962 32.11324,-28.78985 32.1129,-28.79005 32.11249,-28.79034 32.11225,-28.79051 32.11186,-28.79072 32.11159,-28.79087 32.11124,-28.7912 32.11104,-28.79135 32.11082,-28.79148 32.11049,-28.79177 32.11021,-28.79197 32.10987,-28.79219 32.10943,-28.79252 32.10919,-28.79268 32.10899,-28.79281 32.10863,-28.79305 32.10824,-28.79335 32.1079,-28.79362 32.10758,-28.79387 32.10729,-28.7941 32.10696,-28.79434 32.1065,-28.79461 32.10612,-28.7949 32.10572,-28.79525 32.10547,-28.79549 32.10509,-28.7958 32.10475,-28.79611 32.10434,-28.79637 32.10393,-28.79672 32.1037,-28.79689 32.10331,-28.79718 32.10288,-28.79748 32.10228,-28.79793 32.10187,-28.79825 32.10143,-28.7986 32.101,-28.79891 32.10063,-28.79914 32.10032,-28.79941 32.10008,-28.79959 32.09969,-28.79988 32.09947,-28.80012 32.09916,-28.80047 32.0989,-28.8007 32.09888,-28.80072 32.09885,-28.80074 32.0986,-28.80108 32.09834,-28.80142 32.09811,-28.8017 32.09791,-28.80195 32.09778,-28.80215 32.09754,-28.80245 32.09733,-28.8028 32.09712,-28.80318 32.0969,-28.80354 32.09661,-28.80415 32.09654,-28.80457 32.09638,-28.80489 32.09603,-28.80535 32.09539,-28.80609 32.09462,-28.80722 32.0937,-28.80838 32.09286,-28.80951 32.09198,-28.8107 32.09103,-28.81194 32.09036,-28.81285 32.08906,-28.81419 32.08876,-28.81447 32.08856,-28.81468 32.08828,-28.81493 32.08787,-28.81528 32.08741,-28.81562 32.08697,-28.81598 32.08657,-28.81626 32.08613,-28.81655 32.08579,-28.81679 32.08542,-28.817 32.085,-28.81721 32.08455,-28.81754 32.08414,-28.81783 32.08369,-28.8181 32.0832,-28.81841 32.0827,-28.81877 32.08224,-28.81908 32.0818,-28.81934 32.08131,-28.8197 32.08107,-28.81988 32.08078,-28.82015 32.08056,-28.8203 32.08017,-28.82066 32.07977,-28.82098 32.07936,-28.82136 32.07901,-28.82161 32.07863,-28.82191 32.07832,-28.82208 32.07794,-28.8224 32.07763,-28.8226 32.07727,-28.8229 32.07702,-28.82315 32.0766,-28.82339 32.0763,-28.82364 32.07598,-28.82391 32.07567,-28.82412 32.07544,-28.82436 32.07518,-28.82452 32.07486,-28.82481 32.0745,-28.82505 32.07433,-28.82525 32.07394,-28.82547 32.07361,-28.82571 32.07316,-28.82604 32.07283,-28.82632 32.07248,-28.82663 32.07223,-28.82687 32.07188,-28.82717 32.07145,-28.82753 32.07107,-28.82784 32.07051,-28.82826 32.07,-28.82863 32.06944,-28.82909 32.06896,-28.82947 32.06858,-28.82972 32.06791,-28.83022 32.06753,-28.83054 32.06707,-28.83091 32.06664,-28.83128 32.06618,-28.83163 32.0659,-28.83194 32.06544,-28.83239 32.065,-28.83287 32.06457,-28.83339 32.06427,-28.83366 32.06399,-28.834 32.06371,-28.83427 32.06326,-28.83473 32.06288,-28.83505 32.06251,-28.8354 32.0621,-28.83575 32.06169,-28.83608 32.06132,-28.83642 32.06089,-28.83676 32.06053,-28.83707 32.06004,-28.83752 32.05954,-28.838 32.05904,-28.83845 32.05858,-28.83885 32.058,-28.83937 32.05762,-28.83973 32.05717,-28.84014 32.05689,-28.84043 32.05643,-28.84085 32.05603,-28.84124 32.05555,-28.8417 32.05521,-28.84203 32.05478,-28.84243 32.05438,-28.84282 32.05397,-28.84317 32.05351,-28.84356 32.05296,-28.84398 32.05247,-28.84438 32.05199,-28.8447 32.05158,-28.84498 32.05112,-28.84521 32.05087,-28.84539 32.05049,-28.84581 32.04998,-28.84632 32.04961,-28.84665 32.04918,-28.84705 32.04882,-28.8474 32.04848,-28.8477 32.04817,-28.84798 32.04777,-28.84832 32.04764,-28.84849 32.04727,-28.84896 32.04683,-28.84941 32.04663,-28.84963 32.0463,-28.8499 32.04608,-28.85017 32.04585,-28.85041 32.04542,-28.85084 32.04504,-28.85116 32.04453,-28.85154 32.04417,-28.85185 32.0439,-28.85214 32.04359,-28.85247 32.04325,-28.85286 32.04273,-28.85341 32.04226,-28.85392 32.04172,-28.85444 32.04125,-28.85489 32.04067,-28.8554 32.04022,-28.85581 32.03993,-28.85609 32.03949,-28.85641 32.03902,-28.8568 32.03865,-28.85717 32.03832,-28.85745 32.0379,-28.85788 32.0376,-28.85818 32.0372,-28.85856 32.03675,-28.85899 32.03626,-28.85938 32.03588,-28.85969 32.03526,-28.86027 32.03459,-28.86087 32.03416,-28.86128 32.03318,-28.86216 32.03272,-28.86254 32.03218,-28.86302 32.03161,-28.86351 32.03102,-28.86399 32.03051,-28.86442 32.02994,-28.86489 32.02952,-28.86525 32.02934,-28.8654 32.02917,-28.86529 32.02905,-28.86522 32.02806,-28.86458 32.0278,-28.86484 32.02764,-28.86499 32.01279,-28.87701 32.00423,-28.88221 31.99504,-28.88607 31.96032,-28.90049 31.94529,-28.9042 31.94079,-28.90549 31.93793,-28.90687 31.93549,-28.90941 31.931,-28.91116 31.9259,-28.91444 31.91854,-28.91747 31.90811,-28.92015 31.89613,-28.92267 31.88503,-28.92598 31.8844,-28.92617 31.87864,-28.92811 31.872,-28.93041 31.86576,-28.9327 31.85922,-28.93563 31.85203,-28.93815 31.84746,-28.93995 31.84234,-28.94151 31.83927,-28.9419 31.83722,-28.94217 31.83056,-28.94231 31.82492,-28.94306 31.82031,-28.94363 31.81776,-28.945 31.81722,-28.94488 31.817,-28.94483 31.81683,-28.94503 31.81656,-28.94528 31.81624,-28.94547 31.81589,-28.94566 31.81571,-28.94574 31.81568,-28.94562 31.81558,-28.94548 31.81546,-28.94539 31.81517,-28.94529 31.81498,-28.94529 31.81478,-28.94533 31.81454,-28.94541 31.81426,-28.94554 31.81406,-28.9456 31.81379,-28.94567 31.81336,-28.94567 31.81312,-28.94561 31.81287,-28.94553 31.81242,-28.9454 31.81205,-28.94531 31.81166,-28.94525 31.811,-28.94518 31.81025,-28.94512 31.80957,-28.94508 31.80779,-28.94508 31.8068,-28.94516 31.80597,-28.94523 31.80528,-28.94535 31.80442,-28.94546 31.80349,-28.94562 31.80251,-28.94589 31.80135,-28.94634 31.8008,-28.94658 31.80022,-28.94681 31.79951,-28.94711 31.79872,-28.9475 31.79822,-28.94765 31.79743,-28.948 31.79697,-28.94816 31.79635,-28.94831 31.79567,-28.94849 31.79505,-28.94869 31.79433,-28.94897 31.79383,-28.94912 31.79336,-28.94926 31.79289,-28.94937 31.79246,-28.94944 31.79204,-28.94948 31.7915,-28.9495 31.79086,-28.9495 31.79027,-28.94949 31.78972,-28.94955 31.78902,-28.94969 31.78854,-28.94981 31.78762,-28.95003 31.78694,-28.95023 31.78632,-28.95039 31.78553,-28.95064 31.78506,-28.95079 31.78457,-28.951 31.7841,-28.95131 31.78358,-28.9516 31.78289,-28.95213 31.78243,-28.95267 31.78187,-28.95331 31.78148,-28.95376 31.7811,-28.95419 31.7808,-28.95446 31.78031,-28.95478 31.77982,-28.95501 31.77927,-28.9552 31.77887,-28.95533 31.77847,-28.95536 31.77798,-28.95536 31.77747,-28.95532 31.77696,-28.95526 31.77652,-28.95514 31.77611,-28.95492 31.77579,-28.95457 31.77551,-28.95412 31.77537,-28.95363 31.77526,-28.95318 31.77514,-28.95275 31.7751,-28.95235 31.77514,-28.95196 31.77529,-28.95167 31.77568,-28.95133 31.77618,-28.951 31.77662,-28.95078 31.77719,-28.95044 31.77772,-28.9502 31.77825,-28.94999 31.77884,-28.94978 31.77917,-28.94962 31.77985,-28.94953 31.78035,-28.94936 31.78088,-28.94924 31.78134,-28.94904 31.78188,-28.94873 31.7823,-28.94841 31.78268,-28.94806 31.78307,-28.94771 31.78351,-28.94719 31.78387,-28.94683 31.78418,-28.94644 31.78449,-28.94598 31.78481,-28.94552 31.78521,-28.94491 31.78548,-28.9444 31.7858,-28.9438 31.78602,-28.94336 31.78607,-28.94304 31.78609,-28.9428 31.78609,-28.94241 31.78605,-28.94213 31.78592,-28.94173 31.78582,-28.94146 31.78575,-28.94127 31.7855,-28.94075 31.78534,-28.94044 31.78509,-28.93996 31.78484,-28.93963 31.7845,-28.93925 31.78413,-28.93885 31.78375,-28.93851 31.78332,-28.93812 31.78292,-28.93771 31.78247,-28.93737 31.78194,-28.93695 31.78148,-28.93661 31.78122,-28.93647 31.78084,-28.93626 31.78049,-28.93608 31.78023,-28.93595 31.78065,-28.93561 31.78082,-28.93547 31.78102,-28.93533 31.78105,-28.93528 31.78121,-28.93516 31.78131,-28.93507 31.78165,-28.9348 31.78188,-28.93462 31.78205,-28.93453 31.78228,-28.93441 31.78273,-28.93426 31.78585,-28.93358 31.78897,-28.93269 31.78976,-28.93249 31.79119,-28.93214 31.79147,-28.93212 31.79171,-28.93211 31.79191,-28.93175 31.79276,-28.93211 31.79476,-28.93336 31.79546,-28.93361 31.79669,-28.93401 31.79686,-28.93406 31.79742,-28.93421 31.79791,-28.93427 31.79828,-28.93432 31.79875,-28.93425 31.79924,-28.93401 31.80155,-28.93308 31.80166,-28.93303 31.80163,-28.93295 31.80077,-28.9313 31.79931,-28.92851 31.79782,-28.92567 31.79692,-28.92394 31.79633,-28.92283 31.79483,-28.91999 31.79337,-28.91721 31.79334,-28.91715 31.79183,-28.91431 31.79163,-28.91392 31.79092,-28.91258 31.79035,-28.91147 31.78594,-28.90292 31.78585,-28.90274 31.78579,-28.90277 31.78389,-28.90364 31.78199,-28.9045 31.7801,-28.90537 31.7763,-28.90709 31.7744,-28.90796 31.77251,-28.90882 31.77061,-28.90969 31.76871,-28.91055 31.7668,-28.91142 31.76656,-28.91153 31.76559,-28.91197 31.7649,-28.91229 31.76299,-28.91315 31.76108,-28.91402 31.75918,-28.91488 31.75687,-28.91593 31.75684,-28.91594</coordinates></LinearRing></outerBoundaryIs></Polygon></MultiGeometry></Placemark></Document></kml>