<?xml version="1.0" encoding="UTF-8"?><kml xmlns="http://www.opengis.net/kml/2.2"><Document><Placemark><name>Empangeni</name><description>Main Place 538015</description><ExtendedData><Data name="code"><value>538015</value></Data><Data name="name"><value>Empangeni</value></Data><Data name="description"><value>Main Place 538015</value></Data></ExtendedData><MultiGeometry><Polygon><outerBoundaryIs><LinearRing><coordinates>31.89247,-28.82213 31.89298,-28.82273 31.8935,-28.82334 31.89404,-28.82399 31.89424,-28.82423 31.89466,-28.82469 31.89468,-28.82471 31.895,-28.82513 31.89552,-28.82573 31.89603,-28.82631 31.89624,-28.82659 31.89659,-28.82695 31.89683,-28.82721 31.89708,-28.82749 31.89722,-28.82763 31.89781,-28.82831 31.89792,-28.82842 31.89806,-28.8286 31.8981,-28.82868 31.8983,-28.82892 31.89872,-28.82942 31.89912,-28.82991 31.89953,-28.83038 31.89973,-28.83063 31.89994,-28.83085 31.9,-28.83093 31.90018,-28.83117 31.9003,-28.83132 31.90041,-28.83145 31.90062,-28.8317 31.90069,-28.83174 31.90077,-28.83179 31.90092,-28.83198 31.90141,-28.83251 31.90172,-28.83288 31.9019,-28.83308 31.90226,-28.83348 31.90241,-28.83364 31.9028,-28.83408 31.90321,-28.83454 31.90336,-28.83469 31.90348,-28.83485 31.90357,-28.835 31.90365,-28.83509 31.90387,-28.8353 31.90411,-28.83551 31.90457,-28.8357 31.90393,-28.83717 31.90325,-28.83879 31.90185,-28.83894 31.90134,-28.839 31.90082,-28.83915 31.9002,-28.83931 31.89976,-28.83947 31.89893,-28.83972 31.89866,-28.83985 31.89761,-28.84005 31.89654,-28.84022 31.89612,-28.84023 31.89536,-28.84042 31.89404,-28.84068 31.89306,-28.84079 31.89258,-28.84087 31.89221,-28.84098 31.89172,-28.84113 31.89134,-28.8412 31.89103,-28.8412 31.88945,-28.84105 31.88738,-28.84082 31.88674,-28.84083 31.88592,-28.84085 31.88596,-28.84071 31.88597,-28.84059 31.88587,-28.84045 31.88584,-28.84037 31.88587,-28.84029 31.88597,-28.83991 31.886,-28.83984 31.88607,-28.83967 31.8861,-28.83955 31.88611,-28.83948 31.88612,-28.83941 31.88613,-28.83907 31.88612,-28.83896 31.88612,-28.83869 31.88613,-28.8386 31.88617,-28.83852 31.88635,-28.83813 31.88639,-28.83808 31.88664,-28.83763 31.88675,-28.83743 31.88685,-28.83727 31.88712,-28.83708 31.88723,-28.83697 31.88722,-28.8369 31.88709,-28.83688 31.88697,-28.83682 31.88691,-28.83666 31.88679,-28.83657 31.88661,-28.8365 31.88634,-28.83639 31.88615,-28.83628 31.88584,-28.83607 31.88572,-28.8359 31.88559,-28.83562 31.88548,-28.83535 31.8854,-28.83503 31.88537,-28.83468 31.88539,-28.83451 31.88539,-28.83438 31.88545,-28.83412 31.88552,-28.83392 31.88559,-28.83371 31.88567,-28.83342 31.88579,-28.83309 31.88583,-28.83299 31.88591,-28.83278 31.88598,-28.83268 31.88605,-28.83261 31.88615,-28.8326 31.88626,-28.83259 31.88632,-28.83228 31.8865,-28.83114 31.88738,-28.83113 31.88776,-28.83112 31.888,-28.83092 31.8882,-28.83073 31.88834,-28.83036 31.88834,-28.83007 31.88825,-28.82954 31.88824,-28.82916 31.88823,-28.82879 31.88826,-28.82866 31.8883,-28.82833 31.88837,-28.82814 31.88853,-28.8275 31.88834,-28.82743 31.8883,-28.82735 31.88831,-28.82726 31.88834,-28.82655 31.88841,-28.82625 31.88857,-28.82591 31.88874,-28.82559 31.88888,-28.82546 31.8892,-28.82518 31.88954,-28.82483 31.88973,-28.82459 31.89009,-28.82423 31.89022,-28.82413 31.8903,-28.82409 31.89046,-28.82406 31.89053,-28.82395 31.89059,-28.82373 31.89064,-28.82342 31.8906,-28.82288 31.89052,-28.82244 31.89073,-28.82234 31.89094,-28.82223 31.89108,-28.82225 31.89125,-28.8223 31.89175,-28.82238 31.8918,-28.82237 31.89222,-28.82183 31.89247,-28.82213</coordinates></LinearRing></outerBoundaryIs></Polygon><Polygon><outerBoundaryIs><LinearRing><coordinates>31.9029,-28.73829 31.90305,-28.73913 31.90444,-28.74151 31.90915,-28.74238 31.91227,-28.74296 31.91296,-28.74282 31.91343,-28.74315 31.9136,-28.74316 31.9138,-28.74322 31.91402,-28.74336 31.91426,-28.7435 31.91448,-28.74363 31.91472,-28.74377 31.91484,-28.74385 31.91498,-28.74392 31.91515,-28.744 31.91525,-28.74404 31.9155,-28.74411 31.91567,-28.74417 31.91583,-28.74422 31.91592,-28.74425 31.91616,-28.74429 31.91638,-28.74434 31.9165,-28.74436 31.91664,-28.7444 31.91694,-28.74449 31.91709,-28.74453 31.91805,-28.74471 31.91897,-28.7449 31.91881,-28.74541 31.91856,-28.74605 31.91818,-28.74701 31.91812,-28.74714 31.91782,-28.74786 31.91746,-28.74872 31.91739,-28.74895 31.91709,-28.74882 31.9168,-28.7487 31.91617,-28.74859 31.91585,-28.74942 31.91553,-28.75038 31.91501,-28.75176 31.91469,-28.75176 31.91398,-28.75174 31.91386,-28.75191 31.91288,-28.75187 31.91256,-28.7518 31.91012,-28.75129 31.91003,-28.75164 31.90998,-28.75182 31.90993,-28.75199 31.90983,-28.75241 31.90945,-28.75383 31.90822,-28.75854 31.90767,-28.76059 31.9097,-28.76146 31.91001,-28.76283 31.91292,-28.76403 31.91324,-28.76466 31.91422,-28.7648 31.91301,-28.7657 31.91367,-28.76704 31.9158,-28.76699 31.91622,-28.7682 31.91659,-28.77096 31.91419,-28.7719 31.91411,-28.77195 31.91322,-28.77139 31.91208,-28.77068 31.91181,-28.77056 31.91158,-28.77046 31.91142,-28.77042 31.91123,-28.77044 31.91105,-28.77048 31.91079,-28.77053 31.91042,-28.76997 31.90904,-28.77254 31.90867,-28.77315 31.90817,-28.77378 31.9075,-28.7736 31.9073,-28.77354 31.90749,-28.77361 31.90408,-28.78049 31.90357,-28.78181 31.90357,-28.78182 31.90305,-28.78399 31.90196,-28.78357 31.90108,-28.78322 31.90019,-28.78288 31.89931,-28.78252 31.89844,-28.78219 31.89829,-28.7821 31.89797,-28.78195 31.89788,-28.78214 31.89787,-28.78217 31.89691,-28.78178 31.89635,-28.78157 31.8957,-28.78131 31.89504,-28.78103 31.89439,-28.78076 31.89374,-28.7805 31.89311,-28.78023 31.89268,-28.78008 31.89203,-28.77985 31.89144,-28.77964 31.8909,-28.77942 31.89023,-28.77912 31.89002,-28.77902 31.88992,-28.779 31.88978,-28.77897 31.88954,-28.77887 31.88896,-28.77865 31.88832,-28.77837 31.88691,-28.77783 31.88634,-28.7776 31.88572,-28.77735 31.88512,-28.77712 31.88457,-28.77688 31.88442,-28.77681 31.88409,-28.77695 31.88357,-28.77716 31.88313,-28.77733 31.8831,-28.77735 31.88295,-28.7774 31.88295,-28.77741 31.88294,-28.77755 31.8829,-28.77761 31.88284,-28.77762 31.88275,-28.77766 31.88258,-28.77775 31.88251,-28.77783 31.88247,-28.77794 31.88244,-28.778 31.88243,-28.77808 31.88237,-28.77814 31.88213,-28.77831 31.88201,-28.77842 31.88194,-28.77851 31.88186,-28.77858 31.88173,-28.77865 31.88136,-28.77883 31.88121,-28.7789 31.88111,-28.77893 31.88102,-28.77895 31.88094,-28.77897 31.88083,-28.77896 31.88067,-28.77897 31.88055,-28.77897 31.88048,-28.77901 31.88045,-28.77907 31.88043,-28.77912 31.88039,-28.77917 31.8803,-28.7792 31.88002,-28.77931 31.87982,-28.77946 31.87969,-28.77953 31.87966,-28.77957 31.87965,-28.77963 31.87961,-28.77966 31.87956,-28.7797 31.87953,-28.77972 31.87949,-28.77977 31.87941,-28.77983 31.87937,-28.77989 31.87929,-28.78 31.87925,-28.78007 31.87923,-28.78014 31.87923,-28.7802 31.87923,-28.78033 31.87923,-28.78037 31.87922,-28.78039 31.8792,-28.78043 31.87918,-28.78045 31.87915,-28.78048 31.87904,-28.7806 31.87899,-28.78066 31.87889,-28.78082 31.8788,-28.78094 31.87872,-28.78101 31.87865,-28.78106 31.87863,-28.78113 31.87859,-28.78127 31.87858,-28.78139 31.87856,-28.78143 31.87851,-28.7815 31.87847,-28.78153 31.87845,-28.78159 31.87843,-28.78164 31.87841,-28.7817 31.87841,-28.78181 31.87837,-28.7819 31.87825,-28.78195 31.87805,-28.78196 31.87801,-28.78196 31.87785,-28.78203 31.87776,-28.78224 31.87776,-28.78236 31.87786,-28.78243 31.87791,-28.78252 31.87794,-28.78273 31.87802,-28.78287 31.87817,-28.78293 31.87837,-28.78315 31.87841,-28.78331 31.87835,-28.78369 31.87818,-28.78414 31.87806,-28.78443 31.87788,-28.78448 31.87775,-28.78447 31.8774,-28.78428 31.87726,-28.78425 31.87709,-28.78431 31.87696,-28.78428 31.87663,-28.78415 31.87616,-28.78409 31.87607,-28.78409 31.87613,-28.78458 31.87613,-28.78458 31.87614,-28.78471 31.87669,-28.78988 31.87671,-28.78987 31.87686,-28.7915 31.87693,-28.79215 31.87698,-28.79265 31.87726,-28.79523 31.87752,-28.7977 31.87757,-28.79822 31.87761,-28.79842 31.87765,-28.79873 31.8777,-28.79936 31.87776,-28.79994 31.8778,-28.80034 31.87784,-28.80045 31.87788,-28.80098 31.87794,-28.80149 31.87798,-28.80172 31.87799,-28.80184 31.878,-28.80202 31.87801,-28.80227 31.87806,-28.80251 31.87807,-28.80277 31.87815,-28.80337 31.8782,-28.80399 31.87823,-28.80439 31.8784,-28.80593 31.87851,-28.80683 31.87851,-28.80723 31.87912,-28.80738 31.87913,-28.80759 31.87914,-28.80769 31.87914,-28.80778 31.87908,-28.80785 31.87898,-28.8079 31.87891,-28.80793 31.87881,-28.80792 31.87869,-28.80793 31.87859,-28.80803 31.87847,-28.80813 31.87832,-28.80824 31.87823,-28.80832 31.87814,-28.80846 31.87805,-28.80867 31.87799,-28.80887 31.87797,-28.8091 31.87792,-28.80919 31.87783,-28.80935 31.87778,-28.80957 31.8777,-28.80989 31.87756,-28.81018 31.87741,-28.81075 31.87739,-28.81081 31.87739,-28.81081 31.87738,-28.81083 31.87737,-28.81087 31.87698,-28.81192 31.87694,-28.81204 31.87692,-28.81211 31.8769,-28.81218 31.87689,-28.81224 31.87688,-28.81233 31.87686,-28.81247 31.87684,-28.81254 31.87682,-28.81265 31.87681,-28.81277 31.8768,-28.81284 31.87676,-28.81295 31.87669,-28.81309 31.87659,-28.81324 31.87653,-28.81335 31.87649,-28.81349 31.87642,-28.81375 31.87639,-28.81385 31.87632,-28.81403 31.87628,-28.81416 31.87624,-28.81427 31.87622,-28.81433 31.87618,-28.81438 31.87615,-28.81443 31.87612,-28.81454 31.8761,-28.81469 31.87607,-28.81482 31.87605,-28.81488 31.876,-28.81506 31.87591,-28.8153 31.87581,-28.81558 31.87572,-28.81587 31.87565,-28.8161 31.87544,-28.81679 31.87529,-28.8172 31.87527,-28.81734 31.87527,-28.81743 31.87523,-28.81755 31.87516,-28.81771 31.87506,-28.81797 31.87498,-28.81818 31.87495,-28.8183 31.87485,-28.81854 31.87479,-28.8187 31.87472,-28.81895 31.87464,-28.81921 31.87448,-28.81971 31.87433,-28.82031 31.8743,-28.82035 31.8742,-28.82051 31.87417,-28.82062 31.87413,-28.82078 31.87409,-28.82092 31.87409,-28.821 31.87391,-28.82149 31.87369,-28.82212 31.87334,-28.82312 31.87335,-28.82312 31.87335,-28.82315 31.87333,-28.8232 31.87332,-28.82322 31.8733,-28.82324 31.87329,-28.82326 31.8733,-28.82328 31.8733,-28.8233 31.87329,-28.82334 31.87326,-28.82341 31.87325,-28.82344 31.87325,-28.82346 31.87324,-28.82348 31.87322,-28.8235 31.87322,-28.82354 31.87321,-28.82355 31.87321,-28.82357 31.87319,-28.82359 31.87319,-28.82361 31.87317,-28.82363 31.87317,-28.82364 31.87317,-28.82366 31.87317,-28.82368 31.87317,-28.82369 31.87316,-28.82371 31.87316,-28.82372 31.87315,-28.82374 31.87314,-28.82375 31.87313,-28.82377 31.87313,-28.82379 31.87312,-28.82381 31.87311,-28.82382 31.8731,-28.82385 31.87307,-28.82397 31.87302,-28.8241 31.873,-28.82416 31.873,-28.82418 31.87299,-28.82423 31.87296,-28.82433 31.87293,-28.82439 31.87291,-28.82444 31.87287,-28.82457 31.87285,-28.82461 31.87282,-28.8247 31.87279,-28.82481 31.87276,-28.82487 31.87275,-28.82493 31.87274,-28.82496 31.87274,-28.82501 31.87272,-28.82505 31.8727,-28.82509 31.87268,-28.82517 31.87265,-28.82523 31.87265,-28.82525 31.87264,-28.82528 31.87264,-28.82531 31.87262,-28.82535 31.8726,-28.82542 31.87258,-28.82547 31.87257,-28.82552 31.87256,-28.82555 31.87255,-28.82558 31.87254,-28.82563 31.87252,-28.82568 31.87252,-28.82571 31.87251,-28.82576 31.87251,-28.82578 31.87257,-28.82584 31.87267,-28.826 31.87268,-28.82614 31.87268,-28.82629 31.8724,-28.8266 31.8722,-28.82676 31.87213,-28.8268 31.8721,-28.82688 31.87202,-28.82708 31.87198,-28.82722 31.87196,-28.82729 31.87197,-28.82737 31.87194,-28.82743 31.87185,-28.82755 31.87177,-28.82764 31.87184,-28.82769 31.87194,-28.82776 31.87191,-28.82795 31.87169,-28.8283 31.87132,-28.82936 31.87125,-28.82971 31.87125,-28.83002 31.87213,-28.83218 31.87287,-28.83369 31.86967,-28.83445 31.86935,-28.83437 31.8685,-28.83405 31.86819,-28.83396 31.86753,-28.83393 31.86822,-28.83535 31.86819,-28.83705 31.86805,-28.83955 31.86802,-28.84068 31.86799,-28.84112 31.86788,-28.84178 31.86773,-28.8425 31.86748,-28.84335 31.86734,-28.84369 31.86723,-28.84402 31.86678,-28.84548 31.86615,-28.84534 31.86575,-28.84504 31.86543,-28.84466 31.86509,-28.84412 31.86471,-28.84347 31.86447,-28.84311 31.86418,-28.84271 31.86361,-28.84216 31.86291,-28.8419 31.86246,-28.8419 31.86231,-28.84223 31.86225,-28.8423 31.86052,-28.84412 31.85796,-28.84681 31.85808,-28.84709 31.85826,-28.84759 31.85808,-28.84815 31.85788,-28.84848 31.85777,-28.84886 31.85764,-28.84913 31.85759,-28.84956 31.85767,-28.84984 31.85808,-28.84984 31.85815,-28.84996 31.85819,-28.85016 31.8581,-28.85043 31.85789,-28.85072 31.85737,-28.85126 31.85724,-28.85166 31.8572,-28.85212 31.85692,-28.85228 31.85648,-28.85265 31.85606,-28.85309 31.85587,-28.85339 31.85572,-28.85409 31.85566,-28.85424 31.85574,-28.85447 31.85587,-28.85473 31.8557,-28.85505 31.85518,-28.85549 31.85456,-28.85576 31.85426,-28.85601 31.85409,-28.85614 31.85403,-28.85619 31.85393,-28.85641 31.85374,-28.85666 31.85341,-28.85691 31.85293,-28.85724 31.85235,-28.85749 31.85178,-28.8576 31.85002,-28.85842 31.848,-28.85909 31.84674,-28.85766 31.84654,-28.85762 31.84603,-28.85877 31.84586,-28.85919 31.84608,-28.85946 31.84624,-28.85974 31.84643,-28.86031 31.84667,-28.8609 31.84676,-28.86117 31.84688,-28.86151 31.847,-28.86189 31.84714,-28.86224 31.84728,-28.86245 31.84738,-28.86257 31.84752,-28.86273 31.84769,-28.86286 31.84799,-28.86311 31.84819,-28.86325 31.8486,-28.86345 31.84799,-28.86449 31.8476,-28.86472 31.84721,-28.86496 31.84687,-28.86529 31.84668,-28.86549 31.84634,-28.86591 31.84584,-28.86656 31.84572,-28.86673 31.84558,-28.86687 31.84537,-28.86686 31.84497,-28.86686 31.8447,-28.86677 31.84462,-28.86664 31.84454,-28.86655 31.84446,-28.86649 31.84431,-28.86641 31.84414,-28.86634 31.84398,-28.8663 31.84379,-28.86622 31.84366,-28.86617 31.84356,-28.86611 31.84345,-28.86603 31.84332,-28.86596 31.8433,-28.866 31.84323,-28.86612 31.84312,-28.8663 31.84295,-28.86651 31.84268,-28.86685 31.84256,-28.86702 31.84238,-28.86721 31.84219,-28.86736 31.84182,-28.86755 31.84157,-28.86778 31.84122,-28.86803 31.8411,-28.86809 31.84087,-28.86817 31.84036,-28.86837 31.84016,-28.86845 31.83991,-28.86857 31.83974,-28.86864 31.83955,-28.86874 31.83944,-28.86881 31.83928,-28.86895 31.83907,-28.86912 31.83901,-28.86919 31.83898,-28.86922 31.83896,-28.86924 31.83883,-28.8695 31.83872,-28.86974 31.83854,-28.87001 31.83837,-28.8703 31.83804,-28.87085 31.83792,-28.87106 31.83791,-28.87109 31.83786,-28.87117 31.83785,-28.87126 31.83783,-28.8714 31.83784,-28.87177 31.83779,-28.87199 31.83776,-28.87211 31.83774,-28.87225 31.83772,-28.87229 31.83772,-28.87234 31.83772,-28.87243 31.83775,-28.87252 31.8378,-28.8727 31.83786,-28.87283 31.83792,-28.87302 31.83796,-28.87326 31.83808,-28.87366 31.83823,-28.87385 31.8383,-28.87397 31.83832,-28.87423 31.83836,-28.87452 31.83838,-28.87469 31.83844,-28.87493 31.83851,-28.87502 31.83858,-28.87523 31.83877,-28.87532 31.83918,-28.87576 31.83944,-28.87624 31.83974,-28.87814 31.83305,-28.88119 31.82648,-28.88421 31.82315,-28.88574 31.82286,-28.88587 31.82261,-28.88599 31.82261,-28.88599 31.82225,-28.88615 31.82148,-28.88649 31.81775,-28.88815 31.81265,-28.89042 31.81264,-28.89042 31.81264,-28.89042 31.81264,-28.89042 31.81264,-28.89043 31.81251,-28.89058 31.81213,-28.89083 31.81062,-28.89154 31.81034,-28.89171 31.81003,-28.89183 31.80971,-28.89195 31.80949,-28.89204 31.80925,-28.89212 31.80892,-28.89228 31.80837,-28.89254 31.80797,-28.89272 31.80743,-28.89297 31.80685,-28.89326 31.80628,-28.89354 31.80584,-28.89371 31.80531,-28.89401 31.80496,-28.89414 31.80445,-28.8944 31.80414,-28.89452 31.8037,-28.89471 31.80356,-28.89473 31.80341,-28.89476 31.80328,-28.89478 31.803,-28.89489 31.80171,-28.89548 31.80112,-28.89575 31.80052,-28.89602 31.80011,-28.89621 31.79904,-28.89668 31.79785,-28.89723 31.79697,-28.89763 31.79625,-28.8981 31.79529,-28.8985 31.79496,-28.89864 31.79457,-28.89879 31.79404,-28.89904 31.79312,-28.89949 31.7919,-28.90005 31.79084,-28.90051 31.79013,-28.90088 31.78916,-28.9013 31.78813,-28.90175 31.78809,-28.90176 31.78761,-28.902 31.78669,-28.90245 31.78589,-28.90282 31.78585,-28.90274 31.78579,-28.90277 31.78389,-28.90364 31.78199,-28.9045 31.7801,-28.90537 31.7763,-28.90709 31.77456,-28.90789 31.7744,-28.90796 31.77251,-28.90882 31.77061,-28.90969 31.76898,-28.91043 31.76871,-28.91055 31.7668,-28.91142 31.76656,-28.91153 31.76559,-28.91197 31.7649,-28.91229 31.76299,-28.91315 31.76108,-28.91402 31.75918,-28.91488 31.75687,-28.91593 31.75685,-28.91595 31.75634,-28.91618 31.75536,-28.91662 31.75345,-28.91748 31.75155,-28.91835 31.75147,-28.91839 31.74964,-28.91921 31.74946,-28.9193 31.74946,-28.9193 31.74905,-28.91886 31.74855,-28.91871 31.7482,-28.91866 31.74785,-28.91879 31.74757,-28.91904 31.74747,-28.91913 31.74703,-28.91957 31.74676,-28.91979 31.74628,-28.9198 31.74613,-28.91973 31.74601,-28.91934 31.74586,-28.91914 31.74545,-28.91899 31.74491,-28.91875 31.7446,-28.91851 31.74417,-28.91845 31.74401,-28.91846 31.74392,-28.91853 31.74391,-28.91874 31.74408,-28.91915 31.74414,-28.91938 31.74405,-28.91951 31.74394,-28.91959 31.74382,-28.91961 31.74372,-28.91959 31.74357,-28.9194 31.74329,-28.91909 31.74306,-28.91891 31.7428,-28.91878 31.74245,-28.91877 31.74205,-28.9188 31.74144,-28.91902 31.741,-28.9192 31.74061,-28.91938 31.74036,-28.91954 31.74033,-28.91965 31.74036,-28.91974 31.7403,-28.92002 31.74019,-28.92014 31.73997,-28.92017 31.73987,-28.92018 31.73968,-28.92014 31.73949,-28.91993 31.73913,-28.91953 31.73848,-28.91892 31.73815,-28.9186 31.7379,-28.91834 31.73777,-28.91826 31.73769,-28.91823 31.73761,-28.91826 31.73752,-28.91838 31.7374,-28.91858 31.7373,-28.91868 31.73722,-28.91873 31.73713,-28.91877 31.73705,-28.91876 31.73697,-28.91873 31.73688,-28.91869 31.73685,-28.91862 31.73676,-28.91849 31.7366,-28.91836 31.73624,-28.91827 31.73592,-28.91821 31.7356,-28.9181 31.73536,-28.918 31.73519,-28.91796 31.73495,-28.91804 31.73455,-28.91829 31.7341,-28.91851 31.7338,-28.91861 31.73354,-28.91864 31.73331,-28.91859 31.7332,-28.91854 31.73308,-28.91834 31.73298,-28.91799 31.73298,-28.91782 31.73286,-28.91766 31.73269,-28.91751 31.73254,-28.91743 31.73238,-28.91746 31.73231,-28.91757 31.73223,-28.9177 31.73211,-28.91778 31.7319,-28.9177 31.73157,-28.91758 31.73129,-28.91749 31.73108,-28.91737 31.7307,-28.9172 31.73044,-28.91709 31.73028,-28.9171 31.73022,-28.91718 31.73025,-28.91736 31.73029,-28.9175 31.73015,-28.9177 31.72999,-28.91789 31.7298,-28.91797 31.72957,-28.91805 31.72936,-28.91818 31.72927,-28.91823 31.72898,-28.91842 31.72868,-28.91849 31.72846,-28.91859 31.72829,-28.91857 31.72823,-28.91849 31.7282,-28.91845 31.72817,-28.91841 31.72809,-28.91822 31.72793,-28.91798 31.72775,-28.91774 31.72766,-28.91753 31.72761,-28.91729 31.72749,-28.91718 31.72728,-28.91716 31.72709,-28.91721 31.72698,-28.91726 31.72695,-28.91741 31.72682,-28.91744 31.72671,-28.91737 31.72648,-28.91724 31.72625,-28.91717 31.72614,-28.91714 31.72592,-28.91704 31.72582,-28.91702 31.72572,-28.91706 31.72565,-28.91715 31.72556,-28.91729 31.7254,-28.91746 31.72515,-28.91771 31.72504,-28.91788 31.72494,-28.91797 31.7248,-28.91794 31.72473,-28.91781 31.72478,-28.91767 31.72481,-28.91751 31.72474,-28.91739 31.72461,-28.91733 31.7244,-28.91731 31.72412,-28.91726 31.72382,-28.91725 31.72348,-28.91728 31.72333,-28.91727 31.72315,-28.91721 31.72291,-28.9172 31.72262,-28.91718 31.72252,-28.91719 31.72235,-28.91722 31.72219,-28.91714 31.72204,-28.917 31.72197,-28.917 31.72185,-28.91699 31.72168,-28.91693 31.72138,-28.91689 31.72114,-28.91684 31.72094,-28.9168 31.72078,-28.91681 31.72065,-28.91693 31.72052,-28.91708 31.72035,-28.91727 31.72014,-28.91741 31.71999,-28.91758 31.71986,-28.91784 31.71976,-28.91803 31.71978,-28.9181 31.71976,-28.91816 31.71966,-28.91825 31.71927,-28.91845 31.71914,-28.9185 31.7191,-28.91851 31.71892,-28.9186 31.71865,-28.91865 31.71847,-28.91872 31.71815,-28.9188 31.7179,-28.91897 31.71757,-28.91909 31.71732,-28.91904 31.71694,-28.91896 31.71673,-28.91888 31.71643,-28.91876 31.71619,-28.91866 31.71598,-28.91851 31.71572,-28.91833 31.71561,-28.9182 31.71533,-28.91787 31.71503,-28.91759 31.71482,-28.91736 31.7147,-28.91722 31.71451,-28.91695 31.71419,-28.91666 31.71381,-28.91632 31.71366,-28.91614 31.71348,-28.916 31.7133,-28.91574 31.71314,-28.91551 31.71288,-28.91524 31.71247,-28.91494 31.71217,-28.91482 31.71195,-28.91472 31.71166,-28.91466 31.71155,-28.91466 31.71145,-28.91477 31.7114,-28.91484 31.71119,-28.91492 31.711,-28.9149 31.71079,-28.91479 31.71062,-28.9147 31.71014,-28.9146 31.70992,-28.91463 31.70984,-28.91479 31.70984,-28.91479 31.70979,-28.91434 31.71014,-28.91407 31.71054,-28.91375 31.71084,-28.91333 31.71108,-28.91283 31.71101,-28.91233 31.71123,-28.91192 31.71118,-28.91158 31.71083,-28.91121 31.71037,-28.91091 31.70987,-28.91076 31.70904,-28.91084 31.70858,-28.91091 31.70832,-28.91075 31.70822,-28.91029 31.70814,-28.90964 31.70791,-28.90922 31.70746,-28.90921 31.70691,-28.9094 31.70614,-28.90967 31.70594,-28.90944 31.70578,-28.90872 31.70578,-28.90853 31.70593,-28.90836 31.70687,-28.90724 31.70844,-28.90594 31.71047,-28.90502 31.71106,-28.90438 31.71229,-28.90302 31.71443,-28.9026 31.71773,-28.90205 31.71829,-28.90066 31.71917,-28.90038 31.72015,-28.89936 31.72022,-28.89942 31.72116,-28.90022 31.72192,-28.90041 31.7227,-28.89975 31.72414,-28.8994 31.72496,-28.89971 31.72562,-28.89938 31.72661,-28.89679 31.72652,-28.89582 31.72851,-28.89439 31.73144,-28.89388 31.73567,-28.89152 31.73574,-28.89129 31.73575,-28.89129 31.73611,-28.89018 31.73788,-28.88919 31.73986,-28.88855 31.74036,-28.88835 31.74039,-28.88831 31.74189,-28.88658 31.74378,-28.8844 31.7455,-28.88342 31.74551,-28.88338 31.74577,-28.88236 31.74621,-28.8818 31.74645,-28.8815 31.74662,-28.88128 31.74701,-28.88033 31.7473,-28.87935 31.75043,-28.87919 31.75099,-28.87918 31.75143,-28.87917 31.75167,-28.87857 31.75159,-28.87829 31.75084,-28.87821 31.74998,-28.8783 31.74971,-28.87806 31.7496,-28.87769 31.74964,-28.87727 31.74982,-28.8768 31.7499,-28.87646 31.7496,-28.87594 31.74931,-28.87531 31.74914,-28.87473 31.7489,-28.87392 31.74867,-28.87357 31.74837,-28.87352 31.74784,-28.87388 31.74761,-28.87386 31.74752,-28.87358 31.74776,-28.87275 31.74798,-28.87246 31.74845,-28.87202 31.74851,-28.87176 31.74851,-28.87176 31.74917,-28.87154 31.75002,-28.87144 31.75069,-28.8713 31.75227,-28.87097 31.75318,-28.87137 31.75414,-28.87105 31.75418,-28.87104 31.75421,-28.87098 31.75469,-28.87004 31.7548,-28.86982 31.75559,-28.86792 31.75515,-28.86541 31.75535,-28.86452 31.75603,-28.86467 31.7564,-28.86493 31.7573,-28.86504 31.75785,-28.86515 31.75852,-28.8652 31.75887,-28.86528 31.75933,-28.86504 31.75997,-28.86538 31.7606,-28.86539 31.76086,-28.86555 31.76101,-28.86614 31.76119,-28.8667 31.76148,-28.8665 31.76157,-28.86592 31.76214,-28.86554 31.76262,-28.86525 31.76292,-28.8649 31.76312,-28.86441 31.76336,-28.86373 31.7637,-28.86326 31.76396,-28.8628 31.76445,-28.86203 31.76459,-28.8616 31.76477,-28.86113 31.76492,-28.86055 31.76501,-28.8601 31.76499,-28.8596 31.76521,-28.85872 31.76545,-28.85781 31.76561,-28.85713 31.76565,-28.85652 31.76565,-28.8565 31.7665,-28.85272 31.7665,-28.85272 31.7665,-28.85272 31.76685,-28.85267 31.76753,-28.85251 31.76834,-28.85237 31.76926,-28.85241 31.76943,-28.85234 31.7698,-28.8526 31.76955,-28.853 31.76958,-28.8533 31.76987,-28.85339 31.77044,-28.85326 31.77095,-28.85297 31.77103,-28.85281 31.77096,-28.85266 31.77115,-28.85249 31.77137,-28.85202 31.77223,-28.85205 31.77256,-28.85199 31.77285,-28.85173 31.77356,-28.85164 31.77396,-28.85155 31.77447,-28.85152 31.77497,-28.85133 31.77543,-28.85129 31.77601,-28.85139 31.77608,-28.85101 31.77682,-28.85101 31.77711,-28.85097 31.77758,-28.85071 31.77766,-28.8507 31.77801,-28.85063 31.77853,-28.85063 31.77935,-28.85062 31.77972,-28.85044 31.78024,-28.85001 31.78009,-28.84942 31.78018,-28.84899 31.78023,-28.84879 31.78044,-28.84869 31.78061,-28.84873 31.78071,-28.84875 31.78084,-28.84878 31.78145,-28.84893 31.78209,-28.8492 31.78273,-28.84935 31.78351,-28.84924 31.78408,-28.84901 31.78482,-28.84917 31.78508,-28.84913 31.78538,-28.84893 31.78636,-28.8487 31.78708,-28.84826 31.78731,-28.84825 31.78748,-28.84824 31.78776,-28.84836 31.7879,-28.84875 31.78799,-28.84927 31.78798,-28.84978 31.78808,-28.85022 31.78833,-28.85061 31.78879,-28.85113 31.78872,-28.85162 31.78864,-28.85194 31.78842,-28.85224 31.78857,-28.85261 31.78996,-28.85193 31.79129,-28.85161 31.79235,-28.85052 31.79294,-28.84989 31.79394,-28.84897 31.79446,-28.84839 31.79499,-28.84847 31.79545,-28.84808 31.79586,-28.84786 31.79696,-28.84666 31.79733,-28.84644 31.79832,-28.84577 31.79832,-28.84577 31.79832,-28.84577 31.79832,-28.84577 31.79912,-28.846 31.79941,-28.8462 31.79956,-28.8463 31.79973,-28.8463 31.80134,-28.84627 31.80333,-28.84902 31.80481,-28.85053 31.8108,-28.848 31.81509,-28.84612 31.81515,-28.84609 31.81617,-28.84508 31.81763,-28.84364 31.81773,-28.84358 31.82047,-28.84198 31.82169,-28.84018 31.82392,-28.8369 31.8323,-28.83156 31.83308,-28.82924 31.83308,-28.82923 31.83402,-28.82644 31.83403,-28.82641 31.83458,-28.82478 31.83438,-28.82444 31.83438,-28.82443 31.83402,-28.82416 31.83389,-28.82407 31.83374,-28.82397 31.83366,-28.82393 31.83354,-28.82385 31.83341,-28.82378 31.83295,-28.82385 31.83265,-28.82374 31.83236,-28.82362 31.83203,-28.82352 31.83171,-28.82342 31.83138,-28.82331 31.83098,-28.82317 31.83067,-28.82308 31.83026,-28.82293 31.82992,-28.82285 31.82961,-28.82278 31.82928,-28.82271 31.82896,-28.82261 31.82848,-28.82245 31.8282,-28.82227 31.82796,-28.82203 31.82783,-28.82173 31.82775,-28.82149 31.82772,-28.82139 31.82764,-28.82108 31.8276,-28.82072 31.82757,-28.82038 31.82754,-28.81997 31.82754,-28.81898 31.82757,-28.81856 31.82759,-28.81822 31.82759,-28.81724 31.82758,-28.81672 31.82758,-28.81634 31.82756,-28.81593 31.82754,-28.81547 31.82752,-28.81514 31.82747,-28.81471 31.82743,-28.81414 31.8274,-28.81371 31.82735,-28.81327 31.82731,-28.81269 31.82725,-28.81206 31.82716,-28.81151 31.82709,-28.81089 31.827,-28.8102 31.82689,-28.80951 31.82685,-28.80919 31.82682,-28.80897 31.82682,-28.80829 31.82688,-28.80786 31.82695,-28.80757 31.82697,-28.80729 31.82701,-28.807 31.82701,-28.80662 31.82696,-28.8063 31.82693,-28.80609 31.82685,-28.80584 31.82675,-28.80554 31.82654,-28.8051 31.8264,-28.80478 31.82635,-28.80466 31.82621,-28.80422 31.82608,-28.80384 31.82595,-28.80333 31.82589,-28.8031 31.82581,-28.80282 31.8257,-28.80235 31.82568,-28.80233 31.82558,-28.80196 31.82545,-28.80155 31.82532,-28.80125 31.82513,-28.80076 31.82495,-28.80028 31.82477,-28.79984 31.82464,-28.79956 31.82447,-28.79921 31.82426,-28.79882 31.82403,-28.79847 31.82388,-28.79819 31.82383,-28.79811 31.82355,-28.79765 31.82321,-28.79707 31.82298,-28.79671 31.82275,-28.79649 31.82244,-28.79608 31.82196,-28.79542 31.8215,-28.79483 31.8212,-28.79442 31.8211,-28.79429 31.82081,-28.79387 31.82054,-28.79348 31.82018,-28.79304 31.81981,-28.79268 31.8195,-28.79243 31.81934,-28.7923 31.81931,-28.79229 31.81907,-28.79213 31.81875,-28.79194 31.8185,-28.79172 31.81829,-28.79155 31.81812,-28.79134 31.81793,-28.79098 31.81778,-28.79068 31.81772,-28.7905 31.81769,-28.79025 31.81766,-28.78991 31.81766,-28.78912 31.81771,-28.78874 31.8178,-28.78835 31.8179,-28.78791 31.81799,-28.78754 31.81811,-28.78717 31.8182,-28.78677 31.81831,-28.78636 31.81842,-28.78603 31.81854,-28.78562 31.81855,-28.78559 31.81865,-28.78527 31.8187,-28.78499 31.81875,-28.78464 31.81882,-28.78418 31.81887,-28.78386 31.81892,-28.78359 31.81895,-28.78337 31.81905,-28.78279 31.8191,-28.78235 31.81916,-28.78203 31.81922,-28.78181 31.81932,-28.78157 31.81945,-28.78127 31.8196,-28.78094 31.81976,-28.7806 31.81992,-28.78029 31.82016,-28.77983 31.82038,-28.7794 31.82063,-28.77899 31.82091,-28.77844 31.82112,-28.77806 31.82129,-28.77769 31.82144,-28.77738 31.82161,-28.77684 31.82181,-28.77627 31.82199,-28.7758 31.82214,-28.77531 31.82227,-28.77492 31.82238,-28.7746 31.82239,-28.77457 31.82264,-28.77386 31.82281,-28.77335 31.82293,-28.773 31.82307,-28.77273 31.82321,-28.7723 31.8233,-28.77199 31.8233,-28.77167 31.82318,-28.77135 31.82299,-28.77099 31.82265,-28.77054 31.82249,-28.77032 31.82226,-28.77005 31.82202,-28.76974 31.82179,-28.76952 31.82154,-28.76929 31.82121,-28.76902 31.82086,-28.76877 31.82037,-28.76844 31.81987,-28.76816 31.81943,-28.76797 31.8186,-28.7676 31.81801,-28.76727 31.81757,-28.76706 31.81727,-28.76695 31.81688,-28.76683 31.81644,-28.7667 31.81597,-28.76662 31.81561,-28.76656 31.81531,-28.76654 31.81497,-28.76648 31.81443,-28.76647 31.81391,-28.76645 31.81353,-28.76647 31.81338,-28.76651 31.81323,-28.76656 31.81289,-28.76672 31.81263,-28.76687 31.81238,-28.76703 31.8122,-28.76723 31.81215,-28.76729 31.81182,-28.76779 31.81154,-28.76817 31.81125,-28.76871 31.811,-28.76923 31.81073,-28.76979 31.81051,-28.77029 31.81033,-28.77065 31.81014,-28.77111 31.80982,-28.77184 31.80952,-28.77247 31.80934,-28.77289 31.80907,-28.77336 31.80907,-28.77337 31.80879,-28.77391 31.80853,-28.77438 31.80809,-28.7752 31.80783,-28.77575 31.80753,-28.77626 31.80727,-28.77681 31.80726,-28.77683 31.80699,-28.77726 31.8068,-28.77759 31.80661,-28.77784 31.80637,-28.77813 31.80611,-28.77838 31.80584,-28.77859 31.80567,-28.77872 31.80542,-28.77885 31.80515,-28.77896 31.80486,-28.77907 31.80457,-28.77916 31.80429,-28.77927 31.80398,-28.77938 31.80362,-28.77953 31.80337,-28.77968 31.80302,-28.77981 31.80251,-28.77995 31.80202,-28.78008 31.80158,-28.78018 31.80116,-28.78021 31.80072,-28.78023 31.80034,-28.78023 31.79984,-28.78016 31.79935,-28.78016 31.79903,-28.78013 31.79861,-28.78014 31.79827,-28.78013 31.7978,-28.78013 31.79734,-28.78012 31.79696,-28.7801 31.79648,-28.78004 31.79591,-28.77998 31.7956,-28.77995 31.79522,-28.77993 31.79476,-28.77989 31.79435,-28.77983 31.79387,-28.77977 31.79347,-28.77968 31.79302,-28.77956 31.79275,-28.77945 31.79269,-28.77943 31.79229,-28.77934 31.79179,-28.77921 31.79134,-28.77912 31.79085,-28.77903 31.79044,-28.77901 31.78995,-28.77897 31.78948,-28.77895 31.78908,-28.7789 31.78862,-28.77877 31.78812,-28.77859 31.78764,-28.77841 31.78722,-28.77826 31.78682,-28.77812 31.78637,-28.77794 31.78588,-28.7777 31.78537,-28.77747 31.78494,-28.77727 31.78455,-28.77709 31.7841,-28.77682 31.78402,-28.77677 31.78374,-28.77657 31.78332,-28.7763 31.78292,-28.77598 31.78263,-28.77576 31.78232,-28.77551 31.78211,-28.77531 31.78179,-28.77502 31.78142,-28.77465 31.78111,-28.77438 31.7808,-28.77404 31.78044,-28.77366 31.78015,-28.77332 31.77985,-28.77299 31.77961,-28.77274 31.7793,-28.77241 31.77928,-28.77238 31.77925,-28.77234 31.77909,-28.77213 31.77877,-28.77175 31.77848,-28.7714 31.77821,-28.77109 31.77792,-28.77071 31.77762,-28.7703 31.77739,-28.76991 31.77712,-28.76953 31.77684,-28.76909 31.77659,-28.76879 31.77636,-28.76852 31.77606,-28.76824 31.77576,-28.76794 31.77545,-28.76768 31.7752,-28.76746 31.77484,-28.76722 31.77454,-28.76703 31.77427,-28.76689 31.77401,-28.76677 31.77374,-28.7667 31.77336,-28.76661 31.773,-28.76658 31.77248,-28.76655 31.77215,-28.7666 31.77184,-28.76671 31.77162,-28.7669 31.77134,-28.76717 31.77109,-28.76746 31.77085,-28.76792 31.77057,-28.76829 31.77028,-28.76877 31.76991,-28.76937 31.76964,-28.76981 31.76939,-28.77017 31.76912,-28.77057 31.76881,-28.77095 31.76874,-28.77105 31.76847,-28.77131 31.76802,-28.77167 31.76776,-28.77188 31.76736,-28.77217 31.76693,-28.77232 31.76643,-28.77249 31.76588,-28.77263 31.76539,-28.77274 31.76493,-28.77283 31.76439,-28.77292 31.76379,-28.77303 31.76324,-28.77306 31.76272,-28.77307 31.76166,-28.77317 31.76109,-28.77318 31.76049,-28.77322 31.75977,-28.77325 31.75922,-28.77329 31.75861,-28.77331 31.75799,-28.77331 31.7573,-28.77336 31.7569,-28.77339 31.75647,-28.77336 31.75608,-28.77333 31.75574,-28.77327 31.75574,-28.77327 31.75536,-28.77318 31.75514,-28.77305 31.75496,-28.77291 31.75473,-28.77268 31.75451,-28.77244 31.75451,-28.77244 31.75441,-28.77231 31.75436,-28.77226 31.75427,-28.77204 31.75419,-28.77178 31.75408,-28.77141 31.75403,-28.77111 31.75397,-28.77079 31.7539,-28.77029 31.75388,-28.76975 31.75391,-28.76912 31.75394,-28.76877 31.75408,-28.76831 31.75427,-28.7678 31.75447,-28.76733 31.75466,-28.76696 31.75492,-28.7666 31.75523,-28.76624 31.75551,-28.76589 31.75578,-28.7656 31.75615,-28.76529 31.75646,-28.76509 31.75668,-28.76495 31.75704,-28.76484 31.75754,-28.76472 31.75796,-28.76463 31.7585,-28.76457 31.75902,-28.76448 31.75946,-28.76445 31.76012,-28.76429 31.76055,-28.76421 31.76099,-28.76415 31.76149,-28.76408 31.762,-28.76403 31.76267,-28.76397 31.76325,-28.76389 31.76392,-28.76379 31.76439,-28.76375 31.76508,-28.76364 31.76556,-28.76355 31.76618,-28.76346 31.7667,-28.76333 31.76717,-28.76323 31.76762,-28.76308 31.76805,-28.76291 31.7683,-28.76277 31.76864,-28.7626 31.76889,-28.76241 31.769,-28.76227 31.76918,-28.76201 31.76934,-28.76185 31.76964,-28.76154 31.76994,-28.76118 31.77019,-28.7609 31.77047,-28.76064 31.77072,-28.76037 31.77093,-28.76015 31.77109,-28.75996 31.77116,-28.75975 31.77116,-28.7595 31.77112,-28.7593 31.771,-28.75916 31.77079,-28.75902 31.77046,-28.75883 31.76989,-28.75859 31.7693,-28.7584 31.7687,-28.75832 31.76834,-28.75824 31.76797,-28.75818 31.7675,-28.75805 31.76707,-28.75794 31.76661,-28.75782 31.76613,-28.75771 31.76567,-28.75759 31.76513,-28.75746 31.76461,-28.75737 31.76414,-28.75733 31.76379,-28.7573 31.76339,-28.75728 31.76295,-28.75726 31.76255,-28.7572 31.7621,-28.75715 31.76205,-28.75691 31.76201,-28.75668 31.76196,-28.75647 31.76196,-28.7563 31.76199,-28.75618 31.76204,-28.75609 31.76216,-28.75599 31.76239,-28.75581 31.76248,-28.75574 31.76255,-28.75571 31.7627,-28.75568 31.76292,-28.75566 31.76311,-28.75559 31.76324,-28.75544 31.76345,-28.75534 31.7637,-28.75527 31.76386,-28.75521 31.76405,-28.75507 31.76426,-28.7549 31.76436,-28.75465 31.76441,-28.75438 31.76442,-28.7541 31.76442,-28.75365 31.76464,-28.75329 31.76482,-28.7531 31.76498,-28.75301 31.76517,-28.753 31.76535,-28.75301 31.76553,-28.75295 31.76562,-28.75293 31.76576,-28.75273 31.76594,-28.75256 31.76609,-28.75244 31.76623,-28.7524 31.76694,-28.7524 31.76718,-28.75234 31.76737,-28.75216 31.76754,-28.75189 31.76759,-28.75181 31.76774,-28.7516 31.76793,-28.75129 31.7681,-28.75101 31.76835,-28.75073 31.76859,-28.75038 31.76882,-28.75005 31.76913,-28.74972 31.76937,-28.74938 31.76953,-28.7491 31.7696,-28.74901 31.76966,-28.74891 31.76969,-28.74877 31.76974,-28.74839 31.76981,-28.74792 31.76987,-28.74748 31.76994,-28.74709 31.76999,-28.74689 31.76997,-28.74667 31.7699,-28.7464 31.76984,-28.74608 31.76984,-28.7458 31.76994,-28.74556 31.77031,-28.74542 31.77059,-28.74536 31.77083,-28.74524 31.77106,-28.74517 31.77133,-28.74496 31.77158,-28.74469 31.77162,-28.74431 31.77162,-28.74402 31.77162,-28.74397 31.77164,-28.74359 31.77171,-28.74343 31.77192,-28.74303 31.77198,-28.74277 31.77215,-28.74247 31.77219,-28.74233 31.77221,-28.7423 31.77599,-28.74201 31.77629,-28.74199 31.78142,-28.7416 31.7853,-28.74133 31.78866,-28.74098 31.79097,-28.74074 31.79334,-28.74043 31.79408,-28.74031 31.79437,-28.74023 31.79465,-28.74013 31.79536,-28.73976 31.79627,-28.73896 31.79712,-28.73791 31.8001,-28.7386 31.80144,-28.73887 31.8024,-28.73881 31.8024,-28.73881 31.803,-28.73877 31.80357,-28.73863 31.80401,-28.73851 31.80503,-28.73823 31.80922,-28.73709 31.80907,-28.73763 31.80915,-28.73904 31.81119,-28.73884 31.8135,-28.73862 31.81519,-28.73846 31.81819,-28.73818 31.82228,-28.7379 31.82734,-28.73747 31.82755,-28.73746 31.82756,-28.73746 31.82891,-28.73733 31.8304,-28.73721 31.83185,-28.73705 31.83265,-28.737 31.83322,-28.73692 31.83397,-28.73689 31.83471,-28.73686 31.83527,-28.73683 31.83617,-28.73673 31.83641,-28.73665 31.83675,-28.73661 31.83705,-28.73663 31.83963,-28.73639 31.84345,-28.73604 31.84358,-28.73595 31.84431,-28.73596 31.84579,-28.73571 31.84874,-28.7376 31.85044,-28.73885 31.85136,-28.73946 31.85205,-28.73991 31.8544,-28.74142 31.85525,-28.74196 31.85929,-28.7445 31.85984,-28.74485 31.86173,-28.74596 31.86593,-28.74869 31.86797,-28.75004 31.86948,-28.75097 31.87086,-28.75182 31.87225,-28.75273 31.87285,-28.7531 31.87285,-28.75311 31.87285,-28.75311 31.87337,-28.75784 31.87392,-28.76337 31.87411,-28.76519 31.87419,-28.76593 31.87454,-28.76928 31.87479,-28.76925 31.87668,-28.76873 31.87961,-28.76793 31.88535,-28.76636 31.88497,-28.76499 31.88466,-28.76385 31.88454,-28.76342 31.88426,-28.76338 31.88286,-28.76342 31.88214,-28.76377 31.88163,-28.76366 31.88142,-28.76333 31.88144,-28.76303 31.8817,-28.76268 31.88167,-28.76224 31.88143,-28.762 31.88075,-28.76173 31.87993,-28.76137 31.87932,-28.76076 31.87919,-28.76042 31.87916,-28.76019 31.87924,-28.76013 31.87929,-28.76013 31.87935,-28.76011 31.87947,-28.76005 31.87957,-28.76 31.87974,-28.75987 31.87981,-28.75979 31.88009,-28.75956 31.88021,-28.75946 31.88028,-28.7594 31.88043,-28.75923 31.88066,-28.75893 31.88075,-28.75882 31.88083,-28.75874 31.88094,-28.75861 31.88108,-28.7585 31.88116,-28.75845 31.88138,-28.75832 31.88159,-28.7582 31.88169,-28.75814 31.88182,-28.75807 31.88193,-28.75803 31.8821,-28.75798 31.88224,-28.75794 31.88268,-28.75783 31.88301,-28.75777 31.883,-28.75774 31.88275,-28.7568 31.88274,-28.75675 31.88211,-28.75374 31.88178,-28.75202 31.88159,-28.75132 31.88132,-28.7507 31.88119,-28.75012 31.88118,-28.75003 31.88109,-28.74966 31.88108,-28.74957 31.88107,-28.74948 31.88108,-28.74929 31.88111,-28.74913 31.88118,-28.749 31.88123,-28.74891 31.88127,-28.74885 31.88138,-28.74879 31.8813,-28.74842 31.88087,-28.74847 31.88069,-28.74766 31.88069,-28.74763 31.88069,-28.74763 31.87937,-28.74177 31.87933,-28.74179 31.87806,-28.7396 31.87606,-28.7364 31.87656,-28.73597 31.87719,-28.73545 31.87758,-28.73517 31.87818,-28.73573 31.87889,-28.73635 31.87942,-28.73683 31.88017,-28.73751 31.88072,-28.73802 31.88113,-28.7385 31.88137,-28.73888 31.88162,-28.73961 31.88177,-28.74026 31.88186,-28.74058 31.88261,-28.74022 31.88345,-28.73984 31.88362,-28.73911 31.88366,-28.73894 31.88372,-28.73878 31.88378,-28.73861 31.88384,-28.73846 31.88391,-28.7383 31.88399,-28.73815 31.88407,-28.73799 31.88416,-28.73785 31.88425,-28.7377 31.88449,-28.73774 31.88475,-28.73784 31.88498,-28.73792 31.88523,-28.73808 31.88534,-28.73823 31.88537,-28.73836 31.88545,-28.73861 31.88551,-28.73873 31.8856,-28.73886 31.88561,-28.73891 31.88579,-28.73883 31.88605,-28.73872 31.88725,-28.73817 31.88784,-28.73789 31.88972,-28.73701 31.89161,-28.73613 31.89145,-28.73607 31.89166,-28.73598 31.89521,-28.73433 31.89554,-28.73418 31.90174,-28.73128 31.90175,-28.73132 31.9018,-28.73388 31.9018,-28.73388 31.90304,-28.73518 31.90341,-28.73583 31.90341,-28.73633 31.90322,-28.73709 31.90295,-28.73773 31.9029,-28.73829</coordinates></LinearRing></outerBoundaryIs></Polygon></MultiGeometry></Placemark></Document></kml>