<?xml version="1.0" encoding="UTF-8"?><kml xmlns="http://www.opengis.net/kml/2.2"><Document><Placemark><name>Umdoni</name><description>Local Municipality 561</description><ExtendedData><Data name="code"><value>561</value></Data><Data name="name"><value>Umdoni</value></Data><Data name="description"><value>Local Municipality 561</value></Data></ExtendedData><MultiGeometry><Polygon><outerBoundaryIs><LinearRing><coordinates>30.61392,-30.39136 30.61247,-30.39053 30.61039,-30.38933 30.61031,-30.38928 30.6097,-30.38892 30.60832,-30.38816 30.60772,-30.38761 30.60825,-30.38653 30.60956,-30.38385 30.61015,-30.38265 30.61066,-30.38161 30.61199,-30.3789 30.61219,-30.37848 30.61227,-30.37833 30.61282,-30.3772 30.61351,-30.37579 30.61399,-30.3748 30.61494,-30.37287 30.61744,-30.36818 30.619,-30.36525 30.61905,-30.36515 30.61946,-30.36439 30.62117,-30.36225 30.62323,-30.35969 30.62327,-30.35963 30.62608,-30.35613 30.62832,-30.35334 30.62846,-30.35316 30.62859,-30.353 30.63001,-30.35122 30.63005,-30.35117 30.63151,-30.34936 30.63172,-30.3491 30.63246,-30.34804 30.6325,-30.34799 30.63277,-30.3476 30.63346,-30.34711 30.63563,-30.34554 30.63835,-30.34357 30.6384,-30.34353 30.64168,-30.34117 30.64253,-30.34055 30.64269,-30.34043 30.64405,-30.33945 30.64408,-30.33945 30.64414,-30.33945 30.64457,-30.33948 30.64476,-30.33948 30.64487,-30.33949 30.64483,-30.33926 30.64807,-30.33581 30.64817,-30.3358 30.64784,-30.33537 30.6472,-30.3351 30.64761,-30.33416 30.64869,-30.33379 30.64849,-30.33322 30.64807,-30.33363 30.64774,-30.33362 30.64749,-30.33352 30.64692,-30.33361 30.6467,-30.33343 30.64611,-30.33324 30.64624,-30.33288 30.64663,-30.33251 30.64688,-30.33225 30.64724,-30.33238 30.64765,-30.33254 30.6481,-30.33263 30.64834,-30.33265 30.64841,-30.33276 30.6484,-30.33251 30.64853,-30.33252 30.64879,-30.33189 30.64913,-30.33141 30.64943,-30.33063 30.64966,-30.33028 30.64968,-30.33014 30.64998,-30.32934 30.65028,-30.32889 30.65056,-30.32841 30.65082,-30.32813 30.65146,-30.32722 30.65166,-30.32695 30.65225,-30.32644 30.65196,-30.32655 30.65232,-30.32569 30.65234,-30.32448 30.65271,-30.32463 30.65321,-30.32484 30.65351,-30.32487 30.65394,-30.32386 30.65397,-30.32374 30.65408,-30.32332 30.65404,-30.32338 30.65401,-30.32342 30.65365,-30.32344 30.65328,-30.3232 30.65321,-30.32316 30.65345,-30.32292 30.6535,-30.32287 30.65368,-30.32277 30.65387,-30.32268 30.65368,-30.32231 30.65346,-30.32192 30.65335,-30.32181 30.65304,-30.32149 30.65254,-30.32099 30.65122,-30.31966 30.6496,-30.31803 30.6499,-30.3178 30.65047,-30.31737 30.65141,-30.31666 30.65311,-30.31538 30.65349,-30.31509 30.65363,-30.31498 30.65512,-30.31576 30.65533,-30.31587 30.65605,-30.31447 30.65679,-30.31304 30.65713,-30.31239 30.65734,-30.31197 30.65765,-30.31137 30.65773,-30.31122 30.65786,-30.31095 30.65721,-30.31079 30.65525,-30.31061 30.65495,-30.31058 30.65418,-30.31051 30.65414,-30.3105 30.65396,-30.31049 30.65352,-30.31044 30.65348,-30.31044 30.65334,-30.31043 30.65218,-30.31032 30.65173,-30.30873 30.65129,-30.30718 30.65121,-30.30691 30.65119,-30.30683 30.65088,-30.30574 30.65041,-30.30411 30.65015,-30.30321 30.64992,-30.30237 30.64982,-30.30202 30.64887,-30.29872 30.6483,-30.29669 30.6481,-30.29602 30.65747,-30.29579 30.65758,-30.29579 30.65536,-30.2932 30.6567,-30.28661 30.6567,-30.28661 30.6567,-30.28661 30.65671,-30.28661 30.65442,-30.28389 30.652,-30.281 30.64872,-30.27735 30.64728,-30.27573 30.64227,-30.27003 30.64228,-30.27001 30.64371,-30.26674 30.65652,-30.27277 30.66208,-30.26708 30.66927,-30.26011 30.6698,-30.26035 30.67052,-30.26112 30.67104,-30.26138 30.67149,-30.26135 30.67204,-30.2612 30.67346,-30.26048 30.67467,-30.26044 30.67592,-30.26036 30.67732,-30.26052 30.67854,-30.26133 30.67864,-30.26324 30.67883,-30.26451 30.67873,-30.26648 30.67965,-30.26755 30.68327,-30.26382 30.68327,-30.26382 30.68327,-30.26382 30.68482,-30.25275 30.68514,-30.25057 30.68514,-30.25057 30.68511,-30.25056 30.6831,-30.24995 30.68302,-30.24993 30.68219,-30.24969 30.68134,-30.24943 30.6721,-30.24667 30.6721,-30.24667 30.6721,-30.24667 30.66873,-30.23885 30.66715,-30.2363 30.66698,-30.23589 30.66693,-30.23576 30.66688,-30.23561 30.66628,-30.23356 30.66628,-30.23355 30.666,-30.23259 30.66532,-30.23018 30.66464,-30.22778 30.6634,-30.22346 30.6618,-30.21788 30.66145,-30.21668 30.66103,-30.2152 30.66103,-30.21518 30.66056,-30.21354 30.66026,-30.21251 30.6595,-30.20982 30.65925,-30.20896 30.65873,-30.20714 30.65843,-30.20611 30.65829,-30.20562 30.65825,-30.20549 30.65825,-30.20549 30.65825,-30.20549 30.65847,-30.20543 30.65872,-30.20536 30.65908,-30.20526 30.65989,-30.20501 30.66151,-30.20453 30.66232,-30.2043 30.66404,-30.20384 30.66576,-30.20336 30.66662,-30.20311 30.66702,-30.203 30.66709,-30.20301 30.66721,-30.20306 30.66751,-30.20317 30.66833,-30.20346 30.66919,-30.20377 30.67036,-30.20419 30.67102,-30.20443 30.67286,-30.20509 30.67542,-30.20602 30.67797,-30.20694 30.68265,-30.20862 30.68498,-30.20946 30.68755,-30.21039 30.69011,-30.21131 30.69021,-30.21131 30.69023,-30.2112 30.69038,-30.21001 30.69055,-30.20883 30.69072,-30.20764 30.69088,-30.20645 30.6912,-30.20423 30.69136,-30.20311 30.69152,-30.202 30.69184,-30.19972 30.69199,-30.19863 30.69243,-30.19855 30.69479,-30.20026 30.69485,-30.20031 30.69725,-30.20204 30.69771,-30.20237 30.70041,-30.20433 30.70138,-30.20503 30.70232,-30.20571 30.70591,-30.2083 30.70633,-30.20861 30.70643,-30.20868 30.71375,-30.21391 30.71379,-30.21394 30.72101,-30.2191 30.72645,-30.223 30.72708,-30.22345 30.72759,-30.22383 30.72772,-30.22393 30.72968,-30.22534 30.73049,-30.22592 30.73121,-30.22644 30.73245,-30.22732 30.73313,-30.2278 30.73351,-30.22808 30.73365,-30.22818 30.73536,-30.22941 30.74114,-30.23658 30.74699,-30.24383 30.74962,-30.25046 30.7498,-30.25099 30.7504,-30.25273 30.75068,-30.25354 30.7507,-30.25358 30.75428,-30.26295 30.75541,-30.26581 30.75615,-30.2677 30.75671,-30.26702 30.75727,-30.26634 30.75777,-30.26574 30.75808,-30.26569 30.75858,-30.26532 30.75884,-30.26515 30.75931,-30.26514 30.75968,-30.26512 30.75993,-30.26525 30.76028,-30.26596 30.76028,-30.26597 30.76035,-30.2659 30.76086,-30.26538 30.7614,-30.26483 30.76145,-30.26477 30.76148,-30.26475 30.76159,-30.26487 30.76168,-30.26501 30.76165,-30.26511 30.76144,-30.26539 30.76131,-30.26555 30.7612,-30.2657 30.76118,-30.26587 30.76115,-30.26605 30.76117,-30.2663 30.76123,-30.2665 30.76127,-30.26665 30.76141,-30.2671 30.76148,-30.26733 30.76164,-30.26764 30.76171,-30.26779 30.76192,-30.26808 30.76207,-30.26815 30.76219,-30.26823 30.76229,-30.26825 30.76234,-30.26835 30.76238,-30.2684 30.76244,-30.26846 30.76244,-30.26857 30.76279,-30.26788 30.76289,-30.2677 30.76297,-30.26759 30.763,-30.26761 30.76307,-30.26763 30.7631,-30.26764 30.76314,-30.26765 30.76317,-30.26766 30.76321,-30.26767 30.76326,-30.26768 30.76329,-30.2677 30.76334,-30.26772 30.76487,-30.26878 30.76483,-30.26886 30.76479,-30.26891 30.76477,-30.26894 30.76474,-30.26898 30.7647,-30.26902 30.76467,-30.26905 30.76464,-30.26908 30.76463,-30.26913 30.76462,-30.26916 30.76461,-30.2692 30.76457,-30.26926 30.76456,-30.26929 30.76453,-30.26933 30.76449,-30.26938 30.76443,-30.2694 30.76432,-30.26946 30.76432,-30.26951 30.76429,-30.26957 30.76419,-30.26966 30.76408,-30.26978 30.76399,-30.26986 30.76392,-30.26993 30.76386,-30.26998 30.76379,-30.27003 30.76374,-30.27013 30.76366,-30.27022 30.7636,-30.27033 30.76352,-30.27045 30.76342,-30.27065 30.7634,-30.2707 30.76335,-30.27076 30.76332,-30.27079 30.76322,-30.27087 30.76319,-30.27092 30.76316,-30.27098 30.76314,-30.27103 30.76314,-30.27112 30.7631,-30.27118 30.76305,-30.27125 30.76301,-30.27126 30.76299,-30.27132 30.76301,-30.27135 30.76301,-30.27147 30.76297,-30.27154 30.76289,-30.27156 30.7628,-30.27159 30.76277,-30.27163 30.76277,-30.27166 30.76276,-30.27175 30.76267,-30.27186 30.76255,-30.27198 30.76248,-30.27203 30.76246,-30.27208 30.76237,-30.27218 30.76232,-30.27223 30.76226,-30.27231 30.76221,-30.27242 30.76207,-30.27263 30.76203,-30.27272 30.76198,-30.2728 30.76191,-30.27288 30.76183,-30.27298 30.76178,-30.27306 30.76173,-30.27316 30.7617,-30.27324 30.76167,-30.27336 30.76161,-30.27344 30.76153,-30.27353 30.76145,-30.27364 30.76141,-30.27365 30.7614,-30.2737 30.7614,-30.27374 30.76139,-30.27383 30.76134,-30.27398 30.76129,-30.27416 30.76123,-30.27427 30.76118,-30.27438 30.76112,-30.27452 30.76111,-30.27459 30.76111,-30.27467 30.76109,-30.27479 30.76106,-30.27484 30.76106,-30.27489 30.76104,-30.27499 30.76099,-30.27509 30.76095,-30.27521 30.76088,-30.2753 30.7608,-30.2754 30.7607,-30.2755 30.76066,-30.27557 30.76058,-30.27563 30.76051,-30.27568 30.76045,-30.27577 30.76042,-30.27589 30.76034,-30.27611 30.76031,-30.27621 30.76023,-30.27634 30.76009,-30.27662 30.76001,-30.27674 30.75997,-30.27683 30.75996,-30.27693 30.75992,-30.27702 30.75989,-30.27715 30.75984,-30.27724 30.75981,-30.27727 30.75974,-30.27737 30.75968,-30.27747 30.75962,-30.27755 30.7596,-30.27764 30.75955,-30.27774 30.75953,-30.27782 30.7595,-30.27797 30.75949,-30.27807 30.75947,-30.27822 30.75947,-30.27834 30.75946,-30.27845 30.75945,-30.27863 30.75946,-30.27882 30.75947,-30.27903 30.75949,-30.27922 30.7595,-30.27935 30.7595,-30.27952 30.75951,-30.27968 30.75953,-30.27979 30.75954,-30.2799 30.75961,-30.28008 30.75972,-30.28016 30.75984,-30.28022 30.75994,-30.28028 30.76004,-30.2803 30.76011,-30.28032 30.76015,-30.28034 30.76028,-30.28034 30.76042,-30.28031 30.76053,-30.28027 30.76062,-30.28023 30.76072,-30.28023 30.76079,-30.28025 30.76088,-30.28028 30.76094,-30.28032 30.761,-30.28037 30.76103,-30.28042 30.76108,-30.28048 30.76109,-30.28057 30.76111,-30.28067 30.76112,-30.28076 30.76113,-30.28084 30.76113,-30.28094 30.76112,-30.28104 30.7611,-30.28113 30.76097,-30.28126 30.76098,-30.28134 30.76105,-30.28138 30.7611,-30.2814 30.76109,-30.28145 30.76102,-30.28154 30.76094,-30.28166 30.76084,-30.28173 30.76072,-30.28185 30.76062,-30.28193 30.76055,-30.28197 30.76047,-30.28197 30.76038,-30.28205 30.76033,-30.2821 30.76028,-30.28219 30.76028,-30.28235 30.76026,-30.28242 30.76024,-30.2825 30.76022,-30.2826 30.76023,-30.28275 30.76023,-30.28283 30.76025,-30.2829 30.76025,-30.28308 30.76024,-30.28319 30.76023,-30.28331 30.76022,-30.28347 30.76022,-30.28357 30.7602,-30.28364 30.76018,-30.28375 30.76017,-30.28384 30.76017,-30.28392 30.76012,-30.28407 30.76008,-30.28412 30.76004,-30.28414 30.76001,-30.28418 30.75998,-30.2842 30.75997,-30.28426 30.75997,-30.2843 30.76001,-30.28434 30.76006,-30.28437 30.76007,-30.28441 30.76004,-30.28442 30.76003,-30.28445 30.76003,-30.28449 30.76004,-30.28452 30.76007,-30.28454 30.76011,-30.28462 30.76011,-30.28468 30.76009,-30.28474 30.76008,-30.2848 30.76009,-30.28489 30.76013,-30.28493 30.76013,-30.28503 30.76019,-30.28509 30.76018,-30.28516 30.76013,-30.28519 30.76012,-30.28527 30.76012,-30.28546 30.7601,-30.28553 30.76004,-30.28559 30.76002,-30.28565 30.75998,-30.28574 30.75998,-30.28581 30.75997,-30.28588 30.75997,-30.28594 30.76,-30.28602 30.76007,-30.28609 30.76011,-30.28615 30.76013,-30.28619 30.76013,-30.28639 30.76012,-30.28644 30.76004,-30.28658 30.76,-30.28669 30.75995,-30.28675 30.75988,-30.28681 30.75984,-30.28687 30.75984,-30.28695 30.75981,-30.28703 30.75979,-30.28712 30.75978,-30.28716 30.75976,-30.28723 30.75976,-30.28741 30.75977,-30.28746 30.75977,-30.2875 30.75975,-30.28756 30.75975,-30.28795 30.75976,-30.28802 30.7598,-30.28809 30.75981,-30.28817 30.75981,-30.28824 30.75982,-30.28832 30.75984,-30.28837 30.75984,-30.28844 30.75985,-30.28865 30.75988,-30.28872 30.75988,-30.28879 30.75982,-30.28895 30.75974,-30.28902 30.75966,-30.28913 30.75954,-30.28925 30.75947,-30.28931 30.75941,-30.28935 30.75934,-30.28939 30.75927,-30.28942 30.75921,-30.28948 30.75916,-30.28956 30.75905,-30.2897 30.75893,-30.28982 30.7589,-30.28989 30.75885,-30.28994 30.75876,-30.28998 30.75865,-30.29006 30.75856,-30.2901 30.75849,-30.29012 30.75844,-30.29016 30.7584,-30.2902 30.75836,-30.29017 30.7583,-30.29023 30.75824,-30.29023 30.75822,-30.2902 30.75818,-30.29019 30.75812,-30.29028 30.75805,-30.29037 30.75802,-30.2905 30.75794,-30.29066 30.75791,-30.29073 30.75787,-30.29076 30.75784,-30.29079 30.7578,-30.2908 30.75778,-30.29085 30.75774,-30.29089 30.75762,-30.29089 30.75756,-30.29092 30.75749,-30.29099 30.75746,-30.29104 30.75744,-30.29109 30.75744,-30.29116 30.75742,-30.29123 30.75737,-30.29127 30.75731,-30.29129 30.75725,-30.2914 30.7572,-30.29145 30.75711,-30.29148 30.75704,-30.29155 30.75697,-30.29161 30.75688,-30.29169 30.75681,-30.29187 30.75674,-30.29196 30.75671,-30.29199 30.75666,-30.29199 30.75662,-30.29207 30.75655,-30.29217 30.7565,-30.29224 30.75645,-30.29228 30.7564,-30.29233 30.75637,-30.29242 30.75628,-30.29255 30.75621,-30.29256 30.75617,-30.2926 30.75614,-30.29264 30.75611,-30.29265 30.75605,-30.29271 30.75601,-30.29273 30.75595,-30.29278 30.75592,-30.29282 30.75587,-30.29284 30.75583,-30.29288 30.75572,-30.29295 30.75566,-30.29306 30.75561,-30.29316 30.75556,-30.29324 30.75552,-30.29331 30.75548,-30.29339 30.75543,-30.29343 30.7554,-30.29348 30.75535,-30.29351 30.75532,-30.29351 30.75527,-30.29355 30.75523,-30.29359 30.75518,-30.29361 30.75509,-30.29367 30.75504,-30.29375 30.75501,-30.29383 30.75499,-30.29391 30.75498,-30.29398 30.75493,-30.29408 30.75491,-30.29416 30.75487,-30.29422 30.7548,-30.29429 30.75477,-30.29439 30.75469,-30.29455 30.75464,-30.29461 30.75457,-30.29467 30.75452,-30.29471 30.75447,-30.29474 30.75438,-30.29477 30.75426,-30.29486 30.75416,-30.29496 30.75405,-30.29506 30.75402,-30.29506 30.75404,-30.29518 30.75404,-30.29524 30.75399,-30.29525 30.75396,-30.2953 30.75394,-30.29536 30.75386,-30.29542 30.75379,-30.29546 30.75372,-30.29549 30.75367,-30.29553 30.75366,-30.29559 30.75358,-30.29567 30.75352,-30.29575 30.75349,-30.29581 30.75344,-30.29586 30.75343,-30.29594 30.75339,-30.29599 30.75332,-30.29604 30.75326,-30.2961 30.75319,-30.29616 30.75311,-30.29621 30.75305,-30.29627 30.75295,-30.29633 30.75288,-30.2964 30.75283,-30.29648 30.75273,-30.29653 30.75263,-30.29663 30.75252,-30.29675 30.7524,-30.29687 30.75236,-30.29697 30.75232,-30.29701 30.75227,-30.29705 30.7522,-30.29707 30.75217,-30.29712 30.75213,-30.29716 30.75209,-30.29724 30.75205,-30.29729 30.752,-30.29735 30.75192,-30.29738 30.75185,-30.29742 30.75175,-30.2975 30.75162,-30.29769 30.75162,-30.29775 30.75158,-30.29781 30.75157,-30.29788 30.7515,-30.29796 30.75147,-30.29801 30.75142,-30.29825 30.75135,-30.29835 30.75129,-30.29842 30.75126,-30.29849 30.75122,-30.29855 30.7512,-30.29861 30.75117,-30.29866 30.75108,-30.29873 30.75094,-30.29885 30.7507,-30.29908 30.75061,-30.2992 30.75054,-30.29929 30.75048,-30.29938 30.75045,-30.29948 30.7504,-30.29954 30.75037,-30.2996 30.75032,-30.29964 30.7503,-30.29969 30.75027,-30.29977 30.75022,-30.29983 30.75016,-30.29991 30.7501,-30.29998 30.75007,-30.30005 30.75,-30.30019 30.74999,-30.30027 30.74996,-30.30032 30.74994,-30.30039 30.74991,-30.30044 30.74982,-30.30052 30.74977,-30.30057 30.74971,-30.30062 30.74963,-30.3007 30.74955,-30.30089 30.74953,-30.30096 30.74949,-30.30102 30.74942,-30.30103 30.74927,-30.3012 30.74925,-30.30127 30.74922,-30.30133 30.74919,-30.3014 30.74914,-30.30146 30.74905,-30.30151 30.74896,-30.3016 30.74891,-30.30168 30.74891,-30.30177 30.74894,-30.30185 30.74893,-30.30192 30.74889,-30.30198 30.74884,-30.30202 30.74876,-30.30208 30.74871,-30.30217 30.7487,-30.30225 30.74866,-30.30236 30.74863,-30.30245 30.74858,-30.30254 30.74854,-30.30268 30.74852,-30.30283 30.74852,-30.3029 30.7485,-30.30296 30.74845,-30.30296 30.74841,-30.303 30.7484,-30.30308 30.74837,-30.30312 30.74834,-30.30315 30.74825,-30.30318 30.74818,-30.30327 30.74814,-30.30334 30.74811,-30.30339 30.74805,-30.30339 30.74803,-30.30334 30.748,-30.30332 30.74797,-30.30333 30.74793,-30.30337 30.74789,-30.30343 30.74789,-30.30365 30.74787,-30.30373 30.74783,-30.30378 30.74776,-30.30379 30.74771,-30.30384 30.74771,-30.30396 30.74768,-30.30401 30.74765,-30.30409 30.74763,-30.30415 30.74756,-30.30417 30.74752,-30.30415 30.74747,-30.30418 30.74744,-30.30422 30.74744,-30.30434 30.7474,-30.30437 30.74736,-30.30443 30.74733,-30.30444 30.7473,-30.30446 30.7473,-30.3045 30.74728,-30.3046 30.74731,-30.30468 30.74731,-30.30474 30.74727,-30.30477 30.74722,-30.30485 30.74715,-30.3049 30.7471,-30.30497 30.74711,-30.30505 30.74704,-30.30508 30.74698,-30.3051 30.74693,-30.3052 30.74694,-30.30527 30.74695,-30.3053 30.74699,-30.30537 30.747,-30.30544 30.74698,-30.30552 30.74693,-30.30553 30.74687,-30.30556 30.74683,-30.3056 30.74683,-30.30566 30.74685,-30.30569 30.74681,-30.30579 30.74675,-30.30582 30.74671,-30.30592 30.74674,-30.30602 30.74672,-30.3061 30.74664,-30.3062 30.74663,-30.30626 30.74667,-30.30634 30.74659,-30.30634 30.74652,-30.30635 30.74649,-30.3064 30.7465,-30.30647 30.74649,-30.30654 30.74646,-30.30664 30.74646,-30.30674 30.74639,-30.30679 30.74634,-30.30679 30.74631,-30.30685 30.74635,-30.30689 30.74637,-30.30693 30.74642,-30.30696 30.74639,-30.30703 30.74637,-30.30708 30.74639,-30.30712 30.74632,-30.3072 30.74628,-30.30728 30.74626,-30.30735 30.74626,-30.30748 30.74618,-30.30757 30.74615,-30.30763 30.74614,-30.30769 30.74609,-30.30778 30.74612,-30.30784 30.74609,-30.30793 30.74603,-30.30798 30.746,-30.30808 30.74595,-30.30819 30.74591,-30.30829 30.74589,-30.30837 30.74589,-30.30846 30.74585,-30.30854 30.74584,-30.30863 30.74582,-30.30868 30.74579,-30.30873 30.74574,-30.30882 30.74568,-30.30891 30.74567,-30.309 30.74569,-30.3091 30.74566,-30.30921 30.74564,-30.30929 30.74563,-30.30938 30.7456,-30.30944 30.7455,-30.3095 30.74539,-30.30958 30.74532,-30.30964 30.74523,-30.30974 30.74518,-30.30986 30.74518,-30.31003 30.74515,-30.31013 30.74511,-30.31017 30.74508,-30.31027 30.7451,-30.31033 30.74512,-30.31037 30.74512,-30.31043 30.74508,-30.31052 30.74507,-30.31057 30.74506,-30.31065 30.74508,-30.31072 30.74503,-30.3108 30.74499,-30.31088 30.745,-30.31094 30.74504,-30.31094 30.74502,-30.31098 30.74491,-30.31105 30.74479,-30.31113 30.74468,-30.31119 30.74463,-30.31129 30.74462,-30.31135 30.74463,-30.31139 30.74463,-30.31144 30.7446,-30.31151 30.74456,-30.31152 30.7445,-30.31153 30.74452,-30.31163 30.74444,-30.31165 30.7443,-30.31175 30.74425,-30.3118 30.74419,-30.31201 30.7442,-30.31204 30.74414,-30.31213 30.74402,-30.31225 30.74396,-30.31232 30.74392,-30.31241 30.74389,-30.31249 30.74382,-30.31257 30.74374,-30.31267 30.74374,-30.31278 30.74375,-30.31281 30.74368,-30.31291 30.74359,-30.31306 30.74356,-30.31319 30.74352,-30.31335 30.74356,-30.31344 30.7436,-30.31345 30.74366,-30.31345 30.74369,-30.31343 30.74373,-30.31345 30.74379,-30.31347 30.74379,-30.31351 30.74375,-30.3136 30.74381,-30.3136 30.74386,-30.31356 30.74387,-30.31361 30.74379,-30.31381 30.74373,-30.31388 30.7437,-30.31393 30.74367,-30.31401 30.74365,-30.31406 30.7437,-30.31406 30.74372,-30.3141 30.74367,-30.31427 30.74363,-30.31434 30.74358,-30.31441 30.74355,-30.31446 30.74355,-30.31452 30.74351,-30.31461 30.74349,-30.31468 30.74346,-30.31472 30.74346,-30.31477 30.74347,-30.31482 30.74344,-30.31497 30.7434,-30.31505 30.74335,-30.3151 30.74333,-30.31514 30.74327,-30.31521 30.74324,-30.31528 30.74324,-30.31536 30.74321,-30.31544 30.74319,-30.31557 30.74321,-30.31565 30.74321,-30.31572 30.74317,-30.31579 30.74313,-30.31591 30.74307,-30.31598 30.743,-30.31607 30.74295,-30.31614 30.74284,-30.31624 30.74276,-30.31627 30.74267,-30.31635 30.74263,-30.31637 30.7426,-30.31643 30.74257,-30.31652 30.74258,-30.31663 30.74259,-30.3167 30.74261,-30.31678 30.74259,-30.31685 30.74256,-30.31695 30.74258,-30.31704 30.74261,-30.31704 30.74263,-30.31709 30.74264,-30.31715 30.74261,-30.31725 30.74261,-30.31738 30.74259,-30.31747 30.74261,-30.31756 30.74265,-30.31758 30.74272,-30.31764 30.74273,-30.31775 30.74274,-30.31779 30.7427,-30.31789 30.74264,-30.31792 30.74264,-30.31799 30.74262,-30.31806 30.74257,-30.31818 30.74258,-30.31826 30.7426,-30.31828 30.74259,-30.31832 30.74254,-30.31834 30.74252,-30.31837 30.74253,-30.31842 30.74247,-30.31849 30.74244,-30.31854 30.74236,-30.3186 30.74234,-30.31865 30.74234,-30.3187 30.74229,-30.31871 30.74225,-30.3187 30.74221,-30.31867 30.74218,-30.31866 30.74213,-30.31873 30.74213,-30.31882 30.74215,-30.31889 30.74216,-30.31897 30.7421,-30.31903 30.74204,-30.31908 30.74195,-30.31918 30.74189,-30.31929 30.74184,-30.31945 30.74181,-30.31954 30.74181,-30.31963 30.74182,-30.31971 30.74185,-30.3198 30.74187,-30.31992 30.74188,-30.32004 30.74189,-30.32011 30.74186,-30.32019 30.74177,-30.32031 30.74172,-30.32039 30.74167,-30.32052 30.74163,-30.32077 30.74163,-30.32101 30.74165,-30.32103 30.74169,-30.32105 30.7417,-30.32111 30.74168,-30.32122 30.74157,-30.32135 30.74154,-30.32142 30.7415,-30.32151 30.74144,-30.32154 30.74138,-30.32159 30.74132,-30.32163 30.74132,-30.32168 30.7413,-30.32181 30.74134,-30.32183 30.74133,-30.32191 30.7413,-30.32193 30.7413,-30.32197 30.74126,-30.32199 30.74124,-30.32204 30.74126,-30.32207 30.74126,-30.32216 30.74118,-30.32223 30.74122,-30.32225 30.74122,-30.3223 30.74119,-30.32233 30.74119,-30.32239 30.7412,-30.32242 30.74123,-30.32244 30.74119,-30.32249 30.74112,-30.32256 30.74105,-30.32266 30.74098,-30.32274 30.74098,-30.32277 30.74091,-30.32285 30.74087,-30.32288 30.74082,-30.32293 30.7408,-30.3229 30.74074,-30.3229 30.74067,-30.32295 30.74061,-30.32296 30.74055,-30.32298 30.7405,-30.32305 30.7405,-30.32309 30.74045,-30.32317 30.74034,-30.32322 30.74034,-30.32329 30.7404,-30.32335 30.74035,-30.32339 30.74029,-30.3234 30.7403,-30.32345 30.74026,-30.3235 30.74021,-30.3235 30.74022,-30.32357 30.74026,-30.32358 30.7403,-30.32358 30.74033,-30.3236 30.74029,-30.32361 30.74026,-30.32366 30.74026,-30.32371 30.74021,-30.32372 30.74019,-30.32375 30.7402,-30.32377 30.74019,-30.32383 30.74008,-30.3239 30.73997,-30.32399 30.73989,-30.32408 30.73978,-30.32422 30.7397,-30.32435 30.73957,-30.32448 30.73944,-30.32463 30.73937,-30.32472 30.73931,-30.3248 30.73928,-30.3249 30.73922,-30.32504 30.73918,-30.32513 30.73916,-30.32524 30.73916,-30.32535 30.73915,-30.32546 30.73907,-30.32559 30.739,-30.32572 30.73898,-30.32579 30.73891,-30.32588 30.73883,-30.32601 30.73881,-30.32608 30.73883,-30.3261 30.73882,-30.32618 30.73875,-30.3263 30.73869,-30.32637 30.73866,-30.32637 30.73861,-30.32636 30.73857,-30.32635 30.73856,-30.3264 30.73852,-30.32649 30.73845,-30.32658 30.73838,-30.32665 30.73826,-30.3267 30.73823,-30.32676 30.73823,-30.32682 30.73827,-30.32686 30.73828,-30.32693 30.73826,-30.32698 30.73821,-30.32705 30.73815,-30.32711 30.73801,-30.32719 30.7379,-30.32725 30.73779,-30.32736 30.7377,-30.32746 30.73765,-30.32759 30.73762,-30.32771 30.73756,-30.32791 30.73753,-30.32803 30.73753,-30.32826 30.7376,-30.3284 30.73765,-30.32847 30.73765,-30.32851 30.73764,-30.32855 30.73756,-30.32861 30.73748,-30.32869 30.73738,-30.32876 30.73734,-30.32881 30.73732,-30.32893 30.73733,-30.32905 30.73732,-30.32912 30.73726,-30.32922 30.73722,-30.32932 30.7372,-30.32939 30.7372,-30.32947 30.73715,-30.32956 30.7371,-30.32964 30.73705,-30.32973 30.73698,-30.32983 30.73691,-30.32989 30.73682,-30.32995 30.7367,-30.33005 30.73665,-30.33013 30.73656,-30.33024 30.73649,-30.33029 30.73642,-30.33037 30.73639,-30.33043 30.73635,-30.33054 30.73635,-30.33073 30.73633,-30.33083 30.73625,-30.33093 30.7362,-30.331 30.73613,-30.3311 30.73606,-30.33118 30.73599,-30.33131 30.73595,-30.33139 30.73589,-30.3315 30.73581,-30.33159 30.73576,-30.33166 30.73568,-30.33172 30.73559,-30.33178 30.73557,-30.33185 30.73557,-30.33191 30.73556,-30.33195 30.73554,-30.332 30.73547,-30.332 30.73545,-30.33203 30.73544,-30.33212 30.73538,-30.3322 30.73531,-30.33228 30.73528,-30.33233 30.73528,-30.33239 30.73523,-30.33247 30.73517,-30.33254 30.73516,-30.33262 30.73514,-30.33269 30.73508,-30.33278 30.73504,-30.33298 30.73502,-30.33303 30.73499,-30.33315 30.73498,-30.33321 30.73498,-30.33326 30.73497,-30.33329 30.73496,-30.33333 30.73496,-30.33336 30.73498,-30.33339 30.73498,-30.33359 30.73495,-30.33366 30.73489,-30.33376 30.73477,-30.33388 30.73473,-30.33394 30.7347,-30.33402 30.73468,-30.33414 30.73466,-30.33423 30.73464,-30.33436 30.73464,-30.33447 30.73463,-30.33465 30.73466,-30.3348 30.73469,-30.33486 30.73474,-30.33495 30.73485,-30.33505 30.73494,-30.33518 30.73498,-30.33524 30.73501,-30.33526 30.73502,-30.33537 30.73506,-30.33545 30.73511,-30.33553 30.73511,-30.33566 30.73516,-30.33582 30.73519,-30.33587 30.73519,-30.33612 30.73512,-30.33627 30.73504,-30.3364 30.73499,-30.33651 30.73498,-30.33665 30.735,-30.33677 30.73504,-30.33685 30.73516,-30.33694 30.73522,-30.33703 30.73526,-30.33713 30.73526,-30.33722 30.73521,-30.33731 30.73513,-30.33742 30.73513,-30.33753 30.73516,-30.33766 30.73518,-30.33773 30.73523,-30.3378 30.73532,-30.33794 30.73535,-30.33797 30.73543,-30.33807 30.73549,-30.33812 30.73553,-30.33818 30.73557,-30.33823 30.73562,-30.33828 30.73565,-30.33836 30.73565,-30.33843 30.73568,-30.33855 30.73572,-30.33858 30.73573,-30.33863 30.73573,-30.33867 30.7357,-30.33872 30.7357,-30.33876 30.73568,-30.33881 30.73563,-30.33884 30.73553,-30.33886 30.73548,-30.33892 30.73537,-30.33898 30.73524,-30.33903 30.73518,-30.33906 30.73506,-30.33908 30.73499,-30.3391 30.73489,-30.33914 30.7348,-30.33914 30.73473,-30.33917 30.73467,-30.33922 30.7346,-30.33928 30.73451,-30.33934 30.73444,-30.33937 30.73439,-30.33937 30.73434,-30.33939 30.73428,-30.33945 30.7342,-30.3395 30.73417,-30.33953 30.73413,-30.3396 30.7341,-30.33962 30.73408,-30.33964 30.73407,-30.33967 30.734,-30.33972 30.73389,-30.33982 30.73385,-30.33989 30.73385,-30.33995 30.73389,-30.33997 30.73397,-30.34005 30.73398,-30.3401 30.734,-30.34018 30.73402,-30.34024 30.73399,-30.3403 30.73395,-30.34033 30.73392,-30.3404 30.73387,-30.34045 30.73383,-30.3405 30.73378,-30.34054 30.73375,-30.34058 30.73367,-30.34062 30.73362,-30.34072 30.73358,-30.34078 30.73357,-30.34081 30.73357,-30.34085 30.73354,-30.34083 30.73343,-30.34089 30.7334,-30.34087 30.7334,-30.34084 30.73334,-30.34083 30.73332,-30.34085 30.73324,-30.34095 30.73322,-30.341 30.73322,-30.34109 30.73318,-30.34114 30.73321,-30.34116 30.7332,-30.3412 30.73315,-30.34124 30.73311,-30.34122 30.73306,-30.34117 30.73305,-30.34123 30.733,-30.34128 30.73299,-30.34136 30.73289,-30.34147 30.7328,-30.34156 30.73283,-30.3416 30.7328,-30.34162 30.73274,-30.34163 30.73268,-30.34165 30.73268,-30.34172 30.73266,-30.34175 30.73267,-30.34178 30.7327,-30.34179 30.73273,-30.34183 30.73269,-30.34187 30.73268,-30.34196 30.73275,-30.34201 30.73278,-30.34205 30.73278,-30.34211 30.73271,-30.34221 30.73267,-30.34223 30.73264,-30.34226 30.73256,-30.34229 30.73252,-30.34229 30.73246,-30.34235 30.73247,-30.3424 30.73249,-30.34242 30.73249,-30.34253 30.73242,-30.34257 30.73239,-30.34272 30.73234,-30.34269 30.7323,-30.34266 30.73222,-30.3427 30.73219,-30.34277 30.73216,-30.3428 30.73216,-30.34283 30.73211,-30.34285 30.73203,-30.34289 30.732,-30.34289 30.732,-30.34298 30.73194,-30.34298 30.73193,-30.34294 30.73195,-30.34286 30.73193,-30.34282 30.7319,-30.34281 30.73189,-30.34285 30.7318,-30.34293 30.73174,-30.34297 30.73165,-30.343 30.73164,-30.34304 30.73164,-30.34309 30.73155,-30.34316 30.73149,-30.34316 30.73149,-30.34311 30.73148,-30.34308 30.73142,-30.34313 30.73139,-30.34314 30.73137,-30.34319 30.7313,-30.3433 30.73123,-30.34331 30.73119,-30.34334 30.73112,-30.34335 30.73109,-30.34339 30.73101,-30.34339 30.73095,-30.34345 30.73094,-30.34352 30.7309,-30.34357 30.73096,-30.3436 30.73105,-30.34362 30.73111,-30.34366 30.73115,-30.34373 30.73112,-30.3438 30.73108,-30.34383 30.73097,-30.34385 30.73091,-30.34382 30.73087,-30.34387 30.73092,-30.34392 30.73092,-30.34398 30.73085,-30.34399 30.73081,-30.34398 30.73078,-30.34399 30.73074,-30.34402 30.73074,-30.34408 30.73075,-30.34411 30.73065,-30.34419 30.7306,-30.34418 30.7305,-30.34414 30.73049,-30.34419 30.73043,-30.34419 30.73042,-30.34416 30.73037,-30.34413 30.73032,-30.34414 30.73024,-30.34416 30.73014,-30.3442 30.73002,-30.34422 30.72996,-30.34426 30.72986,-30.34435 30.72977,-30.34448 30.72969,-30.34459 30.72959,-30.34467 30.72945,-30.34478 30.72928,-30.34494 30.72924,-30.34501 30.7292,-30.3451 30.72914,-30.34518 30.729,-30.34529 30.72893,-30.34535 30.7289,-30.34541 30.72881,-30.34553 30.72875,-30.3456 30.72872,-30.34564 30.72866,-30.34566 30.72862,-30.34567 30.72856,-30.34572 30.72851,-30.34579 30.72843,-30.34585 30.72839,-30.34585 30.72835,-30.34584 30.72831,-30.34583 30.72831,-30.34591 30.72824,-30.34599 30.72819,-30.34605 30.72812,-30.34613 30.72804,-30.34621 30.72796,-30.34634 30.72789,-30.34644 30.72784,-30.34649 30.72784,-30.34658 30.72789,-30.34664 30.7279,-30.34674 30.72789,-30.34679 30.72781,-30.34682 30.72772,-30.34687 30.72753,-30.34694 30.72742,-30.34702 30.72734,-30.34713 30.72728,-30.34717 30.72722,-30.34723 30.72715,-30.34732 30.72706,-30.34737 30.727,-30.34745 30.72692,-30.34752 30.72681,-30.34757 30.72674,-30.34762 30.7267,-30.34764 30.72663,-30.34771 30.72656,-30.34777 30.7265,-30.34777 30.72643,-30.34773 30.7264,-30.34772 30.72633,-30.34773 30.72633,-30.34779 30.72634,-30.34782 30.72634,-30.34795 30.7263,-30.348 30.72625,-30.34798 30.72615,-30.34801 30.72615,-30.34804 30.72614,-30.34808 30.72609,-30.3482 30.72606,-30.34824 30.72603,-30.34826 30.72596,-30.34826 30.72592,-30.3483 30.72591,-30.34837 30.72586,-30.34842 30.72586,-30.34849 30.72587,-30.34854 30.72581,-30.34864 30.72573,-30.34871 30.72568,-30.3487 30.72563,-30.34865 30.72554,-30.34863 30.72549,-30.34863 30.72549,-30.34867 30.72557,-30.34875 30.7256,-30.34881 30.72554,-30.34886 30.72544,-30.34889 30.72534,-30.34894 30.72522,-30.34897 30.72509,-30.349 30.72501,-30.34904 30.72492,-30.34907 30.72488,-30.34913 30.72486,-30.34918 30.72485,-30.34926 30.72479,-30.34933 30.72471,-30.34936 30.72461,-30.3494 30.72456,-30.34946 30.72452,-30.34955 30.72443,-30.34961 30.72432,-30.34965 30.72422,-30.3497 30.72411,-30.34975 30.72398,-30.34984 30.72388,-30.3499 30.72366,-30.35012 30.72358,-30.35017 30.7235,-30.35021 30.72346,-30.35021 30.72341,-30.35024 30.72337,-30.35029 30.7233,-30.35038 30.72323,-30.35042 30.72317,-30.35046 30.72312,-30.3505 30.72311,-30.35059 30.72301,-30.35068 30.72289,-30.35072 30.72282,-30.3508 30.72274,-30.35083 30.72265,-30.35083 30.72261,-30.35088 30.72261,-30.35096 30.72264,-30.35102 30.72261,-30.35106 30.7225,-30.35106 30.72247,-30.35108 30.72247,-30.35114 30.72242,-30.35122 30.72235,-30.35129 30.72228,-30.35133 30.72223,-30.35138 30.72219,-30.35147 30.72213,-30.35152 30.72205,-30.35161 30.72203,-30.35165 30.72201,-30.3517 30.72194,-30.35178 30.72185,-30.35186 30.72175,-30.35195 30.72165,-30.35206 30.72154,-30.35215 30.72145,-30.35224 30.72137,-30.35231 30.72134,-30.35237 30.72125,-30.35246 30.72119,-30.35257 30.72114,-30.35268 30.72103,-30.35277 30.72091,-30.35286 30.72091,-30.3529 30.72086,-30.35297 30.72075,-30.35309 30.72066,-30.35319 30.72057,-30.35328 30.72046,-30.3534 30.72044,-30.35351 30.72038,-30.3536 30.72019,-30.35379 30.72008,-30.35394 30.71998,-30.35406 30.71988,-30.35419 30.71975,-30.35429 30.71968,-30.35433 30.71963,-30.35436 30.7196,-30.3544 30.71957,-30.35449 30.71948,-30.35461 30.71938,-30.35476 30.71933,-30.35484 30.71925,-30.35498 30.71924,-30.35505 30.71922,-30.35514 30.71919,-30.35529 30.7191,-30.35542 30.71907,-30.35551 30.71897,-30.35564 30.71894,-30.3557 30.71886,-30.35585 30.71882,-30.35596 30.71878,-30.35605 30.71868,-30.35618 30.71862,-30.35626 30.71856,-30.35637 30.71856,-30.35645 30.71852,-30.35657 30.71847,-30.35674 30.71839,-30.3569 30.71831,-30.35705 30.7183,-30.35712 30.71831,-30.35724 30.71832,-30.35728 30.71834,-30.3573 30.71839,-30.35732 30.7184,-30.35735 30.71837,-30.35738 30.71829,-30.35739 30.71823,-30.35744 30.71823,-30.35752 30.71824,-30.35764 30.71829,-30.35774 30.71833,-30.35781 30.71839,-30.35788 30.71847,-30.35796 30.71856,-30.35809 30.71858,-30.35821 30.71862,-30.35834 30.71865,-30.35851 30.71865,-30.35867 30.71866,-30.35881 30.7186,-30.35902 30.71853,-30.35908 30.7185,-30.35914 30.71846,-30.35919 30.71847,-30.35924 30.71852,-30.35929 30.71856,-30.35934 30.71856,-30.35944 30.71851,-30.35946 30.71848,-30.35943 30.7184,-30.35942 30.71837,-30.3595 30.71834,-30.35959 30.71833,-30.3597 30.71835,-30.35972 30.71835,-30.3598 30.71833,-30.35986 30.71832,-30.3599 30.71826,-30.35997 30.71818,-30.36005 30.71809,-30.36011 30.71809,-30.36016 30.71807,-30.3602 30.71807,-30.3603 30.71809,-30.36033 30.71804,-30.36043 30.71797,-30.36043 30.71795,-30.3605 30.71795,-30.36055 30.71796,-30.3606 30.71796,-30.36064 30.71795,-30.36067 30.71795,-30.36072 30.7179,-30.36074 30.71781,-30.36077 30.71773,-30.36082 30.7177,-30.36089 30.71764,-30.36096 30.71756,-30.36105 30.71749,-30.36109 30.71745,-30.36113 30.71742,-30.36121 30.71733,-30.36127 30.71723,-30.36134 30.71706,-30.3614 30.71701,-30.3614 30.71692,-30.36146 30.71692,-30.3615 30.71685,-30.36157 30.71676,-30.3616 30.71665,-30.3616 30.7166,-30.36164 30.71664,-30.36169 30.71664,-30.36174 30.71657,-30.36178 30.71657,-30.36188 30.71656,-30.36191 30.7165,-30.36194 30.71648,-30.36191 30.71645,-30.36193 30.71644,-30.36196 30.71639,-30.36203 30.71636,-30.36211 30.71627,-30.36221 30.7162,-30.36223 30.71617,-30.36225 30.71614,-30.36225 30.71611,-30.36227 30.71609,-30.36231 30.71611,-30.36236 30.71609,-30.3624 30.71605,-30.36243 30.716,-30.36244 30.71585,-30.3625 30.71574,-30.3625 30.71572,-30.36254 30.71572,-30.36257 30.71568,-30.3626 30.71558,-30.36267 30.71558,-30.36273 30.71562,-30.36281 30.71565,-30.36283 30.71567,-30.36287 30.7157,-30.3629 30.71568,-30.36292 30.7155,-30.36302 30.71541,-30.36309 30.71529,-30.36316 30.71516,-30.36324 30.71488,-30.36338 30.71482,-30.36348 30.71484,-30.36353 30.71482,-30.36357 30.71478,-30.36358 30.71476,-30.36364 30.71474,-30.36369 30.71469,-30.36371 30.7146,-30.36378 30.71455,-30.36383 30.71449,-30.36382 30.71448,-30.36377 30.71446,-30.36374 30.71442,-30.36372 30.71436,-30.36373 30.71428,-30.36378 30.7142,-30.36381 30.7141,-30.36386 30.71405,-30.3639 30.714,-30.36398 30.71391,-30.36404 30.71383,-30.36409 30.71371,-30.36417 30.71358,-30.36425 30.71346,-30.36431 30.71337,-30.36439 30.71332,-30.36445 30.7132,-30.36451 30.71302,-30.36459 30.71287,-30.36471 30.71272,-30.36479 30.71262,-30.36488 30.71247,-30.365 30.71229,-30.36511 30.71213,-30.36519 30.71206,-30.36522 30.71197,-30.3653 30.71188,-30.36541 30.71175,-30.3655 30.71169,-30.36558 30.71161,-30.36569 30.71157,-30.36577 30.71147,-30.36583 30.71142,-30.36588 30.7113,-30.36596 30.71119,-30.36601 30.71116,-30.36608 30.71102,-30.36618 30.71091,-30.36626 30.71078,-30.36635 30.71069,-30.36645 30.71057,-30.36652 30.71053,-30.36659 30.7104,-30.36668 30.71035,-30.36675 30.71028,-30.36687 30.7102,-30.36696 30.71009,-30.36707 30.70999,-30.36716 30.70989,-30.36726 30.7098,-30.36737 30.70972,-30.36748 30.70965,-30.36758 30.70959,-30.3677 30.70953,-30.36779 30.70947,-30.36787 30.70943,-30.3679 30.70935,-30.36797 30.70932,-30.36802 30.7092,-30.36809 30.70914,-30.36818 30.70902,-30.36827 30.70887,-30.36836 30.70881,-30.36842 30.70871,-30.3685 30.70856,-30.36859 30.70847,-30.36865 30.70833,-30.36872 30.70826,-30.36878 30.70821,-30.36886 30.70812,-30.3689 30.70805,-30.36899 30.70794,-30.3691 30.70783,-30.36927 30.70774,-30.36938 30.70764,-30.3695 30.70757,-30.3696 30.70744,-30.36974 30.70734,-30.36987 30.70729,-30.36999 30.70721,-30.37014 30.70714,-30.37031 30.70709,-30.37046 30.70702,-30.37059 30.70695,-30.37069 30.70686,-30.37082 30.70681,-30.37095 30.70674,-30.37109 30.70665,-30.37126 30.7066,-30.37141 30.70652,-30.3716 30.70645,-30.37173 30.70637,-30.37179 30.70633,-30.37185 30.70619,-30.37201 30.70599,-30.37221 30.70589,-30.3723 30.70579,-30.37237 30.70571,-30.37241 30.70564,-30.37251 30.70551,-30.37257 30.70539,-30.37264 30.70527,-30.37273 30.70518,-30.37281 30.7051,-30.37292 30.70506,-30.37301 30.70495,-30.37317 30.70488,-30.37325 30.70482,-30.37335 30.70475,-30.37348 30.70467,-30.37357 30.70454,-30.37367 30.70445,-30.37374 30.70435,-30.37383 30.70427,-30.37393 30.70417,-30.37405 30.70414,-30.37412 30.704,-30.37425 30.70389,-30.37438 30.70379,-30.37449 30.7037,-30.37462 30.70358,-30.37478 30.70348,-30.37489 30.70335,-30.37502 30.70325,-30.37511 30.70313,-30.37523 30.70303,-30.37535 30.70294,-30.37541 30.70284,-30.37546 30.70275,-30.37557 30.70271,-30.37565 30.70262,-30.37576 30.70253,-30.37589 30.70238,-30.37605 30.70228,-30.37627 30.70223,-30.37639 30.70221,-30.37645 30.70216,-30.37651 30.70218,-30.37656 30.70208,-30.37662 30.70201,-30.37673 30.70201,-30.37689 30.702,-30.37693 30.70191,-30.37704 30.70184,-30.37711 30.70184,-30.37715 30.70183,-30.37721 30.70177,-30.37726 30.70172,-30.37737 30.70168,-30.3775 30.7016,-30.37764 30.70156,-30.37774 30.70154,-30.3778 30.70156,-30.37785 30.70157,-30.37792 30.70157,-30.378 30.70154,-30.37805 30.7015,-30.37809 30.7015,-30.37817 30.70153,-30.37822 30.70157,-30.37825 30.70162,-30.37826 30.70162,-30.3783 30.70161,-30.37835 30.70159,-30.37839 30.70162,-30.3784 30.70165,-30.37843 30.70165,-30.37849 30.70162,-30.37852 30.70156,-30.37852 30.70153,-30.37856 30.70154,-30.3786 30.70159,-30.37861 30.70162,-30.37861 30.70163,-30.3788 30.70159,-30.37887 30.7016,-30.37892 30.70157,-30.37902 30.70153,-30.37915 30.70153,-30.37921 30.70152,-30.37925 30.7015,-30.37931 30.7015,-30.37936 30.70146,-30.37938 30.70141,-30.3794 30.70138,-30.37944 30.70141,-30.37947 30.7014,-30.37953 30.70129,-30.37953 30.70126,-30.37956 30.70127,-30.37963 30.70129,-30.3797 30.70129,-30.37984 30.70124,-30.37996 30.70127,-30.38 30.70134,-30.37999 30.70139,-30.37998 30.70149,-30.38 30.70153,-30.38012 30.70156,-30.3802 30.70155,-30.38033 30.70154,-30.38043 30.70149,-30.38056 30.70146,-30.38068 30.70144,-30.38077 30.70138,-30.38095 30.70138,-30.38107 30.7014,-30.38115 30.70141,-30.38124 30.70141,-30.38134 30.70136,-30.38146 30.70131,-30.38156 30.70126,-30.38165 30.70126,-30.38176 30.70122,-30.38187 30.70119,-30.38196 30.70119,-30.38206 30.70113,-30.38219 30.70108,-30.38225 30.70105,-30.38232 30.70097,-30.38238 30.70091,-30.38247 30.70089,-30.38261 30.7009,-30.3827 30.70083,-30.3828 30.70086,-30.38292 30.70094,-30.38298 30.70096,-30.38303 30.70097,-30.38315 30.70092,-30.38321 30.70085,-30.38322 30.70078,-30.3832 30.70075,-30.38317 30.70069,-30.38317 30.70059,-30.38314 30.70047,-30.38319 30.70038,-30.38324 30.70034,-30.38331 30.70034,-30.38345 30.70037,-30.38354 30.70037,-30.38361 30.70035,-30.38364 30.70025,-30.38377 30.70023,-30.38388 30.70024,-30.38394 30.70027,-30.38401 30.70025,-30.38409 30.70025,-30.38417 30.70028,-30.38429 30.70031,-30.38436 30.70033,-30.38441 30.70029,-30.38448 30.70025,-30.38452 30.70025,-30.38458 30.70018,-30.38467 30.70013,-30.38475 30.7001,-30.38485 30.69999,-30.38492 30.69986,-30.38495 30.69974,-30.38501 30.69963,-30.38504 30.69956,-30.38508 30.69944,-30.38511 30.69935,-30.38514 30.69915,-30.3852 30.69908,-30.38524 30.69905,-30.38527 30.69906,-30.38533 30.69902,-30.38539 30.69896,-30.38541 30.69893,-30.38548 30.69893,-30.38555 30.69896,-30.3856 30.699,-30.38563 30.69902,-30.38567 30.69899,-30.38571 30.69893,-30.38571 30.6989,-30.38569 30.69882,-30.38569 30.69881,-30.38572 30.69875,-30.38576 30.69869,-30.38576 30.69865,-30.38578 30.69862,-30.3858 30.69859,-30.38586 30.69851,-30.38591 30.69838,-30.386 30.69827,-30.38605 30.69818,-30.38607 30.69808,-30.38614 30.69793,-30.3862 30.69781,-30.38627 30.69779,-30.3863 30.69779,-30.38636 30.69777,-30.38644 30.69772,-30.38645 30.69766,-30.38651 30.69758,-30.38656 30.69748,-30.38662 30.69743,-30.38664 30.69732,-30.38669 30.69728,-30.3867 30.69729,-30.38678 30.69735,-30.38682 30.69728,-30.38689 30.69716,-30.38698 30.69708,-30.38703 30.69703,-30.38703 30.697,-30.38708 30.69699,-30.38714 30.6969,-30.38723 30.69678,-30.3873 30.69658,-30.38745 30.69648,-30.38751 30.69635,-30.38762 30.69628,-30.3877 30.69616,-30.38781 30.69609,-30.3879 30.696,-30.388 30.69589,-30.38807 30.6958,-30.38815 30.69576,-30.38822 30.69572,-30.38834 30.69566,-30.38843 30.69561,-30.38849 30.69556,-30.38861 30.69552,-30.38874 30.6955,-30.38883 30.69547,-30.38898 30.69542,-30.38909 30.69536,-30.38921 30.69534,-30.3893 30.69536,-30.38935 30.69542,-30.3894 30.69549,-30.38943 30.69559,-30.38949 30.69564,-30.38959 30.69568,-30.38965 30.69565,-30.38968 30.69561,-30.38978 30.69557,-30.38984 30.69553,-30.38993 30.69551,-30.39006 30.69544,-30.39018 30.69533,-30.39027 30.69524,-30.39035 30.69519,-30.39039 30.69507,-30.3905 30.69498,-30.3906 30.69491,-30.39068 30.69489,-30.39076 30.6949,-30.39087 30.69493,-30.39088 30.69492,-30.39092 30.69488,-30.39094 30.69485,-30.39093 30.69483,-30.39098 30.69482,-30.39102 30.69478,-30.39113 30.69468,-30.3912 30.69461,-30.39132 30.69461,-30.39144 30.69466,-30.3915 30.69469,-30.39156 30.69473,-30.39162 30.6948,-30.39166 30.69484,-30.39167 30.69487,-30.39168 30.69489,-30.3917 30.69487,-30.39175 30.69481,-30.39185 30.69472,-30.39195 30.69464,-30.39201 30.69446,-30.39211 30.69438,-30.39222 30.69422,-30.39238 30.6941,-30.39248 30.694,-30.39262 30.69395,-30.39273 30.69394,-30.39281 30.69391,-30.39286 30.69387,-30.39289 30.69379,-30.393 30.69375,-30.39306 30.69372,-30.39313 30.6937,-30.39318 30.6937,-30.39321 30.69374,-30.39323 30.6937,-30.39326 30.69364,-30.39329 30.69359,-30.39342 30.6936,-30.3935 30.69365,-30.39354 30.69368,-30.39356 30.69374,-30.39356 30.69378,-30.39363 30.69378,-30.39367 30.69372,-30.39373 30.69369,-30.39373 30.69366,-30.39375 30.69367,-30.39379 30.6937,-30.39379 30.69379,-30.39378 30.69382,-30.39376 30.69391,-30.39376 30.69397,-30.39377 30.694,-30.39379 30.69403,-30.39389 30.694,-30.39391 30.69385,-30.39395 30.69378,-30.394 30.69376,-30.39406 30.69372,-30.39411 30.69369,-30.3942 30.69369,-30.39424 30.6937,-30.39429 30.69371,-30.39435 30.69365,-30.39441 30.69362,-30.39446 30.69358,-30.39448 30.69348,-30.39449 30.69342,-30.39455 30.6934,-30.3946 30.6934,-30.39464 30.69337,-30.39471 30.69333,-30.39474 30.69329,-30.39483 30.69329,-30.39489 30.69327,-30.39495 30.69322,-30.39509 30.69323,-30.39515 30.6932,-30.39523 30.69322,-30.3953 30.69329,-30.39537 30.69333,-30.39538 30.69338,-30.39538 30.69341,-30.39542 30.69336,-30.39547 30.69328,-30.39551 30.69323,-30.39551 30.69318,-30.39555 30.69322,-30.39555 30.69323,-30.39559 30.69319,-30.3956 30.6932,-30.39564 30.6932,-30.39573 30.69323,-30.39576 30.69325,-30.39584 30.69311,-30.39584 30.69308,-30.39583 30.69302,-30.39583 30.69298,-30.39587 30.69293,-30.39591 30.6929,-30.39591 30.69285,-30.39596 30.69277,-30.396 30.69268,-30.39604 30.69262,-30.39602 30.6926,-30.396 30.69254,-30.39598 30.6925,-30.39598 30.69246,-30.396 30.69242,-30.39598 30.69238,-30.39598 30.69238,-30.39601 30.69232,-30.39605 30.69226,-30.39606 30.69222,-30.39605 30.69216,-30.39605 30.69211,-30.39609 30.69204,-30.3961 30.692,-30.39611 30.692,-30.39617 30.69187,-30.39617 30.69179,-30.39618 30.69174,-30.39623 30.69175,-30.39627 30.69179,-30.3963 30.69181,-30.39637 30.69181,-30.39643 30.69178,-30.39649 30.69172,-30.39649 30.69165,-30.3965 30.69159,-30.39652 30.69158,-30.39655 30.69157,-30.39659 30.69152,-30.39662 30.69149,-30.39661 30.69148,-30.39658 30.69146,-30.39656 30.69141,-30.39654 30.69137,-30.39652 30.69132,-30.39648 30.69128,-30.39647 30.69119,-30.39647 30.69115,-30.39645 30.69109,-30.39643 30.69105,-30.39643 30.691,-30.39646 30.69099,-30.39652 30.69096,-30.39658 30.69094,-30.39664 30.6909,-30.39674 30.69086,-30.39678 30.6908,-30.39682 30.69075,-30.39684 30.69073,-30.39692 30.69075,-30.39696 30.69078,-30.397 30.69081,-30.39708 30.69085,-30.39715 30.69085,-30.39721 30.69089,-30.39727 30.69086,-30.39732 30.6908,-30.39728 30.69073,-30.3973 30.69067,-30.39734 30.69061,-30.39743 30.69059,-30.39749 30.69054,-30.39753 30.69053,-30.39759 30.69055,-30.39765 30.69054,-30.39772 30.69054,-30.39778 30.69055,-30.39784 30.69059,-30.39782 30.69062,-30.39775 30.69065,-30.39772 30.6907,-30.3977 30.69075,-30.39771 30.69078,-30.39777 30.69083,-30.39779 30.6908,-30.39784 30.69071,-30.39784 30.69066,-30.39787 30.69064,-30.39791 30.69066,-30.39796 30.69069,-30.39801 30.69068,-30.39805 30.69062,-30.39808 30.69053,-30.39808 30.69047,-30.39806 30.69042,-30.39809 30.69037,-30.39806 30.69031,-30.398 30.6903,-30.39796 30.69026,-30.39796 30.69027,-30.39799 30.69027,-30.39803 30.69028,-30.39808 30.69031,-30.39812 30.69035,-30.39814 30.69034,-30.39818 30.69031,-30.3982 30.69025,-30.39827 30.6903,-30.3983 30.69031,-30.39834 30.69022,-30.39835 30.69012,-30.39835 30.69009,-30.39832 30.68999,-30.3983 30.68995,-30.39828 30.6899,-30.39828 30.68984,-30.39825 30.68981,-30.39824 30.68974,-30.39824 30.68975,-30.39829 30.68977,-30.39833 30.68981,-30.39838 30.68985,-30.39839 30.68986,-30.39846 30.68986,-30.3985 30.68987,-30.39853 30.6898,-30.39858 30.68973,-30.39858 30.68967,-30.39855 30.68964,-30.39853 30.68959,-30.39853 30.68959,-30.39856 30.68961,-30.3986 30.68964,-30.39865 30.68969,-30.39865 30.6897,-30.39869 30.68967,-30.39871 30.68961,-30.39874 30.68953,-30.39868 30.68947,-30.39869 30.68944,-30.39868 30.6894,-30.39868 30.68942,-30.39872 30.68947,-30.39877 30.68949,-30.39884 30.68956,-30.39887 30.68959,-30.3989 30.68962,-30.39896 30.68953,-30.39899 30.68943,-30.39906 30.68937,-30.39909 30.68934,-30.39909 30.68931,-30.39914 30.68925,-30.39919 30.6892,-30.39916 30.68915,-30.39912 30.68911,-30.39902 30.68906,-30.39902 30.68904,-30.39907 30.68901,-30.39906 30.68898,-30.39907 30.68898,-30.39921 30.68896,-30.39923 30.68891,-30.39925 30.6889,-30.39919 30.68889,-30.39915 30.68886,-30.39915 30.68883,-30.39916 30.68883,-30.39921 30.6888,-30.39924 30.68874,-30.39922 30.68872,-30.39918 30.68868,-30.39918 30.68863,-30.39922 30.68855,-30.39927 30.68848,-30.39932 30.6884,-30.39933 30.68837,-30.39931 30.6883,-30.39932 30.68828,-30.39937 30.6883,-30.39942 30.68835,-30.39943 30.68835,-30.39947 30.68834,-30.39953 30.68825,-30.39965 30.68821,-30.39965 30.68817,-30.39967 30.68814,-30.39971 30.68814,-30.39975 30.68808,-30.39981 30.68798,-30.39984 30.68786,-30.39985 30.68778,-30.39989 30.68773,-30.39994 30.68771,-30.39998 30.68773,-30.40004 30.68769,-30.4001 30.68761,-30.40016 30.68753,-30.40019 30.68744,-30.40023 30.68734,-30.40028 30.68724,-30.40034 30.6872,-30.40038 30.68717,-30.40044 30.68718,-30.4005 30.6871,-30.40055 30.68703,-30.40055 30.68695,-30.40058 30.68687,-30.40065 30.68684,-30.40072 30.68684,-30.40076 30.68683,-30.40081 30.68679,-30.40087 30.68673,-30.40091 30.68666,-30.40092 30.68661,-30.40097 30.68658,-30.40105 30.68655,-30.40114 30.68654,-30.4012 30.68648,-30.40129 30.68639,-30.40137 30.68629,-30.40149 30.68616,-30.40158 30.68606,-30.40169 30.68591,-30.40184 30.68578,-30.40199 30.68566,-30.40207 30.68553,-30.40214 30.68547,-30.40223 30.68542,-30.40238 30.68533,-30.40242 30.68529,-30.40246 30.68525,-30.40253 30.68519,-30.40263 30.68512,-30.40275 30.68501,-30.40286 30.68492,-30.40297 30.68492,-30.40305 30.68491,-30.40311 30.68486,-30.40319 30.6848,-30.40324 30.68472,-30.40332 30.68463,-30.40344 30.68456,-30.40353 30.68452,-30.40359 30.68447,-30.40364 30.68442,-30.40373 30.68439,-30.40382 30.68439,-30.40391 30.68435,-30.404 30.68428,-30.4041 30.68423,-30.40418 30.68414,-30.40426 30.68408,-30.4043 30.68401,-30.40437 30.68393,-30.40446 30.6839,-30.40452 30.68378,-30.4047 30.6837,-30.40479 30.68366,-30.40483 30.68365,-30.4049 30.68363,-30.405 30.68356,-30.40511 30.68353,-30.40515 30.6835,-30.40523 30.68345,-30.40535 30.68341,-30.40545 30.68337,-30.40556 30.68334,-30.40561 30.68327,-30.40569 30.68322,-30.40578 30.68321,-30.40589 30.68313,-30.40595 30.68312,-30.406 30.68316,-30.40607 30.68321,-30.4061 30.6832,-30.40618 30.68314,-30.40625 30.68314,-30.40631 30.68315,-30.40635 30.68315,-30.40639 30.68309,-30.40644 30.683,-30.40652 30.68294,-30.40656 30.68289,-30.40664 30.68282,-30.40672 30.68277,-30.40684 30.6827,-30.4069 30.68266,-30.40697 30.68265,-30.40705 30.68267,-30.40709 30.6827,-30.40709 30.68268,-30.40713 30.68262,-30.40715 30.6826,-30.40722 30.68259,-30.40728 30.68257,-30.40734 30.68256,-30.40741 30.68257,-30.40747 30.6826,-30.40748 30.68271,-30.40743 30.6827,-30.40752 30.68265,-30.40766 30.68266,-30.40772 30.68266,-30.40781 30.68262,-30.40781 30.68261,-30.40786 30.68262,-30.40792 30.68264,-30.40802 30.68264,-30.40814 30.68259,-30.40834 30.68253,-30.40852 30.68246,-30.40868 30.68239,-30.40879 30.68231,-30.40893 30.68231,-30.40899 30.68234,-30.40901 30.68235,-30.40907 30.68234,-30.40911 30.68234,-30.40916 30.68235,-30.40919 30.68237,-30.40921 30.68238,-30.40925 30.68229,-30.40928 30.68225,-30.40935 30.68219,-30.40942 30.68211,-30.40951 30.68202,-30.40969 30.68202,-30.4098 30.68205,-30.40985 30.68205,-30.40991 30.68204,-30.41 30.68204,-30.41008 30.68202,-30.41013 30.68199,-30.41024 30.68199,-30.41038 30.68196,-30.41046 30.68184,-30.41059 30.68176,-30.41069 30.6817,-30.41079 30.6816,-30.41091 30.68155,-30.41098 30.68142,-30.4111 30.6813,-30.41122 30.68124,-30.41132 30.68115,-30.41144 30.68104,-30.41154 30.68096,-30.41163 30.68088,-30.41171 30.68084,-30.41177 30.68085,-30.41181 30.6809,-30.41181 30.6809,-30.41191 30.68082,-30.41205 30.68083,-30.4121 30.68085,-30.41214 30.6808,-30.41222 30.68071,-30.4123 30.68067,-30.41237 30.68061,-30.41241 30.68058,-30.41247 30.68058,-30.41259 30.68055,-30.41263 30.68057,-30.41266 30.6806,-30.41266 30.68062,-30.41264 30.68065,-30.41264 30.68068,-30.41266 30.68069,-30.41269 30.68069,-30.41274 30.68068,-30.41279 30.68064,-30.41287 30.68056,-30.41297 30.68055,-30.41304 30.68044,-30.41307 30.68033,-30.41312 30.68027,-30.41319 30.68016,-30.41325 30.68001,-30.4133 30.67994,-30.41329 30.67989,-30.41329 30.67977,-30.41334 30.67966,-30.41341 30.67959,-30.41344 30.67953,-30.41343 30.67948,-30.41343 30.67944,-30.41344 30.67934,-30.41353 30.67923,-30.41364 30.67914,-30.41372 30.67899,-30.41381 30.67893,-30.41386 30.67891,-30.41395 30.67884,-30.41401 30.6787,-30.41412 30.67862,-30.41419 30.67851,-30.41433 30.6784,-30.41445 30.67833,-30.41455 30.67824,-30.41463 30.67812,-30.41478 30.67801,-30.41492 30.67792,-30.41502 30.67785,-30.41513 30.67784,-30.41521 30.67783,-30.41523 30.6778,-30.41526 30.67769,-30.41531 30.6776,-30.4154 30.67753,-30.41548 30.67739,-30.41559 30.67728,-30.4157 30.67721,-30.41575 30.67718,-30.41581 30.67705,-30.41592 30.67691,-30.41604 30.67679,-30.41616 30.67667,-30.41631 30.67654,-30.41645 30.67644,-30.41658 30.67637,-30.41667 30.67633,-30.41675 30.67626,-30.41681 30.67613,-30.41691 30.67606,-30.41701 30.676,-30.41707 30.67587,-30.41723 30.67582,-30.41735 30.67577,-30.41742 30.67565,-30.4175 30.67556,-30.41765 30.67543,-30.41782 30.67538,-30.41794 30.67527,-30.41811 30.67517,-30.41826 30.67507,-30.41839 30.67495,-30.41854 30.67486,-30.41864 30.67478,-30.41876 30.67469,-30.41887 30.67463,-30.41897 30.67458,-30.41903 30.67456,-30.41918 30.67453,-30.41927 30.6745,-30.4193 30.67441,-30.41937 30.67437,-30.41943 30.67426,-30.41959 30.67419,-30.41973 30.6741,-30.41983 30.674,-30.41998 30.67387,-30.42013 30.67374,-30.4202 30.67369,-30.42027 30.67366,-30.42036 30.67361,-30.42053 30.67357,-30.42071 30.6735,-30.4209 30.67346,-30.42106 30.67338,-30.42121 30.67328,-30.42138 30.67317,-30.42151 30.6731,-30.42169 30.67311,-30.42179 30.67311,-30.42189 30.67307,-30.42196 30.67304,-30.42206 30.673,-30.42224 30.67299,-30.42236 30.67298,-30.42249 30.6729,-30.42266 30.67275,-30.42279 30.67256,-30.42305 30.67245,-30.42318 30.67242,-30.42325 30.67245,-30.42335 30.67244,-30.42347 30.6724,-30.42357 30.67233,-30.42368 30.67229,-30.42383 30.67229,-30.42391 30.67218,-30.42413 30.67211,-30.42431 30.67209,-30.42442 30.67202,-30.42455 30.67194,-30.42474 30.67193,-30.4249 30.67194,-30.42501 30.67198,-30.42516 30.67203,-30.42535 30.67208,-30.42561 30.67214,-30.42581 30.67221,-30.42591 30.67233,-30.42595 30.67244,-30.42597 30.67268,-30.42597 30.67279,-30.42601 30.67282,-30.42604 30.67287,-30.4261 30.67287,-30.42615 30.67289,-30.42622 30.67293,-30.42626 30.67301,-30.4263 30.67305,-30.4263 30.6731,-30.42633 30.67309,-30.4264 30.67304,-30.42652 30.67302,-30.42665 30.67302,-30.42676 30.67305,-30.42682 30.67309,-30.42691 30.67312,-30.42701 30.67309,-30.42711 30.67307,-30.42722 30.67303,-30.42737 30.67302,-30.42747 30.67297,-30.42754 30.67298,-30.42763 30.67305,-30.42766 30.67311,-30.42765 30.6732,-30.42765 30.67328,-30.42768 30.67333,-30.42771 30.67335,-30.42781 30.67337,-30.42793 30.67341,-30.42804 30.67343,-30.42811 30.67346,-30.42815 30.67349,-30.42823 30.67354,-30.42827 30.67359,-30.42832 30.67363,-30.42835 30.67366,-30.42836 30.67367,-30.42843 30.67367,-30.42847 30.6737,-30.4285 30.67374,-30.42852 30.67374,-30.42859 30.6737,-30.42858 30.67369,-30.42862 30.6737,-30.42868 30.67375,-30.4287 30.6738,-30.42875 30.67376,-30.42878 30.67378,-30.4288 30.67374,-30.42886 30.67361,-30.42886 30.67354,-30.42889 30.67345,-30.42891 30.67337,-30.42896 30.67337,-30.42903 30.67328,-30.42912 30.67325,-30.42924 30.67328,-30.42934 30.67326,-30.42942 30.67339,-30.42948 30.67351,-30.42953 30.67362,-30.42956 30.6737,-30.42957 30.67378,-30.4296 30.67381,-30.42967 30.67385,-30.42973 30.67386,-30.4298 30.67383,-30.4299 30.67378,-30.42995 30.67374,-30.43 30.67368,-30.43001 30.67365,-30.43006 30.67353,-30.4301 30.67346,-30.43008 30.67335,-30.43008 30.67321,-30.43016 30.67311,-30.43023 30.67301,-30.43026 30.6729,-30.43032 30.67277,-30.43036 30.6727,-30.43032 30.67261,-30.43036 30.67253,-30.43047 30.67252,-30.43054 30.67243,-30.43063 30.67237,-30.43071 30.67233,-30.43076 30.67227,-30.43076 30.67222,-30.43083 30.67216,-30.43082 30.67209,-30.43082 30.67199,-30.43088 30.67196,-30.43089 30.67189,-30.43097 30.67179,-30.43103 30.67169,-30.43108 30.67164,-30.43113 30.67158,-30.43118 30.67148,-30.43118 30.67135,-30.43125 30.67129,-30.43132 30.67114,-30.43144 30.67103,-30.43153 30.67091,-30.4316 30.67085,-30.43167 30.67073,-30.43173 30.67066,-30.43179 30.67065,-30.43185 30.67058,-30.43199 30.67051,-30.43201 30.67047,-30.43205 30.67047,-30.4321 30.67042,-30.43214 30.67029,-30.43222 30.67023,-30.43231 30.67019,-30.43238 30.67013,-30.43246 30.67008,-30.43249 30.67003,-30.43255 30.66996,-30.43259 30.6699,-30.43266 30.66983,-30.43274 30.66978,-30.43283 30.66976,-30.43294 30.66973,-30.43303 30.66962,-30.43313 30.66951,-30.43317 30.66944,-30.43323 30.66938,-30.43331 30.66929,-30.43339 30.66925,-30.43346 30.66925,-30.43351 30.66913,-30.4336 30.66901,-30.43377 30.66893,-30.43386 30.66869,-30.43422 30.66856,-30.43439 30.66845,-30.43455 30.66836,-30.43467 30.66826,-30.43481 30.66818,-30.43495 30.66813,-30.43506 30.66804,-30.43521 30.668,-30.43534 30.668,-30.43549 30.66803,-30.43556 30.66805,-30.43563 30.66805,-30.4357 30.66803,-30.43578 30.66803,-30.43587 30.66798,-30.436 30.66803,-30.43608 30.66814,-30.4361 30.6682,-30.43612 30.66824,-30.43617 30.66816,-30.4362 30.66809,-30.43618 30.66805,-30.43618 30.66804,-30.43621 30.66806,-30.43626 30.66811,-30.43633 30.66808,-30.43641 30.66808,-30.43653 30.6681,-30.4366 30.66814,-30.4367 30.66818,-30.43676 30.6682,-30.43683 30.66823,-30.43692 30.66821,-30.43702 30.66816,-30.43713 30.66816,-30.43721 30.66807,-30.43728 30.66797,-30.43731 30.6679,-30.43734 30.66787,-30.43739 30.66777,-30.43747 30.66771,-30.43746 30.66769,-30.43744 30.66766,-30.43747 30.66763,-30.43753 30.66765,-30.43757 30.6677,-30.43758 30.66773,-30.43761 30.66769,-30.43763 30.66762,-30.43763 30.66754,-30.43762 30.66749,-30.43761 30.66741,-30.43762 30.66736,-30.43765 30.66732,-30.43771 30.66732,-30.43777 30.66734,-30.43781 30.66736,-30.43786 30.66734,-30.43791 30.6672,-30.43798 30.66721,-30.43802 30.66721,-30.43807 30.66716,-30.4381 30.6671,-30.4381 30.66702,-30.43808 30.66697,-30.43808 30.66697,-30.43813 30.66692,-30.43813 30.66684,-30.43817 30.66682,-30.43823 30.66683,-30.4383 30.66684,-30.43835 30.66683,-30.43839 30.66685,-30.43843 30.66675,-30.43847 30.66668,-30.43843 30.66661,-30.4384 30.66652,-30.43839 30.66646,-30.43841 30.66643,-30.43846 30.66642,-30.43851 30.66636,-30.43852 30.66632,-30.43856 30.66623,-30.43856 30.66617,-30.43853 30.66612,-30.43853 30.6661,-30.43858 30.66611,-30.43862 30.66613,-30.43868 30.66609,-30.43876 30.66602,-30.43876 30.66597,-30.43879 30.666,-30.43885 30.66602,-30.43893 30.66597,-30.43898 30.66589,-30.43899 30.66586,-30.43899 30.66579,-30.43893 30.66572,-30.43894 30.66569,-30.43899 30.66559,-30.43904 30.66549,-30.4391 30.66549,-30.43913 30.66545,-30.43916 30.66539,-30.43916 30.66529,-30.43921 30.66526,-30.43923 30.66524,-30.43925 30.66515,-30.43928 30.66513,-30.43931 30.66504,-30.43931 30.66499,-30.43938 30.66501,-30.43943 30.66501,-30.43949 30.66496,-30.43953 30.6649,-30.43955 30.66482,-30.43955 30.66474,-30.43966 30.66465,-30.43971 30.66454,-30.43977 30.66443,-30.43982 30.66435,-30.43986 30.6643,-30.43991 30.66427,-30.44 30.66418,-30.44013 30.66409,-30.44019 30.66404,-30.44025 30.664,-30.44034 30.66391,-30.44048 30.66383,-30.4406 30.66377,-30.44066 30.66367,-30.44072 30.6636,-30.4408 30.66352,-30.4409 30.66344,-30.44099 30.66331,-30.44108 30.66322,-30.44119 30.66322,-30.44129 30.66317,-30.44139 30.66303,-30.44147 30.66298,-30.44156 30.66293,-30.44162 30.66282,-30.44169 30.66279,-30.44177 30.66269,-30.44186 30.66261,-30.44196 30.66254,-30.44205 30.66246,-30.44216 30.66238,-30.44229 30.66235,-30.44237 30.6623,-30.44247 30.66224,-30.44252 30.66219,-30.4426 30.66217,-30.44269 30.66209,-30.44283 30.66199,-30.44292 30.6619,-30.443 30.66182,-30.44307 30.66172,-30.44307 30.66165,-30.44313 30.66157,-30.44322 30.66153,-30.44331 30.66149,-30.44338 30.66137,-30.44348 30.66129,-30.44353 30.66118,-30.44361 30.66114,-30.44368 30.66114,-30.44376 30.66118,-30.44381 30.66118,-30.44399 30.66121,-30.44404 30.66121,-30.44411 30.66122,-30.44418 30.66122,-30.44445 30.66124,-30.4445 30.66124,-30.44463 30.66122,-30.44473 30.66114,-30.44485 30.66112,-30.44494 30.66114,-30.44498 30.66118,-30.44502 30.66117,-30.44508 30.66111,-30.44515 30.66109,-30.44522 30.66109,-30.4453 30.66104,-30.44545 30.66098,-30.44562 30.66098,-30.44567 30.66096,-30.44571 30.6609,-30.44578 30.66086,-30.4458 30.66083,-30.44585 30.66084,-30.44591 30.66082,-30.44597 30.66075,-30.446 30.66071,-30.44609 30.66073,-30.44617 30.66073,-30.4462 30.66068,-30.44625 30.66071,-30.4463 30.66072,-30.44636 30.66072,-30.44639 30.66065,-30.44646 30.6606,-30.44647 30.6606,-30.44651 30.66061,-30.4466 30.66059,-30.44665 30.66064,-30.44667 30.66072,-30.44662 30.66076,-30.44661 30.66077,-30.44665 30.66074,-30.44679 30.66068,-30.44696 30.66062,-30.44703 30.66053,-30.4471 30.6605,-30.44714 30.66048,-30.44725 30.66044,-30.44738 30.66039,-30.44745 30.66033,-30.44747 30.66027,-30.44751 30.66029,-30.44756 30.66025,-30.4476 30.66019,-30.44761 30.66009,-30.44762 30.66002,-30.44761 30.65992,-30.44765 30.65986,-30.44775 30.65979,-30.44784 30.65975,-30.44793 30.65968,-30.44805 30.65965,-30.44817 30.65959,-30.44829 30.65952,-30.44845 30.65947,-30.44854 30.65942,-30.4486 30.65942,-30.44869 30.65945,-30.44873 30.65934,-30.44875 30.65929,-30.44875 30.65926,-30.44879 30.65925,-30.44886 30.65912,-30.44892 30.65906,-30.44892 30.65896,-30.44894 30.65888,-30.44898 30.65878,-30.44904 30.65865,-30.4491 30.65851,-30.44918 30.65841,-30.44929 30.65832,-30.44932 30.65819,-30.44942 30.65808,-30.44953 30.65793,-30.44973 30.65782,-30.44979 30.65776,-30.44987 30.65773,-30.44997 30.65766,-30.45009 30.65758,-30.45018 30.65755,-30.45027 30.65743,-30.4504 30.65737,-30.45044 30.65735,-30.45052 30.65726,-30.4506 30.65717,-30.4507 30.65711,-30.45081 30.65704,-30.45085 30.65698,-30.45096 30.65687,-30.45109 30.65677,-30.45118 30.65673,-30.45124 30.65671,-30.45132 30.65668,-30.4514 30.65662,-30.45148 30.65655,-30.45164 30.6565,-30.45174 30.65642,-30.45189 30.65632,-30.45207 30.65624,-30.45221 30.65613,-30.45234 30.65606,-30.45241 30.65601,-30.4525 30.65596,-30.45258 30.65591,-30.45268 30.6558,-30.45281 30.65574,-30.45291 30.65567,-30.45298 30.6556,-30.45304 30.65554,-30.45312 30.6555,-30.4532 30.65541,-30.45333 30.65529,-30.4535 30.65509,-30.45378 30.65507,-30.45387 30.655,-30.45395 30.65495,-30.45405 30.65488,-30.4542 30.6548,-30.45436 30.65468,-30.45451 30.65463,-30.45466 30.65455,-30.45481 30.65453,-30.45487 30.6545,-30.45495 30.65445,-30.45511 30.65436,-30.45531 30.65429,-30.45545 30.65425,-30.4556 30.65417,-30.45576 30.65414,-30.4559 30.65412,-30.45595 30.65408,-30.4561 30.65401,-30.4563 30.65401,-30.45648 30.65405,-30.45654 30.65409,-30.45663 30.65411,-30.45674 30.65412,-30.45685 30.65412,-30.45695 30.6541,-30.45707 30.6541,-30.45724 30.65412,-30.45741 30.65418,-30.45756 30.65422,-30.45769 30.65428,-30.45781 30.65428,-30.4579 30.6543,-30.458 30.6543,-30.45809 30.65428,-30.45819 30.65428,-30.45852 30.65422,-30.45874 30.6543,-30.45884 30.65426,-30.4589 30.65423,-30.45898 30.65431,-30.4591 30.65432,-30.45917 30.65421,-30.4593 30.65415,-30.45949 30.65415,-30.45963 30.65418,-30.45973 30.65421,-30.45982 30.65421,-30.45993 30.65418,-30.46004 30.65418,-30.46037 30.65416,-30.46041 30.65411,-30.46045 30.65405,-30.46051 30.65394,-30.46064 30.65387,-30.46073 30.65377,-30.46081 30.65369,-30.46093 30.65363,-30.46106 30.65352,-30.46119 30.65344,-30.4613 30.65338,-30.4615 30.65334,-30.46167 30.65327,-30.46186 30.6532,-30.46199 30.6532,-30.46217 30.65322,-30.46232 30.65325,-30.46238 30.65326,-30.46245 30.65327,-30.46257 30.65328,-30.46266 30.6533,-30.46273 30.65333,-30.46282 30.65337,-30.46292 30.65342,-30.46308 30.65346,-30.46316 30.65353,-30.46327 30.65361,-30.4634 30.65363,-30.46353 30.65369,-30.46362 30.6537,-30.46372 30.6537,-30.46377 30.65357,-30.4639 30.65352,-30.46393 30.65358,-30.46397 30.65358,-30.46403 30.65352,-30.4641 30.65344,-30.46422 30.65338,-30.46424 30.65332,-30.46428 30.65327,-30.46422 30.65321,-30.46418 30.65315,-30.46423 30.65311,-30.46436 30.65311,-30.46445 30.65312,-30.4645 30.65315,-30.46454 30.65311,-30.4646 30.65308,-30.4646 30.65303,-30.46468 30.65296,-30.46483 30.65291,-30.4649 30.65286,-30.4649 30.65281,-30.46488 30.65279,-30.46486 30.65272,-30.46483 30.65269,-30.46485 30.65269,-30.4651 30.65265,-30.46513 30.65259,-30.46512 30.65254,-30.46512 30.65252,-30.46517 30.65251,-30.4653 30.65251,-30.46535 30.65252,-30.46538 30.65252,-30.46543 30.65246,-30.46547 30.65243,-30.46552 30.65237,-30.46555 30.65231,-30.46557 30.65226,-30.46555 30.65222,-30.46561 30.65219,-30.46569 30.65213,-30.46577 30.65203,-30.46587 30.65192,-30.46602 30.65173,-30.46621 30.65162,-30.46627 30.65155,-30.46638 30.65144,-30.46653 30.65137,-30.46666 30.65131,-30.46678 30.65124,-30.46691 30.65116,-30.46708 30.65103,-30.46725 30.65089,-30.46732 30.65083,-30.46738 30.65075,-30.46742 30.65066,-30.46747 30.65057,-30.46758 30.65048,-30.46768 30.65033,-30.46774 30.65026,-30.46777 30.65014,-30.4678 30.65003,-30.46783 30.6499,-30.46789 30.64974,-30.46791 30.64966,-30.468 30.64959,-30.4681 30.64949,-30.46823 30.64939,-30.46828 30.64936,-30.46833 30.64929,-30.46837 30.6492,-30.4684 30.64909,-30.46846 30.64903,-30.46852 30.64902,-30.46858 30.64898,-30.46859 30.64893,-30.46859 30.64889,-30.46861 30.64884,-30.46871 30.64872,-30.46873 30.64866,-30.46879 30.64866,-30.46892 30.64863,-30.4689 30.64862,-30.46887 30.64857,-30.46886 30.64854,-30.4689 30.64855,-30.46895 30.64851,-30.46901 30.64846,-30.469 30.64841,-30.469 30.64838,-30.46904 30.64838,-30.46912 30.64837,-30.46917 30.64829,-30.46917 30.64825,-30.46915 30.64822,-30.46914 30.64814,-30.46914 30.64809,-30.4692 30.64802,-30.46926 30.64797,-30.46934 30.64794,-30.46943 30.6479,-30.4695 30.64782,-30.4695 30.64776,-30.46951 30.6477,-30.46957 30.64764,-30.46966 30.64757,-30.46974 30.6475,-30.46975 30.64744,-30.46983 30.64742,-30.46987 30.64736,-30.46993 30.64735,-30.46999 30.64738,-30.47004 30.64743,-30.47006 30.64739,-30.4701 30.6473,-30.4701 30.64731,-30.47015 30.64737,-30.47019 30.64737,-30.47026 30.64733,-30.47034 30.64724,-30.47046 30.64711,-30.4706 30.6471,-30.47064 30.64701,-30.47068 30.64697,-30.47068 30.64694,-30.47062 30.64684,-30.47061 30.6468,-30.47068 30.6468,-30.47074 30.64685,-30.47078 30.64683,-30.47085 30.64673,-30.47093 30.64664,-30.47094 30.64658,-30.47094 30.64651,-30.47087 30.64649,-30.47092 30.64651,-30.47096 30.64652,-30.471 30.64649,-30.47107 30.6464,-30.47115 30.64632,-30.4712 30.64625,-30.47119 30.64621,-30.47114 30.64614,-30.47114 30.64611,-30.47116 30.64606,-30.47131 30.64605,-30.47142 30.64597,-30.47151 30.64588,-30.47155 30.64581,-30.47156 30.64574,-30.47156 30.6457,-30.47158 30.64567,-30.47163 30.64566,-30.47171 30.64565,-30.47178 30.64557,-30.47183 30.6455,-30.47188 30.64551,-30.47194 30.64553,-30.47199 30.64545,-30.47206 30.64539,-30.47214 30.64531,-30.47224 30.64515,-30.47236 30.64501,-30.47246 30.6449,-30.47256 30.64483,-30.47265 30.64475,-30.47274 30.64466,-30.47282 30.64458,-30.47291 30.6445,-30.47301 30.64439,-30.4731 30.64431,-30.47316 30.64425,-30.47322 30.64422,-30.47329 30.64409,-30.47337 30.64399,-30.47343 30.64392,-30.47351 30.64387,-30.47358 30.64377,-30.47373 30.64366,-30.47386 30.64359,-30.47394 30.64347,-30.47401 30.64341,-30.47405 30.64334,-30.47414 30.64328,-30.47421 30.64322,-30.47427 30.64311,-30.4744 30.64306,-30.47448 30.64298,-30.47457 30.64288,-30.47464 30.64273,-30.47477 30.64263,-30.47484 30.64263,-30.47491 30.64257,-30.47499 30.64257,-30.47504 30.64253,-30.47508 30.64247,-30.47511 30.64241,-30.47522 30.64236,-30.47532 30.64233,-30.4754 30.64226,-30.47548 30.64224,-30.47557 30.64225,-30.47565 30.64228,-30.47571 30.64224,-30.47576 30.64219,-30.4758 30.64213,-30.47579 30.64206,-30.47577 30.64203,-30.47579 30.64202,-30.47583 30.64208,-30.47588 30.6421,-30.47591 30.64208,-30.476 30.64204,-30.47608 30.64195,-30.47618 30.64187,-30.47626 30.64179,-30.47636 30.64174,-30.47644 30.64164,-30.47662 30.64158,-30.4767 30.6415,-30.47679 30.64137,-30.47687 30.64132,-30.47693 30.64123,-30.47705 30.64113,-30.47718 30.64102,-30.47729 30.64095,-30.47739 30.64092,-30.47747 30.64079,-30.47757 30.64069,-30.47769 30.64064,-30.47782 30.64057,-30.47789 30.64051,-30.47799 30.64042,-30.4781 30.64037,-30.4782 30.64031,-30.47826 30.64024,-30.47835 30.64012,-30.47844 30.64005,-30.47852 30.64005,-30.47861 30.64003,-30.47867 30.63994,-30.4788 30.63985,-30.47894 30.63981,-30.47903 30.63974,-30.47918 30.63968,-30.47928 30.63961,-30.4794 30.63952,-30.47956 30.63948,-30.47967 30.63948,-30.47977 30.63943,-30.47991 30.63943,-30.48005 30.63944,-30.48013 30.63944,-30.48029 30.63939,-30.48035 30.63939,-30.48042 30.63934,-30.48055 30.6393,-30.4807 30.63925,-30.48075 30.63925,-30.4808 30.63919,-30.48085 30.63916,-30.48092 30.63915,-30.481 30.63915,-30.48109 30.63905,-30.48124 30.63896,-30.48127 30.63888,-30.48133 30.63872,-30.48151 30.63865,-30.48162 30.63854,-30.48171 30.63847,-30.48177 30.63841,-30.48186 30.63836,-30.48193 30.63827,-30.48205 30.63807,-30.48217 30.63801,-30.4822 30.638,-30.48227 30.63799,-30.4823 30.63801,-30.48236 30.63801,-30.48276 30.63793,-30.48288 30.63784,-30.48298 30.63779,-30.48302 30.63771,-30.48309 30.6376,-30.48322 30.63742,-30.48334 30.63729,-30.48345 30.63721,-30.48349 30.63706,-30.48357 30.63701,-30.48364 30.63695,-30.48373 30.63685,-30.48378 30.63677,-30.48385 30.63671,-30.48393 30.63663,-30.48402 30.63656,-30.48411 30.63649,-30.48415 30.63649,-30.4842 30.63648,-30.4843 30.63634,-30.48454 30.63628,-30.48465 30.63616,-30.48476 30.63612,-30.48485 30.63603,-30.48503 30.6359,-30.48512 30.63581,-30.48524 30.63569,-30.48537 30.63564,-30.48543 30.63556,-30.48553 30.63547,-30.4857 30.63529,-30.48588 30.63523,-30.48595 30.6352,-30.48611 30.6351,-30.48626 30.63501,-30.48634 30.63497,-30.48649 30.63489,-30.48667 30.63478,-30.48683 30.63464,-30.48699 30.63451,-30.48715 30.63441,-30.48732 30.63432,-30.48745 30.63428,-30.48758 30.6342,-30.48777 30.63414,-30.48795 30.63404,-30.48811 30.63402,-30.48822 30.63399,-30.48833 30.634,-30.48841 30.63402,-30.48852 30.63398,-30.4886 30.63393,-30.48869 30.63393,-30.48892 30.63381,-30.48916 30.63371,-30.48925 30.63367,-30.4893 30.63366,-30.48944 30.63371,-30.48955 30.63375,-30.48963 30.63379,-30.48979 30.63379,-30.48998 30.63384,-30.49005 30.6339,-30.49004 30.63399,-30.49008 30.63402,-30.49021 30.63406,-30.49027 30.634,-30.49033 30.63396,-30.49043 30.63403,-30.4905 30.63412,-30.49057 30.63415,-30.4907 30.63411,-30.49078 30.63411,-30.49087 30.63415,-30.49095 30.6343,-30.49106 30.63438,-30.49106 30.63448,-30.49109 30.63455,-30.49115 30.63458,-30.49127 30.63443,-30.49142 30.6343,-30.4915 30.63431,-30.49159 30.63436,-30.49165 30.63435,-30.49175 30.63434,-30.49182 30.63433,-30.49193 30.63422,-30.492 30.63418,-30.49207 30.63412,-30.49223 30.63412,-30.49232 30.6341,-30.49243 30.63405,-30.49253 30.63402,-30.49267 30.63402,-30.49273 30.63399,-30.49287 30.63392,-30.49298 30.63381,-30.4931 30.63374,-30.49319 30.63366,-30.49328 30.63367,-30.49334 30.63371,-30.49335 30.63374,-30.4934 30.63369,-30.49345 30.63354,-30.49354 30.63346,-30.49363 30.63334,-30.49379 30.63325,-30.49393 30.63316,-30.49402 30.63308,-30.49411 30.63304,-30.49425 30.63304,-30.49446 30.63302,-30.49454 30.63299,-30.49465 30.63295,-30.4947 30.63291,-30.49483 30.63291,-30.49498 30.63293,-30.49509 30.63297,-30.49511 30.63298,-30.49517 30.63303,-30.49523 30.63305,-30.49529 30.63305,-30.49535 30.63297,-30.49542 30.6329,-30.49549 30.63287,-30.49561 30.63286,-30.49567 30.63283,-30.49575 30.63279,-30.49586 30.63276,-30.49598 30.63273,-30.49609 30.63273,-30.49617 30.63276,-30.49623 30.63277,-30.49634 30.63277,-30.4965 30.6328,-30.49659 30.63282,-30.49671 30.63278,-30.49681 30.63273,-30.497 30.63278,-30.49711 30.63282,-30.49721 30.63276,-30.49731 30.63276,-30.49746 30.63279,-30.49752 30.63271,-30.49758 30.63263,-30.49762 30.63248,-30.49771 30.63235,-30.49784 30.63223,-30.49795 30.63212,-30.49805 30.63199,-30.49819 30.63191,-30.49829 30.63174,-30.49846 30.63168,-30.49853 30.63161,-30.49861 30.63151,-30.49867 30.63139,-30.49875 30.6313,-30.49885 30.63121,-30.49894 30.63111,-30.49899 30.63101,-30.49907 30.63089,-30.49921 30.63085,-30.49927 30.63077,-30.49934 30.6307,-30.49941 30.63061,-30.49948 30.63053,-30.49957 30.63045,-30.49968 30.63032,-30.49982 30.6302,-30.49989 30.63014,-30.50002 30.63016,-30.50012 30.63019,-30.50025 30.63022,-30.50035 30.63025,-30.50044 30.63025,-30.50054 30.63023,-30.50064 30.63025,-30.50071 30.6303,-30.50076 30.63031,-30.50083 30.63031,-30.5011 30.63037,-30.5012 30.63034,-30.50126 30.6303,-30.50133 30.63028,-30.50145 30.63023,-30.50153 30.63019,-30.50163 30.63022,-30.50167 30.6302,-30.50169 30.63008,-30.50177 30.62997,-30.50186 30.62987,-30.50196 30.62983,-30.50204 30.62981,-30.50211 30.62977,-30.50218 30.62974,-30.50225 30.6297,-30.50235 30.6297,-30.50247 30.62973,-30.50252 30.6297,-30.5026 30.62957,-30.50273 30.62951,-30.50281 30.62944,-30.50285 30.62936,-30.50288 30.62928,-30.50295 30.6293,-30.503 30.62914,-30.50288 30.62674,-30.50114 30.62634,-30.50084 30.62596,-30.50057 30.62522,-30.50003 30.62484,-30.49976 30.62416,-30.49926 30.6232,-30.49856 30.62251,-30.49807 30.6219,-30.49762 30.62074,-30.49678 30.61924,-30.49568 30.61843,-30.4951 30.61724,-30.49423 30.61623,-30.4935 30.61521,-30.49276 30.61356,-30.49156 30.61189,-30.49034 30.6115,-30.49006 30.61139,-30.49 30.61116,-30.48987 30.61093,-30.48973 30.6107,-30.4896 30.61046,-30.48947 30.61021,-30.48933 30.60996,-30.48918 30.60921,-30.48876 30.60896,-30.48861 30.6089,-30.48858 30.60884,-30.48867 30.60851,-30.48917 30.60828,-30.48951 30.60822,-30.48961 30.6081,-30.4898 30.60791,-30.49008 30.60776,-30.4903 30.60765,-30.49047 30.60737,-30.4909 30.60711,-30.49129 30.607,-30.49146 30.60675,-30.49184 30.60656,-30.49213 30.60635,-30.49244 30.60617,-30.49271 30.60595,-30.49305 30.60575,-30.49336 30.60527,-30.49408 30.60494,-30.49458 30.60436,-30.49545 30.60415,-30.49578 30.60388,-30.49619 30.60376,-30.49637 30.60358,-30.49664 30.60339,-30.49692 30.6017,-30.49949 30.59997,-30.49856 30.59824,-30.49762 30.59753,-30.49724 30.59743,-30.49719 30.59718,-30.49706 30.5971,-30.49701 30.59704,-30.49698 30.59677,-30.49683 30.59627,-30.49657 30.5956,-30.4962 30.59522,-30.496 30.59463,-30.49568 30.59425,-30.49548 30.59407,-30.49538 30.59375,-30.49521 30.59345,-30.49505 30.59325,-30.49494 30.59249,-30.49453 30.59226,-30.49441 30.5905,-30.49346 30.58874,-30.49252 30.58941,-30.49158 30.59009,-30.49064 30.59076,-30.4897 30.59115,-30.48916 30.59148,-30.4887 30.59171,-30.48838 30.59213,-30.48779 30.59226,-30.48761 30.5928,-30.48685 30.59325,-30.48623 30.5936,-30.48575 30.59408,-30.48507 30.5945,-30.48449 30.59483,-30.48403 30.59522,-30.48348 30.59564,-30.4829 30.59609,-30.48227 30.5965,-30.48169 30.5966,-30.48156 30.59684,-30.48122 30.59716,-30.48078 30.59743,-30.48041 30.59766,-30.48008 30.59801,-30.4796 30.59822,-30.4793 30.59852,-30.47888 30.59889,-30.47837 30.5992,-30.47794 30.59944,-30.47761 30.59981,-30.47708 30.60015,-30.47661 30.60052,-30.4761 30.60104,-30.47537 30.60156,-30.47465 30.60229,-30.47363 30.60237,-30.47351 30.6026,-30.47319 30.60201,-30.47339 30.6017,-30.47313 30.60092,-30.47261 30.60048,-30.47231 30.60011,-30.47211 30.59885,-30.47153 30.5971,-30.47088 30.59631,-30.47055 30.59618,-30.47052 30.59587,-30.47031 30.59576,-30.47023 30.59535,-30.46995 30.59525,-30.46988 30.59521,-30.46985 30.5951,-30.46972 30.59493,-30.46955 30.59473,-30.46934 30.59456,-30.46916 30.59451,-30.46909 30.59442,-30.46896 30.5943,-30.46878 30.59407,-30.46844 30.59394,-30.46825 30.59387,-30.46814 30.59383,-30.46803 30.59367,-30.46748 30.59359,-30.46723 30.59354,-30.46704 30.59352,-30.46697 30.59351,-30.46656 30.59349,-30.4661 30.59345,-30.46575 30.59331,-30.4653 30.59323,-30.46515 30.59315,-30.46495 30.59287,-30.46467 30.59256,-30.46459 30.592,-30.46449 30.59163,-30.46439 30.59134,-30.46433 30.59088,-30.46429 30.59054,-30.46429 30.59048,-30.46429 30.59039,-30.4639 30.59037,-30.46382 30.59028,-30.46327 30.59018,-30.46273 30.59006,-30.46203 30.58995,-30.46141 30.58985,-30.46083 30.58973,-30.46017 30.58962,-30.45948 30.5895,-30.45883 30.58938,-30.4581 30.58931,-30.45771 30.58919,-30.45702 30.58905,-30.45622 30.58891,-30.45543 30.58878,-30.45467 30.58864,-30.45389 30.58851,-30.45315 30.58839,-30.45244 30.58826,-30.45169 30.58813,-30.45092 30.588,-30.4502 30.58788,-30.44951 30.58774,-30.44874 30.58762,-30.44804 30.58751,-30.44739 30.58738,-30.44665 30.58733,-30.44636 30.58727,-30.44603 30.5871,-30.44503 30.58696,-30.44423 30.58684,-30.44355 30.58672,-30.44283 30.58658,-30.44206 30.58645,-30.44129 30.58632,-30.44053 30.58618,-30.43975 30.58605,-30.43901 30.58584,-30.43777 30.58571,-30.43705 30.58558,-30.43629 30.58544,-30.43553 30.58532,-30.43482 30.58519,-30.43406 30.58505,-30.43328 30.58493,-30.43256 30.5848,-30.43181 30.58479,-30.43179 30.58469,-30.43119 30.58457,-30.4305 30.58444,-30.42976 30.58433,-30.42911 30.58421,-30.42845 30.58408,-30.42771 30.58396,-30.42701 30.58383,-30.42625 30.5837,-30.42546 30.58356,-30.4247 30.58343,-30.42396 30.5833,-30.42319 30.58317,-30.42244 30.58303,-30.42168 30.5829,-30.42093 30.58277,-30.42013 30.58262,-30.41934 30.58249,-30.41856 30.58235,-30.41775 30.58225,-30.41714 30.58222,-30.41705 30.58223,-30.41531 30.58224,-30.41422 30.58225,-30.41312 30.58224,-30.41164 30.58225,-30.41032 30.58225,-30.4061 30.58226,-30.4048 30.58226,-30.40373 30.58217,-30.40333 30.58171,-30.40327 30.58119,-30.40324 30.58066,-30.40317 30.58017,-30.40314 30.57961,-30.40315 30.57894,-30.40317 30.57835,-30.40314 30.57796,-30.40318 30.57728,-30.4033 30.57695,-30.40348 30.57643,-30.40373 30.57607,-30.40394 30.57576,-30.40424 30.57503,-30.40497 30.57457,-30.40548 30.57411,-30.40606 30.57395,-30.40622 30.57369,-30.4066 30.57323,-30.40713 30.57304,-30.40735 30.57266,-30.40776 30.57245,-30.40818 30.57236,-30.40833 30.57215,-30.40858 30.57207,-30.40869 30.57199,-30.40875 30.57189,-30.40883 30.57175,-30.40888 30.57164,-30.40896 30.57138,-30.40915 30.57123,-30.40931 30.57116,-30.40947 30.57108,-30.40966 30.57107,-30.4098 30.57104,-30.41009 30.57092,-30.41058 30.57094,-30.41079 30.57082,-30.41117 30.57079,-30.41134 30.57065,-30.41164 30.57053,-30.412 30.57043,-30.41226 30.57041,-30.41252 30.57017,-30.41293 30.56985,-30.41325 30.56933,-30.41359 30.56895,-30.41368 30.56851,-30.41388 30.56816,-30.41398 30.56785,-30.41399 30.5675,-30.41397 30.56714,-30.41387 30.56678,-30.4138 30.56605,-30.41348 30.56546,-30.41303 30.56513,-30.41278 30.56494,-30.41263 30.56478,-30.41236 30.5647,-30.41214 30.56445,-30.41188 30.56429,-30.41179 30.56415,-30.41164 30.56402,-30.41146 30.564,-30.41139 30.56403,-30.41127 30.56393,-30.41115 30.56369,-30.41084 30.56355,-30.41057 30.56352,-30.41054 30.56351,-30.4105 30.56315,-30.4099 30.563,-30.40956 30.56269,-30.40864 30.56276,-30.40808 30.56271,-30.40788 30.56275,-30.40756 30.56277,-30.40742 30.56281,-30.40718 30.56278,-30.40685 30.56313,-30.40618 30.56326,-30.40595 30.56325,-30.4058 30.5633,-30.40576 30.56348,-30.40545 30.56366,-30.40519 30.56393,-30.40494 30.56422,-30.40468 30.56443,-30.4045 30.56455,-30.40434 30.56459,-30.40419 30.56466,-30.40405 30.56469,-30.40398 30.56472,-30.40389 30.56464,-30.40385 30.56456,-30.40382 30.56456,-30.40376 30.56472,-30.40364 30.5649,-30.40356 30.56493,-30.4035 30.56511,-30.40322 30.56519,-30.40299 30.56518,-30.40273 30.56517,-30.4025 30.56515,-30.40223 30.56515,-30.40205 30.56505,-30.40181 30.56495,-30.40152 30.56467,-30.40102 30.56431,-30.4006 30.56446,-30.40036 30.56972,-30.3998 30.58409,-30.39629 30.5836,-30.40337 30.58355,-30.40354 30.58425,-30.40369 30.5847,-30.4038 30.58536,-30.40405 30.58568,-30.40417 30.58603,-30.40428 30.58637,-30.40434 30.58657,-30.40443 30.58689,-30.40469 30.58709,-30.40484 30.58727,-30.40495 30.58745,-30.40512 30.58776,-30.40535 30.58801,-30.40548 30.58816,-30.40561 30.58854,-30.40574 30.58874,-30.4059 30.58891,-30.40603 30.58913,-30.40618 30.58934,-30.40634 30.5895,-30.40636 30.58955,-30.4064 30.58955,-30.40647 30.58957,-30.40654 30.58967,-30.40662 30.58976,-30.40672 30.58996,-30.40684 30.59012,-30.40691 30.59046,-30.40707 30.59075,-30.40736 30.591,-30.40758 30.59118,-30.40784 30.59147,-30.40812 30.59172,-30.40828 30.592,-30.40821 30.59217,-30.40821 30.59241,-30.40827 30.59264,-30.40829 30.5929,-30.40821 30.59302,-30.40804 30.59305,-30.40786 30.5931,-30.40738 30.59303,-30.40716 30.59279,-30.40647 30.59234,-30.40531 30.59187,-30.40398 30.59183,-30.40365 30.59187,-30.40333 30.59204,-30.40279 30.59202,-30.40263 30.59214,-30.40234 30.59219,-30.40205 30.59244,-30.4015 30.59259,-30.40129 30.59275,-30.40117 30.59305,-30.40102 30.5934,-30.40086 30.59366,-30.40081 30.59466,-30.40061 30.59524,-30.40054 30.59555,-30.40058 30.59584,-30.40061 30.59623,-30.40062 30.5968,-30.40047 30.59719,-30.40038 30.59735,-30.40026 30.59744,-30.40009 30.59757,-30.39998 30.59768,-30.39994 30.5981,-30.39986 30.59858,-30.39982 30.59887,-30.39972 30.6,-30.39941 30.60031,-30.39922 30.6005,-30.39906 30.60139,-30.39845 30.60179,-30.39825 30.60251,-30.39776 30.60368,-30.39728 30.60436,-30.39693 30.60477,-30.39687 30.60499,-30.39685 30.60524,-30.39693 30.60544,-30.39695 30.60564,-30.39702 30.60573,-30.3971 30.60592,-30.39727 30.60605,-30.39751 30.60623,-30.39772 30.60646,-30.39805 30.60653,-30.39821 30.60673,-30.39863 30.60688,-30.39903 30.60715,-30.39952 30.60757,-30.40041 30.60786,-30.40114 30.60805,-30.40183 30.6083,-30.40231 30.60837,-30.40269 30.60836,-30.40288 30.60843,-30.40304 30.60842,-30.40347 30.60832,-30.40384 30.60794,-30.40432 30.60776,-30.40446 30.60835,-30.40483 30.60986,-30.40575 30.61177,-30.39925 30.61199,-30.39834 30.61392,-30.39136</coordinates></LinearRing></outerBoundaryIs></Polygon></MultiGeometry></Placemark></Document></kml>