<?xml version="1.0" encoding="UTF-8"?><kml xmlns="http://www.opengis.net/kml/2.2"><Document><Placemark><name>Mpolweni</name><description>Main Place 562025</description><ExtendedData><Data name="code"><value>562025</value></Data><Data name="name"><value>Mpolweni</value></Data><Data name="description"><value>Main Place 562025</value></Data></ExtendedData><MultiGeometry><Polygon><outerBoundaryIs><LinearRing><coordinates>30.4846,-29.39824 30.48537,-29.39876 30.48553,-29.39875 30.48645,-29.3984 30.48691,-29.39806 30.48717,-29.398 30.48741,-29.39807 30.48751,-29.39822 30.48758,-29.39856 30.48761,-29.39888 30.48783,-29.39938 30.48833,-29.39993 30.48892,-29.40049 30.48919,-29.40104 30.4895,-29.40184 30.48978,-29.40264 30.4899,-29.40308 30.4899,-29.40337 30.48985,-29.40358 30.48977,-29.40387 30.4899,-29.40404 30.49001,-29.40428 30.48993,-29.40443 30.48974,-29.40447 30.48955,-29.40445 30.48949,-29.40466 30.48948,-29.40546 30.48953,-29.40612 30.48958,-29.40645 30.48969,-29.40694 30.48989,-29.40755 30.4901,-29.40814 30.49026,-29.40868 30.4905,-29.40934 30.49069,-29.40997 30.49093,-29.41078 30.49103,-29.41143 30.49093,-29.41187 30.49051,-29.41238 30.48978,-29.41316 30.48937,-29.41365 30.48895,-29.4141 30.48873,-29.41445 30.48864,-29.41459 30.48832,-29.41525 30.48812,-29.41584 30.48799,-29.41629 30.48865,-29.4164 30.48954,-29.41649 30.49021,-29.41646 30.49043,-29.41646 30.49061,-29.41651 30.49077,-29.41657 30.49094,-29.41665 30.49114,-29.41676 30.49121,-29.41684 30.49125,-29.41695 30.4912,-29.41717 30.49097,-29.41752 30.49078,-29.41781 30.49065,-29.41799 30.49045,-29.41815 30.49038,-29.41837 30.49035,-29.4185 30.49034,-29.41861 30.49037,-29.41879 30.49037,-29.41891 30.49034,-29.4191 30.49026,-29.41931 30.49016,-29.41951 30.49006,-29.41968 30.48995,-29.4198 30.48983,-29.41992 30.48971,-29.42007 30.48963,-29.4202 30.48955,-29.42038 30.48949,-29.42052 30.48944,-29.4206 30.48935,-29.42071 30.48924,-29.42083 30.48911,-29.42094 30.48903,-29.42098 30.48888,-29.42102 30.48867,-29.42104 30.48835,-29.42108 30.48861,-29.42207 30.48865,-29.42244 30.48866,-29.42259 30.48856,-29.42284 30.48859,-29.42303 30.48872,-29.4231 30.48885,-29.42317 30.48942,-29.42341 30.48974,-29.42343 30.49041,-29.4229 30.49084,-29.4223 30.49134,-29.42156 30.49189,-29.42072 30.49227,-29.41974 30.49246,-29.4194 30.49261,-29.41905 30.4927,-29.41888 30.49282,-29.41872 30.49305,-29.41849 30.49346,-29.41849 30.49415,-29.41849 30.49458,-29.4186 30.49493,-29.41879 30.4954,-29.41887 30.49581,-29.419 30.49601,-29.41916 30.4962,-29.41924 30.49653,-29.4194 30.49681,-29.41951 30.49711,-29.41974 30.49724,-29.41989 30.49725,-29.42003 30.49728,-29.4204 30.49726,-29.42062 30.4971,-29.42076 30.497,-29.42103 30.49689,-29.42144 30.49675,-29.42172 30.49647,-29.42219 30.49617,-29.42267 30.49603,-29.42301 30.49609,-29.42337 30.49607,-29.42364 30.49602,-29.42412 30.49604,-29.42447 30.49618,-29.42475 30.49634,-29.42498 30.49661,-29.42526 30.4967,-29.42541 30.49679,-29.42564 30.49692,-29.42598 30.49708,-29.42619 30.49708,-29.42641 30.49702,-29.42658 30.4969,-29.42659 30.49668,-29.42659 30.49658,-29.42666 30.49641,-29.42692 30.49631,-29.42728 30.49631,-29.42753 30.49634,-29.42783 30.49644,-29.42818 30.49632,-29.42857 30.49619,-29.42887 30.49598,-29.42901 30.49576,-29.4291 30.49529,-29.42916 30.49507,-29.42915 30.49491,-29.42903 30.4947,-29.429 30.49451,-29.42909 30.49438,-29.42934 30.49436,-29.42956 30.49441,-29.4299 30.49447,-29.43024 30.49454,-29.43035 30.49484,-29.4305 30.49517,-29.43078 30.49558,-29.43114 30.49578,-29.43141 30.49586,-29.43167 30.49583,-29.43212 30.49576,-29.43267 30.49531,-29.43367 30.49468,-29.43522 30.49421,-29.4361 30.49393,-29.43637 30.49368,-29.43649 30.49344,-29.43655 30.49324,-29.43657 30.493,-29.43646 30.49262,-29.43627 30.49228,-29.4363 30.4922,-29.43637 30.49185,-29.4367 30.49174,-29.43789 30.49195,-29.43871 30.49188,-29.43954 30.49185,-29.43984 30.4921,-29.44049 30.4923,-29.44113 30.49199,-29.44128 30.49064,-29.44141 30.49015,-29.44141 30.49014,-29.44145 30.49004,-29.44189 30.49021,-29.44245 30.49117,-29.44268 30.49213,-29.44303 30.49313,-29.44346 30.49402,-29.44346 30.49699,-29.44224 30.49823,-29.4436 30.49917,-29.44392 30.50022,-29.44418 30.50066,-29.44615 30.50155,-29.44612 30.50317,-29.44526 30.50387,-29.44537 30.5041,-29.44643 30.5056,-29.44713 30.50731,-29.44654 30.50787,-29.44615 30.50904,-29.44615 30.51053,-29.44647 30.51234,-29.4482 30.51285,-29.44785 30.51453,-29.44802 30.51491,-29.4537 30.51442,-29.45356 30.51381,-29.45347 30.51294,-29.45351 30.51228,-29.45364 30.51208,-29.45368 30.50993,-29.45305 30.50389,-29.45162 30.49383,-29.44921 30.48328,-29.44666 30.48279,-29.44539 30.48249,-29.44446 30.48241,-29.44424 30.48209,-29.44352 30.48154,-29.44217 30.48104,-29.44126 30.48072,-29.44044 30.48072,-29.44044 30.48082,-29.44014 30.48101,-29.43988 30.48152,-29.43949 30.48215,-29.43943 30.48314,-29.43878 30.48314,-29.43729 30.48281,-29.43629 30.48272,-29.43603 30.4815,-29.43374 30.4807,-29.43191 30.47982,-29.4289 30.47856,-29.4284 30.47846,-29.42836 30.47811,-29.42821 30.47654,-29.42776 30.47403,-29.42741 30.47113,-29.42696 30.46796,-29.42692 30.46628,-29.42654 30.4651,-29.42642 30.46441,-29.42619 30.46438,-29.42348 30.46411,-29.42257 30.46383,-29.42197 30.46323,-29.42155 30.46354,-29.42137 30.46422,-29.42099 30.4644,-29.4209 30.46441,-29.41951 30.46442,-29.41718 30.46443,-29.41652 30.46443,-29.41448 30.46443,-29.4142 30.46445,-29.41065 30.46445,-29.40815 30.46445,-29.40427 30.46471,-29.4037 30.46633,-29.40025 30.4664,-29.40009 30.46714,-29.39838 30.47157,-29.39731 30.47582,-29.39627 30.47982,-29.3953 30.48062,-29.3951 30.48116,-29.39497 30.48116,-29.39497 30.48125,-29.39495 30.48212,-29.39581 30.4846,-29.39824</coordinates></LinearRing></outerBoundaryIs></Polygon></MultiGeometry></Placemark></Document></kml>