<?xml version="1.0" encoding="UTF-8"?><kml xmlns="http://www.opengis.net/kml/2.2"><Document><Placemark><name>New Hanover</name><description>Main Place 562026</description><ExtendedData><Data name="code"><value>562026</value></Data><Data name="name"><value>New Hanover</value></Data><Data name="description"><value>Main Place 562026</value></Data></ExtendedData><MultiGeometry><Polygon><outerBoundaryIs><LinearRing><coordinates>30.41474,-29.40565 30.41542,-29.40652 30.41618,-29.40605 30.41661,-29.40573 30.41752,-29.40531 30.41883,-29.40541 30.41913,-29.40567 30.41925,-29.40599 30.41925,-29.40647 30.41872,-29.40709 30.418,-29.40844 30.41784,-29.40882 30.42351,-29.40946 30.42305,-29.41347 30.42336,-29.41355 30.42378,-29.4136 30.42395,-29.41353 30.42409,-29.41353 30.42419,-29.41353 30.42427,-29.41358 30.42447,-29.41371 30.42503,-29.41386 30.42516,-29.41399 30.42514,-29.41417 30.42491,-29.4142 30.42477,-29.41439 30.42444,-29.41456 30.42411,-29.4148 30.42391,-29.4151 30.42386,-29.41544 30.42361,-29.4158 30.42344,-29.41629 30.42344,-29.41654 30.42345,-29.41693 30.42358,-29.4173 30.42373,-29.41781 30.42366,-29.41822 30.42375,-29.41861 30.42365,-29.42058 30.4234,-29.42113 30.42328,-29.42161 30.42314,-29.42191 30.42303,-29.42211 30.42272,-29.42281 30.4226,-29.42415 30.4225,-29.42506 30.42238,-29.42536 30.42233,-29.42614 30.42238,-29.42659 30.42269,-29.42695 30.42268,-29.42727 30.42288,-29.42765 30.42306,-29.42789 30.42312,-29.42816 30.42329,-29.42823 30.42365,-29.4283 30.42407,-29.42827 30.42481,-29.42818 30.4252,-29.42811 30.42551,-29.42805 30.42553,-29.42818 30.42567,-29.42999 30.4259,-29.43012 30.42592,-29.43097 30.42593,-29.43143 30.42571,-29.43167 30.42551,-29.4317 30.42413,-29.43393 30.42377,-29.43631 30.42309,-29.43896 30.42299,-29.44054 30.42304,-29.4426 30.42296,-29.44298 30.42257,-29.44348 30.42228,-29.44396 30.4214,-29.44451 30.42091,-29.44485 30.42073,-29.4451 30.42051,-29.44551 30.42044,-29.446 30.42042,-29.44647 30.42039,-29.44684 30.42058,-29.44715 30.4208,-29.44736 30.42084,-29.44753 30.42076,-29.44771 30.42048,-29.44793 30.41986,-29.44835 30.41936,-29.44867 30.4189,-29.44922 30.41851,-29.44985 30.41826,-29.45028 30.41822,-29.45036 30.41818,-29.45046 30.41811,-29.45072 30.41808,-29.45095 30.41808,-29.45118 30.41814,-29.4515 30.41829,-29.45199 30.41841,-29.45252 30.41859,-29.4529 30.41866,-29.45322 30.41864,-29.45344 30.41859,-29.4536 30.4184,-29.45377 30.41812,-29.45387 30.41779,-29.45385 30.41734,-29.45375 30.41671,-29.45372 30.41631,-29.45385 30.41589,-29.45412 30.41543,-29.45456 30.41516,-29.45484 30.41484,-29.45534 30.41459,-29.45568 30.41445,-29.45602 30.41423,-29.45646 30.41401,-29.4569 30.41387,-29.45732 30.41384,-29.45761 30.41388,-29.45794 30.41388,-29.45816 30.41398,-29.45845 30.41401,-29.45868 30.41388,-29.45893 30.41358,-29.45908 30.41334,-29.45923 30.41309,-29.45926 30.41249,-29.45946 30.41198,-29.45978 30.4117,-29.4601 30.41141,-29.46048 30.41109,-29.46097 30.41092,-29.46147 30.41083,-29.46177 30.41062,-29.46251 30.41053,-29.46319 30.41046,-29.46357 30.41042,-29.46375 30.41034,-29.46385 30.41018,-29.46387 30.40996,-29.4638 30.40957,-29.4635 30.40905,-29.46329 30.40861,-29.46317 30.40811,-29.46309 30.40757,-29.46314 30.40717,-29.46335 30.40682,-29.46361 30.40654,-29.46389 30.40613,-29.4643 30.40572,-29.46477 30.40558,-29.46498 30.40536,-29.46516 30.40521,-29.46527 30.40503,-29.46538 30.40491,-29.46546 30.40468,-29.46555 30.40458,-29.46557 30.40453,-29.46565 30.4045,-29.46575 30.40445,-29.46582 30.40439,-29.46589 30.40432,-29.46597 30.40426,-29.46597 30.40415,-29.46594 30.4041,-29.46588 30.4041,-29.46575 30.40413,-29.46561 30.40417,-29.46548 30.40425,-29.46533 30.40432,-29.46527 30.40447,-29.46516 30.40457,-29.46498 30.40466,-29.46474 30.40465,-29.46437 30.40466,-29.46397 30.40457,-29.4637 30.40443,-29.46348 30.40418,-29.46314 30.40381,-29.46301 30.40353,-29.46295 30.40318,-29.46297 30.40271,-29.46309 30.40231,-29.46321 30.40198,-29.46332 30.40163,-29.46336 30.40126,-29.46336 30.40083,-29.46336 30.40055,-29.46342 30.40029,-29.46349 30.40003,-29.4636 30.39976,-29.46371 30.39952,-29.46383 30.39931,-29.46384 30.39907,-29.46389 30.39876,-29.46391 30.39846,-29.46388 30.39824,-29.46388 30.39799,-29.46387 30.39781,-29.46391 30.39767,-29.46391 30.39734,-29.46403 30.39714,-29.46416 30.39703,-29.46434 30.39691,-29.46445 30.3968,-29.46452 30.39663,-29.46457 30.3965,-29.46455 30.3964,-29.46449 30.39626,-29.46447 30.3959,-29.46446 30.39572,-29.46444 30.39577,-29.46415 30.39577,-29.46408 30.39583,-29.46278 30.39589,-29.46238 30.39569,-29.46164 30.39562,-29.46129 30.39549,-29.46096 30.39536,-29.46062 30.39527,-29.46028 30.39519,-29.45993 30.3951,-29.45959 30.39491,-29.45888 30.39482,-29.45851 30.39477,-29.45835 30.39475,-29.4583 30.3947,-29.45816 30.39467,-29.45802 30.39461,-29.45786 30.39454,-29.45765 30.39449,-29.45748 30.39445,-29.45718 30.39443,-29.45702 30.39443,-29.45687 30.39442,-29.45671 30.39446,-29.45645 30.39449,-29.45621 30.3945,-29.45602 30.39452,-29.45584 30.39454,-29.45567 30.3946,-29.4551 30.39463,-29.4549 30.39467,-29.45472 30.39477,-29.45436 30.39482,-29.45417 30.3949,-29.45398 30.39497,-29.4538 30.3951,-29.45348 30.39515,-29.4533 30.39518,-29.45315 30.39521,-29.45295 30.39522,-29.45274 30.39524,-29.45253 30.39523,-29.45233 30.39524,-29.45183 30.39526,-29.45161 30.3953,-29.45142 30.39534,-29.45124 30.39543,-29.45104 30.39552,-29.45086 30.3956,-29.45073 30.39564,-29.45062 30.39567,-29.45054 30.39572,-29.45041 30.39576,-29.45034 30.3958,-29.45023 30.39582,-29.45015 30.39585,-29.45001 30.39588,-29.44979 30.3959,-29.44956 30.3959,-29.44952 30.39592,-29.44934 30.39592,-29.44913 30.39591,-29.44892 30.3959,-29.4487 30.39589,-29.44847 30.39587,-29.44826 30.39585,-29.44803 30.39583,-29.44781 30.39582,-29.44759 30.39581,-29.44736 30.39579,-29.44713 30.39576,-29.44687 30.39574,-29.44667 30.39574,-29.44642 30.39576,-29.44629 30.39578,-29.44601 30.39581,-29.44577 30.39588,-29.44525 30.39589,-29.44501 30.39592,-29.44474 30.39594,-29.44453 30.39596,-29.44419 30.39598,-29.44397 30.396,-29.44372 30.39607,-29.44351 30.39613,-29.4433 30.39619,-29.44308 30.39624,-29.44286 30.39627,-29.44264 30.39632,-29.44241 30.39637,-29.44227 30.39644,-29.44203 30.3965,-29.44178 30.39655,-29.44156 30.39662,-29.44131 30.39668,-29.44109 30.39675,-29.4409 30.3968,-29.44071 30.39684,-29.44052 30.39687,-29.44035 30.39692,-29.44002 30.39693,-29.43988 30.39693,-29.43981 30.39692,-29.43952 30.39689,-29.43936 30.39688,-29.4392 30.39685,-29.4391 30.39683,-29.43893 30.39681,-29.4388 30.39681,-29.43866 30.39682,-29.43853 30.39682,-29.43841 30.39681,-29.43838 30.3968,-29.43825 30.39675,-29.43809 30.39668,-29.4379 30.39655,-29.43764 30.39648,-29.43754 30.39641,-29.43747 30.39634,-29.43739 30.39628,-29.43729 30.39623,-29.4372 30.39619,-29.43711 30.39613,-29.43703 30.39609,-29.43694 30.39607,-29.43692 30.39595,-29.43685 30.39566,-29.43684 30.39537,-29.43685 30.39515,-29.43686 30.39498,-29.43683 30.39482,-29.4368 30.39465,-29.43678 30.39454,-29.43676 30.39448,-29.43675 30.39439,-29.43673 30.39428,-29.43669 30.3942,-29.43668 30.39402,-29.43669 30.39382,-29.4367 30.39363,-29.4367 30.39357,-29.43671 30.39343,-29.43669 30.39322,-29.43668 30.39305,-29.4367 30.39288,-29.43673 30.39268,-29.43677 30.39245,-29.43681 30.39223,-29.43687 30.39205,-29.43691 30.39191,-29.43693 30.39152,-29.43698 30.39135,-29.43702 30.39115,-29.43708 30.391,-29.43713 30.39078,-29.43719 30.39061,-29.43725 30.39048,-29.4373 30.39038,-29.43734 30.39021,-29.43741 30.39005,-29.4375 30.3899,-29.43755 30.38968,-29.43764 30.38955,-29.43769 30.38944,-29.43776 30.3893,-29.43785 30.38918,-29.43791 30.3891,-29.43797 30.38905,-29.43799 30.38894,-29.43807 30.38877,-29.43823 30.38866,-29.43833 30.38848,-29.43849 30.38837,-29.43861 30.38819,-29.43879 30.38781,-29.43825 30.38778,-29.43822 30.38822,-29.43796 30.38881,-29.43784 30.38909,-29.43757 30.38968,-29.43662 30.3908,-29.43571 30.39121,-29.436 30.39209,-29.43624 30.39383,-29.43577 30.39468,-29.43362 30.39511,-29.43269 30.39531,-29.43189 30.39498,-29.43027 30.39511,-29.42893 30.39533,-29.42825 30.39556,-29.42776 30.39621,-29.42713 30.39667,-29.42615 30.39666,-29.42538 30.39629,-29.42476 30.39467,-29.42418 30.39347,-29.42432 30.39254,-29.42562 30.39151,-29.42652 30.39005,-29.42724 30.38874,-29.42739 30.38779,-29.42688 30.38667,-29.42623 30.38566,-29.42523 30.38462,-29.42454 30.38349,-29.42376 30.3831,-29.42361 30.38249,-29.42376 30.38159,-29.42444 30.38115,-29.42471 30.3809,-29.42499 30.38063,-29.42512 30.38049,-29.42545 30.38026,-29.42579 30.37952,-29.42607 30.37895,-29.42617 30.37873,-29.42641 30.37867,-29.42682 30.37853,-29.42762 30.37819,-29.42812 30.37766,-29.4284 30.37709,-29.42902 30.37709,-29.4294 30.37691,-29.42964 30.37631,-29.43031 30.37595,-29.43074 30.37528,-29.43105 30.37402,-29.43138 30.37314,-29.43087 30.37272,-29.43031 30.37254,-29.43011 30.3722,-29.42937 30.37196,-29.42878 30.37178,-29.42847 30.37162,-29.42836 30.37137,-29.42827 30.37083,-29.42799 30.3706,-29.42761 30.37034,-29.42697 30.37012,-29.42654 30.37006,-29.42607 30.37005,-29.42572 30.37013,-29.42527 30.37024,-29.42491 30.37048,-29.4247 30.3707,-29.42446 30.37092,-29.42407 30.37136,-29.42377 30.37165,-29.42356 30.37201,-29.4233 30.3723,-29.42307 30.37292,-29.42296 30.37323,-29.42296 30.37346,-29.42299 30.37353,-29.42307 30.37354,-29.42327 30.37354,-29.42355 30.37346,-29.42384 30.37335,-29.42394 30.37313,-29.42401 30.37284,-29.42408 30.37275,-29.42424 30.37279,-29.42463 30.3728,-29.42485 30.37261,-29.42524 30.3729,-29.42546 30.37334,-29.42592 30.37348,-29.42616 30.37357,-29.42647 30.37376,-29.42669 30.37407,-29.42686 30.37444,-29.42684 30.37496,-29.42661 30.37531,-29.42625 30.3753,-29.42579 30.37533,-29.4252 30.37535,-29.42485 30.37553,-29.42452 30.37594,-29.42411 30.37635,-29.42392 30.37664,-29.42372 30.3772,-29.42356 30.37755,-29.42344 30.37803,-29.4233 30.37849,-29.42318 30.3788,-29.42301 30.3791,-29.42276 30.37941,-29.42267 30.37988,-29.42258 30.38032,-29.42242 30.38071,-29.42235 30.38108,-29.42234 30.38164,-29.4222 30.38219,-29.42206 30.38251,-29.42197 30.38273,-29.42189 30.38299,-29.42174 30.3833,-29.42152 30.38373,-29.4213 30.38405,-29.4213 30.3843,-29.4212 30.38451,-29.42106 30.38459,-29.42087 30.38456,-29.42056 30.38455,-29.42033 30.38469,-29.42027 30.38479,-29.42039 30.38497,-29.42066 30.38511,-29.42095 30.38528,-29.42116 30.38564,-29.42141 30.38602,-29.42171 30.38628,-29.42197 30.38659,-29.42205 30.38697,-29.42185 30.38726,-29.4216 30.38746,-29.42146 30.3877,-29.42138 30.38808,-29.42111 30.38846,-29.42065 30.38885,-29.42043 30.38931,-29.42054 30.38945,-29.42049 30.3898,-29.42022 30.39002,-29.4199 30.39026,-29.41973 30.39054,-29.41968 30.39086,-29.41945 30.39124,-29.41922 30.39153,-29.4191 30.39175,-29.41895 30.39193,-29.41886 30.39207,-29.41877 30.39207,-29.41869 30.39207,-29.41856 30.3921,-29.41842 30.39229,-29.41833 30.39246,-29.41825 30.39255,-29.4183 30.39276,-29.41863 30.39297,-29.4189 30.3933,-29.41914 30.39358,-29.4192 30.39378,-29.41919 30.39422,-29.41906 30.3946,-29.41891 30.39484,-29.41871 30.39503,-29.41849 30.39544,-29.41828 30.39568,-29.41814 30.39589,-29.41814 30.39614,-29.41813 30.39641,-29.4179 30.39671,-29.41783 30.39704,-29.41784 30.39732,-29.41791 30.39749,-29.41797 30.39783,-29.41812 30.39808,-29.4184 30.39823,-29.41867 30.39863,-29.41872 30.39911,-29.41871 30.39962,-29.41836 30.40004,-29.41803 30.40032,-29.41774 30.4003,-29.41755 30.40026,-29.41737 30.40026,-29.41719 30.4005,-29.417 30.40077,-29.4169 30.4009,-29.41681 30.40113,-29.41661 30.40146,-29.41634 30.4017,-29.41608 30.40186,-29.41583 30.40194,-29.41565 30.40204,-29.41552 30.40204,-29.41539 30.40205,-29.41523 30.40215,-29.41516 30.40229,-29.415 30.40232,-29.41481 30.40229,-29.41457 30.4023,-29.41437 30.40251,-29.41418 30.40289,-29.41409 30.40314,-29.41399 30.4033,-29.41384 30.40349,-29.41358 30.40384,-29.41341 30.40414,-29.41332 30.40463,-29.41322 30.40488,-29.41305 30.40508,-29.41282 30.40535,-29.41269 30.40564,-29.41256 30.40631,-29.4125 30.40672,-29.41229 30.40693,-29.41198 30.4073,-29.41188 30.40774,-29.41161 30.40795,-29.41132 30.40799,-29.41106 30.40794,-29.41084 30.40812,-29.41072 30.40836,-29.41056 30.40855,-29.41021 30.40884,-29.40972 30.40909,-29.40951 30.4094,-29.40905 30.40962,-29.4085 30.41004,-29.40793 30.41026,-29.40748 30.41069,-29.40738 30.41097,-29.40716 30.41138,-29.40689 30.41163,-29.40649 30.41197,-29.40592 30.41231,-29.4048 30.41222,-29.40412 30.4121,-29.40346 30.4118,-29.40279 30.41144,-29.40228 30.41121,-29.40186 30.41235,-29.40192 30.41252,-29.40211 30.41297,-29.40251 30.41343,-29.4026 30.41415,-29.40275 30.41421,-29.40311 30.41421,-29.40383 30.41447,-29.40493 30.41474,-29.40565</coordinates></LinearRing></outerBoundaryIs></Polygon><Polygon><outerBoundaryIs><LinearRing><coordinates>30.53592,-29.34959 30.53488,-29.35089 30.53419,-29.3505 30.53373,-29.35084 30.53336,-29.351 30.53279,-29.35117 30.53247,-29.35127 30.53207,-29.35216 30.53156,-29.35314 30.53056,-29.35374 30.53164,-29.35471 30.53205,-29.35447 30.53276,-29.3551 30.53275,-29.35531 30.53304,-29.35576 30.53336,-29.35576 30.53369,-29.35555 30.53389,-29.35538 30.53411,-29.35513 30.53443,-29.35493 30.53471,-29.35482 30.53506,-29.3547 30.53544,-29.35466 30.53564,-29.35455 30.53574,-29.3545 30.53619,-29.35426 30.53668,-29.35394 30.53727,-29.35378 30.5377,-29.35413 30.53811,-29.35427 30.5386,-29.35471 30.53899,-29.3553 30.53933,-29.35585 30.53973,-29.35621 30.54027,-29.35562 30.54086,-29.35655 30.54104,-29.35665 30.54129,-29.35662 30.54154,-29.35673 30.5418,-29.35689 30.54209,-29.35704 30.53659,-29.35859 30.53652,-29.35861 30.53646,-29.35862 30.53193,-29.35982 30.53136,-29.35922 30.53133,-29.35918 30.53112,-29.35917 30.53079,-29.35881 30.53007,-29.35896 30.52907,-29.35934 30.52866,-29.35971 30.52878,-29.36051 30.529,-29.36163 30.52777,-29.3616 30.52546,-29.36168 30.52537,-29.36169 30.52438,-29.36129 30.52384,-29.3615 30.52317,-29.36126 30.52289,-29.36069 30.5222,-29.35968 30.52215,-29.35971 30.52118,-29.36015 30.52194,-29.36094 30.52097,-29.36119 30.52124,-29.36186 30.51999,-29.36231 30.51919,-29.36305 30.51828,-29.36263 30.51817,-29.36374 30.51655,-29.36348 30.51578,-29.36336 30.5157,-29.36365 30.51617,-29.36526 30.51618,-29.36528 30.51614,-29.36528 30.51603,-29.36528 30.5159,-29.36526 30.51567,-29.36519 30.51322,-29.36481 30.51207,-29.36467 30.51141,-29.3649 30.51114,-29.36441 30.51144,-29.36417 30.5117,-29.36402 30.51156,-29.36382 30.51092,-29.36275 30.51024,-29.36162 30.50961,-29.3606 30.5093,-29.36007 30.5086,-29.35959 30.50822,-29.35917 30.50816,-29.35864 30.50827,-29.35837 30.50829,-29.35832 30.50858,-29.35805 30.50897,-29.35766 30.50911,-29.35724 30.51117,-29.35726 30.51215,-29.35721 30.51296,-29.35706 30.51354,-29.35687 30.5147,-29.35644 30.51541,-29.35621 30.51657,-29.35587 30.51754,-29.35578 30.51809,-29.35579 30.51715,-29.35313 30.5216,-29.3524 30.52254,-29.35113 30.52289,-29.35067 30.5245,-29.3486 30.5251,-29.34791 30.52564,-29.34826 30.52583,-29.34875 30.52606,-29.34907 30.52793,-29.35091 30.52833,-29.35125 30.52879,-29.35175 30.53015,-29.35094 30.53079,-29.35175 30.53216,-29.35098 30.53153,-29.35022 30.53229,-29.34978 30.53284,-29.35055 30.53296,-29.35046 30.53305,-29.35024 30.53326,-29.35002 30.53371,-29.34956 30.53407,-29.34911 30.53437,-29.34849 30.53445,-29.34816 30.53447,-29.34788 30.5343,-29.34724 30.53548,-29.3469 30.53598,-29.3471 30.53546,-29.34859 30.5356,-29.34889 30.53592,-29.34959</coordinates></LinearRing></outerBoundaryIs></Polygon></MultiGeometry></Placemark></Document></kml>