<?xml version="1.0" encoding="UTF-8"?><kml xmlns="http://www.opengis.net/kml/2.2"><Document><Placemark><name>Sithembile</name><description>Sub Place 574004003</description><ExtendedData><Data name="code"><value>574004003</value></Data><Data name="name"><value>Sithembile</value></Data><Data name="description"><value>Sub Place 574004003</value></Data></ExtendedData><MultiGeometry><Polygon><outerBoundaryIs><LinearRing><coordinates>30.15933,-28.19136 30.15934,-28.19137 30.15936,-28.19137 30.15937,-28.19136 30.15939,-28.19133 30.15945,-28.19123 30.15947,-28.19121 30.1595,-28.19121 30.15956,-28.19124 30.15955,-28.1913 30.15954,-28.19137 30.15955,-28.19148 30.15957,-28.19155 30.1596,-28.19165 30.15963,-28.19174 30.15969,-28.19185 30.15995,-28.19226 30.16006,-28.19239 30.16015,-28.19249 30.16026,-28.1926 30.16054,-28.19283 30.16088,-28.19312 30.16094,-28.19317 30.16156,-28.19371 30.16229,-28.19433 30.16242,-28.19444 30.16244,-28.19446 30.1632,-28.19511 30.16326,-28.19516 30.16333,-28.19521 30.16341,-28.19528 30.1639,-28.19563 30.16509,-28.19648 30.16587,-28.19705 30.16621,-28.1973 30.167,-28.19788 30.16728,-28.19809 30.16873,-28.19914 30.1688,-28.19919 30.16883,-28.19922 30.16886,-28.19925 30.1689,-28.1993 30.16894,-28.19935 30.16897,-28.19942 30.16898,-28.19949 30.16899,-28.19956 30.16898,-28.19962 30.16896,-28.19969 30.16894,-28.19974 30.16891,-28.19979 30.16884,-28.19987 30.1687,-28.20005 30.16859,-28.20018 30.16854,-28.20026 30.1684,-28.20051 30.1686,-28.20065 30.16859,-28.20077 30.16858,-28.20097 30.16857,-28.20101 30.16856,-28.20105 30.16854,-28.20109 30.16851,-28.20114 30.16843,-28.20124 30.16833,-28.20134 30.16824,-28.20142 30.1682,-28.20146 30.16818,-28.20148 30.16812,-28.20154 30.16806,-28.20161 30.16798,-28.20173 30.16793,-28.20181 30.16788,-28.20192 30.16784,-28.20203 30.16781,-28.20212 30.16775,-28.20233 30.16769,-28.20255 30.16766,-28.20262 30.16763,-28.20267 30.1676,-28.20273 30.16755,-28.2028 30.16748,-28.20288 30.16743,-28.20293 30.16734,-28.203 30.1673,-28.20303 30.16728,-28.20305 30.16721,-28.20309 30.16715,-28.20311 30.16706,-28.20313 30.16692,-28.20314 30.16663,-28.20316 30.16605,-28.20322 30.16537,-28.20331 30.16511,-28.20335 30.16497,-28.20338 30.16487,-28.20341 30.16478,-28.20344 30.16469,-28.20349 30.16461,-28.20354 30.16455,-28.20359 30.16455,-28.20359 30.16446,-28.20366 30.16441,-28.20372 30.16436,-28.20379 30.16432,-28.20387 30.16429,-28.20393 30.16427,-28.204 30.16427,-28.20407 30.16426,-28.20415 30.16427,-28.20457 30.16431,-28.20579 30.16433,-28.2065 30.16434,-28.20663 30.16434,-28.20664 30.16435,-28.20673 30.16437,-28.20681 30.16439,-28.20689 30.16441,-28.20695 30.16444,-28.20701 30.1645,-28.20713 30.16459,-28.2073 30.16465,-28.20741 30.16479,-28.20763 30.16484,-28.20772 30.16486,-28.20778 30.16488,-28.20784 30.16489,-28.20794 30.16499,-28.20887 30.16501,-28.20905 30.16504,-28.20922 30.16244,-28.20975 30.16101,-28.21 30.16043,-28.21009 30.15971,-28.21018 30.15963,-28.21021 30.15956,-28.21026 30.15423,-28.21464 30.15387,-28.20858 30.15347,-28.20414 30.15337,-28.20175 30.15337,-28.20175 30.15329,-28.20006 30.15326,-28.19929 30.15366,-28.19918 30.15366,-28.19918 30.15407,-28.19904 30.15438,-28.19891 30.15473,-28.19875 30.15502,-28.19857 30.15527,-28.19838 30.15541,-28.19825 30.15549,-28.19819 30.15582,-28.19784 30.15602,-28.19757 30.15621,-28.19726 30.15633,-28.19701 30.15649,-28.19656 30.15656,-28.19625 30.1566,-28.19596 30.15661,-28.19578 30.15661,-28.19566 30.1566,-28.19543 30.15657,-28.19521 30.15653,-28.19495 30.15645,-28.19468 30.15645,-28.19466 30.15634,-28.19436 30.15624,-28.19416 30.15608,-28.19389 30.15584,-28.19354 30.15556,-28.19325 30.15533,-28.19304 30.15504,-28.19283 30.15485,-28.19272 30.15446,-28.19249 30.15344,-28.19199 30.15359,-28.19183 30.15379,-28.19168 30.15389,-28.1916 30.15411,-28.19146 30.15434,-28.19133 30.1547,-28.19114 30.15602,-28.19046 30.15717,-28.18985 30.15761,-28.18961 30.15845,-28.1902 30.15848,-28.19022 30.15858,-28.19036 30.15933,-28.19136</coordinates></LinearRing></outerBoundaryIs></Polygon></MultiGeometry></Placemark></Document></kml>