<?xml version="1.0" encoding="UTF-8"?><kml xmlns="http://www.opengis.net/kml/2.2"><Document><Placemark><name>Mtubatuba</name><description>Local Municipality 586</description><ExtendedData><Data name="code"><value>586</value></Data><Data name="name"><value>Mtubatuba</value></Data><Data name="description"><value>Local Municipality 586</value></Data></ExtendedData><MultiGeometry><Polygon><outerBoundaryIs><LinearRing><coordinates>32.11194,-28.43623 32.11115,-28.43619 32.11026,-28.43642 32.1095,-28.43665 32.10879,-28.43707 32.10808,-28.43738 32.10703,-28.43783 32.10608,-28.43839 32.10513,-28.43891 32.1039,-28.43973 32.10287,-28.44042 32.1023,-28.44084 32.10136,-28.44147 32.10056,-28.44203 32.10004,-28.44249 32.099,-28.44304 32.09792,-28.44375 32.09681,-28.44433 32.09608,-28.44455 32.09497,-28.44517 32.09349,-28.44592 32.09219,-28.4468 32.09092,-28.44751 32.08988,-28.44804 32.08865,-28.44849 32.08735,-28.44863 32.08592,-28.44871 32.08445,-28.44873 32.0832,-28.44861 32.08182,-28.44885 32.08038,-28.44877 32.07877,-28.44867 32.0781,-28.44875 32.07778,-28.44892 32.07722,-28.44923 32.07638,-28.45016 32.07562,-28.45079 32.07494,-28.45147 32.07405,-28.45226 32.07339,-28.45305 32.07263,-28.45391 32.07192,-28.45471 32.07101,-28.45546 32.0702,-28.45601 32.06935,-28.45639 32.06836,-28.45667 32.06729,-28.45681 32.06668,-28.45695 32.06545,-28.4571 32.06461,-28.45724 32.06376,-28.45729 32.06289,-28.45731 32.06177,-28.45738 32.06086,-28.45742 32.06049,-28.45734 32.05973,-28.45726 32.0592,-28.45708 32.05853,-28.45684 32.05824,-28.45664 32.05744,-28.45621 32.0573,-28.45611 32.05662,-28.4556 32.05611,-28.455 32.05597,-28.45412 32.056,-28.45407 32.0558,-28.45301 32.05539,-28.45225 32.05483,-28.45128 32.05453,-28.44954 32.0545,-28.44844 32.05479,-28.44782 32.05524,-28.44694 32.05539,-28.44662 32.05589,-28.44577 32.05645,-28.44508 32.05708,-28.44448 32.05748,-28.44408 32.05821,-28.4433 32.05848,-28.44265 32.05881,-28.44213 32.05951,-28.44153 32.05991,-28.44113 32.06051,-28.44032 32.06086,-28.43969 32.06105,-28.43918 32.06101,-28.43858 32.06096,-28.43803 32.06072,-28.43725 32.06062,-28.43672 32.06055,-28.43634 32.06015,-28.43478 32.05997,-28.43404 32.05958,-28.43255 32.05951,-28.43207 32.05937,-28.43144 32.05908,-28.43022 32.05908,-28.42959 32.05901,-28.42877 32.05883,-28.42809 32.05874,-28.42715 32.05874,-28.4265 32.05889,-28.42609 32.05909,-28.4258 32.05954,-28.42539 32.06031,-28.42478 32.06051,-28.42457 32.06135,-28.42415 32.06181,-28.42379 32.06273,-28.42333 32.0632,-28.42315 32.06391,-28.42235 32.06456,-28.42157 32.06582,-28.42055 32.06627,-28.42027 32.06667,-28.41997 32.06715,-28.41947 32.06756,-28.41897 32.06773,-28.41842 32.06776,-28.41766 32.06754,-28.41691 32.0674,-28.41526 32.06713,-28.41465 32.06692,-28.41435 32.06623,-28.41376 32.06558,-28.41358 32.06507,-28.41358 32.06451,-28.41363 32.06408,-28.41363 32.06364,-28.41377 32.06253,-28.41436 32.06153,-28.41482 32.06091,-28.41512 32.0599,-28.4156 32.05903,-28.41599 32.05781,-28.41663 32.05669,-28.41745 32.05577,-28.41792 32.05499,-28.41812 32.05413,-28.41809 32.05341,-28.41785 32.05211,-28.41749 32.05175,-28.41714 32.05137,-28.41635 32.05101,-28.41532 32.05043,-28.41421 32.04997,-28.41342 32.04952,-28.41232 32.0492,-28.41146 32.04894,-28.41058 32.0488,-28.40998 32.04859,-28.40943 32.04832,-28.40878 32.04791,-28.40779 32.04751,-28.40699 32.04683,-28.40604 32.04608,-28.40515 32.04497,-28.40393 32.04398,-28.40316 32.04318,-28.40243 32.04265,-28.40189 32.04091,-28.40067 32.03967,-28.39982 32.0382,-28.39909 32.03738,-28.39867 32.03614,-28.39804 32.03565,-28.39766 32.03533,-28.39742 32.03457,-28.39724 32.03415,-28.39726 32.03364,-28.39738 32.03289,-28.39754 32.0326,-28.39775 32.03227,-28.39812 32.03133,-28.39925 32.03073,-28.40009 32.03035,-28.40114 32.02969,-28.40286 32.02911,-28.40373 32.02873,-28.40439 32.02806,-28.40536 32.0275,-28.40636 32.02716,-28.40685 32.0266,-28.40795 32.02588,-28.40899 32.02558,-28.40941 32.02477,-28.41 32.02349,-28.4106 32.02265,-28.4108 32.0213,-28.41096 32.02038,-28.41096 32.01949,-28.41072 32.01934,-28.41068 32.0177,-28.41027 32.01671,-28.40992 32.01564,-28.40937 32.01477,-28.40889 32.01367,-28.40819 32.01208,-28.40666 32.01149,-28.4058 32.0108,-28.40483 32.0106,-28.40444 32.00993,-28.40361 32.00956,-28.403 32.00919,-28.40238 32.00894,-28.40201 32.00832,-28.40103 32.00759,-28.39973 32.00712,-28.39887 32.00669,-28.39832 32.00614,-28.39759 32.00551,-28.39711 32.00465,-28.3961 32.00379,-28.39579 32.00277,-28.39527 32.00155,-28.39477 32.00076,-28.3945 31.99991,-28.39419 31.99921,-28.39394 31.99818,-28.39377 31.99811,-28.39378 31.99801,-28.39375 31.99777,-28.39367 31.99767,-28.39364 31.99752,-28.39359 31.99738,-28.39356 31.99728,-28.39352 31.99718,-28.39349 31.99704,-28.39343 31.99694,-28.39339 31.9967,-28.39327 31.99661,-28.39322 31.99655,-28.39319 31.99616,-28.39293 31.99602,-28.39284 31.99595,-28.39274 31.9959,-28.39269 31.99583,-28.39264 31.99577,-28.3926 31.99569,-28.39253 31.99565,-28.39251 31.99561,-28.39247 31.99557,-28.39244 31.99552,-28.39238 31.99549,-28.39235 31.99542,-28.39229 31.99538,-28.39224 31.9953,-28.39219 31.99527,-28.39216 31.99516,-28.39207 31.99514,-28.39205 31.99508,-28.39198 31.99501,-28.39192 31.99484,-28.39182 31.99462,-28.3917 31.99456,-28.39166 31.99449,-28.39162 31.9944,-28.39156 31.99431,-28.39151 31.99403,-28.39133 31.99391,-28.39124 31.99383,-28.3912 31.99372,-28.39113 31.99357,-28.39102 31.99347,-28.39091 31.99342,-28.39087 31.99335,-28.39083 31.99333,-28.3908 31.99325,-28.39075 31.99317,-28.39068 31.99311,-28.39063 31.99306,-28.3906 31.99299,-28.39054 31.99293,-28.3905 31.99286,-28.39045 31.99281,-28.3904 31.99273,-28.39034 31.99266,-28.39029 31.99258,-28.39022 31.99256,-28.3902 31.99252,-28.39015 31.99249,-28.39013 31.99242,-28.39005 31.99238,-28.39002 31.99233,-28.38996 31.99231,-28.38993 31.99224,-28.38985 31.9922,-28.38979 31.99215,-28.38973 31.99203,-28.38958 31.99189,-28.38945 31.9918,-28.38939 31.99171,-28.38931 31.99163,-28.38924 31.99154,-28.38917 31.99146,-28.3891 31.99139,-28.38905 31.99133,-28.38901 31.99118,-28.38888 31.99101,-28.38876 31.99092,-28.38871 31.99086,-28.38866 31.99078,-28.38859 31.99072,-28.38847 31.99067,-28.38839 31.9906,-28.3883 31.99057,-28.38825 31.99052,-28.38819 31.99046,-28.38813 31.99042,-28.38803 31.9904,-28.38801 31.99037,-28.38796 31.99035,-28.38791 31.99033,-28.38787 31.99029,-28.38781 31.99024,-28.38775 31.99019,-28.38767 31.99015,-28.38761 31.9901,-28.38755 31.99002,-28.38739 31.98998,-28.38728 31.98995,-28.38719 31.98992,-28.38712 31.98989,-28.38706 31.98985,-28.38699 31.98982,-28.38693 31.98978,-28.38683 31.98974,-28.38674 31.98971,-28.3867 31.98968,-28.38663 31.98959,-28.38645 31.98957,-28.38639 31.98954,-28.38627 31.98952,-28.38615 31.9895,-28.38609 31.98949,-28.38601 31.98947,-28.38595 31.98945,-28.38585 31.98945,-28.3857 31.98943,-28.38561 31.98943,-28.38527 31.98942,-28.38521 31.98944,-28.38512 31.98945,-28.38504 31.98945,-28.38497 31.98948,-28.38486 31.98951,-28.38474 31.98958,-28.38453 31.9898,-28.38409 31.99011,-28.38355 31.99066,-28.38295 31.99137,-28.38245 31.99202,-28.38206 31.99325,-28.38156 31.99426,-28.38118 31.99545,-28.38076 31.99677,-28.38032 31.99802,-28.38004 31.9995,-28.37974 31.99994,-28.37973 32.00114,-28.3797 32.0038,-28.37959 32.00828,-28.37979 32.00909,-28.37984 32.00991,-28.37984 32.01071,-28.38001 32.01129,-28.38016 32.01203,-28.38043 32.0127,-28.38075 32.01378,-28.38152 32.01495,-28.38206 32.01579,-28.38271 32.01705,-28.38314 32.01731,-28.38328 32.01735,-28.3833 32.01741,-28.38331 32.01749,-28.38337 32.01755,-28.38341 32.01766,-28.38347 32.01773,-28.38353 32.01783,-28.38362 32.01794,-28.38372 32.01806,-28.38382 32.01809,-28.38384 32.01816,-28.38388 32.01822,-28.38392 32.01831,-28.38399 32.01839,-28.38404 32.01844,-28.38408 32.0185,-28.38411 32.01855,-28.38414 32.01863,-28.3842 32.01873,-28.38428 32.01883,-28.38435 32.01893,-28.38441 32.01901,-28.38446 32.01914,-28.38453 32.01929,-28.38461 32.01936,-28.38465 32.01941,-28.38467 32.01952,-28.38471 32.01958,-28.38474 32.01971,-28.38479 32.0198,-28.38482 32.01988,-28.38485 32.02002,-28.38492 32.02011,-28.38495 32.02018,-28.38498 32.02029,-28.38501 32.02035,-28.38506 32.0204,-28.38509 32.02049,-28.38515 32.02054,-28.38517 32.02061,-28.38521 32.02075,-28.38527 32.02082,-28.38531 32.02092,-28.38534 32.02099,-28.38536 32.02106,-28.38539 32.02114,-28.38541 32.02123,-28.38543 32.02131,-28.38546 32.0214,-28.38548 32.02146,-28.38549 32.02157,-28.38551 32.02166,-28.38553 32.02175,-28.38553 32.02187,-28.38555 32.02194,-28.38555 32.02199,-28.38556 32.02209,-28.38557 32.02214,-28.38557 32.02219,-28.38558 32.02226,-28.38559 32.02246,-28.38559 32.02252,-28.38558 32.0226,-28.38556 32.02269,-28.38554 32.02274,-28.38553 32.02283,-28.3855 32.02315,-28.3852 32.02325,-28.38511 32.02331,-28.38506 32.02338,-28.385 32.02344,-28.38494 32.02352,-28.38487 32.02362,-28.38479 32.0237,-28.38473 32.02378,-28.38466 32.02385,-28.38461 32.02393,-28.38452 32.02396,-28.38449 32.02399,-28.38444 32.02405,-28.38436 32.02413,-28.38427 32.02419,-28.38421 32.02424,-28.38419 32.02431,-28.38414 32.02436,-28.38412 32.02438,-28.3841 32.02444,-28.38405 32.02449,-28.38402 32.02454,-28.38396 32.02459,-28.38393 32.02466,-28.38385 32.02472,-28.38379 32.02478,-28.3837 32.0248,-28.38368 32.02483,-28.38362 32.02486,-28.38353 32.02488,-28.38349 32.02489,-28.38344 32.0249,-28.38335 32.0249,-28.38329 32.02493,-28.38322 32.02493,-28.38319 32.02494,-28.38314 32.02497,-28.38304 32.02497,-28.38293 32.02498,-28.38287 32.02499,-28.38278 32.02499,-28.38219 32.02498,-28.38215 32.02497,-28.38204 32.02497,-28.38178 32.02496,-28.38153 32.02498,-28.38142 32.02498,-28.38124 32.02496,-28.38117 32.02495,-28.38112 32.02493,-28.38106 32.02493,-28.38103 32.02491,-28.38097 32.0244,-28.38002 32.02371,-28.37878 32.02281,-28.37733 32.02214,-28.37627 32.02129,-28.37527 32.02059,-28.37441 32.02006,-28.37365 32.01989,-28.37333 32.01984,-28.37325 32.01964,-28.37301 32.01926,-28.37252 32.01901,-28.37219 32.01884,-28.37196 32.01869,-28.37176 32.01835,-28.37139 32.01821,-28.3712 32.01797,-28.37089 32.01778,-28.37066 32.01766,-28.37045 32.01742,-28.37014 32.01719,-28.36967 32.01707,-28.3695 32.01673,-28.36879 32.01668,-28.36864 32.0166,-28.36836 32.01638,-28.36789 32.01633,-28.36764 32.01632,-28.3675 32.01624,-28.36706 32.01622,-28.36677 32.01622,-28.36661 32.01616,-28.36613 32.0161,-28.36586 32.01602,-28.36548 32.01596,-28.36521 32.01589,-28.36504 32.01579,-28.36482 32.01551,-28.36448 32.01524,-28.36412 32.01511,-28.36393 32.01499,-28.36376 32.01477,-28.36339 32.01465,-28.36313 32.01447,-28.36286 32.01425,-28.36252 32.01415,-28.36235 32.01404,-28.36219 32.01379,-28.36193 32.01354,-28.36176 32.01338,-28.36166 32.01315,-28.36153 32.01297,-28.36144 32.01275,-28.36136 32.01256,-28.36129 32.01239,-28.36125 32.01217,-28.36122 32.01192,-28.36121 32.01104,-28.36121 32.01076,-28.36124 32.01058,-28.36124 32.01031,-28.36125 32.01005,-28.36126 32.00825,-28.36126 32.00788,-28.36127 32.00759,-28.36129 32.00743,-28.3613 32.00716,-28.3613 32.0063,-28.36135 32.00601,-28.36136 32.00567,-28.36137 32.00532,-28.36139 32.005,-28.3614 32.0035,-28.36151 32.00277,-28.36153 32.00154,-28.36153 31.99985,-28.36139 31.99861,-28.36133 31.99748,-28.36131 31.99638,-28.36112 31.99551,-28.36101 31.99487,-28.36095 31.99458,-28.36093 31.99409,-28.36087 31.99386,-28.36078 31.99363,-28.3607 31.99327,-28.36058 31.99281,-28.36033 31.99228,-28.36013 31.99177,-28.35981 31.99126,-28.35953 31.9908,-28.35919 31.99011,-28.35841 31.99007,-28.35841 31.99005,-28.35839 31.98998,-28.35836 31.9899,-28.3583 31.98983,-28.35826 31.98976,-28.3582 31.98966,-28.35815 31.98954,-28.35807 31.98942,-28.35797 31.98933,-28.35789 31.98922,-28.35781 31.98909,-28.3577 31.98892,-28.35753 31.98878,-28.3574 31.98869,-28.35733 31.98859,-28.35726 31.9885,-28.35719 31.9884,-28.35709 31.98828,-28.35699 31.98818,-28.3569 31.98811,-28.35685 31.98799,-28.35675 31.98795,-28.35671 31.98782,-28.35661 31.98768,-28.3565 31.98755,-28.35639 31.98747,-28.35631 31.98734,-28.35622 31.98727,-28.35617 31.98717,-28.35607 31.98703,-28.35599 31.98692,-28.3559 31.98681,-28.35582 31.98672,-28.35573 31.98661,-28.35564 31.98647,-28.35548 31.98638,-28.35539 31.98631,-28.35531 31.98624,-28.35526 31.98607,-28.35514 31.98596,-28.35508 31.98579,-28.35489 31.98566,-28.35476 31.98547,-28.35458 31.98541,-28.35449 31.9853,-28.35437 31.98524,-28.3543 31.98519,-28.35424 31.98517,-28.3542 31.98513,-28.35414 31.98509,-28.35406 31.98506,-28.35402 31.98504,-28.354 31.98497,-28.3539 31.9849,-28.35382 31.98483,-28.35377 31.98474,-28.35363 31.9847,-28.35359 31.98464,-28.35352 31.98458,-28.35344 31.9845,-28.35337 31.98446,-28.35333 31.98435,-28.35317 31.98394,-28.35276 31.98387,-28.35268 31.9838,-28.35263 31.98366,-28.35249 31.98361,-28.35247 31.98327,-28.35216 31.98313,-28.35205 31.98302,-28.35196 31.98291,-28.35188 31.98284,-28.35182 31.98275,-28.35173 31.98265,-28.35164 31.98256,-28.35158 31.98249,-28.35153 31.98207,-28.35108 31.98188,-28.3509 31.98181,-28.3508 31.98143,-28.35042 31.98144,-28.35024 31.98167,-28.34737 31.99564,-28.30938 31.99574,-28.3091 32.01206,-28.26471 32.02542,-28.22837 32.02842,-28.22022 32.0497,-28.19696 32.04992,-28.19672 32.09288,-28.14976 32.09291,-28.14973 32.10823,-28.13299 32.11603,-28.12334 32.121,-28.11719 32.12748,-28.11696 32.13729,-28.11423 32.13829,-28.11087 32.14666,-28.11242 32.14707,-28.11808 32.15745,-28.11392 32.16373,-28.12519 32.15045,-28.14176 32.15457,-28.14261 32.15555,-28.14136 32.15796,-28.13829 32.16416,-28.13695 32.1794,-28.13364 32.18042,-28.13341 32.18042,-28.1341 32.18045,-28.13481 32.18058,-28.13533 32.1808,-28.13596 32.18159,-28.13746 32.18292,-28.1396 32.18372,-28.14062 32.18421,-28.14103 32.1862,-28.14254 32.18782,-28.14308 32.18888,-28.14329 32.18934,-28.14329 32.18982,-28.1432 32.18998,-28.14308 32.19014,-28.14281 32.19028,-28.14228 32.19026,-28.14162 32.19037,-28.14106 32.19053,-28.14055 32.19083,-28.13985 32.19105,-28.13912 32.19117,-28.13851 32.19139,-28.1379 32.19187,-28.1371 32.1928,-28.1354 32.19358,-28.13405 32.1941,-28.13338 32.19454,-28.13288 32.19565,-28.13176 32.19706,-28.13029 32.19746,-28.12978 32.1982,-28.1285 32.19859,-28.12791 32.19905,-28.12727 32.19948,-28.12638 32.19978,-28.1256 32.19996,-28.12535 32.20027,-28.12507 32.20034,-28.125 32.2004,-28.12495 32.20052,-28.12486 32.20063,-28.12476 32.20093,-28.12454 32.20121,-28.12443 32.20201,-28.12411 32.20224,-28.12403 32.20255,-28.12398 32.20269,-28.12395 32.20291,-28.12393 32.2031,-28.12391 32.20313,-28.12391 32.2033,-28.12388 32.20348,-28.12386 32.2037,-28.12386 32.20399,-28.12387 32.20434,-28.12394 32.2048,-28.12399 32.20503,-28.12403 32.20528,-28.12403 32.20552,-28.12407 32.20581,-28.12415 32.20612,-28.12424 32.20639,-28.12431 32.20682,-28.12439 32.20727,-28.12453 32.20753,-28.12463 32.20799,-28.12489 32.20835,-28.125 32.20859,-28.12509 32.2088,-28.12519 32.2091,-28.12531 32.20927,-28.12543 32.20933,-28.12548 32.20935,-28.1255 32.20977,-28.12583 32.21045,-28.12665 32.21097,-28.12756 32.2118,-28.12959 32.21357,-28.13295 32.21411,-28.13419 32.21441,-28.13475 32.21512,-28.13566 32.21567,-28.13631 32.21615,-28.13718 32.21717,-28.13974 32.21743,-28.14004 32.21777,-28.14034 32.21815,-28.14055 32.21849,-28.14064 32.21899,-28.1407 32.21938,-28.14064 32.21971,-28.14049 32.21999,-28.14035 32.22042,-28.13995 32.22129,-28.13917 32.22177,-28.13879 32.22189,-28.13862 32.22201,-28.13819 32.22212,-28.13793 32.22222,-28.13779 32.22261,-28.13741 32.22348,-28.13669 32.22471,-28.1356 32.22604,-28.13444 32.2268,-28.13398 32.22812,-28.13325 32.22964,-28.13253 32.2312,-28.13176 32.23163,-28.13148 32.23213,-28.13107 32.23294,-28.13057 32.23359,-28.13015 32.23591,-28.12916 32.23729,-28.12862 32.23788,-28.12847 32.23866,-28.12845 32.23979,-28.12851 32.24043,-28.12864 32.24091,-28.12885 32.2414,-28.12922 32.24265,-28.13023 32.24322,-28.13067 32.2438,-28.13115 32.24417,-28.13145 32.24467,-28.13171 32.24538,-28.13202 32.24632,-28.13251 32.24716,-28.1327 32.24762,-28.13283 32.24842,-28.133 32.24882,-28.13321 32.2493,-28.13344 32.24967,-28.13371 32.24986,-28.13398 32.24999,-28.1341 32.25028,-28.1341 32.25078,-28.13423 32.25143,-28.13427 32.25213,-28.13426 32.25289,-28.13418 32.25332,-28.13417 32.25392,-28.13412 32.25462,-28.13398 32.25532,-28.13382 32.25581,-28.13366 32.25624,-28.13355 32.25671,-28.13344 32.25702,-28.13338 32.25755,-28.13319 32.25806,-28.133 32.25844,-28.13291 32.25906,-28.13267 32.25949,-28.13245 32.25977,-28.13231 32.2602,-28.13216 32.26054,-28.132 32.26093,-28.13187 32.26121,-28.13172 32.26148,-28.13144 32.26168,-28.13125 32.26201,-28.13098 32.26225,-28.13079 32.26253,-28.13068 32.26273,-28.13055 32.2632,-28.13049 32.26357,-28.13049 32.26391,-28.13055 32.26437,-28.13066 32.26475,-28.13079 32.26506,-28.13098 32.26543,-28.13122 32.26567,-28.13141 32.26599,-28.13169 32.26617,-28.13186 32.26645,-28.13224 32.26673,-28.1328 32.26679,-28.13316 32.26691,-28.13355 32.26701,-28.13379 32.26708,-28.13403 32.26712,-28.13424 32.26716,-28.1346 32.2672,-28.13492 32.26724,-28.13529 32.26724,-28.13544 32.26717,-28.13573 32.26707,-28.13602 32.26705,-28.1364 32.26702,-28.13674 32.26702,-28.13727 32.26696,-28.13759 32.26686,-28.13799 32.26681,-28.13826 32.26681,-28.13855 32.26673,-28.13881 32.26664,-28.13907 32.26659,-28.13932 32.26658,-28.13956 32.26656,-28.13984 32.26656,-28.14008 32.26653,-28.14051 32.26647,-28.14077 32.26636,-28.14114 32.26632,-28.14138 32.26629,-28.14162 32.26623,-28.14191 32.26615,-28.14234 32.26609,-28.14259 32.26608,-28.14283 32.26604,-28.14302 32.26599,-28.14332 32.26611,-28.14355 32.26617,-28.14386 32.26627,-28.14421 32.26631,-28.14449 32.26652,-28.14495 32.26654,-28.14498 32.26662,-28.14507 32.2667,-28.14517 32.26695,-28.14541 32.26726,-28.14566 32.26752,-28.1459 32.26777,-28.14604 32.26819,-28.14623 32.26868,-28.14642 32.26911,-28.14662 32.26946,-28.14679 32.26978,-28.14692 32.27011,-28.1471 32.27043,-28.14721 32.27074,-28.14736 32.27109,-28.14748 32.27135,-28.1476 32.27159,-28.14768 32.2719,-28.14772 32.27228,-28.14783 32.27264,-28.14793 32.27295,-28.14803 32.27333,-28.14815 32.2736,-28.14825 32.27376,-28.14829 32.27396,-28.1484 32.27423,-28.1484 32.27452,-28.14843 32.27486,-28.1485 32.27517,-28.14864 32.27545,-28.14871 32.27579,-28.14881 32.27611,-28.1489 32.27633,-28.14893 32.27656,-28.14899 32.27673,-28.14905 32.27693,-28.1491 32.27711,-28.14913 32.27739,-28.14923 32.27765,-28.1494 32.27794,-28.14947 32.27819,-28.14948 32.27849,-28.14952 32.27878,-28.14949 32.27898,-28.14942 32.27934,-28.14923 32.27946,-28.14915 32.27952,-28.14906 32.27971,-28.14896 32.27996,-28.14886 32.28015,-28.14881 32.2804,-28.14877 32.28064,-28.14877 32.2809,-28.14886 32.2812,-28.14891 32.28169,-28.14894 32.28194,-28.14899 32.282,-28.149 32.28223,-28.14909 32.28263,-28.14927 32.28296,-28.14942 32.28339,-28.14963 32.28366,-28.14975 32.28397,-28.1499 32.28424,-28.14996 32.28445,-28.15004 32.28469,-28.15012 32.28498,-28.15022 32.28531,-28.15028 32.28573,-28.15018 32.28596,-28.15016 32.2863,-28.15017 32.28657,-28.15022 32.28683,-28.15036 32.28705,-28.15047 32.28724,-28.15063 32.28752,-28.15088 32.28768,-28.15095 32.28791,-28.15117 32.28819,-28.15142 32.28844,-28.15163 32.28871,-28.15186 32.28897,-28.15198 32.28922,-28.15212 32.28951,-28.15229 32.28987,-28.15243 32.2901,-28.15245 32.29026,-28.15245 32.29051,-28.15255 32.29079,-28.15256 32.29103,-28.15261 32.29118,-28.15261 32.29166,-28.15268 32.29246,-28.15268 32.29277,-28.15272 32.29296,-28.15275 32.29319,-28.15281 32.2934,-28.15294 32.29366,-28.15307 32.29391,-28.15313 32.29405,-28.15316 32.2943,-28.15318 32.29461,-28.15317 32.29496,-28.15314 32.29528,-28.15313 32.29564,-28.15306 32.29584,-28.153 32.29615,-28.15298 32.29643,-28.15295 32.29702,-28.15295 32.29726,-28.15288 32.29763,-28.15292 32.29815,-28.15292 32.29852,-28.15279 32.29876,-28.15266 32.29907,-28.15251 32.29932,-28.15232 32.2996,-28.15216 32.29974,-28.152 32.30007,-28.15179 32.30041,-28.1516 32.30057,-28.1515 32.30082,-28.15134 32.30105,-28.15118 32.30121,-28.15105 32.30142,-28.15091 32.30175,-28.15076 32.30216,-28.15063 32.30239,-28.15057 32.30277,-28.15049 32.30309,-28.15043 32.30334,-28.15043 32.30364,-28.15038 32.30389,-28.15038 32.3041,-28.15037 32.30427,-28.15034 32.30449,-28.15028 32.30466,-28.15022 32.30489,-28.15015 32.30504,-28.15005 32.30521,-28.14996 32.3054,-28.14973 32.3055,-28.14955 32.30564,-28.14934 32.30577,-28.14905 32.30587,-28.14884 32.30594,-28.14847 32.30605,-28.14803 32.30606,-28.14762 32.30608,-28.1473 32.30605,-28.14698 32.30597,-28.14672 32.30593,-28.1462 32.30586,-28.14578 32.30585,-28.14553 32.30574,-28.14515 32.30568,-28.14459 32.30565,-28.14415 32.30563,-28.14366 32.3057,-28.14311 32.30569,-28.14282 32.30574,-28.14241 32.30576,-28.14208 32.30575,-28.14165 32.30578,-28.14122 32.30583,-28.14083 32.30583,-28.14054 32.30573,-28.14 32.30555,-28.13968 32.30545,-28.13933 32.30529,-28.13909 32.30524,-28.13853 32.30519,-28.13806 32.30513,-28.13774 32.30506,-28.13738 32.30496,-28.137 32.30481,-28.13663 32.30476,-28.13629 32.30478,-28.13588 32.30487,-28.13562 32.30487,-28.13513 32.30487,-28.13489 32.30487,-28.13444 32.30479,-28.13406 32.30472,-28.13376 32.30472,-28.13278 32.30473,-28.13234 32.30471,-28.1321 32.30465,-28.13176 32.30465,-28.13122 32.30464,-28.13052 32.30461,-28.13029 32.30451,-28.12988 32.3045,-28.12964 32.30451,-28.12915 32.3046,-28.12862 32.3046,-28.12799 32.30468,-28.12756 32.30477,-28.12726 32.3049,-28.12677 32.30508,-28.12603 32.30526,-28.12547 32.30548,-28.12459 32.30557,-28.12415 32.30569,-28.1237 32.30576,-28.12331 32.30595,-28.1229 32.30622,-28.12244 32.30643,-28.12207 32.30659,-28.12185 32.30681,-28.12163 32.30708,-28.12152 32.30731,-28.12133 32.30754,-28.1211 32.30778,-28.12105 32.30811,-28.12108 32.30841,-28.12132 32.30861,-28.12152 32.30882,-28.12176 32.30891,-28.12202 32.30893,-28.12223 32.3089,-28.12246 32.30885,-28.12264 32.30885,-28.12285 32.30884,-28.123 32.30885,-28.12317 32.30899,-28.12347 32.30922,-28.12377 32.30938,-28.12401 32.3095,-28.12421 32.30956,-28.12441 32.3096,-28.12459 32.30961,-28.12488 32.30945,-28.12534 32.30926,-28.12577 32.30916,-28.12601 32.30906,-28.12638 32.30901,-28.12663 32.30897,-28.12685 32.30889,-28.1271 32.30889,-28.12735 32.30894,-28.1276 32.309,-28.12776 32.30909,-28.12797 32.30934,-28.12833 32.30949,-28.12853 32.30967,-28.12868 32.30976,-28.1288 32.30998,-28.1289 32.31011,-28.12899 32.31029,-28.1291 32.31051,-28.12916 32.31099,-28.12928 32.31126,-28.12929 32.3115,-28.12923 32.31183,-28.12915 32.31207,-28.12909 32.31238,-28.12892 32.31264,-28.12878 32.3128,-28.12859 32.31298,-28.12827 32.31322,-28.12801 32.31337,-28.12786 32.3136,-28.1277 32.31403,-28.12749 32.3143,-28.12739 32.31465,-28.12737 32.31508,-28.12737 32.31541,-28.12743 32.31631,-28.12743 32.31652,-28.12742 32.31687,-28.12729 32.31721,-28.1272 32.31747,-28.1271 32.31774,-28.12693 32.31812,-28.12682 32.31841,-28.12668 32.31872,-28.12659 32.31901,-28.12647 32.31931,-28.12635 32.31952,-28.12621 32.31978,-28.12611 32.31988,-28.12605 32.32006,-28.12597 32.32041,-28.12584 32.32088,-28.12559 32.32135,-28.1253 32.32166,-28.12509 32.32196,-28.12486 32.32224,-28.12464 32.32264,-28.12428 32.32285,-28.12406 32.32314,-28.12385 32.32338,-28.12357 32.32356,-28.12334 32.3237,-28.12314 32.32393,-28.12278 32.32415,-28.12234 32.32427,-28.12178 32.32433,-28.12145 32.32431,-28.12087 32.32429,-28.12034 32.32424,-28.11984 32.32414,-28.11928 32.32405,-28.11874 32.32395,-28.11833 32.32374,-28.11783 32.32346,-28.11727 32.32334,-28.11696 32.32316,-28.11661 32.32316,-28.11661 32.32296,-28.11625 32.32267,-28.11582 32.32234,-28.11539 32.32217,-28.11504 32.32204,-28.11468 32.32204,-28.11447 32.32217,-28.1141 32.32231,-28.1138 32.32255,-28.11349 32.32292,-28.11312 32.32297,-28.11309 32.32321,-28.11294 32.32332,-28.11286 32.32355,-28.11269 32.32394,-28.11238 32.3243,-28.11207 32.32446,-28.11191 32.32475,-28.11168 32.32502,-28.1115 32.32531,-28.11128 32.32568,-28.11104 32.326,-28.11085 32.32638,-28.11062 32.32671,-28.1104 32.32694,-28.11024 32.32732,-28.10993 32.32774,-28.10962 32.32823,-28.10915 32.3286,-28.10866 32.32883,-28.1083 32.32901,-28.10802 32.32913,-28.1077 32.32931,-28.10746 32.32948,-28.10721 32.32973,-28.10701 32.32998,-28.10682 32.3302,-28.10645 32.33039,-28.10602 32.33079,-28.10553 32.33088,-28.10539 32.33111,-28.10507 32.3313,-28.10482 32.3315,-28.10452 32.33166,-28.1042 32.33183,-28.10388 32.33207,-28.10365 32.33218,-28.10346 32.33252,-28.10326 32.33272,-28.10314 32.33298,-28.10302 32.3332,-28.10296 32.33347,-28.10289 32.33366,-28.10289 32.33409,-28.10283 32.33435,-28.10275 32.3346,-28.10265 32.33484,-28.10249 32.33503,-28.10233 32.33522,-28.10224 32.33542,-28.10196 32.33565,-28.10162 32.33582,-28.1014 32.33613,-28.10124 32.33637,-28.10116 32.3367,-28.10111 32.33702,-28.10111 32.33726,-28.10107 32.33756,-28.10105 32.33778,-28.10099 32.33802,-28.10089 32.33825,-28.10084 32.33841,-28.10074 32.33865,-28.10068 32.33891,-28.1004 32.33916,-28.10026 32.33934,-28.09995 32.33939,-28.09958 32.3394,-28.09898 32.33932,-28.09874 32.33925,-28.09848 32.33906,-28.0981 32.33878,-28.09736 32.33847,-28.0966 32.33822,-28.09605 32.33792,-28.09541 32.33775,-28.09497 32.33752,-28.09456 32.33694,-28.09375 32.33669,-28.09341 32.33647,-28.093 32.33643,-28.09272 32.33646,-28.09236 32.33654,-28.09171 32.33654,-28.09148 32.33655,-28.09112 32.3366,-28.09092 32.33668,-28.09073 32.3368,-28.09054 32.33692,-28.0904 32.33698,-28.0902 32.33698,-28.08998 32.33688,-28.08967 32.33665,-28.08943 32.33626,-28.08903 32.33574,-28.0886 32.33541,-28.08836 32.3348,-28.0881 32.33437,-28.08792 32.33365,-28.08774 32.33333,-28.08771 32.3328,-28.08778 32.33261,-28.08789 32.33221,-28.08803 32.33183,-28.08815 32.33164,-28.08817 32.33145,-28.08823 32.33127,-28.08827 32.33079,-28.08826 32.33021,-28.08818 32.3299,-28.08802 32.32956,-28.08783 32.32941,-28.08744 32.32934,-28.08722 32.32936,-28.08701 32.32941,-28.08654 32.32946,-28.08626 32.32954,-28.08606 32.32971,-28.08591 32.32988,-28.08579 32.33009,-28.0857 32.33058,-28.0856 32.33082,-28.08547 32.33119,-28.08537 32.33151,-28.08522 32.33184,-28.08509 32.33229,-28.08491 32.33254,-28.08477 32.33284,-28.08464 32.33306,-28.08451 32.33327,-28.08445 32.33368,-28.08435 32.3342,-28.08425 32.33465,-28.08414 32.33513,-28.08391 32.33562,-28.08363 32.33588,-28.08345 32.33616,-28.08324 32.33643,-28.08294 32.33672,-28.08247 32.33697,-28.08184 32.33725,-28.08127 32.33743,-28.08083 32.33756,-28.08058 32.33773,-28.08027 32.3379,-28.07981 32.33812,-28.07927 32.33828,-28.07877 32.33848,-28.0782 32.33875,-28.07749 32.33888,-28.07688 32.33905,-28.07625 32.33924,-28.07543 32.33946,-28.07461 32.33957,-28.07428 32.33967,-28.07393 32.33976,-28.0734 32.33976,-28.07256 32.33985,-28.07211 32.34001,-28.0716 32.34014,-28.07116 32.34029,-28.07077 32.34046,-28.07039 32.34073,-28.06995 32.34099,-28.06951 32.3412,-28.0691 32.34138,-28.06878 32.34151,-28.06845 32.34166,-28.06804 32.34179,-28.06775 32.34196,-28.06723 32.34199,-28.06681 32.34212,-28.06639 32.34227,-28.06595 32.34239,-28.06558 32.34245,-28.06522 32.34259,-28.06495 32.34284,-28.0645 32.34301,-28.0642 32.34319,-28.06388 32.34339,-28.06359 32.34372,-28.0627 32.34386,-28.06246 32.34399,-28.06205 32.34415,-28.06174 32.34416,-28.0614 32.34415,-28.06106 32.34404,-28.0608 32.34392,-28.06043 32.34381,-28.0601 32.34371,-28.05993 32.34358,-28.05974 32.34324,-28.05962 32.34305,-28.05957 32.3428,-28.05951 32.3424,-28.05952 32.34223,-28.05956 32.34179,-28.05956 32.34146,-28.05943 32.34117,-28.05926 32.34091,-28.05893 32.3408,-28.05863 32.3408,-28.0582 32.34085,-28.05779 32.34105,-28.05729 32.3411,-28.05643 32.34105,-28.05588 32.34096,-28.0555 32.34082,-28.05515 32.34053,-28.05468 32.34022,-28.05419 32.33988,-28.05361 32.33976,-28.05341 32.3397,-28.05314 32.3397,-28.05267 32.33976,-28.05229 32.33981,-28.05205 32.33999,-28.05177 32.34033,-28.05109 32.34076,-28.05043 32.34093,-28.05003 32.34115,-28.04951 32.34129,-28.0492 32.34139,-28.04892 32.34158,-28.04859 32.34187,-28.04825 32.34227,-28.04773 32.34255,-28.04745 32.34275,-28.0472 32.34293,-28.04695 32.34312,-28.04668 32.34328,-28.04638 32.34342,-28.04614 32.34352,-28.04563 32.3436,-28.04499 32.34367,-28.04446 32.34387,-28.04401 32.34419,-28.04363 32.34456,-28.04336 32.34509,-28.04313 32.34555,-28.04292 32.34574,-28.04274 32.34607,-28.04223 32.34622,-28.04183 32.34645,-28.04136 32.34678,-28.04107 32.34709,-28.04082 32.34724,-28.04071 32.34733,-28.04064 32.34744,-28.04054 32.34756,-28.04043 32.34786,-28.04026 32.34819,-28.04012 32.34854,-28.04002 32.34885,-28.03994 32.34952,-28.03991 32.35062,-28.03991 32.35099,-28.03986 32.35103,-28.03986 32.35106,-28.03977 32.35117,-28.03978 32.3514,-28.0398 32.35165,-28.03982 32.35179,-28.03983 32.35187,-28.03983 32.35196,-28.03983 32.35212,-28.03984 32.35242,-28.03984 32.35256,-28.03985 32.35268,-28.03985 32.35291,-28.03985 32.35302,-28.03986 32.35318,-28.03986 32.35337,-28.03986 32.35347,-28.03986 32.35375,-28.03984 32.35408,-28.03984 32.35414,-28.03983 32.35442,-28.03981 32.35448,-28.03981 32.35478,-28.03978 32.35503,-28.03976 32.35538,-28.03971 32.35542,-28.0397 32.35564,-28.03967 32.35587,-28.03964 32.35611,-28.03961 32.35622,-28.03959 32.35648,-28.03957 32.35656,-28.03957 32.3567,-28.03956 32.35693,-28.03954 32.35703,-28.03954 32.35719,-28.03953 32.35732,-28.03953 32.35747,-28.03952 32.35762,-28.03951 32.35773,-28.03951 32.35797,-28.03951 32.35835,-28.03951 32.35863,-28.03951 32.35886,-28.03953 32.35902,-28.03954 32.35911,-28.03954 32.35937,-28.03956 32.35961,-28.03958 32.35984,-28.03963 32.36004,-28.03967 32.36016,-28.0397 32.36039,-28.03978 32.36039,-28.03978 32.3604,-28.03978 32.36064,-28.03985 32.36093,-28.03994 32.36116,-28.04002 32.36117,-28.04002 32.36139,-28.04011 32.36147,-28.04014 32.36162,-28.0402 32.36183,-28.04028 32.36202,-28.04036 32.36213,-28.04041 32.36236,-28.04052 32.36244,-28.04055 32.36269,-28.04065 32.3628,-28.04069 32.36314,-28.04082 32.36328,-28.04087 32.36339,-28.04091 32.36362,-28.041 32.36373,-28.04103 32.36389,-28.04108 32.36417,-28.04116 32.36441,-28.04124 32.36453,-28.04128 32.36475,-28.04137 32.36489,-28.04142 32.36494,-28.04144 32.36523,-28.04154 32.36555,-28.04166 32.36581,-28.04174 32.36603,-28.04183 32.36621,-28.04192 32.3665,-28.04208 32.36668,-28.04216 32.36675,-28.04219 32.36684,-28.04224 32.36691,-28.04227 32.36695,-28.04229 32.36697,-28.04229 32.36705,-28.04233 32.36715,-28.04236 32.3672,-28.04236 32.36726,-28.04238 32.36729,-28.04239 32.36732,-28.0424 32.36739,-28.04241 32.36937,-28.0433 32.36948,-28.04335 32.36953,-28.04337 32.36953,-28.04337 32.36951,-28.04338 32.36946,-28.04344 32.36933,-28.04351 32.36924,-28.04358 32.36922,-28.0436 32.36909,-28.04366 32.36909,-28.04366 32.36906,-28.04367 32.369,-28.04368 32.36898,-28.04368 32.3689,-28.0437 32.36878,-28.04377 32.3687,-28.04379 32.36865,-28.0438 32.36853,-28.04385 32.36842,-28.04392 32.36834,-28.044 32.36834,-28.044 32.36829,-28.04402 32.36821,-28.04404 32.36809,-28.04409 32.36803,-28.04415 32.36794,-28.04422 32.36793,-28.04426 32.36792,-28.04434 32.3679,-28.04444 32.36788,-28.04447 32.36783,-28.04452 32.36783,-28.04452 32.3677,-28.04457 32.36767,-28.04458 32.36759,-28.0446 32.36753,-28.04458 32.36748,-28.04457 32.36736,-28.04453 32.36736,-28.04453 32.36716,-28.04453 32.36703,-28.0445 32.36692,-28.04447 32.36688,-28.04445 32.3668,-28.04441 32.36671,-28.04437 32.36666,-28.04435 32.36654,-28.04426 32.36654,-28.04426 32.36643,-28.04419 32.36642,-28.04413 32.36641,-28.0441 32.36637,-28.044 32.36633,-28.04396 32.36628,-28.04391 32.36627,-28.04387 32.36624,-28.0438 32.36628,-28.0437 32.36628,-28.04369 32.36616,-28.04355 32.36605,-28.04353 32.36597,-28.04351 32.36595,-28.0435 32.36594,-28.0435 32.36581,-28.04343 32.36573,-28.04335 32.36566,-28.04332 32.3656,-28.0433 32.36545,-28.04321 32.36534,-28.04312 32.3653,-28.04307 32.36526,-28.04302 32.36524,-28.04298 32.3652,-28.04289 32.36512,-28.04275 32.36504,-28.04266 32.365,-28.04264 32.36492,-28.04261 32.36486,-28.0426 32.36479,-28.04258 32.36463,-28.04255 32.36462,-28.04255 32.36446,-28.04252 32.36426,-28.04251 32.36424,-28.04251 32.36409,-28.04251 32.36406,-28.04251 32.36395,-28.04249 32.36381,-28.04244 32.36368,-28.0424 32.3635,-28.04239 32.36335,-28.04239 32.36321,-28.0424 32.36312,-28.04241 32.36305,-28.04242 32.36299,-28.04244 32.36294,-28.04246 32.36286,-28.04249 32.36281,-28.04251 32.36268,-28.04256 32.36258,-28.04263 32.36248,-28.04271 32.36238,-28.04278 32.36225,-28.04284 32.36217,-28.04288 32.36211,-28.04291 32.36203,-28.04294 32.36194,-28.04296 32.3618,-28.04301 32.36179,-28.04301 32.36163,-28.04303 32.36152,-28.04307 32.36148,-28.04315 32.36146,-28.04322 32.36145,-28.04324 32.36137,-28.04335 32.36132,-28.04345 32.36124,-28.04355 32.36123,-28.0436 32.36121,-28.04365 32.3612,-28.04368 32.36118,-28.04371 32.3611,-28.04376 32.36101,-28.04384 32.36101,-28.04384 32.36101,-28.04384 32.36093,-28.04393 32.36091,-28.04394 32.36083,-28.04401 32.36076,-28.0441 32.36073,-28.04412 32.36067,-28.04417 32.3606,-28.04427 32.36058,-28.04429 32.36053,-28.04439 32.36048,-28.04451 32.36046,-28.04461 32.36044,-28.04472 32.3604,-28.04483 32.36032,-28.04491 32.36023,-28.045 32.3602,-28.04508 32.36018,-28.04513 32.36016,-28.0452 32.36016,-28.0452 32.36016,-28.0452 32.36016,-28.04532 32.36016,-28.04532 32.3601,-28.04544 32.36001,-28.04553 32.35994,-28.04558 32.35992,-28.0456 32.3599,-28.04562 32.35984,-28.04568 32.35983,-28.04574 32.35983,-28.04576 32.3599,-28.04585 32.3599,-28.04597 32.3599,-28.04604 32.3599,-28.0461 32.35988,-28.04619 32.35987,-28.04622 32.35986,-28.04635 32.35984,-28.04646 32.35979,-28.04657 32.35979,-28.04668 32.35979,-28.0467 32.35977,-28.04673 32.35974,-28.04683 32.35971,-28.04696 32.3597,-28.047 32.35968,-28.04711 32.35964,-28.04726 32.3596,-28.0474 32.35954,-28.04752 32.35954,-28.04752 32.35955,-28.04764 32.35953,-28.04777 32.35951,-28.04788 32.3595,-28.04793 32.3595,-28.04795 32.3595,-28.04797 32.35949,-28.04808 32.35942,-28.04821 32.35939,-28.04826 32.35935,-28.04833 32.35932,-28.04845 32.35922,-28.04853 32.35921,-28.04854 32.3592,-28.04855 32.35909,-28.04862 32.35902,-28.04863 32.35896,-28.04863 32.3589,-28.04866 32.35884,-28.04868 32.35869,-28.04877 32.35858,-28.04888 32.3585,-28.049 32.35847,-28.04909 32.35842,-28.04913 32.35835,-28.04919 32.35828,-28.04927 32.35826,-28.04928 32.35826,-28.04929 32.35821,-28.04937 32.35818,-28.0494 32.35815,-28.04944 32.35811,-28.04952 32.3581,-28.04954 32.35803,-28.04964 32.35798,-28.04974 32.35794,-28.04984 32.35788,-28.04995 32.35781,-28.05004 32.35781,-28.05005 32.35781,-28.05005 32.35775,-28.05013 32.35774,-28.05013 32.35765,-28.05018 32.35758,-28.05017 32.35754,-28.05016 32.35751,-28.05016 32.35747,-28.05015 32.35737,-28.05015 32.35722,-28.05015 32.35709,-28.05014 32.357,-28.05012 32.35696,-28.05011 32.35692,-28.0501 32.35683,-28.05009 32.35677,-28.0501 32.35668,-28.0501 32.35658,-28.05009 32.35654,-28.05009 32.3564,-28.05005 32.35631,-28.05001 32.35622,-28.04997 32.35619,-28.04995 32.35614,-28.04993 32.35607,-28.0499 32.35595,-28.04987 32.35589,-28.04986 32.35583,-28.04985 32.35577,-28.04984 32.35572,-28.04982 32.35558,-28.0498 32.3554,-28.04976 32.35527,-28.04973 32.35518,-28.0497 32.35512,-28.04969 32.35497,-28.04966 32.35496,-28.04965 32.35495,-28.04965 32.35483,-28.04962 32.35468,-28.04959 32.35455,-28.04955 32.35442,-28.04952 32.3543,-28.04948 32.35419,-28.04944 32.35407,-28.04941 32.35392,-28.04938 32.3538,-28.04936 32.35376,-28.04935 32.3537,-28.04933 32.35361,-28.04931 32.35361,-28.04931 32.35357,-28.0493 32.35353,-28.04929 32.35343,-28.04927 32.35331,-28.04925 32.35317,-28.04921 32.35313,-28.04919 32.35305,-28.04917 32.35296,-28.04915 32.35292,-28.04914 32.35281,-28.04912 32.35277,-28.04912 32.35265,-28.04909 32.35252,-28.04908 32.35239,-28.04904 32.35226,-28.04899 32.35216,-28.04897 32.35209,-28.04895 32.35202,-28.04893 32.35199,-28.04893 32.35189,-28.04893 32.35184,-28.04893 32.35176,-28.04892 32.35172,-28.0489 32.35164,-28.04887 32.35161,-28.04885 32.35158,-28.04883 32.35152,-28.0488 32.35149,-28.04875 32.35146,-28.04872 32.35143,-28.04868 32.35141,-28.04865 32.35141,-28.04865 32.35141,-28.04864 32.35136,-28.04857 32.35136,-28.04852 32.35136,-28.0485 32.35132,-28.04842 32.35129,-28.04839 32.35125,-28.04835 32.35117,-28.04832 32.35115,-28.0483 32.35114,-28.0483 32.35107,-28.04824 32.35103,-28.04823 32.351,-28.04822 32.35091,-28.04818 32.3509,-28.04817 32.35089,-28.04817 32.35082,-28.04813 32.35077,-28.0481 32.35041,-28.04795 32.35015,-28.04793 32.35013,-28.04792 32.34993,-28.04787 32.3498,-28.04781 32.3497,-28.04777 32.3495,-28.04768 32.34945,-28.04765 32.34922,-28.04761 32.34895,-28.04767 32.34874,-28.04776 32.34865,-28.0478 32.34853,-28.04784 32.34832,-28.04795 32.34813,-28.04805 32.34809,-28.04807 32.34806,-28.04809 32.34789,-28.04818 32.34771,-28.0483 32.34769,-28.04831 32.34749,-28.04843 32.34728,-28.04854 32.34712,-28.04861 32.34694,-28.0487 32.34676,-28.04885 32.34668,-28.04891 32.34661,-28.04896 32.34658,-28.04899 32.34645,-28.04911 32.3463,-28.04929 32.34627,-28.04932 32.34614,-28.04944 32.34599,-28.04958 32.34593,-28.04964 32.34576,-28.04979 32.34562,-28.04994 32.34561,-28.04996 32.34545,-28.05013 32.3454,-28.05021 32.34531,-28.05032 32.34521,-28.05048 32.34514,-28.05062 32.34517,-28.05067 32.34526,-28.05063 32.34528,-28.05062 32.34536,-28.05057 32.34541,-28.05054 32.34547,-28.0505 32.34553,-28.05052 32.34559,-28.05053 32.34568,-28.05058 32.3457,-28.05058 32.34579,-28.05059 32.34584,-28.05061 32.34587,-28.05061 32.34587,-28.05062 32.34587,-28.05065 32.34588,-28.05073 32.34587,-28.05087 32.34587,-28.05089 32.34588,-28.05104 32.34591,-28.05119 32.3459,-28.05125 32.3459,-28.05135 32.34589,-28.05143 32.34589,-28.05152 32.34589,-28.05164 32.34589,-28.05164 32.34595,-28.05165 32.34595,-28.05165 32.34606,-28.05156 32.34617,-28.05153 32.34617,-28.05153 32.34623,-28.05156 32.34627,-28.05159 32.34639,-28.0517 32.34644,-28.05178 32.34647,-28.05183 32.34647,-28.05183 32.3465,-28.05199 32.3465,-28.0521 32.34649,-28.05217 32.34648,-28.05224 32.34647,-28.05232 32.34646,-28.05238 32.34644,-28.05249 32.34641,-28.05267 32.34641,-28.05267 32.3464,-28.05267 32.34636,-28.05283 32.34628,-28.05299 32.34624,-28.05315 32.34624,-28.05319 32.34621,-28.05332 32.34621,-28.05337 32.34619,-28.05347 32.34618,-28.05367 32.3462,-28.05379 32.3462,-28.05382 32.3462,-28.05383 32.34621,-28.05386 32.34627,-28.05397 32.34635,-28.0541 32.34642,-28.05426 32.34645,-28.05438 32.34645,-28.05438 32.3465,-28.05438 32.34655,-28.05438 32.34665,-28.0544 32.34669,-28.05435 32.3467,-28.0542 32.3467,-28.05416 32.34671,-28.05406 32.3467,-28.05397 32.3467,-28.05389 32.34668,-28.05365 32.34667,-28.05349 32.34666,-28.05334 32.34667,-28.05316 32.34667,-28.05301 32.34668,-28.05297 32.34668,-28.05295 32.34673,-28.0528 32.34681,-28.05262 32.34687,-28.05244 32.34693,-28.0523 32.34699,-28.05217 32.34701,-28.05214 32.34702,-28.05213 32.34711,-28.05196 32.34721,-28.05183 32.34723,-28.0518 32.34725,-28.05177 32.34733,-28.05166 32.34744,-28.05152 32.34746,-28.05149 32.34758,-28.05133 32.3476,-28.0513 32.34771,-28.05118 32.34786,-28.05107 32.34795,-28.05102 32.34802,-28.05098 32.34819,-28.05089 32.3482,-28.05089 32.34821,-28.05088 32.34837,-28.05082 32.34859,-28.05077 32.34876,-28.05075 32.34883,-28.05073 32.34897,-28.0507 32.34906,-28.05069 32.34912,-28.05069 32.34919,-28.05068 32.34933,-28.05068 32.34951,-28.05066 32.34969,-28.05064 32.34976,-28.05064 32.34988,-28.05065 32.35005,-28.0507 32.35021,-28.05082 32.35034,-28.05097 32.35037,-28.05102 32.35044,-28.05111 32.35044,-28.05111 32.35051,-28.05126 32.35062,-28.05139 32.35072,-28.05152 32.35077,-28.05161 32.3508,-28.05168 32.35082,-28.05179 32.35076,-28.05182 32.35068,-28.05185 32.35056,-28.05186 32.35048,-28.05186 32.35027,-28.05183 32.35007,-28.05178 32.3499,-28.05178 32.34978,-28.05178 32.34974,-28.05177 32.34972,-28.05179 32.34967,-28.05184 32.34968,-28.0519 32.34969,-28.05199 32.34976,-28.05213 32.34979,-28.05219 32.34984,-28.05227 32.34991,-28.05237 32.34993,-28.0524 32.34995,-28.05243 32.35002,-28.05253 32.35012,-28.05267 32.35022,-28.05281 32.35033,-28.05295 32.35038,-28.05302 32.35044,-28.05309 32.35049,-28.05315 32.35057,-28.05326 32.35068,-28.05337 32.3508,-28.05349 32.35088,-28.05358 32.35092,-28.05363 32.35104,-28.05375 32.35104,-28.05376 32.35118,-28.0539 32.3513,-28.05403 32.35136,-28.05411 32.35143,-28.05421 32.35154,-28.05435 32.35155,-28.05436 32.35157,-28.05439 32.35166,-28.05451 32.3518,-28.05469 32.35193,-28.05483 32.35201,-28.05492 32.35205,-28.05497 32.3522,-28.0551 32.35225,-28.05514 32.35233,-28.0552 32.35241,-28.05525 32.35249,-28.05529 32.35263,-28.05536 32.35278,-28.05544 32.35278,-28.05544 32.35293,-28.05554 32.35293,-28.05554 32.35308,-28.05564 32.35315,-28.05568 32.35324,-28.05572 32.35342,-28.05584 32.35354,-28.05596 32.35361,-28.05605 32.35364,-28.05609 32.35371,-28.05613 32.35379,-28.05618 32.3539,-28.05623 32.354,-28.0563 32.35415,-28.05644 32.35427,-28.05653 32.35437,-28.05659 32.35438,-28.0566 32.35446,-28.05666 32.35459,-28.05674 32.35465,-28.05678 32.35472,-28.05683 32.35477,-28.05687 32.35484,-28.05695 32.35488,-28.057 32.35494,-28.05705 32.35507,-28.05715 32.35517,-28.05724 32.35525,-28.05728 32.35537,-28.05731 32.35545,-28.05736 32.35549,-28.05738 32.35557,-28.05738 32.35567,-28.05741 32.35574,-28.0574 32.35581,-28.05739 32.35594,-28.05735 32.35607,-28.05732 32.35611,-28.05731 32.35622,-28.05731 32.35625,-28.05731 32.35633,-28.05737 32.35641,-28.05749 32.35644,-28.05759 32.35645,-28.0576 32.35646,-28.05772 32.35658,-28.05785 32.35663,-28.05789 32.3567,-28.05795 32.35675,-28.05799 32.35678,-28.05802 32.3568,-28.05804 32.35687,-28.05815 32.35688,-28.05823 32.3569,-28.05832 32.35689,-28.05836 32.35686,-28.05845 32.35679,-28.05857 32.35677,-28.05865 32.35677,-28.05865 32.35678,-28.05866 32.35686,-28.0587 32.35694,-28.05871 32.35698,-28.05871 32.35707,-28.05875 32.35719,-28.05879 32.35725,-28.05879 32.35728,-28.0588 32.35743,-28.0588 32.35749,-28.05881 32.35755,-28.05883 32.35761,-28.05887 32.35762,-28.05887 32.35766,-28.05894 32.35774,-28.05899 32.35783,-28.05904 32.35788,-28.05906 32.35806,-28.05906 32.35811,-28.05906 32.35824,-28.05905 32.35833,-28.05904 32.3584,-28.05904 32.3585,-28.05904 32.35857,-28.05905 32.35866,-28.05908 32.35873,-28.05912 32.35873,-28.05912 32.35876,-28.05914 32.35884,-28.05922 32.35893,-28.05933 32.35899,-28.05946 32.35902,-28.05959 32.35907,-28.05966 32.35908,-28.05967 32.35912,-28.05971 32.35918,-28.05977 32.35921,-28.0598 32.35927,-28.05985 32.35937,-28.05993 32.3595,-28.06004 32.35955,-28.06007 32.35962,-28.06011 32.35973,-28.06023 32.35976,-28.06028 32.3598,-28.06037 32.3599,-28.06048 32.35993,-28.06059 32.35995,-28.06062 32.35998,-28.06066 32.36005,-28.06074 32.36009,-28.06079 32.36012,-28.06097 32.36012,-28.06097 32.36012,-28.0611 32.36018,-28.06124 32.36022,-28.06127 32.3603,-28.06136 32.36048,-28.06148 32.36064,-28.06159 32.36064,-28.06159 32.36083,-28.06169 32.36089,-28.06173 32.36099,-28.06179 32.36099,-28.06179 32.36108,-28.06194 32.36116,-28.06204 32.36116,-28.06204 32.36117,-28.06205 32.36121,-28.06216 32.36124,-28.06221 32.36128,-28.06228 32.36138,-28.06241 32.36141,-28.06255 32.36144,-28.06261 32.36147,-28.06269 32.36156,-28.06283 32.36156,-28.06283 32.36156,-28.06283 32.36164,-28.06296 32.36167,-28.06301 32.36171,-28.06309 32.36178,-28.06314 32.36182,-28.06316 32.36192,-28.06317 32.36195,-28.06318 32.36206,-28.06323 32.36219,-28.0633 32.36221,-28.06335 32.36222,-28.06341 32.36228,-28.0635 32.36233,-28.06352 32.36241,-28.06354 32.36253,-28.06355 32.36261,-28.06366 32.36265,-28.06378 32.36267,-28.06382 32.36271,-28.06389 32.36283,-28.06397 32.36292,-28.06402 32.363,-28.06406 32.36316,-28.06413 32.3632,-28.06412 32.36332,-28.0641 32.36349,-28.06404 32.36365,-28.06397 32.36376,-28.06395 32.3638,-28.06395 32.36393,-28.06392 32.36407,-28.06392 32.36416,-28.06397 32.3642,-28.06397 32.36425,-28.06397 32.36438,-28.06398 32.36438,-28.06398 32.36448,-28.06408 32.36449,-28.0641 32.36455,-28.0642 32.36462,-28.06422 32.36469,-28.06424 32.36479,-28.06428 32.36483,-28.06431 32.36493,-28.06434 32.36495,-28.06435 32.36498,-28.06437 32.36507,-28.06443 32.36518,-28.06447 32.36523,-28.06452 32.36527,-28.06457 32.36527,-28.06457 32.36527,-28.06461 32.36528,-28.06467 32.36528,-28.06482 32.36532,-28.0649 32.36535,-28.06496 32.36541,-28.0651 32.36541,-28.0651 32.36541,-28.06513 32.36542,-28.06522 32.36552,-28.06531 32.36562,-28.06539 32.36571,-28.06548 32.36575,-28.06557 32.36573,-28.06562 32.3657,-28.06567 32.36576,-28.06571 32.36584,-28.06576 32.36584,-28.06576 32.36585,-28.06576 32.36597,-28.06578 32.36609,-28.06589 32.36612,-28.06593 32.36618,-28.066 32.36627,-28.06615 32.36635,-28.06628 32.36641,-28.06637 32.36644,-28.06641 32.3665,-28.06657 32.3665,-28.06657 32.3665,-28.06658 32.36653,-28.06673 32.36656,-28.0668 32.36658,-28.06689 32.36662,-28.06699 32.36664,-28.06706 32.36667,-28.0672 32.36672,-28.06736 32.36676,-28.06743 32.36679,-28.06748 32.3669,-28.06758 32.36697,-28.06763 32.36705,-28.06767 32.36711,-28.06772 32.36717,-28.06777 32.3673,-28.06789 32.36746,-28.068 32.3676,-28.06809 32.36774,-28.06818 32.36788,-28.06826 32.36806,-28.06834 32.36821,-28.06842 32.36837,-28.0685 32.36843,-28.06853 32.36849,-28.06856 32.36854,-28.0686 32.36858,-28.06863 32.36866,-28.0687 32.36872,-28.06876 32.36873,-28.06876 32.36881,-28.06881 32.36888,-28.06882 32.36892,-28.06884 32.36899,-28.06887 32.36904,-28.06889 32.36907,-28.0689 32.36914,-28.06894 32.36932,-28.069 32.36943,-28.06906 32.36951,-28.06907 32.36954,-28.06907 32.36964,-28.06909 32.36967,-28.0691 32.36974,-28.0691 32.36981,-28.06909 32.36992,-28.06912 32.37005,-28.06919 32.37018,-28.06925 32.37018,-28.06925 32.37028,-28.06932 32.37035,-28.06939 32.37036,-28.0694 32.37036,-28.0694 32.37039,-28.06942 32.37044,-28.06945 32.37056,-28.06944 32.37072,-28.06947 32.37089,-28.06951 32.37102,-28.06954 32.37105,-28.06954 32.37108,-28.06954 32.37119,-28.06955 32.37133,-28.0696 32.37147,-28.06964 32.37163,-28.06968 32.37171,-28.0697 32.37181,-28.06971 32.37202,-28.06977 32.37219,-28.06982 32.37236,-28.06986 32.37248,-28.0699 32.37262,-28.06995 32.37277,-28.07004 32.37289,-28.07005 32.37292,-28.07005 32.3731,-28.07009 32.37314,-28.0701 32.37327,-28.07013 32.37349,-28.07018 32.37353,-28.07019 32.37366,-28.07023 32.37375,-28.07025 32.37387,-28.07027 32.37402,-28.07032 32.37402,-28.07032 32.37424,-28.07033 32.37446,-28.07036 32.37446,-28.07036 32.37446,-28.07036 32.37469,-28.0704 32.37475,-28.07041 32.37493,-28.07044 32.37506,-28.07047 32.37512,-28.07048 32.37531,-28.07054 32.37566,-28.07058 32.3759,-28.07056 32.37607,-28.07051 32.37629,-28.07042 32.37646,-28.07038 32.37654,-28.07037 32.37666,-28.07034 32.3767,-28.07034 32.37686,-28.07031 32.37707,-28.07028 32.37708,-28.07028 32.37733,-28.07027 32.3775,-28.07029 32.37754,-28.0703 32.37759,-28.07032 32.3777,-28.07037 32.37773,-28.07046 32.37781,-28.07047 32.37787,-28.07047 32.3779,-28.0705 32.37801,-28.07059 32.37814,-28.07073 32.37821,-28.07083 32.37825,-28.07089 32.37841,-28.07094 32.37859,-28.07095 32.37866,-28.07092 32.37873,-28.0709 32.3789,-28.07081 32.37898,-28.07071 32.379,-28.07069 32.37908,-28.07054 32.37912,-28.07047 32.37916,-28.0704 32.37923,-28.07026 32.3793,-28.07013 32.37941,-28.07003 32.37952,-28.07001 32.37961,-28.07001 32.37969,-28.07002 32.37974,-28.07003 32.37984,-28.07005 32.38002,-28.07009 32.38017,-28.07016 32.38027,-28.07025 32.38027,-28.07025 32.38026,-28.07037 32.38023,-28.07048 32.38025,-28.07061 32.38024,-28.07068 32.38023,-28.07072 32.38017,-28.07077 32.38012,-28.07081 32.38003,-28.07091 32.38,-28.07093 32.37993,-28.07097 32.37985,-28.07107 32.37983,-28.07109 32.37979,-28.07127 32.37979,-28.07142 32.3798,-28.07151 32.37981,-28.07158 32.37983,-28.07173 32.37982,-28.0719 32.37981,-28.07195 32.37979,-28.07204 32.3797,-28.07219 32.37958,-28.0723 32.37953,-28.07242 32.37951,-28.07245 32.37947,-28.0725 32.3794,-28.07258 32.37932,-28.07267 32.37928,-28.07272 32.37917,-28.07278 32.37913,-28.07279 32.37909,-28.07281 32.37891,-28.07286 32.37871,-28.0729 32.37862,-28.07292 32.37851,-28.07293 32.37842,-28.07296 32.37833,-28.07298 32.37825,-28.07302 32.37817,-28.07307 32.37801,-28.07321 32.37795,-28.07335 32.37794,-28.07337 32.37794,-28.07338 32.37794,-28.07354 32.37789,-28.07371 32.37784,-28.07385 32.37783,-28.07388 32.3778,-28.07399 32.37778,-28.07407 32.37778,-28.07424 32.37778,-28.07426 32.37776,-28.07443 32.37765,-28.07455 32.37764,-28.07456 32.37761,-28.07458 32.37747,-28.07467 32.37744,-28.07472 32.37739,-28.0748 32.37736,-28.07486 32.37731,-28.07495 32.37727,-28.07513 32.3772,-28.07521 32.37716,-28.07526 32.37714,-28.0753 32.37709,-28.07538 32.37705,-28.07557 32.37696,-28.07576 32.37694,-28.07592 32.37693,-28.07613 32.37686,-28.07623 32.37685,-28.07626 32.37672,-28.07641 32.3767,-28.07647 32.37664,-28.07659 32.3766,-28.07672 32.37658,-28.0768 32.37653,-28.07702 32.37649,-28.0772 32.37648,-28.07722 32.37646,-28.0773 32.37642,-28.07744 32.37636,-28.07765 32.37634,-28.07771 32.3763,-28.07786 32.37624,-28.07807 32.37612,-28.07825 32.376,-28.07841 32.37596,-28.07846 32.37592,-28.07853 32.37583,-28.07868 32.37572,-28.07883 32.3757,-28.07887 32.37566,-28.0789 32.37558,-28.07897 32.3754,-28.07908 32.3754,-28.07908 32.37528,-28.07915 32.37516,-28.07931 32.37509,-28.07943 32.37507,-28.07946 32.37498,-28.07961 32.37497,-28.07962 32.37485,-28.07975 32.37476,-28.07981 32.37471,-28.07984 32.37456,-28.07995 32.37451,-28.08008 32.37447,-28.08028 32.37445,-28.08033 32.37442,-28.08043 32.37431,-28.08058 32.37426,-28.08065 32.37422,-28.08071 32.37414,-28.08089 32.37413,-28.08093 32.37409,-28.08108 32.37407,-28.08119 32.37405,-28.08133 32.37402,-28.08156 32.37399,-28.08167 32.37397,-28.0818 32.37388,-28.08202 32.37378,-28.08216 32.37376,-28.08219 32.37366,-28.08237 32.37364,-28.0824 32.37357,-28.08254 32.37351,-28.08264 32.37347,-28.08273 32.37339,-28.08292 32.37331,-28.08307 32.37331,-28.08307 32.37329,-28.08308 32.37319,-28.08315 32.37314,-28.08324 32.37312,-28.08328 32.37309,-28.08344 32.37309,-28.08354 32.37308,-28.08364 32.37307,-28.08382 32.37309,-28.08397 32.37309,-28.084 32.37309,-28.08406 32.37308,-28.08418 32.37306,-28.08425 32.37303,-28.08437 32.37294,-28.08455 32.37294,-28.08455 32.37284,-28.08473 32.37278,-28.08482 32.37273,-28.0849 32.37261,-28.08507 32.37249,-28.08524 32.37237,-28.08542 32.37229,-28.08557 32.37228,-28.08557 32.37222,-28.08575 32.37223,-28.08591 32.37227,-28.08601 32.3723,-28.08608 32.3723,-28.08608 32.37238,-28.08623 32.37243,-28.08636 32.37245,-28.0864 32.37245,-28.0864 32.37247,-28.08658 32.37247,-28.08662 32.37245,-28.08675 32.37241,-28.08694 32.37241,-28.08694 32.37233,-28.08709 32.37225,-28.08726 32.37219,-28.08736 32.37214,-28.08744 32.37205,-28.08763 32.37201,-28.08774 32.37198,-28.08782 32.37197,-28.08786 32.37192,-28.08798 32.37184,-28.08814 32.37182,-28.08819 32.37174,-28.08833 32.37172,-28.08836 32.37164,-28.08851 32.37157,-28.08868 32.37157,-28.08868 32.37157,-28.08868 32.37151,-28.08882 32.37143,-28.08898 32.37141,-28.08914 32.37136,-28.08926 32.37136,-28.08926 32.37125,-28.0894 32.37122,-28.08956 32.37122,-28.08962 32.37122,-28.08974 32.37125,-28.08995 32.37129,-28.09011 32.37132,-28.0902 32.37136,-28.09031 32.37138,-28.09048 32.37139,-28.09057 32.37139,-28.09067 32.37137,-28.09086 32.37139,-28.09095 32.37141,-28.09102 32.37149,-28.09121 32.37156,-28.0914 32.37157,-28.09142 32.37162,-28.09157 32.37164,-28.09176 32.37164,-28.0919 32.37162,-28.09206 32.3716,-28.0922 32.37161,-28.09223 32.37162,-28.09235 32.37164,-28.09242 32.37167,-28.09249 32.37175,-28.09263 32.37179,-28.09268 32.37184,-28.09275 32.37193,-28.09287 32.37201,-28.09299 32.37207,-28.09306 32.37209,-28.09308 32.37209,-28.09308 32.37215,-28.09316 32.37222,-28.09323 32.37224,-28.09325 32.37236,-28.09331 32.37244,-28.09332 32.37249,-28.09332 32.37256,-28.09331 32.37262,-28.09329 32.37266,-28.09328 32.37276,-28.09324 32.37291,-28.09322 32.37293,-28.09322 32.37305,-28.09321 32.37311,-28.09321 32.37318,-28.0932 32.37326,-28.09321 32.37332,-28.09321 32.37344,-28.09325 32.37354,-28.09334 32.37354,-28.09334 32.37359,-28.09343 32.37366,-28.09348 32.37366,-28.09348 32.37374,-28.09343 32.37384,-28.09341 32.37396,-28.09346 32.37402,-28.09352 32.37405,-28.09355 32.37409,-28.09361 32.37411,-28.09366 32.37413,-28.09369 32.37417,-28.09375 32.37419,-28.09384 32.3742,-28.09385 32.37424,-28.09393 32.37431,-28.09397 32.37434,-28.09398 32.37437,-28.09398 32.3744,-28.09399 32.37447,-28.09401 32.37456,-28.094 32.37464,-28.09393 32.37472,-28.09383 32.37474,-28.09381 32.37482,-28.09372 32.37492,-28.09366 32.37507,-28.09365 32.37509,-28.09365 32.3751,-28.09365 32.37527,-28.09367 32.37542,-28.09371 32.37551,-28.09375 32.37556,-28.09377 32.37568,-28.09383 32.37572,-28.09385 32.37582,-28.09388 32.37587,-28.09391 32.37594,-28.09395 32.37605,-28.09403 32.37637,-28.09402 32.37655,-28.09393 32.37655,-28.09393 32.37658,-28.09391 32.37676,-28.09375 32.3772,-28.09345 32.37756,-28.09329 32.37772,-28.09322 32.37831,-28.09296 32.37862,-28.09291 32.37868,-28.09289 32.37881,-28.09286 32.37926,-28.09265 32.37947,-28.09254 32.37966,-28.09244 32.38009,-28.09194 32.38011,-28.09192 32.38021,-28.0918 32.38026,-28.09175 32.38027,-28.09174 32.38044,-28.09163 32.38047,-28.09161 32.3807,-28.09135 32.38082,-28.09119 32.38139,-28.09047 32.38139,-28.09047 32.38148,-28.09057 32.38191,-28.09109 32.3819,-28.0914 32.3819,-28.09142 32.3819,-28.09144 32.38189,-28.09163 32.38188,-28.09178 32.38185,-28.09185 32.38179,-28.09201 32.38176,-28.09208 32.38173,-28.09216 32.38159,-28.0925 32.38156,-28.09257 32.3815,-28.0927 32.38143,-28.09281 32.38138,-28.09291 32.38133,-28.09299 32.38124,-28.09315 32.38112,-28.09333 32.381,-28.09351 32.38092,-28.09367 32.38079,-28.0939 32.38075,-28.09408 32.38069,-28.09432 32.38067,-28.09483 32.38075,-28.09539 32.38082,-28.09569 32.38092,-28.09599 32.38102,-28.09628 32.38103,-28.0963 32.38106,-28.09638 32.38117,-28.09669 32.38125,-28.09694 32.3813,-28.09712 32.38136,-28.09752 32.38136,-28.09752 32.38137,-28.09791 32.38135,-28.09803 32.38134,-28.09811 32.38127,-28.09841 32.38125,-28.09846 32.38122,-28.09855 32.3812,-28.09863 32.3812,-28.09863 32.3812,-28.09863 32.38118,-28.09868 32.38114,-28.09872 32.38098,-28.09887 32.38097,-28.09888 32.3809,-28.09914 32.38091,-28.0992 32.38093,-28.09933 32.38118,-28.0993 32.39102,-28.09165 32.39277,-28.091 32.41441,-28.08444 32.44348,-28.10958 32.44741,-28.10564 32.45943,-28.09581 32.47321,-28.09777 32.47911,-28.11133 32.48982,-28.1157 32.50053,-28.11876 32.51452,-28.11526 32.52283,-28.11941 32.55977,-28.12488 32.61483,-28.13315 32.61549,-28.13553 32.61541,-28.13833 32.61465,-28.14169 32.61261,-28.14722 32.61134,-28.15099 32.61028,-28.15451 32.60895,-28.15913 32.6078,-28.16267 32.60649,-28.16637 32.60445,-28.17166 32.60303,-28.17529 32.60177,-28.17853 32.60028,-28.18232 32.5987,-28.18602 32.5967,-28.19056 32.59341,-28.1978 32.59118,-28.20249 32.58923,-28.20641 32.58699,-28.21054 32.58506,-28.21415 32.58298,-28.21808 32.58013,-28.22349 32.57797,-28.22754 32.57589,-28.23144 32.57329,-28.23627 32.57119,-28.24013 32.56904,-28.24411 32.56622,-28.24935 32.56403,-28.25315 32.56187,-28.25664 32.5592,-28.26053 32.55717,-28.26383 32.55523,-28.2673 32.55294,-28.27186 32.55106,-28.27533 32.54918,-28.27863 32.54679,-28.28258 32.5447,-28.28619 32.54244,-28.29021 32.53929,-28.2959 32.53688,-28.30019 32.53452,-28.30438 32.53156,-28.30964 32.52927,-28.31349 32.52709,-28.31697 32.52454,-28.32071 32.5223,-28.32417 32.51992,-28.32792 32.51684,-28.33289 32.5143,-28.337 32.51167,-28.34131 32.50824,-28.34705 32.50576,-28.35093 32.50354,-28.35415 32.50124,-28.35703 32.49924,-28.35979 32.49719,-28.36274 32.49475,-28.36636 32.49271,-28.36971 32.49052,-28.37356 32.48755,-28.3792 32.48574,-28.38273 32.4843,-28.38558 32.483,-28.38829 32.48214,-28.39053 32.48134,-28.39296 32.48044,-28.39634 32.48002,-28.39898 32.47975,-28.40181 32.47961,-28.40611 32.47992,-28.40946 32.4807,-28.41318 32.48259,-28.41904 32.48329,-28.42277 32.48346,-28.42608 32.48304,-28.43026 32.48242,-28.43347 32.48148,-28.4369 32.47955,-28.44193 32.47836,-28.44562 32.47731,-28.44933 32.47599,-28.45456 32.47517,-28.45842 32.47446,-28.46244 32.47367,-28.46837 32.47304,-28.4724 32.47226,-28.47682 32.47092,-28.48375 32.47061,-28.48534 32.41477,-28.47639 32.41374,-28.47622 32.39324,-28.47272 32.39301,-28.47299 32.39283,-28.47316 32.39266,-28.47331 32.39253,-28.47345 32.39238,-28.4736 32.3923,-28.47376 32.39221,-28.47392 32.39208,-28.47405 32.39198,-28.47422 32.39188,-28.4744 32.39175,-28.47457 32.39163,-28.47476 32.39152,-28.47494 32.39139,-28.47512 32.39125,-28.47528 32.39101,-28.47557 32.3909,-28.47572 32.39078,-28.4759 32.39065,-28.47608 32.39054,-28.47625 32.39043,-28.47643 32.39035,-28.47662 32.39027,-28.47682 32.39021,-28.47701 32.39016,-28.47719 32.39012,-28.47738 32.39009,-28.47759 32.39003,-28.47779 32.38997,-28.47799 32.3899,-28.47815 32.38974,-28.47848 32.38965,-28.47876 32.38953,-28.47905 32.3893,-28.47934 32.38908,-28.47959 32.38894,-28.47975 32.38881,-28.4799 32.38868,-28.48005 32.38842,-28.48032 32.38815,-28.48053 32.3879,-28.48074 32.38774,-28.48084 32.38759,-28.48095 32.38739,-28.48108 32.38721,-28.48119 32.38704,-28.48133 32.3869,-28.48145 32.38679,-28.48162 32.38666,-28.48176 32.3865,-28.48186 32.38629,-28.48195 32.38609,-28.48203 32.38585,-28.4821 32.38562,-28.48216 32.38538,-28.48223 32.38514,-28.4823 32.38492,-28.48237 32.3847,-28.48244 32.38451,-28.4825 32.38432,-28.48259 32.38412,-28.48269 32.38398,-28.48283 32.38382,-28.48294 32.38357,-28.48313 32.38324,-28.48318 32.38303,-28.48322 32.38267,-28.48331 32.38246,-28.48335 32.38227,-28.48342 32.38191,-28.48353 32.3816,-28.48363 32.38138,-28.4838 32.38122,-28.4839 32.38111,-28.48404 32.38099,-28.4842 32.38076,-28.48448 32.38049,-28.48468 32.38021,-28.48482 32.37987,-28.48484 32.37952,-28.48495 32.37934,-28.48502 32.379,-28.48516 32.37868,-28.48532 32.37851,-28.4854 32.37832,-28.48545 32.37794,-28.48552 32.37762,-28.4856 32.37738,-28.4857 32.37712,-28.48582 32.37686,-28.48584 32.37651,-28.48583 32.37616,-28.48574 32.37597,-28.48571 32.37561,-28.48565 32.37524,-28.48569 32.37493,-28.48578 32.37461,-28.48587 32.37426,-28.48588 32.37389,-28.48581 32.37352,-28.48575 32.37318,-28.48573 32.37292,-28.48568 32.37261,-28.4857 32.37241,-28.48567 32.3722,-28.48565 32.37197,-28.48561 32.37174,-28.48557 32.37152,-28.48552 32.37131,-28.48547 32.37113,-28.48542 32.37083,-28.48532 32.37049,-28.48528 32.37023,-28.48523 32.37,-28.4852 32.36979,-28.48517 32.36956,-28.48514 32.36935,-28.48512 32.36905,-28.48514 32.36884,-28.48503 32.36674,-28.48511 32.36562,-28.48522 32.36476,-28.48549 32.36345,-28.48574 32.36295,-28.48587 32.3615,-28.48643 32.35978,-28.48723 32.35774,-28.48788 32.35627,-28.4882 32.35355,-28.48901 32.35064,-28.48991 32.34871,-28.49059 32.34458,-28.49178 32.34326,-28.49217 32.34204,-28.49233 32.34119,-28.49253 32.33975,-28.49302 32.33768,-28.49368 32.33718,-28.49386 32.33709,-28.49395 32.33699,-28.49417 32.33671,-28.49456 32.33617,-28.49518 32.33502,-28.49657 32.33402,-28.49748 32.33315,-28.49827 32.3325,-28.49885 32.33158,-28.49997 32.33141,-28.50024 32.33135,-28.50079 32.33124,-28.50109 32.32967,-28.50271 32.3272,-28.50503 32.32624,-28.50603 32.3256,-28.50705 32.32513,-28.50826 32.3247,-28.50911 32.32451,-28.50934 32.32405,-28.5097 32.32292,-28.5104 32.32118,-28.51124 32.3188,-28.51218 32.31786,-28.5123 32.3171,-28.51225 32.31671,-28.51233 32.31642,-28.5126 32.31624,-28.51303 32.31615,-28.51365 32.31617,-28.5146 32.3161,-28.51588 32.31592,-28.51652 32.31548,-28.5181 32.31526,-28.51844 32.31496,-28.51885 32.31428,-28.51925 32.31349,-28.51962 32.31275,-28.51993 32.31264,-28.51997 32.3122,-28.52011 32.31158,-28.52023 32.31154,-28.52023 32.31068,-28.52005 32.31006,-28.51982 32.30959,-28.51967 32.30934,-28.51958 32.30907,-28.51941 32.30876,-28.51918 32.30847,-28.51893 32.30823,-28.51875 32.30784,-28.51856 32.30758,-28.5185 32.30731,-28.51845 32.30667,-28.51844 32.306,-28.51849 32.30555,-28.51851 32.3052,-28.51851 32.30475,-28.51833 32.30431,-28.51814 32.30385,-28.51785 32.30328,-28.5175 32.30275,-28.51719 32.30234,-28.51695 32.30206,-28.51674 32.30164,-28.51641 32.30123,-28.51597 32.3009,-28.51563 32.30057,-28.51526 32.30024,-28.5149 32.29999,-28.51465 32.29949,-28.51433 32.29919,-28.51419 32.29894,-28.51398 32.29864,-28.5137 32.29842,-28.51346 32.29822,-28.51324 32.29799,-28.51299 32.29784,-28.5128 32.29769,-28.51259 32.29754,-28.5124 32.29735,-28.51217 32.29662,-28.51165 32.29617,-28.5113 32.29565,-28.51098 32.29521,-28.51066 32.29474,-28.51045 32.29429,-28.51029 32.29358,-28.51019 32.29287,-28.51011 32.292,-28.51003 32.28989,-28.51011 32.28864,-28.51008 32.28803,-28.50993 32.28753,-28.50973 32.287,-28.50949 32.28614,-28.50897 32.28512,-28.50845 32.28479,-28.5083 32.28464,-28.50818 32.28448,-28.50792 32.28433,-28.50768 32.2841,-28.50736 32.28372,-28.50705 32.28304,-28.50663 32.28168,-28.50603 32.28093,-28.50569 32.2805,-28.50545 32.28023,-28.5052 32.27976,-28.50468 32.2793,-28.50438 32.27889,-28.50423 32.27834,-28.50412 32.27785,-28.50406 32.27743,-28.504 32.2771,-28.50389 32.27696,-28.50384 32.27678,-28.50377 32.27642,-28.50361 32.27587,-28.50333 32.27546,-28.50309 32.27482,-28.50268 32.27437,-28.5024 32.27375,-28.50199 32.2732,-28.5016 32.27304,-28.50145 32.27279,-28.50127 32.27254,-28.50113 32.27225,-28.50092 32.27134,-28.50031 32.27088,-28.50007 32.27055,-28.4999 32.27022,-28.49971 32.27004,-28.49961 32.26971,-28.49936 32.26945,-28.4992 32.26918,-28.49895 32.2689,-28.49868 32.26805,-28.49799 32.26775,-28.49774 32.26748,-28.49751 32.26722,-28.49728 32.26703,-28.4971 32.26649,-28.49659 32.26625,-28.49639 32.26606,-28.49622 32.26595,-28.49608 32.26579,-28.49595 32.2654,-28.49562 32.26511,-28.49535 32.26491,-28.49518 32.26473,-28.49503 32.26443,-28.49481 32.26417,-28.4946 32.26397,-28.49443 32.26383,-28.49429 32.26372,-28.4942 32.26364,-28.49411 32.26357,-28.49401 32.26349,-28.4939 32.26325,-28.49342 32.26316,-28.49325 32.26313,-28.49317 32.26308,-28.49305 32.263,-28.49292 32.26293,-28.49284 32.26291,-28.4928 32.26284,-28.49263 32.26277,-28.49242 32.26267,-28.49216 32.26255,-28.49193 32.26244,-28.49168 32.26237,-28.49148 32.26227,-28.49133 32.26218,-28.49116 32.2621,-28.49094 32.26202,-28.49071 32.262,-28.49054 32.26204,-28.49043 32.26209,-28.49035 32.26236,-28.49008 32.26239,-28.49 32.26239,-28.48989 32.26238,-28.48979 32.26238,-28.48973 32.26242,-28.48959 32.26245,-28.4895 32.26251,-28.48938 32.26253,-28.48933 32.26253,-28.48909 32.26249,-28.48903 32.26242,-28.48899 32.26234,-28.48894 32.26216,-28.48882 32.26194,-28.48866 32.26174,-28.4885 32.26154,-28.48839 32.26133,-28.48832 32.26114,-28.48829 32.26062,-28.48826 32.26029,-28.48827 32.26006,-28.4883 32.25924,-28.48839 32.25844,-28.48849 32.25818,-28.48854 32.25799,-28.4886 32.25779,-28.48869 32.25735,-28.48889 32.25698,-28.48902 32.25665,-28.48919 32.25651,-28.48929 32.25628,-28.48947 32.2561,-28.48964 32.2559,-28.48982 32.25576,-28.49 32.25526,-28.49075 32.25484,-28.49133 32.25461,-28.49164 32.25437,-28.49186 32.25416,-28.49203 32.25398,-28.49213 32.25381,-28.49222 32.25357,-28.49233 32.25338,-28.49243 32.2532,-28.49249 32.25309,-28.49251 32.25293,-28.49253 32.25274,-28.49258 32.25247,-28.49265 32.25229,-28.4927 32.25206,-28.49273 32.25187,-28.49275 32.25173,-28.49279 32.25154,-28.49282 32.25123,-28.49287 32.25087,-28.49288 32.25061,-28.49286 32.25025,-28.49282 32.25006,-28.49277 32.24996,-28.49274 32.24984,-28.49271 32.24965,-28.49269 32.24956,-28.49268 32.24949,-28.49266 32.24925,-28.49263 32.24905,-28.49258 32.24895,-28.49255 32.24889,-28.49254 32.24879,-28.49251 32.24861,-28.49247 32.24851,-28.49245 32.24844,-28.49244 32.24832,-28.49243 32.24821,-28.49241 32.24806,-28.49241 32.24783,-28.49235 32.24768,-28.49233 32.24761,-28.49231 32.24753,-28.49229 32.24738,-28.49226 32.2473,-28.49224 32.24716,-28.49221 32.24683,-28.4921 32.2467,-28.49207 32.24666,-28.49206 32.24653,-28.49203 32.24627,-28.49195 32.24616,-28.4919 32.24609,-28.49188 32.24597,-28.49185 32.24587,-28.49183 32.24576,-28.49181 32.2457,-28.49181 32.24561,-28.49182 32.24556,-28.49184 32.24547,-28.49187 32.24539,-28.49188 32.24533,-28.49189 32.24527,-28.49192 32.24519,-28.49194 32.24504,-28.49199 32.24493,-28.49201 32.24488,-28.49204 32.24482,-28.49206 32.24472,-28.49212 32.24464,-28.49213 32.24454,-28.49215 32.24438,-28.49218 32.24426,-28.49218 32.24418,-28.49219 32.24404,-28.49218 32.24396,-28.49217 32.24382,-28.49216 32.24371,-28.49218 32.24366,-28.49219 32.24357,-28.49221 32.24354,-28.49222 32.24342,-28.49225 32.24337,-28.49227 32.24328,-28.49231 32.24323,-28.49233 32.2432,-28.49236 32.24315,-28.49239 32.24315,-28.49242 32.24313,-28.49244 32.2431,-28.49246 32.24305,-28.49248 32.24301,-28.49249 32.24297,-28.49251 32.24293,-28.49255 32.24287,-28.49258 32.24282,-28.49259 32.24275,-28.4926 32.24268,-28.49263 32.24262,-28.49266 32.24255,-28.49268 32.24249,-28.49271 32.24244,-28.49273 32.24241,-28.49275 32.24236,-28.49276 32.24226,-28.49284 32.24223,-28.49287 32.24218,-28.49291 32.24215,-28.49292 32.24206,-28.49297 32.24201,-28.49299 32.24196,-28.49302 32.24194,-28.49306 32.24192,-28.49313 32.24191,-28.49316 32.24191,-28.4932 32.24192,-28.49326 32.24192,-28.4933 32.24189,-28.49337 32.24188,-28.4934 32.24186,-28.49342 32.24185,-28.49345 32.24183,-28.49347 32.24175,-28.49349 32.24169,-28.4935 32.24162,-28.4935 32.24158,-28.49353 32.2415,-28.49353 32.24141,-28.49356 32.24131,-28.49358 32.24124,-28.49359 32.24118,-28.49356 32.24112,-28.49354 32.24103,-28.49353 32.24095,-28.49353 32.2409,-28.49352 32.24079,-28.4935 32.24066,-28.4935 32.24059,-28.49349 32.24045,-28.49345 32.24033,-28.49343 32.24022,-28.49342 32.24016,-28.49341 32.24009,-28.4934 32.24002,-28.49338 32.23997,-28.49337 32.23988,-28.49335 32.23982,-28.49335 32.23972,-28.49334 32.23963,-28.49333 32.23959,-28.49332 32.2395,-28.4933 32.23937,-28.49329 32.23927,-28.49329 32.23919,-28.49327 32.23903,-28.49324 32.23892,-28.49321 32.2388,-28.49319 32.23862,-28.49317 32.23854,-28.49315 32.23847,-28.49311 32.23838,-28.49309 32.23826,-28.49309 32.2382,-28.49308 32.2381,-28.49306 32.23801,-28.49305 32.23785,-28.49303 32.2378,-28.49302 32.23765,-28.49298 32.23751,-28.49297 32.23729,-28.49293 32.23717,-28.49292 32.23708,-28.49292 32.23699,-28.49293 32.23692,-28.49296 32.23675,-28.49296 32.23667,-28.49297 32.23663,-28.49296 32.23657,-28.49296 32.23653,-28.49295 32.23648,-28.49295 32.2364,-28.49294 32.2363,-28.49295 32.23624,-28.49295 32.23612,-28.49297 32.23608,-28.49298 32.23598,-28.49298 32.23594,-28.49301 32.23592,-28.49303 32.23566,-28.49303 32.2355,-28.49304 32.23533,-28.49305 32.23516,-28.49305 32.2351,-28.49306 32.23506,-28.49307 32.23497,-28.49308 32.23491,-28.49308 32.23476,-28.49309 32.23465,-28.49311 32.23454,-28.49311 32.23444,-28.49309 32.23437,-28.49309 32.23423,-28.49312 32.23415,-28.49315 32.23408,-28.49317 32.23398,-28.4932 32.23393,-28.49322 32.23389,-28.49325 32.23381,-28.49328 32.23374,-28.49332 32.23365,-28.49335 32.23354,-28.49339 32.23341,-28.49342 32.23334,-28.49345 32.23326,-28.49346 32.23322,-28.49348 32.23315,-28.49351 32.2331,-28.49353 32.23301,-28.49355 32.23289,-28.49359 32.23281,-28.49365 32.23267,-28.49369 32.23262,-28.49373 32.23253,-28.49376 32.23242,-28.4938 32.23233,-28.49383 32.23223,-28.49386 32.23216,-28.49388 32.23211,-28.49389 32.23202,-28.49391 32.23195,-28.49395 32.23186,-28.49399 32.23175,-28.49404 32.23165,-28.49407 32.23156,-28.49411 32.23148,-28.49411 32.23141,-28.49414 32.23133,-28.49415 32.23126,-28.49418 32.2312,-28.49419 32.23114,-28.49421 32.23109,-28.49423 32.23105,-28.49426 32.23098,-28.49428 32.23093,-28.4943 32.23088,-28.49433 32.23084,-28.49435 32.23078,-28.49436 32.2307,-28.49438 32.23062,-28.49438 32.23048,-28.49439 32.2304,-28.49437 32.23033,-28.49437 32.23026,-28.49436 32.23019,-28.49436 32.23015,-28.49435 32.23012,-28.49432 32.23003,-28.49432 32.23,-28.49431 32.22997,-28.49428 32.22987,-28.49422 32.2298,-28.49415 32.22977,-28.49414 32.2297,-28.49411 32.22969,-28.49393 32.22995,-28.49265 32.23009,-28.49201 32.23061,-28.48945 32.23075,-28.48881 32.23088,-28.48817 32.23106,-28.4873 32.23142,-28.48558 32.23161,-28.48471 32.23197,-28.48299 32.23215,-28.48212 32.23233,-28.48126 32.23256,-28.4802 32.233,-28.47808 32.23323,-28.47702 32.2333,-28.47659 32.23338,-28.47615 32.23345,-28.47572 32.23353,-28.47529 32.2336,-28.47485 32.23368,-28.47441 32.23384,-28.47351 32.23391,-28.47307 32.23399,-28.47262 32.23404,-28.47233 32.23267,-28.47211 32.23131,-28.47189 32.23135,-28.47169 32.23168,-28.47008 32.23205,-28.46834 32.23241,-28.46659 32.23277,-28.46485 32.23314,-28.46311 32.2335,-28.46136 32.23366,-28.4606 32.23379,-28.46 32.23387,-28.45962 32.23423,-28.45788 32.2346,-28.45613 32.23485,-28.4549 32.23486,-28.45485 32.23471,-28.45496 32.23417,-28.45528 32.2338,-28.45542 32.23345,-28.45557 32.23305,-28.45572 32.23264,-28.45579 32.23155,-28.45591 32.23095,-28.45604 32.23033,-28.45607 32.22969,-28.45613 32.22891,-28.45627 32.2285,-28.45638 32.22821,-28.45653 32.22787,-28.45659 32.22747,-28.45658 32.22711,-28.45658 32.22671,-28.45667 32.22641,-28.45678 32.22598,-28.45686 32.22517,-28.457 32.22451,-28.45708 32.22387,-28.45714 32.22228,-28.4572 32.22162,-28.45723 32.2209,-28.45732 32.22038,-28.45736 32.21887,-28.45758 32.2183,-28.45765 32.21781,-28.4578 32.2172,-28.45794 32.21619,-28.45816 32.21548,-28.45838 32.21489,-28.45859 32.21442,-28.45879 32.21398,-28.45889 32.21361,-28.45894 32.21329,-28.45895 32.21284,-28.45898 32.21219,-28.45895 32.21176,-28.45889 32.21124,-28.45882 32.21086,-28.45872 32.21037,-28.45861 32.20936,-28.45839 32.20874,-28.45828 32.20836,-28.45823 32.20793,-28.45816 32.20748,-28.45811 32.20671,-28.45792 32.20589,-28.45772 32.2053,-28.4575 32.20364,-28.45693 32.20285,-28.45667 32.20213,-28.45646 32.20164,-28.45633 32.20059,-28.45603 32.1997,-28.45579 32.19923,-28.45564 32.19745,-28.45514 32.19659,-28.45492 32.19568,-28.45467 32.19497,-28.45452 32.1943,-28.45451 32.19373,-28.45441 32.19338,-28.45434 32.19286,-28.45427 32.19209,-28.45421 32.1915,-28.45417 32.19039,-28.45395 32.18972,-28.45381 32.1888,-28.45366 32.18806,-28.45345 32.18726,-28.45327 32.18676,-28.4532 32.18626,-28.45306 32.18553,-28.45285 32.18466,-28.45249 32.18391,-28.45212 32.18304,-28.45181 32.18255,-28.45168 32.18224,-28.4516 32.18149,-28.45135 32.18073,-28.45124 32.17907,-28.45113 32.17833,-28.45105 32.17745,-28.45091 32.17713,-28.45088 32.17609,-28.45071 32.17571,-28.45067 32.17484,-28.45039 32.17398,-28.44999 32.17277,-28.44948 32.17156,-28.44895 32.17072,-28.44852 32.17013,-28.44829 32.16958,-28.44817 32.16876,-28.44811 32.16768,-28.44794 32.16689,-28.44789 32.16612,-28.44781 32.16555,-28.44774 32.16503,-28.44762 32.16447,-28.44742 32.16425,-28.44726 32.16408,-28.44708 32.16401,-28.44694 32.16364,-28.44658 32.16327,-28.44635 32.1627,-28.44608 32.16203,-28.44574 32.16139,-28.44553 32.16071,-28.4454 32.16031,-28.44533 32.15994,-28.44528 32.1597,-28.44527 32.15965,-28.44526 32.15938,-28.44532 32.15901,-28.44535 32.15851,-28.44552 32.15812,-28.44562 32.15776,-28.44576 32.15741,-28.44591 32.15696,-28.4461 32.15608,-28.44644 32.1555,-28.44676 32.15509,-28.44704 32.1547,-28.44733 32.15438,-28.44743 32.15407,-28.44753 32.15372,-28.44777 32.15333,-28.44813 32.15288,-28.44846 32.15256,-28.44887 32.15216,-28.44918 32.15178,-28.44948 32.1514,-28.44981 32.15084,-28.45025 32.15039,-28.45057 32.15017,-28.45085 32.14999,-28.45117 32.14985,-28.45154 32.1497,-28.45181 32.14947,-28.45222 32.14904,-28.45272 32.14829,-28.45359 32.14797,-28.45418 32.1476,-28.45479 32.14714,-28.45554 32.14669,-28.45609 32.1466,-28.45619 32.14657,-28.45623 32.14653,-28.45628 32.14564,-28.45722 32.14509,-28.45791 32.14442,-28.45846 32.14379,-28.4588 32.14314,-28.45904 32.14255,-28.45917 32.14177,-28.45945 32.14075,-28.45966 32.13997,-28.45979 32.13891,-28.45983 32.13806,-28.45974 32.13726,-28.45941 32.13689,-28.45901 32.13656,-28.45865 32.13607,-28.45788 32.13584,-28.45736 32.13552,-28.45648 32.13498,-28.45525 32.13481,-28.45485 32.13464,-28.45412 32.1345,-28.45324 32.13441,-28.45247 32.13417,-28.45113 32.13391,-28.44999 32.13361,-28.44929 32.1332,-28.44844 32.13305,-28.44823 32.1328,-28.44803 32.13273,-28.448 32.13265,-28.44794 32.13256,-28.44787 32.13206,-28.44755 32.13114,-28.44684 32.12993,-28.44623 32.12933,-28.44587 32.12838,-28.44493 32.12762,-28.44401 32.12679,-28.44313 32.12608,-28.44258 32.12452,-28.44171 32.12344,-28.44119 32.12184,-28.4404 32.12014,-28.43956 32.11832,-28.43888 32.11606,-28.43808 32.11526,-28.4378 32.11492,-28.43758 32.114,-28.43699 32.11298,-28.43656 32.11194,-28.43623</coordinates></LinearRing></outerBoundaryIs></Polygon></MultiGeometry></Placemark></Document></kml>