<?xml version="1.0" encoding="UTF-8"?><kml xmlns="http://www.opengis.net/kml/2.2"><Document><Placemark><name>Somkele</name><description>Main Place 586015</description><ExtendedData><Data name="code"><value>586015</value></Data><Data name="name"><value>Somkele</value></Data><Data name="description"><value>Main Place 586015</value></Data></ExtendedData><MultiGeometry><Polygon><outerBoundaryIs><LinearRing><coordinates>32.12484,-28.27548 32.12495,-28.27561 32.12503,-28.27582 32.12508,-28.27601 32.12509,-28.27609 32.12514,-28.27626 32.12524,-28.27635 32.12539,-28.27648 32.12547,-28.27661 32.12551,-28.27677 32.12556,-28.27688 32.1256,-28.27699 32.12569,-28.27719 32.12568,-28.27732 32.12565,-28.27745 32.12561,-28.27756 32.12554,-28.27767 32.12544,-28.2778 32.12539,-28.27788 32.12527,-28.27803 32.12519,-28.27814 32.12507,-28.27816 32.12488,-28.2781 32.1247,-28.27815 32.12463,-28.27824 32.12456,-28.27832 32.1245,-28.2784 32.12444,-28.27848 32.12446,-28.27855 32.12444,-28.27861 32.12431,-28.27869 32.12414,-28.27876 32.12417,-28.27879 32.12411,-28.2789 32.12405,-28.27895 32.12397,-28.27905 32.12387,-28.27909 32.12374,-28.27914 32.12364,-28.27914 32.12345,-28.27918 32.12337,-28.27931 32.12334,-28.27939 32.12335,-28.27951 32.12343,-28.27963 32.12351,-28.27974 32.12361,-28.27991 32.12369,-28.28005 32.1237,-28.28019 32.12367,-28.28034 32.12361,-28.28051 32.12364,-28.28056 32.12367,-28.28061 32.12371,-28.2807 32.12375,-28.28087 32.1238,-28.28096 32.12388,-28.28109 32.12391,-28.28122 32.12392,-28.28127 32.12399,-28.28138 32.12405,-28.28146 32.1241,-28.28156 32.12414,-28.28166 32.1242,-28.28173 32.12429,-28.28181 32.12433,-28.28187 32.12436,-28.28189 32.1244,-28.28198 32.12445,-28.28204 32.12447,-28.28213 32.12454,-28.28218 32.12463,-28.28224 32.12465,-28.28227 32.12469,-28.28231 32.12474,-28.28237 32.12476,-28.28246 32.12478,-28.28253 32.12482,-28.28259 32.12495,-28.28276 32.12504,-28.28285 32.12516,-28.28298 32.1253,-28.2831 32.12541,-28.2833 32.12548,-28.28348 32.12559,-28.28359 32.1257,-28.2837 32.12571,-28.28382 32.12575,-28.28388 32.1258,-28.28393 32.12585,-28.28394 32.1259,-28.28399 32.12596,-28.28411 32.12606,-28.28419 32.12614,-28.28425 32.12622,-28.28432 32.12629,-28.28436 32.12637,-28.28435 32.12647,-28.28434 32.12656,-28.2844 32.12656,-28.2845 32.1267,-28.28452 32.12682,-28.28462 32.12694,-28.28471 32.12704,-28.28477 32.12716,-28.28486 32.12726,-28.28492 32.12737,-28.28504 32.12741,-28.28511 32.12742,-28.28518 32.12753,-28.28534 32.12767,-28.2855 32.12768,-28.28562 32.12773,-28.2857 32.12783,-28.28581 32.12784,-28.28593 32.12787,-28.28611 32.12789,-28.28633 32.12783,-28.28655 32.12774,-28.28675 32.12766,-28.28699 32.12761,-28.28722 32.12767,-28.28745 32.1277,-28.28771 32.12776,-28.2879 32.12784,-28.28804 32.12792,-28.28822 32.12792,-28.28833 32.12782,-28.28846 32.12763,-28.28857 32.12739,-28.28863 32.12722,-28.28867 32.12702,-28.2887 32.12684,-28.28875 32.12675,-28.28886 32.12671,-28.28909 32.12662,-28.28929 32.12639,-28.28932 32.12625,-28.28941 32.12625,-28.28955 32.12636,-28.28969 32.12651,-28.28979 32.12676,-28.28981 32.12699,-28.28982 32.12705,-28.2899 32.12708,-28.28997 32.12712,-28.29007 32.12718,-28.29019 32.12724,-28.29029 32.12729,-28.29044 32.12736,-28.29055 32.12749,-28.29069 32.12764,-28.29088 32.12774,-28.29101 32.12781,-28.2911 32.12792,-28.29123 32.12799,-28.29135 32.12805,-28.29157 32.12809,-28.29167 32.12814,-28.2918 32.12815,-28.29182 32.12827,-28.29191 32.12843,-28.29197 32.12853,-28.29201 32.12864,-28.29204 32.1287,-28.29206 32.12884,-28.29209 32.12894,-28.29213 32.12905,-28.29221 32.12917,-28.29225 32.12927,-28.29224 32.12935,-28.29218 32.12945,-28.29218 32.1295,-28.29222 32.12959,-28.29228 32.12966,-28.29232 32.12974,-28.29239 32.12977,-28.29241 32.12987,-28.29241 32.12995,-28.29246 32.13003,-28.29244 32.13011,-28.29255 32.13025,-28.29262 32.13039,-28.29273 32.13052,-28.29282 32.1306,-28.29289 32.13064,-28.29291 32.13072,-28.293 32.13084,-28.29306 32.13093,-28.29314 32.13108,-28.29311 32.13123,-28.29302 32.13132,-28.29306 32.1314,-28.29318 32.1315,-28.29323 32.13156,-28.29324 32.13174,-28.29329 32.13191,-28.29338 32.13199,-28.29342 32.13214,-28.29357 32.13221,-28.29361 32.1323,-28.29363 32.13241,-28.29363 32.13254,-28.29369 32.13265,-28.29374 32.1328,-28.29379 32.13298,-28.29383 32.13311,-28.29387 32.13326,-28.29395 32.13332,-28.29406 32.13346,-28.29414 32.13356,-28.29414 32.13361,-28.29418 32.13373,-28.29428 32.13389,-28.29438 32.13396,-28.29443 32.13405,-28.29443 32.13417,-28.29441 32.13435,-28.29445 32.13444,-28.29451 32.13451,-28.29461 32.13457,-28.29471 32.13477,-28.29474 32.13493,-28.29479 32.13504,-28.29485 32.13516,-28.2949 32.13522,-28.29492 32.13536,-28.29497 32.13546,-28.29496 32.13564,-28.29489 32.136,-28.29473 32.13618,-28.29459 32.1363,-28.29445 32.1364,-28.29431 32.13647,-28.29414 32.13648,-28.29399 32.13655,-28.29386 32.13664,-28.29369 32.13663,-28.29349 32.1367,-28.29338 32.13676,-28.29326 32.13683,-28.29313 32.13688,-28.293 32.13696,-28.29284 32.13709,-28.29269 32.13724,-28.29259 32.13737,-28.29248 32.13741,-28.29244 32.13747,-28.29234 32.13754,-28.29227 32.13766,-28.29215 32.13768,-28.29202 32.13775,-28.29193 32.13788,-28.29181 32.13795,-28.29175 32.13804,-28.2917 32.13825,-28.29164 32.13841,-28.29157 32.13852,-28.29152 32.13867,-28.29142 32.13875,-28.29131 32.13887,-28.29122 32.13903,-28.29117 32.13928,-28.29113 32.13946,-28.29107 32.13969,-28.29091 32.13994,-28.29073 32.14019,-28.29054 32.14042,-28.29045 32.14061,-28.29055 32.14077,-28.29073 32.14094,-28.29091 32.14114,-28.291 32.14125,-28.29113 32.14147,-28.29123 32.14158,-28.29134 32.14171,-28.2915 32.1419,-28.29168 32.14204,-28.29182 32.14221,-28.29204 32.14225,-28.29209 32.14229,-28.29214 32.14238,-28.29225 32.14225,-28.2925 32.14219,-28.29269 32.14219,-28.29286 32.14219,-28.29303 32.14226,-28.29317 32.14242,-28.29324 32.14259,-28.29334 32.14268,-28.29345 32.14272,-28.29362 32.14276,-28.29389 32.14281,-28.29412 32.14285,-28.29438 32.14291,-28.29469 32.14293,-28.29488 32.14299,-28.29503 32.14306,-28.29512 32.14319,-28.29524 32.14327,-28.29517 32.14336,-28.29519 32.14343,-28.29533 32.1435,-28.29543 32.14354,-28.29553 32.14358,-28.29564 32.14361,-28.29578 32.14363,-28.29591 32.14363,-28.29594 32.14362,-28.29603 32.14362,-28.29619 32.14364,-28.29625 32.14366,-28.29632 32.1437,-28.29639 32.14377,-28.29647 32.14386,-28.29653 32.14395,-28.29661 32.14401,-28.29669 32.14408,-28.29677 32.14418,-28.29685 32.14425,-28.29691 32.1444,-28.29698 32.14449,-28.29707 32.14454,-28.29721 32.14458,-28.29728 32.14462,-28.29735 32.14467,-28.29743 32.14478,-28.29747 32.14487,-28.29751 32.14504,-28.29759 32.14513,-28.29764 32.1452,-28.29764 32.14541,-28.29767 32.14562,-28.29773 32.14569,-28.29773 32.14582,-28.29778 32.14598,-28.29785 32.14605,-28.29789 32.14621,-28.29797 32.14637,-28.2981 32.14645,-28.29822 32.14655,-28.29831 32.14666,-28.29844 32.14669,-28.29845 32.14677,-28.29851 32.14683,-28.29863 32.14689,-28.29869 32.14696,-28.29877 32.14704,-28.29891 32.14711,-28.299 32.14721,-28.2991 32.14731,-28.29921 32.14737,-28.29928 32.14751,-28.29942 32.14756,-28.29947 32.14744,-28.29962 32.14736,-28.29982 32.14731,-28.29992 32.14726,-28.29998 32.14715,-28.30003 32.14706,-28.30011 32.14696,-28.30023 32.14687,-28.30029 32.14677,-28.30031 32.14671,-28.30045 32.14665,-28.30057 32.14663,-28.30072 32.1466,-28.30084 32.14659,-28.30093 32.14657,-28.30102 32.14652,-28.3011 32.1464,-28.30133 32.14627,-28.3015 32.14621,-28.3016 32.1461,-28.30164 32.14594,-28.3017 32.14583,-28.30173 32.14561,-28.30173 32.1454,-28.30171 32.14531,-28.30169 32.14525,-28.30155 32.14521,-28.30142 32.14514,-28.30121 32.14511,-28.3011 32.14501,-28.30096 32.14487,-28.30083 32.14478,-28.30075 32.14469,-28.30065 32.14452,-28.30052 32.14438,-28.30041 32.14431,-28.30038 32.14404,-28.30042 32.1439,-28.30056 32.14378,-28.30073 32.14372,-28.30087 32.14373,-28.30103 32.14377,-28.30117 32.14367,-28.30132 32.14357,-28.30139 32.14338,-28.30147 32.14332,-28.30154 32.14331,-28.30166 32.14339,-28.30187 32.14339,-28.30206 32.14332,-28.30211 32.14316,-28.30215 32.14298,-28.30214 32.14284,-28.30211 32.14269,-28.30211 32.14252,-28.30212 32.14236,-28.30223 32.14232,-28.30237 32.14241,-28.3025 32.14249,-28.30258 32.14259,-28.30268 32.14264,-28.30281 32.1427,-28.30296 32.14274,-28.30312 32.14277,-28.30329 32.14279,-28.30349 32.14278,-28.30361 32.14274,-28.30379 32.14267,-28.30409 32.14268,-28.3042 32.14271,-28.30441 32.14274,-28.30451 32.14285,-28.30458 32.14299,-28.30462 32.1431,-28.30463 32.14322,-28.30464 32.14334,-28.30469 32.14322,-28.30478 32.14315,-28.3049 32.14309,-28.30505 32.143,-28.3052 32.1429,-28.3053 32.14283,-28.30537 32.14276,-28.30544 32.14256,-28.30552 32.14247,-28.30556 32.1423,-28.30563 32.14205,-28.30571 32.14188,-28.30574 32.14178,-28.30576 32.14175,-28.30576 32.14161,-28.30578 32.14152,-28.30585 32.14147,-28.30594 32.14142,-28.30596 32.14136,-28.30592 32.1413,-28.30587 32.1412,-28.30588 32.14109,-28.30594 32.14103,-28.30604 32.141,-28.30612 32.14098,-28.30622 32.14099,-28.3063 32.14105,-28.30642 32.14102,-28.30659 32.14099,-28.30669 32.14092,-28.3068 32.14085,-28.30684 32.14076,-28.30685 32.14069,-28.30687 32.14068,-28.307 32.14076,-28.30714 32.1408,-28.30719 32.14085,-28.30736 32.14082,-28.30759 32.14071,-28.30778 32.14062,-28.30791 32.14047,-28.30801 32.14034,-28.30804 32.14027,-28.30803 32.14012,-28.30798 32.13998,-28.30795 32.13991,-28.30791 32.13979,-28.30787 32.13968,-28.30785 32.13959,-28.30777 32.1395,-28.30774 32.1394,-28.30774 32.13924,-28.30782 32.13915,-28.30795 32.13906,-28.30811 32.13899,-28.3083 32.13888,-28.30829 32.13875,-28.3083 32.13863,-28.30839 32.13851,-28.30852 32.13847,-28.30857 32.13828,-28.30868 32.13821,-28.30871 32.13812,-28.30874 32.13799,-28.30886 32.13793,-28.30901 32.13772,-28.30923 32.13764,-28.30937 32.13763,-28.30949 32.13758,-28.30959 32.13746,-28.30966 32.13737,-28.3097 32.13729,-28.30965 32.13714,-28.30964 32.13707,-28.30974 32.13702,-28.30982 32.137,-28.30997 32.13701,-28.31012 32.13705,-28.31027 32.13711,-28.31042 32.13714,-28.31051 32.13716,-28.31055 32.13718,-28.31082 32.13707,-28.31108 32.13701,-28.31122 32.13695,-28.31135 32.13683,-28.31146 32.13666,-28.31154 32.13649,-28.31155 32.13625,-28.31154 32.13611,-28.31155 32.136,-28.31158 32.13589,-28.31162 32.13568,-28.31171 32.13556,-28.31177 32.13547,-28.31183 32.13532,-28.31198 32.13526,-28.31211 32.13523,-28.31227 32.13507,-28.31241 32.13482,-28.31259 32.13469,-28.31267 32.13451,-28.31278 32.13437,-28.31288 32.13433,-28.31295 32.13424,-28.31309 32.13416,-28.31323 32.13412,-28.3133 32.13392,-28.31353 32.13371,-28.31372 32.13363,-28.31378 32.13346,-28.31394 32.13336,-28.31404 32.13327,-28.31419 32.13318,-28.31435 32.13316,-28.31442 32.13313,-28.31468 32.13309,-28.31486 32.13305,-28.31505 32.13302,-28.31522 32.13296,-28.31536 32.13287,-28.31549 32.13271,-28.31564 32.13264,-28.31569 32.13253,-28.31577 32.13236,-28.31588 32.13225,-28.31604 32.13218,-28.31619 32.13215,-28.31627 32.1321,-28.3164 32.13205,-28.31646 32.13171,-28.31664 32.13163,-28.31677 32.13151,-28.31686 32.13142,-28.31692 32.13134,-28.31697 32.13118,-28.31703 32.13099,-28.3171 32.13093,-28.31713 32.13082,-28.31716 32.13071,-28.31725 32.13084,-28.31727 32.13097,-28.3173 32.13107,-28.31735 32.13114,-28.31743 32.13116,-28.31745 32.13104,-28.31761 32.13094,-28.31776 32.13081,-28.31786 32.13062,-28.31797 32.13054,-28.31801 32.13039,-28.31809 32.13029,-28.31815 32.13016,-28.31819 32.13008,-28.31825 32.13005,-28.3183 32.13004,-28.31833 32.13004,-28.31846 32.13004,-28.31853 32.12992,-28.31856 32.12979,-28.31871 32.12965,-28.31886 32.12959,-28.31893 32.12953,-28.31912 32.12952,-28.31924 32.12954,-28.31937 32.12954,-28.31949 32.12941,-28.31962 32.12937,-28.31969 32.12944,-28.31977 32.12955,-28.31981 32.12957,-28.31986 32.12952,-28.31998 32.12945,-28.32005 32.12954,-28.32015 32.12958,-28.32024 32.12959,-28.32031 32.12957,-28.32041 32.12953,-28.32049 32.12953,-28.32051 32.12964,-28.32056 32.12968,-28.32055 32.12971,-28.32057 32.12973,-28.32069 32.12965,-28.32074 32.12954,-28.3208 32.12941,-28.32084 32.12928,-28.32083 32.12922,-28.3208 32.12915,-28.32072 32.12901,-28.32081 32.12886,-28.32084 32.12876,-28.32086 32.12873,-28.32092 32.12875,-28.321 32.12867,-28.32101 32.12865,-28.32102 32.12855,-28.32111 32.12854,-28.32117 32.12854,-28.32121 32.12842,-28.32118 32.12837,-28.32119 32.12831,-28.32121 32.12817,-28.32132 32.12809,-28.32135 32.128,-28.32138 32.12793,-28.32142 32.12787,-28.32151 32.12776,-28.32161 32.12768,-28.32163 32.1276,-28.32164 32.12751,-28.32164 32.12739,-28.32166 32.12736,-28.32168 32.12729,-28.32178 32.12734,-28.32185 32.1274,-28.32193 32.12746,-28.32201 32.12742,-28.3221 32.12733,-28.32222 32.1273,-28.32225 32.12738,-28.32231 32.12743,-28.32235 32.12749,-28.32246 32.12744,-28.32251 32.12734,-28.32255 32.12718,-28.3226 32.12711,-28.32267 32.12702,-28.32275 32.12687,-28.32288 32.12682,-28.32294 32.12675,-28.32305 32.1268,-28.32317 32.12684,-28.32328 32.12681,-28.32337 32.12669,-28.32347 32.12662,-28.32357 32.12656,-28.32369 32.12659,-28.32378 32.12669,-28.32383 32.12681,-28.32392 32.12684,-28.32404 32.12675,-28.32415 32.1267,-28.32421 32.12667,-28.32434 32.12672,-28.32446 32.12674,-28.32454 32.12674,-28.32459 32.12663,-28.3246 32.12653,-28.32461 32.1265,-28.32473 32.12648,-28.3248 32.12637,-28.32489 32.1262,-28.32495 32.1262,-28.32497 32.12609,-28.32497 32.12606,-28.32494 32.126,-28.32482 32.12595,-28.32477 32.12584,-28.32479 32.12586,-28.32487 32.12572,-28.32494 32.12571,-28.32503 32.1256,-28.32506 32.12558,-28.32506 32.1255,-28.32509 32.12541,-28.32521 32.12532,-28.32523 32.12522,-28.32519 32.12514,-28.32519 32.12503,-28.32528 32.12484,-28.3254 32.12478,-28.32543 32.12464,-28.32552 32.12459,-28.3256 32.12464,-28.32571 32.12473,-28.32574 32.12485,-28.32586 32.12488,-28.32594 32.1249,-28.32607 32.12486,-28.32617 32.12476,-28.32628 32.12467,-28.32631 32.12463,-28.32633 32.12452,-28.32638 32.12442,-28.32644 32.12436,-28.32652 32.1244,-28.32662 32.1244,-28.3268 32.12436,-28.3269 32.12433,-28.32696 32.12429,-28.32706 32.12421,-28.32722 32.12415,-28.32731 32.12405,-28.32743 32.12395,-28.32752 32.12388,-28.32756 32.12379,-28.32761 32.12371,-28.32764 32.12357,-28.3277 32.12346,-28.32777 32.12333,-28.32788 32.12322,-28.32802 32.12315,-28.3281 32.12303,-28.32816 32.12289,-28.32826 32.12281,-28.32832 32.12277,-28.32837 32.12267,-28.32855 32.12264,-28.32865 32.12263,-28.32875 32.12272,-28.3289 32.12272,-28.32901 32.12265,-28.32917 32.12268,-28.32933 32.12274,-28.32943 32.12288,-28.3295 32.12294,-28.32953 32.12296,-28.32955 32.12276,-28.3296 32.12258,-28.32972 32.12245,-28.32985 32.12238,-28.32989 32.12222,-28.32996 32.12213,-28.3301 32.12211,-28.33018 32.12211,-28.33023 32.12211,-28.33028 32.12212,-28.33034 32.12203,-28.3304 32.12197,-28.33041 32.12182,-28.33039 32.12176,-28.33039 32.12164,-28.33053 32.1216,-28.33061 32.12157,-28.33071 32.12156,-28.33092 32.12144,-28.33097 32.12133,-28.33103 32.12125,-28.33116 32.12114,-28.33126 32.12108,-28.33133 32.12108,-28.33141 32.12108,-28.33151 32.12105,-28.33165 32.12095,-28.33173 32.12093,-28.33175 32.1208,-28.33179 32.12077,-28.33187 32.12081,-28.33197 32.12087,-28.33204 32.12094,-28.33215 32.12085,-28.33227 32.12074,-28.33237 32.12063,-28.33239 32.12059,-28.33239 32.12041,-28.33233 32.12041,-28.33241 32.12042,-28.33272 32.12018,-28.33276 32.12012,-28.33284 32.12016,-28.33294 32.12019,-28.33305 32.12013,-28.33319 32.11993,-28.33351 32.11993,-28.33364 32.11991,-28.33371 32.11985,-28.3338 32.11976,-28.33385 32.11965,-28.33397 32.11965,-28.33408 32.11969,-28.33422 32.11963,-28.33439 32.11954,-28.3345 32.11942,-28.33457 32.1193,-28.33463 32.11919,-28.33465 32.11907,-28.33469 32.11896,-28.33473 32.11878,-28.33478 32.11865,-28.33488 32.11859,-28.33495 32.11842,-28.335 32.11819,-28.33503 32.11804,-28.33516 32.11801,-28.33533 32.11804,-28.33548 32.11805,-28.33552 32.11812,-28.33569 32.11815,-28.33575 32.11825,-28.33597 32.1183,-28.33614 32.11779,-28.33658 32.1173,-28.33735 32.11622,-28.33791 32.11589,-28.3382 32.11548,-28.33872 32.11547,-28.33872 32.11435,-28.33801 32.11396,-28.33776 32.1139,-28.33772 32.11343,-28.33741 32.11253,-28.33699 32.11172,-28.33665 32.11154,-28.3366 32.11144,-28.33657 32.11137,-28.33654 32.11083,-28.3363 32.10895,-28.33553 32.10837,-28.33528 32.10718,-28.33479 32.10558,-28.33412 32.105,-28.33387 32.10319,-28.33313 32.10262,-28.3329 32.10221,-28.33271 32.10152,-28.33234 32.10149,-28.33232 32.10147,-28.33244 32.10141,-28.33251 32.1013,-28.33263 32.10128,-28.33264 32.10106,-28.33276 32.10061,-28.33298 32.10021,-28.33318 32.09913,-28.33386 32.0988,-28.33406 32.09775,-28.33463 32.0974,-28.33483 32.09722,-28.33494 32.09713,-28.33501 32.09703,-28.33514 32.09687,-28.3354 32.09667,-28.3357 32.09633,-28.33616 32.09607,-28.3365 32.09592,-28.33679 32.09592,-28.33679 32.09588,-28.33679 32.09565,-28.3368 32.09539,-28.33691 32.09498,-28.33701 32.09464,-28.33701 32.09428,-28.33691 32.09403,-28.33671 32.09366,-28.33666 32.09336,-28.33686 32.09296,-28.33706 32.09262,-28.33728 32.09219,-28.33734 32.09173,-28.33754 32.09126,-28.33787 32.09097,-28.33835 32.09076,-28.33849 32.08807,-28.33744 32.08751,-28.33702 32.08674,-28.33676 32.08637,-28.33646 32.08598,-28.33614 32.08598,-28.33603 32.086,-28.33595 32.08605,-28.33586 32.0861,-28.33577 32.08638,-28.33542 32.08648,-28.33527 32.08653,-28.33483 32.08679,-28.33466 32.08701,-28.33455 32.08726,-28.33446 32.0875,-28.33437 32.08775,-28.33425 32.08822,-28.33403 32.08866,-28.33384 32.08901,-28.33372 32.08945,-28.33357 32.08963,-28.33363 32.08994,-28.33351 32.09022,-28.33348 32.09059,-28.33325 32.09106,-28.33295 32.09109,-28.33261 32.09109,-28.33253 32.09106,-28.33211 32.09105,-28.33188 32.09093,-28.33129 32.08934,-28.32946 32.0862,-28.32582 32.08601,-28.32397 32.086,-28.3228 32.08603,-28.32264 32.08596,-28.32264 32.0854,-28.32264 32.08439,-28.32261 32.08377,-28.3226 32.0835,-28.32258 32.08275,-28.32257 32.08241,-28.32257 32.08228,-28.32258 32.08215,-28.3226 32.08201,-28.32264 32.08178,-28.32272 32.08155,-28.32286 32.08117,-28.32316 32.08061,-28.32365 32.08016,-28.32402 32.07998,-28.32413 32.07988,-28.32418 32.07976,-28.32421 32.07963,-28.32421 32.0794,-28.32416 32.07917,-28.3241 32.0788,-28.32406 32.07849,-28.32407 32.07802,-28.32416 32.0778,-28.32425 32.07758,-28.32435 32.07746,-28.32439 32.07733,-28.32442 32.07722,-28.32442 32.07707,-28.32439 32.07675,-28.32429 32.07657,-28.32422 32.07608,-28.32401 32.07587,-28.32389 32.07587,-28.32389 32.07574,-28.3238 32.07562,-28.32369 32.07549,-28.32356 32.07533,-28.32337 32.07519,-28.32337 32.07453,-28.32324 32.07417,-28.32315 32.07365,-28.32304 32.07312,-28.32282 32.07257,-28.32251 32.07195,-28.32223 32.0716,-28.32212 32.07126,-28.32212 32.07085,-28.32212 32.07017,-28.32209 32.06981,-28.32204 32.06956,-28.32197 32.06921,-28.32185 32.06878,-28.32162 32.06846,-28.32132 32.06828,-28.32107 32.06809,-28.32088 32.06793,-28.32066 32.06784,-28.32046 32.06776,-28.32027 32.06768,-28.32011 32.06754,-28.31996 32.06742,-28.31982 32.06721,-28.31966 32.06711,-28.31955 32.06696,-28.31939 32.06699,-28.31916 32.06586,-28.31862 32.06575,-28.31877 32.06556,-28.31892 32.06541,-28.31897 32.06531,-28.31897 32.06505,-28.31894 32.06489,-28.31893 32.06471,-28.31897 32.06453,-28.31908 32.06423,-28.31919 32.06387,-28.31931 32.06354,-28.31949 32.06283,-28.3199 32.06214,-28.32025 32.06212,-28.32028 32.06204,-28.32032 32.06196,-28.32034 32.06191,-28.32034 32.06184,-28.32032 32.06181,-28.32028 32.06179,-28.32023 32.06175,-28.32013 32.06173,-28.32005 32.06174,-28.31991 32.06179,-28.31963 32.0618,-28.31946 32.0618,-28.31937 32.06178,-28.31926 32.06174,-28.31916 32.06171,-28.31911 32.06166,-28.31892 32.06146,-28.31869 32.06129,-28.31861 32.06156,-28.31844 32.0618,-28.31827 32.06191,-28.31812 32.06195,-28.31805 32.06197,-28.3178 32.06201,-28.3173 32.06201,-28.31673 32.06209,-28.3164 32.06203,-28.31597 32.06201,-28.31576 32.06191,-28.31521 32.06171,-28.31475 32.06171,-28.31426 32.06178,-28.31382 32.06186,-28.31357 32.06207,-28.31314 32.06212,-28.31268 32.06214,-28.3123 32.06218,-28.31196 32.06216,-28.31162 32.06222,-28.31124 32.06235,-28.31084 32.06262,-28.31029 32.06275,-28.31004 32.06294,-28.30962 32.06317,-28.30907 32.06332,-28.30863 32.0633,-28.30833 32.06332,-28.30776 32.06345,-28.30708 32.06357,-28.30662 32.0637,-28.30611 32.06391,-28.30556 32.06399,-28.30533 32.06406,-28.30489 32.06408,-28.30451 32.06395,-28.3043 32.06368,-28.30411 32.06353,-28.3039 32.06336,-28.30366 32.06317,-28.30337 32.06294,-28.30297 32.06283,-28.30282 32.0626,-28.30229 32.06231,-28.30174 32.06199,-28.30111 32.06186,-28.30058 32.06165,-28.30016 32.06129,-28.29984 32.06121,-28.29971 32.06095,-28.29957 32.06096,-28.29931 32.06104,-28.2991 32.06117,-28.29885 32.06134,-28.29872 32.06153,-28.29853 32.06167,-28.29834 32.06176,-28.29811 32.06188,-28.29798 32.06195,-28.29788 32.06203,-28.29775 32.06214,-28.29762 32.06203,-28.29737 32.0621,-28.29716 32.06229,-28.29697 32.06241,-28.29661 32.06256,-28.29632 32.06271,-28.29602 32.06269,-28.29562 32.06262,-28.29526 32.06275,-28.29505 32.06305,-28.29499 32.06294,-28.29482 32.06302,-28.2946 32.06311,-28.29452 32.06309,-28.29431 32.06313,-28.29416 32.06321,-28.29403 32.06321,-28.29389 32.06321,-28.29368 32.06326,-28.29344 32.0634,-28.29319 32.0634,-28.29306 32.06347,-28.29275 32.06338,-28.29253 32.06334,-28.2923 32.06332,-28.29184 32.06317,-28.29142 32.06294,-28.29083 32.06357,-28.29095 32.06422,-28.2911 32.06463,-28.29116 32.06525,-28.2912 32.06565,-28.29121 32.06607,-28.29118 32.06657,-28.29111 32.06759,-28.29093 32.06968,-28.29056 32.07038,-28.29043 32.07218,-28.29006 32.07303,-28.28989 32.07354,-28.28983 32.07406,-28.28983 32.07447,-28.28988 32.07492,-28.28993 32.0755,-28.29011 32.07647,-28.29053 32.07672,-28.29068 32.07794,-28.29133 32.08001,-28.29246 32.08147,-28.29321 32.08279,-28.29398 32.0831,-28.2942 32.08342,-28.29449 32.08368,-28.29478 32.08402,-28.29522 32.08487,-28.2965 32.08537,-28.29728 32.08607,-28.29833 32.08633,-28.29873 32.08636,-28.29871 32.08649,-28.29861 32.08665,-28.29853 32.08712,-28.29837 32.08732,-28.2983 32.08791,-28.29812 32.08818,-28.29801 32.08853,-28.29781 32.08888,-28.29756 32.08922,-28.2972 32.08969,-28.2966 32.09054,-28.29543 32.09142,-28.29432 32.09234,-28.29324 32.09298,-28.29245 32.09334,-28.29203 32.09411,-28.29106 32.09429,-28.29084 32.09498,-28.29001 32.09526,-28.28965 32.09583,-28.28888 32.09609,-28.28848 32.09666,-28.28759 32.09686,-28.28727 32.09765,-28.28608 32.0981,-28.28537 32.09825,-28.28513 32.09837,-28.28493 32.09838,-28.28492 32.0984,-28.28487 32.09877,-28.28432 32.09898,-28.28394 32.09909,-28.2837 32.09911,-28.2836 32.09912,-28.28342 32.09912,-28.28326 32.09912,-28.28307 32.0992,-28.28303 32.09928,-28.28313 32.0994,-28.28318 32.0995,-28.28322 32.09966,-28.28323 32.09981,-28.28326 32.09998,-28.28332 32.1001,-28.28339 32.10027,-28.28349 32.1003,-28.28357 32.10034,-28.28372 32.10041,-28.28388 32.10047,-28.28397 32.10054,-28.28407 32.10062,-28.28422 32.10069,-28.28428 32.10082,-28.28428 32.10096,-28.28423 32.10107,-28.28409 32.10119,-28.28405 32.10129,-28.28402 32.10148,-28.28394 32.10163,-28.28389 32.10187,-28.28388 32.102,-28.2839 32.10213,-28.28398 32.10232,-28.28405 32.10243,-28.28401 32.1025,-28.28405 32.10273,-28.28408 32.1029,-28.28412 32.10298,-28.28414 32.1032,-28.28418 32.10332,-28.28422 32.10345,-28.28426 32.10354,-28.28427 32.10361,-28.28426 32.10373,-28.28431 32.10379,-28.28436 32.10394,-28.28442 32.10407,-28.28445 32.1042,-28.28446 32.10426,-28.28449 32.10436,-28.28458 32.10443,-28.28467 32.10454,-28.28468 32.10465,-28.28468 32.10477,-28.28466 32.10492,-28.28463 32.10507,-28.28463 32.1052,-28.28463 32.10532,-28.28463 32.10538,-28.28462 32.10552,-28.28457 32.10571,-28.28449 32.10583,-28.28442 32.10595,-28.28434 32.10611,-28.28425 32.10623,-28.28414 32.10631,-28.28397 32.10622,-28.28387 32.10617,-28.28386 32.10602,-28.28387 32.10593,-28.2838 32.10588,-28.28372 32.10587,-28.28366 32.10582,-28.28352 32.10572,-28.28337 32.10563,-28.2833 32.10549,-28.28318 32.10538,-28.28301 32.10533,-28.28282 32.10528,-28.28263 32.10528,-28.28244 32.10527,-28.28225 32.10526,-28.28209 32.10517,-28.28194 32.10509,-28.28184 32.10506,-28.28169 32.10498,-28.28163 32.1049,-28.28156 32.10493,-28.28139 32.10489,-28.2812 32.10491,-28.28118 32.10489,-28.2809 32.10486,-28.28073 32.10484,-28.28062 32.10483,-28.28052 32.10481,-28.28037 32.1048,-28.28022 32.1048,-28.28012 32.10477,-28.28007 32.10476,-28.27989 32.10475,-28.27972 32.1047,-28.27955 32.10463,-28.27937 32.10461,-28.27926 32.10466,-28.27909 32.10465,-28.27895 32.10475,-28.27881 32.10486,-28.27877 32.10501,-28.27875 32.1052,-28.27872 32.10537,-28.27864 32.10551,-28.27861 32.10567,-28.27862 32.10582,-28.27863 32.10596,-28.27862 32.10611,-28.27863 32.10614,-28.27844 32.10632,-28.27837 32.10641,-28.27827 32.1065,-28.27821 32.10669,-28.27811 32.10693,-28.27814 32.1071,-28.27816 32.10733,-28.27813 32.10755,-28.27814 32.10767,-28.27819 32.1078,-28.27817 32.10801,-28.27819 32.1081,-28.27818 32.10835,-28.27815 32.10855,-28.2781 32.10877,-28.27804 32.10895,-28.27801 32.10908,-28.27801 32.10933,-28.27801 32.10954,-28.27801 32.10974,-28.27806 32.10989,-28.2781 32.11007,-28.27815 32.11029,-28.27825 32.11037,-28.27829 32.11046,-28.27836 32.11056,-28.27846 32.11065,-28.27855 32.11076,-28.27863 32.11085,-28.27868 32.11087,-28.2787 32.11095,-28.27876 32.11109,-28.27885 32.11119,-28.27889 32.11133,-28.27893 32.11151,-28.27895 32.1116,-28.27898 32.11178,-28.27898 32.11198,-28.27897 32.11213,-28.27895 32.11241,-28.27891 32.1127,-28.27888 32.1129,-28.27886 32.11305,-28.27889 32.11325,-28.27896 32.11336,-28.27899 32.1135,-28.27902 32.11363,-28.27903 32.11375,-28.27911 32.11384,-28.27916 32.11389,-28.27923 32.11389,-28.27933 32.11388,-28.27942 32.11389,-28.27948 32.114,-28.27955 32.11406,-28.27962 32.11415,-28.27967 32.11415,-28.27981 32.11411,-28.27997 32.11411,-28.2801 32.1141,-28.28023 32.11407,-28.28033 32.11404,-28.28045 32.11398,-28.28053 32.11384,-28.2806 32.11366,-28.28068 32.11361,-28.28072 32.11356,-28.28083 32.11343,-28.28097 32.11346,-28.28111 32.11354,-28.28121 32.11356,-28.2813 32.1136,-28.28147 32.11364,-28.28156 32.11368,-28.28161 32.11377,-28.28167 32.11386,-28.28179 32.11396,-28.28185 32.1141,-28.2819 32.11417,-28.28196 32.11424,-28.28202 32.11425,-28.28205 32.11436,-28.28215 32.11444,-28.28219 32.11451,-28.28214 32.11463,-28.28205 32.11479,-28.28203 32.11493,-28.28219 32.11501,-28.28228 32.11515,-28.28251 32.1152,-28.28263 32.11525,-28.28273 32.11528,-28.28279 32.11534,-28.28281 32.11546,-28.28283 32.11558,-28.28289 32.11564,-28.28297 32.11569,-28.28308 32.11571,-28.28321 32.11579,-28.28326 32.11596,-28.28336 32.11608,-28.28341 32.11607,-28.28347 32.11615,-28.28352 32.11624,-28.28358 32.11629,-28.28366 32.11626,-28.28371 32.11632,-28.28375 32.11637,-28.28379 32.11646,-28.28385 32.11657,-28.28392 32.11667,-28.28394 32.1167,-28.28395 32.11681,-28.28393 32.11691,-28.28394 32.11703,-28.28399 32.1171,-28.28405 32.11718,-28.28411 32.11728,-28.28417 32.11734,-28.28422 32.11739,-28.28433 32.11741,-28.28436 32.11751,-28.28443 32.11755,-28.28445 32.1177,-28.28448 32.11778,-28.28451 32.11785,-28.28459 32.11781,-28.28465 32.11775,-28.28469 32.1178,-28.28487 32.1178,-28.285 32.11788,-28.28516 32.118,-28.28518 32.11805,-28.28516 32.11822,-28.28508 32.11832,-28.28503 32.1184,-28.28498 32.11845,-28.28494 32.11857,-28.28487 32.11868,-28.2848 32.11875,-28.28472 32.11887,-28.28463 32.11898,-28.28456 32.11902,-28.28449 32.11917,-28.28436 32.11919,-28.2843 32.11923,-28.28422 32.11927,-28.28416 32.1193,-28.28406 32.11933,-28.28396 32.11937,-28.28387 32.11943,-28.28372 32.11947,-28.28357 32.1195,-28.28345 32.11955,-28.28337 32.11958,-28.28324 32.11963,-28.28313 32.1197,-28.28289 32.11972,-28.28275 32.11975,-28.28267 32.11978,-28.28257 32.11978,-28.28251 32.11975,-28.2824 32.11975,-28.28226 32.11976,-28.28215 32.11978,-28.28201 32.11979,-28.2819 32.11981,-28.28182 32.11982,-28.28171 32.11982,-28.28157 32.11981,-28.28141 32.11977,-28.28131 32.11974,-28.28117 32.11969,-28.28107 32.11962,-28.28092 32.11962,-28.28084 32.11966,-28.28062 32.11972,-28.28041 32.11974,-28.28033 32.11981,-28.28018 32.11985,-28.28008 32.11991,-28.27992 32.11991,-28.27983 32.11993,-28.27973 32.11995,-28.2796 32.11998,-28.27949 32.12002,-28.27934 32.12005,-28.27925 32.12006,-28.27918 32.12006,-28.27906 32.12002,-28.27898 32.11998,-28.27885 32.11992,-28.27875 32.11992,-28.27869 32.1199,-28.27858 32.11988,-28.27848 32.11985,-28.27832 32.11987,-28.27816 32.11993,-28.27789 32.11997,-28.27763 32.11997,-28.27751 32.12007,-28.27737 32.12009,-28.27723 32.12022,-28.27715 32.12038,-28.27708 32.12045,-28.27703 32.12054,-28.27696 32.12074,-28.27691 32.12085,-28.27685 32.12099,-28.27678 32.12106,-28.27674 32.12127,-28.2766 32.12138,-28.27653 32.12154,-28.27637 32.12166,-28.27629 32.12184,-28.27617 32.12197,-28.27613 32.1221,-28.27606 32.12229,-28.27597 32.12244,-28.27591 32.12258,-28.27581 32.12271,-28.27576 32.12289,-28.27572 32.12304,-28.27562 32.12317,-28.27561 32.12337,-28.27559 32.12348,-28.27555 32.12355,-28.2755 32.12369,-28.27549 32.12374,-28.27551 32.12382,-28.27553 32.12391,-28.27557 32.12406,-28.27553 32.12414,-28.27551 32.12429,-28.27551 32.12439,-28.27547 32.12451,-28.27539 32.12472,-28.27539 32.12484,-28.27548</coordinates></LinearRing></outerBoundaryIs></Polygon></MultiGeometry></Placemark></Document></kml>