<?xml version="1.0" encoding="UTF-8"?><kml xmlns="http://www.opengis.net/kml/2.2"><Document><Placemark><name>Gingindlovu</name><description>Main Place 589137</description><ExtendedData><Data name="code"><value>589137</value></Data><Data name="name"><value>Gingindlovu</value></Data><Data name="description"><value>Main Place 589137</value></Data></ExtendedData><MultiGeometry><Polygon><outerBoundaryIs><LinearRing><coordinates>31.59009,-29.03333 31.58853,-29.03425 31.58799,-29.03432 31.5875,-29.03399 31.58728,-29.03424 31.5861,-29.03533 31.58591,-29.0354 31.58475,-29.03584 31.58239,-29.03669 31.58226,-29.03646 31.58115,-29.03464 31.581,-29.03439 31.58027,-29.03331 31.57954,-29.0321 31.57948,-29.03197 31.57884,-29.03095 31.57829,-29.03026 31.57817,-29.03011 31.57479,-29.02491 31.57482,-29.02455 31.57482,-29.02428 31.57482,-29.02426 31.5749,-29.0207 31.57504,-29.01916 31.57514,-29.01809 31.57514,-29.01779 31.57523,-29.01735 31.5767,-29.0169 31.57751,-29.01663 31.5782,-29.01644 31.58123,-29.01546 31.58168,-29.01535 31.58205,-29.01526 31.58269,-29.01512 31.58445,-29.01476 31.58555,-29.01463 31.58694,-29.01442 31.58331,-29.01744 31.58373,-29.01801 31.5843,-29.01867 31.58454,-29.01892 31.5846,-29.01898 31.58499,-29.01937 31.58593,-29.02019 31.58664,-29.02086 31.58722,-29.02169 31.58821,-29.02318 31.5887,-29.02411 31.58887,-29.02471 31.58911,-29.02584 31.58937,-29.02708 31.58968,-29.02841 31.59072,-29.0314 31.58995,-29.03184 31.58909,-29.03237 31.59009,-29.03333</coordinates></LinearRing></outerBoundaryIs></Polygon></MultiGeometry></Placemark></Document></kml>