<?xml version="1.0" encoding="UTF-8"?><kml xmlns="http://www.opengis.net/kml/2.2"><Document><Placemark><name>Nonoti</name><description>Main Place 592006</description><ExtendedData><Data name="code"><value>592006</value></Data><Data name="name"><value>Nonoti</value></Data><Data name="description"><value>Main Place 592006</value></Data></ExtendedData><MultiGeometry><Polygon><outerBoundaryIs><LinearRing><coordinates>31.34874,-29.23866 31.3494,-29.23895 31.34966,-29.23906 31.34982,-29.23913 31.35023,-29.23931 31.35108,-29.23969 31.35194,-29.24008 31.35239,-29.24028 31.3525,-29.24033 31.35313,-29.24061 31.3535,-29.24077 31.35445,-29.24119 31.35451,-29.24122 31.35453,-29.24123 31.35478,-29.24134 31.35542,-29.24163 31.35617,-29.24196 31.35646,-29.24209 31.35687,-29.24227 31.35696,-29.24231 31.35713,-29.24239 31.35718,-29.24241 31.3573,-29.24246 31.35741,-29.24251 31.35745,-29.24253 31.35757,-29.24259 31.35761,-29.2426 31.3577,-29.24264 31.35775,-29.24266 31.35777,-29.24267 31.35791,-29.24274 31.35812,-29.24283 31.35814,-29.24284 31.35252,-29.25105 31.34809,-29.2576 31.34604,-29.26058 31.34464,-29.26263 31.34455,-29.26262 31.3445,-29.2626 31.34442,-29.26254 31.34432,-29.26243 31.34426,-29.26234 31.3442,-29.26227 31.34401,-29.26211 31.34396,-29.26207 31.34356,-29.26171 31.34339,-29.26154 31.3433,-29.2614 31.3432,-29.26106 31.34313,-29.26066 31.34308,-29.26046 31.34303,-29.26034 31.34282,-29.26 31.34272,-29.25978 31.3425,-29.25907 31.34242,-29.2589 31.34231,-29.25868 31.34228,-29.25854 31.34219,-29.25801 31.34205,-29.25761 31.34192,-29.25736 31.34145,-29.25662 31.34127,-29.2562 31.34114,-29.25577 31.34099,-29.25534 31.34093,-29.25527 31.34086,-29.25523 31.34072,-29.25521 31.34055,-29.25523 31.34022,-29.25531 31.3397,-29.25558 31.33956,-29.25563 31.33945,-29.25573 31.3393,-29.25589 31.33922,-29.25602 31.33903,-29.25624 31.33857,-29.25681 31.33831,-29.25715 31.33816,-29.25733 31.33798,-29.2575 31.33768,-29.25772 31.33762,-29.25779 31.33747,-29.25796 31.33716,-29.25837 31.33704,-29.25851 31.33687,-29.25865 31.33667,-29.25876 31.33633,-29.25892 31.33568,-29.2592 31.33526,-29.25938 31.33499,-29.25954 31.33468,-29.25977 31.33445,-29.26001 31.33428,-29.26029 31.33338,-29.26208 31.33295,-29.26361 31.33281,-29.26416 31.33281,-29.26422 31.33284,-29.26428 31.33287,-29.26434 31.33287,-29.26443 31.33261,-29.26508 31.33241,-29.26537 31.33224,-29.26552 31.33211,-29.2656 31.33205,-29.26571 31.33204,-29.26586 31.33202,-29.26599 31.33185,-29.26626 31.33172,-29.26638 31.33153,-29.26647 31.33125,-29.26653 31.33092,-29.2666 31.33069,-29.26669 31.33057,-29.26672 31.3304,-29.26673 31.32943,-29.2666 31.3292,-29.26655 31.32871,-29.2664 31.32813,-29.26614 31.32776,-29.26595 31.32722,-29.2656 31.32604,-29.26448 31.32461,-29.26294 31.32426,-29.26257 31.32417,-29.2624 31.3238,-29.26124 31.32363,-29.26101 31.3235,-29.26096 31.3234,-29.2609 31.32293,-29.26017 31.32284,-29.25988 31.3228,-29.25967 31.32283,-29.25942 31.32294,-29.25885 31.32294,-29.25774 31.32267,-29.25615 31.3225,-29.25584 31.32219,-29.25566 31.32171,-29.25558 31.3199,-29.25566 31.31885,-29.25582 31.31805,-29.2561 31.31798,-29.25613 31.31743,-29.25641 31.31676,-29.25704 31.31636,-29.25754 31.31604,-29.25824 31.31591,-29.25901 31.31575,-29.25955 31.31554,-29.25986 31.31521,-29.26005 31.31475,-29.26016 31.31444,-29.26016 31.31385,-29.25983 31.31313,-29.2594 31.31138,-29.25867 31.30974,-29.25816 31.30791,-29.25759 31.30731,-29.25733 31.3067,-29.2569 31.30648,-29.2567 31.30613,-29.25586 31.30607,-29.25558 31.30607,-29.2554 31.30714,-29.25291 31.30734,-29.2526 31.30751,-29.25248 31.30808,-29.25232 31.30843,-29.25225 31.30872,-29.25209 31.30903,-29.25186 31.30934,-29.25172 31.30963,-29.25168 31.31004,-29.25172 31.31024,-29.25182 31.31064,-29.2522 31.31097,-29.2526 31.31117,-29.25281 31.3114,-29.25297 31.31155,-29.25314 31.31193,-29.2536 31.31212,-29.2536 31.31226,-29.25351 31.31235,-29.25326 31.3126,-29.2526 31.31275,-29.25182 31.31295,-29.25036 31.31309,-29.24973 31.31346,-29.24865 31.31387,-29.24794 31.32064,-29.24963 31.32171,-29.24916 31.32205,-29.24896 31.32224,-29.24881 31.32237,-29.24869 31.32252,-29.24851 31.32279,-29.24809 31.323,-29.2478 31.32316,-29.24763 31.32342,-29.24739 31.3237,-29.24709 31.32375,-29.24703 31.32344,-29.24682 31.32324,-29.24677 31.32313,-29.24675 31.32295,-29.24671 31.32275,-29.2466 31.32245,-29.24648 31.32253,-29.24624 31.32293,-29.24547 31.32359,-29.24594 31.32374,-29.24575 31.32385,-29.2455 31.3239,-29.24536 31.32407,-29.24514 31.32447,-29.24467 31.32535,-29.24497 31.32649,-29.24344 31.32674,-29.24303 31.32737,-29.24134 31.32749,-29.24086 31.32747,-29.24038 31.32729,-29.23971 31.3272,-29.23931 31.32791,-29.23907 31.3281,-29.23904 31.32826,-29.23903 31.32847,-29.23904 31.32866,-29.23908 31.32907,-29.23921 31.32945,-29.23932 31.32983,-29.23942 31.33009,-29.23946 31.33036,-29.23945 31.33063,-29.23941 31.33089,-29.23936 31.3311,-29.23929 31.33135,-29.23919 31.33204,-29.23884 31.33236,-29.23871 31.33255,-29.23867 31.3328,-29.23866 31.33298,-29.23868 31.33315,-29.2387 31.33358,-29.23884 31.33699,-29.23471 31.33953,-29.23177 31.34118,-29.22986 31.3412,-29.22983 31.3418,-29.23059 31.34349,-29.23287 31.34416,-29.23375 31.34445,-29.23412 31.34474,-29.23451 31.34506,-29.23492 31.34537,-29.23533 31.34569,-29.23574 31.34631,-29.23656 31.3466,-29.23693 31.34665,-29.23699 31.34716,-29.23767 31.34749,-29.2381 31.34775,-29.23822 31.34781,-29.23825 31.34874,-29.23866</coordinates></LinearRing></outerBoundaryIs></Polygon></MultiGeometry></Placemark></Document></kml>