<?xml version="1.0" encoding="UTF-8"?><kml xmlns="http://www.opengis.net/kml/2.2"><Document><Placemark><name>Clare Hills</name><description>Sub Place 599054020</description><ExtendedData><Data name="code"><value>599054020</value></Data><Data name="name"><value>Clare Hills</value></Data><Data name="description"><value>Sub Place 599054020</value></Data></ExtendedData><MultiGeometry><Polygon><outerBoundaryIs><LinearRing><coordinates>30.98338,-29.80965 30.98313,-29.81022 30.98282,-29.81092 30.98264,-29.81134 30.98275,-29.81175 30.983,-29.8124 30.98307,-29.81262 30.9832,-29.81296 30.98338,-29.81309 30.98396,-29.81342 30.98441,-29.81559 30.98375,-29.81652 30.98376,-29.81659 30.98479,-29.81671 30.98518,-29.81649 30.98583,-29.81673 30.98572,-29.81735 30.9854,-29.81772 30.98546,-29.81827 30.98548,-29.81851 30.98572,-29.81896 30.98618,-29.81894 30.9868,-29.81865 30.98717,-29.81856 30.98748,-29.81857 30.98748,-29.81895 30.9873,-29.81912 30.98707,-29.81933 30.98693,-29.81956 30.98688,-29.81965 30.98672,-29.81984 30.98665,-29.81991 30.98661,-29.81999 30.98658,-29.82004 30.98649,-29.82013 30.98641,-29.82024 30.98637,-29.82033 30.98633,-29.82044 30.98622,-29.82056 30.98614,-29.82068 30.98575,-29.82119 30.9857,-29.82124 30.98563,-29.82128 30.98555,-29.82133 30.98548,-29.82137 30.98543,-29.82143 30.9853,-29.8215 30.9852,-29.82159 30.9852,-29.82162 30.9852,-29.82172 30.98511,-29.82187 30.98499,-29.82215 30.98481,-29.82249 30.98452,-29.8231 30.98432,-29.82354 30.98413,-29.82393 30.98412,-29.82396 30.98394,-29.82433 30.98375,-29.82474 30.9836,-29.82501 30.98348,-29.82528 30.98315,-29.82558 30.98274,-29.82599 30.98221,-29.82652 30.98189,-29.82596 30.98169,-29.82558 30.98146,-29.82516 30.98121,-29.82471 30.98104,-29.82484 30.98087,-29.82509 30.98048,-29.82561 30.98038,-29.82576 30.98034,-29.82585 30.98027,-29.826 30.98021,-29.8261 30.98008,-29.82626 30.97994,-29.82644 30.97988,-29.8265 30.97986,-29.82652 30.97972,-29.82663 30.97954,-29.82676 30.97944,-29.82687 30.97926,-29.82711 30.97905,-29.82738 30.97885,-29.82766 30.97858,-29.82801 30.97846,-29.82819 30.97816,-29.82797 30.97635,-29.82738 30.97602,-29.82615 30.97558,-29.8261 30.97556,-29.8261 30.97513,-29.82609 30.97486,-29.82601 30.97484,-29.826 30.97465,-29.82588 30.97447,-29.8257 30.9743,-29.82556 30.9743,-29.82556 30.9743,-29.82556 30.9743,-29.82556 30.9743,-29.82556 30.97429,-29.82556 30.97429,-29.82556 30.97424,-29.82554 30.97416,-29.82551 30.97413,-29.8255 30.97409,-29.82548 30.97405,-29.82548 30.974,-29.82544 30.97394,-29.8254 30.97387,-29.82535 30.97378,-29.8253 30.97363,-29.82525 30.97343,-29.82519 30.9733,-29.82515 30.97321,-29.82512 30.97317,-29.8251 30.97307,-29.82505 30.97301,-29.8251 30.97294,-29.82505 30.97286,-29.82503 30.9728,-29.82507 30.97262,-29.82509 30.97254,-29.82515 30.97238,-29.82517 30.97235,-29.82512 30.97219,-29.82512 30.97205,-29.8252 30.97188,-29.82526 30.97176,-29.82522 30.97155,-29.8251 30.97146,-29.82513 30.97134,-29.82517 30.97123,-29.82518 30.97108,-29.82525 30.97101,-29.82527 30.97084,-29.82527 30.97064,-29.82532 30.97049,-29.82536 30.96968,-29.82464 30.96882,-29.82388 30.96766,-29.82327 30.96725,-29.82311 30.96729,-29.82266 30.96734,-29.82219 30.96739,-29.82197 30.9675,-29.82165 30.96764,-29.82128 30.96767,-29.82124 30.96773,-29.82112 30.9678,-29.82098 30.96801,-29.82065 30.96822,-29.82038 30.9685,-29.82006 30.96871,-29.81986 30.96892,-29.81969 30.96898,-29.81964 30.96927,-29.81941 30.96958,-29.81917 30.96966,-29.81911 30.97009,-29.81877 30.97053,-29.81844 30.97112,-29.81796 30.97159,-29.81762 30.97175,-29.81749 30.97176,-29.81747 30.97196,-29.81727 30.97226,-29.81694 30.9725,-29.81665 30.9727,-29.81634 30.97299,-29.8158 30.97329,-29.81525 30.97357,-29.81471 30.97388,-29.81407 30.97418,-29.81351 30.97443,-29.81302 30.97469,-29.8125 30.97512,-29.81168 30.97531,-29.81131 30.9755,-29.81095 30.97596,-29.81004 30.97625,-29.80948 30.97666,-29.80871 30.97686,-29.80828 30.97715,-29.80771 30.9774,-29.80725 30.97762,-29.80691 30.97794,-29.80652 30.97833,-29.80606 30.97926,-29.80662 30.98003,-29.80708 30.9801,-29.80713 30.9809,-29.80761 30.98134,-29.80788 30.98181,-29.80818 30.9823,-29.80848 30.98293,-29.80886 30.98348,-29.80917 30.98357,-29.80922 30.98338,-29.80965</coordinates></LinearRing></outerBoundaryIs><innerBoundaryIs><LinearRing><coordinates>30.97814,-29.81335 30.97818,-29.81358 30.9783,-29.81357 30.97874,-29.81357 30.979,-29.81356 30.97912,-29.81354 30.97928,-29.8135 30.97938,-29.81345 30.97947,-29.81339 30.97956,-29.81331 30.9796,-29.81327 30.97994,-29.81314 30.98018,-29.81319 30.98019,-29.81319 30.98025,-29.81313 30.98033,-29.81301 30.98049,-29.81281 30.98058,-29.81268 30.98074,-29.81245 30.98083,-29.81233 30.98085,-29.8123 30.98093,-29.81209 30.98098,-29.81195 30.98102,-29.81184 30.98112,-29.81159 30.9812,-29.81142 30.98126,-29.81124 30.98129,-29.81113 30.98132,-29.81095 30.98134,-29.81086 30.98134,-29.81072 30.98136,-29.81061 30.98136,-29.8105 30.98137,-29.81035 30.98137,-29.81015 30.98138,-29.81002 30.98138,-29.80993 30.98128,-29.8098 30.98122,-29.80971 30.97967,-29.80975 30.97962,-29.80976 30.97966,-29.81007 30.97967,-29.81018 30.97968,-29.81022 30.97968,-29.81034 30.97967,-29.81047 30.97964,-29.81058 30.97958,-29.81068 30.97949,-29.81076 30.97939,-29.81081 30.97929,-29.81085 30.97915,-29.81087 30.97904,-29.81087 30.97891,-29.81091 30.97876,-29.81094 30.97864,-29.81099 30.97849,-29.81104 30.97835,-29.8111 30.97822,-29.81117 30.97807,-29.81127 30.97797,-29.81136 30.9779,-29.81147 30.97784,-29.81158 30.97783,-29.81173 30.97783,-29.81178 30.97784,-29.81189 30.9779,-29.81212 30.97797,-29.81245 30.97798,-29.81249 30.97806,-29.8129 30.97814,-29.81335</coordinates></LinearRing></innerBoundaryIs></Polygon></MultiGeometry></Placemark></Document></kml>