<?xml version="1.0" encoding="UTF-8"?><kml xmlns="http://www.opengis.net/kml/2.2"><Document><Placemark><name>Inanda A</name><description>Main Place 599037</description><ExtendedData><Data name="code"><value>599037</value></Data><Data name="name"><value>Inanda A</value></Data><Data name="description"><value>Main Place 599037</value></Data></ExtendedData><MultiGeometry><Polygon><outerBoundaryIs><LinearRing><coordinates>30.93452,-29.66508 30.93513,-29.66538 30.93561,-29.66565 30.93584,-29.66586 30.93608,-29.66615 30.93635,-29.66628 30.93661,-29.66642 30.93654,-29.66654 30.93661,-29.66669 30.93672,-29.66685 30.93684,-29.66687 30.93696,-29.66693 30.93719,-29.66704 30.93727,-29.66711 30.93738,-29.66713 30.93755,-29.66715 30.93763,-29.66716 30.93767,-29.66722 30.9377,-29.66727 30.93776,-29.66731 30.93792,-29.66738 30.93805,-29.66745 30.93817,-29.66759 30.93821,-29.66767 30.93837,-29.66771 30.93871,-29.66789 30.93887,-29.66798 30.94038,-29.66893 30.93965,-29.66972 30.94027,-29.67008 30.94052,-29.67007 30.94125,-29.66997 30.94135,-29.66997 30.9415,-29.67002 30.94203,-29.67016 30.94268,-29.6703 30.94288,-29.67035 30.94299,-29.6704 30.94315,-29.67043 30.94326,-29.67049 30.94366,-29.67088 30.94436,-29.67078 30.94438,-29.67075 30.94442,-29.67075 30.94449,-29.67075 30.94457,-29.67072 30.94464,-29.67068 30.9455,-29.67175 30.94558,-29.67167 30.94566,-29.67161 30.94573,-29.67158 30.94584,-29.67153 30.9459,-29.6715 30.94597,-29.67148 30.94603,-29.67148 30.94611,-29.67147 30.94646,-29.67146 30.94673,-29.67146 30.94682,-29.67146 30.94705,-29.67146 30.94711,-29.67147 30.94725,-29.67149 30.94736,-29.67151 30.94749,-29.67154 30.94758,-29.67158 30.94772,-29.67163 30.94789,-29.6717 30.94795,-29.67174 30.9481,-29.67183 30.94815,-29.67188 30.94822,-29.67194 30.94837,-29.67205 30.9485,-29.67214 30.94884,-29.67242 30.94914,-29.67265 30.94923,-29.67273 30.9493,-29.6728 30.94937,-29.67286 30.94941,-29.67292 30.94947,-29.67302 30.94957,-29.67319 30.94963,-29.67332 30.94971,-29.67345 30.94976,-29.67351 30.94983,-29.67359 30.94991,-29.67367 30.94998,-29.67372 30.95008,-29.67379 30.95015,-29.67384 30.95019,-29.67386 30.95031,-29.67393 30.95041,-29.67398 30.95051,-29.67401 30.95101,-29.67414 30.95166,-29.67433 30.95262,-29.67459 30.95283,-29.67465 30.95314,-29.67474 30.95347,-29.67482 30.95364,-29.67488 30.95378,-29.67492 30.95388,-29.67497 30.95407,-29.67508 30.95417,-29.67515 30.95427,-29.67521 30.95444,-29.67533 30.95459,-29.67541 30.9547,-29.67545 30.95486,-29.67549 30.95502,-29.67549 30.95555,-29.67555 30.95574,-29.67553 30.95594,-29.67552 30.9565,-29.67555 30.95665,-29.67556 30.95673,-29.67554 30.95679,-29.6755 30.95692,-29.67536 30.95702,-29.67537 30.95718,-29.67541 30.95726,-29.67544 30.9574,-29.67549 30.9577,-29.67562 30.95796,-29.67573 30.95833,-29.67587 30.95809,-29.67693 30.95803,-29.67692 30.95752,-29.67687 30.95749,-29.67746 30.95753,-29.67749 30.95757,-29.67753 30.95762,-29.67754 30.95769,-29.67757 30.95772,-29.67759 30.95778,-29.67763 30.95784,-29.67768 30.95789,-29.67774 30.95793,-29.67778 30.95799,-29.67782 30.95805,-29.67787 30.95814,-29.67792 30.95819,-29.67796 30.95824,-29.67801 30.95828,-29.67806 30.95832,-29.67812 30.95835,-29.67817 30.9584,-29.67821 30.95844,-29.67825 30.95845,-29.67828 30.95845,-29.67833 30.95848,-29.67837 30.95856,-29.67843 30.95867,-29.67852 30.95871,-29.67856 30.95875,-29.67858 30.95882,-29.6786 30.95886,-29.67866 30.95887,-29.67869 30.95892,-29.67872 30.95901,-29.67876 30.95906,-29.6788 30.9591,-29.67884 30.95915,-29.67888 30.95919,-29.67891 30.95926,-29.67892 30.95932,-29.67893 30.95935,-29.67893 30.95938,-29.67893 30.95942,-29.67895 30.95945,-29.679 30.95949,-29.67904 30.95956,-29.67911 30.95961,-29.67913 30.95965,-29.67918 30.95968,-29.6792 30.95977,-29.67926 30.95978,-29.67933 30.95978,-29.67936 30.95978,-29.67941 30.95979,-29.67944 30.95979,-29.67947 30.9598,-29.6795 30.95985,-29.6795 30.95989,-29.67952 30.95991,-29.67956 30.95991,-29.67961 30.95989,-29.67965 30.95987,-29.67968 30.95987,-29.67972 30.95989,-29.67977 30.95993,-29.67982 30.95996,-29.67986 30.95998,-29.67992 30.96003,-29.67994 30.9601,-29.67998 30.96014,-29.68004 30.96037,-29.68005 30.96061,-29.6801 30.96076,-29.68013 30.961,-29.6802 30.9613,-29.68037 30.96173,-29.68059 30.96184,-29.68066 30.96201,-29.68075 30.96212,-29.68083 30.96223,-29.68092 30.96232,-29.68094 30.96244,-29.68097 30.96264,-29.68107 30.96284,-29.68112 30.963,-29.68113 30.96326,-29.68113 30.9635,-29.68115 30.96375,-29.68115 30.96391,-29.68112 30.96417,-29.68111 30.96433,-29.68111 30.96456,-29.68111 30.96472,-29.68111 30.96491,-29.68104 30.96532,-29.68104 30.96539,-29.68109 30.96547,-29.68112 30.96553,-29.68119 30.96557,-29.68127 30.96562,-29.68134 30.96572,-29.68143 30.96574,-29.68149 30.96574,-29.6816 30.96579,-29.68168 30.96583,-29.68178 30.96583,-29.68186 30.96584,-29.68191 30.96574,-29.68195 30.9654,-29.68212 30.96522,-29.6823 30.96516,-29.68234 30.965,-29.68238 30.96491,-29.68242 30.96474,-29.68255 30.96463,-29.68271 30.96448,-29.68286 30.96427,-29.68301 30.9642,-29.6831 30.96405,-29.68322 30.96396,-29.68326 30.96379,-29.68331 30.96367,-29.68331 30.96354,-29.6834 30.96335,-29.6834 30.96326,-29.68345 30.96316,-29.68353 30.96316,-29.68367 30.96323,-29.68383 30.96327,-29.68399 30.96329,-29.68429 30.96322,-29.68432 30.96319,-29.68439 30.96317,-29.68443 30.96313,-29.68447 30.9631,-29.6845 30.96308,-29.68456 30.96303,-29.68465 30.96302,-29.68472 30.96299,-29.68479 30.96294,-29.68484 30.96288,-29.6849 30.96285,-29.68497 30.96283,-29.68506 30.96282,-29.68517 30.96278,-29.68523 30.96275,-29.68531 30.96271,-29.68536 30.96267,-29.68541 30.96267,-29.68546 30.96264,-29.68548 30.96261,-29.68555 30.96254,-29.68563 30.96249,-29.68572 30.96238,-29.68587 30.96231,-29.68597 30.96225,-29.68609 30.9622,-29.68615 30.96209,-29.68623 30.96203,-29.68628 30.96199,-29.68631 30.96194,-29.68637 30.96185,-29.68641 30.9618,-29.68646 30.96173,-29.68647 30.96164,-29.68647 30.96155,-29.68649 30.96147,-29.68649 30.96138,-29.68653 30.96133,-29.6865 30.96126,-29.68645 30.96115,-29.68638 30.96106,-29.68634 30.96092,-29.68628 30.96079,-29.68623 30.96066,-29.68618 30.96059,-29.68611 30.96053,-29.68603 30.96047,-29.68595 30.96038,-29.68591 30.96033,-29.68588 30.96026,-29.68586 30.96022,-29.68583 30.96015,-29.68581 30.96005,-29.68581 30.95993,-29.68581 30.95985,-29.68582 30.95975,-29.68584 30.95967,-29.68585 30.95961,-29.68587 30.95953,-29.68591 30.95947,-29.68598 30.95945,-29.68603 30.9594,-29.68611 30.95931,-29.6862 30.95925,-29.68631 30.95917,-29.68636 30.95913,-29.68644 30.95907,-29.68652 30.95899,-29.68666 30.95892,-29.68683 30.95886,-29.68695 30.9587,-29.687 30.95857,-29.68711 30.95851,-29.68722 30.95841,-29.68731 30.95834,-29.68734 30.95827,-29.68736 30.95822,-29.68742 30.95794,-29.68737 30.95793,-29.6874 30.95791,-29.68744 30.95791,-29.68746 30.95793,-29.68751 30.95792,-29.68753 30.9579,-29.68761 30.95791,-29.68763 30.9579,-29.68766 30.95788,-29.68771 30.95787,-29.68774 30.95785,-29.68775 30.95784,-29.68778 30.95783,-29.6878 30.9578,-29.68782 30.9578,-29.68784 30.95779,-29.68786 30.95777,-29.68791 30.95777,-29.68795 30.95778,-29.68796 30.95781,-29.68797 30.95783,-29.68796 30.95785,-29.68796 30.95786,-29.68798 30.95787,-29.68802 30.95786,-29.68805 30.95785,-29.68808 30.95786,-29.68812 30.95788,-29.68818 30.95789,-29.6882 30.95791,-29.68824 30.95794,-29.68826 30.95796,-29.68828 30.95798,-29.68833 30.95803,-29.68839 30.95806,-29.68842 30.95812,-29.6885 30.95813,-29.68854 30.95814,-29.68859 30.95813,-29.68863 30.95815,-29.68867 30.95816,-29.68869 30.95817,-29.68874 30.95818,-29.68876 30.95819,-29.6888 30.95822,-29.68889 30.95823,-29.6889 30.95822,-29.68893 30.95822,-29.68897 30.95822,-29.68902 30.95826,-29.68902 30.95827,-29.68907 30.95828,-29.68912 30.95832,-29.6892 30.95789,-29.68957 30.95762,-29.68981 30.95755,-29.68987 30.9574,-29.69002 30.95719,-29.69018 30.95709,-29.69025 30.95701,-29.69031 30.957,-29.69031 30.95693,-29.69034 30.95687,-29.69037 30.95686,-29.69037 30.95676,-29.69041 30.95662,-29.69048 30.95652,-29.69054 30.95641,-29.6906 30.9563,-29.69067 30.95607,-29.69082 30.95589,-29.69091 30.95585,-29.69093 30.95564,-29.69101 30.9554,-29.69108 30.95523,-29.69113 30.95508,-29.69116 30.95499,-29.69117 30.95489,-29.69119 30.95474,-29.6912 30.95472,-29.69121 30.95459,-29.69123 30.9544,-29.69131 30.95426,-29.69138 30.95407,-29.69148 30.95381,-29.69156 30.95361,-29.69161 30.95342,-29.69163 30.95324,-29.69166 30.95308,-29.6917 30.95293,-29.69175 30.95273,-29.69182 30.95248,-29.69193 30.95207,-29.69209 30.95178,-29.69222 30.95165,-29.69228 30.95135,-29.6924 30.95105,-29.69254 30.95075,-29.69266 30.9506,-29.69272 30.95039,-29.69277 30.95023,-29.69279 30.95007,-29.69278 30.94993,-29.69275 30.9498,-29.6927 30.94976,-29.69268 30.94969,-29.69264 30.94945,-29.69251 30.94925,-29.6924 30.94911,-29.69236 30.94875,-29.69228 30.94835,-29.69224 30.94809,-29.69221 30.94796,-29.69222 30.94783,-29.69226 30.94769,-29.6923 30.94751,-29.69238 30.94732,-29.69249 30.9472,-29.69258 30.94699,-29.69268 30.94672,-29.69276 30.94651,-29.69282 30.94629,-29.69286 30.94616,-29.69288 30.94592,-29.69294 30.94559,-29.69304 30.94537,-29.6931 30.94518,-29.69316 30.94504,-29.69321 30.94502,-29.69322 30.94461,-29.69333 30.9446,-29.69333 30.94446,-29.69336 30.94443,-29.69336 30.94429,-29.69335 30.9441,-29.69333 30.94392,-29.69333 30.94368,-29.69329 30.94309,-29.6932 30.9428,-29.69315 30.9426,-29.69312 30.94237,-29.69309 30.94211,-29.69307 30.94208,-29.69307 30.94198,-29.69307 30.94172,-29.69307 30.94166,-29.69307 30.94139,-29.69308 30.94126,-29.69308 30.94096,-29.69309 30.94074,-29.69312 30.94048,-29.69316 30.94019,-29.69321 30.94009,-29.69322 30.9398,-29.69327 30.93946,-29.69334 30.93923,-29.69337 30.93884,-29.69346 30.9386,-29.69353 30.93827,-29.69364 30.93794,-29.69373 30.93771,-29.6938 30.93756,-29.69385 30.93732,-29.69394 30.93721,-29.69403 30.93719,-29.69405 30.93645,-29.69482 30.93626,-29.695 30.93608,-29.69519 30.93591,-29.69529 30.93567,-29.69536 30.93547,-29.6954 30.93507,-29.69547 30.93462,-29.69555 30.93431,-29.69562 30.93433,-29.69567 30.93442,-29.69597 30.93446,-29.6962 30.93447,-29.69641 30.93445,-29.69668 30.93441,-29.69691 30.93435,-29.69709 30.93429,-29.6973 30.93418,-29.6978 30.9343,-29.69792 30.93454,-29.69806 30.93498,-29.69832 30.93563,-29.69869 30.93565,-29.6987 30.93573,-29.69874 30.9359,-29.69883 30.93605,-29.69892 30.93626,-29.69903 30.93639,-29.69909 30.93664,-29.6992 30.93704,-29.69934 30.93728,-29.69942 30.93745,-29.69944 30.93751,-29.69945 30.93784,-29.69952 30.93808,-29.69957 30.93844,-29.69961 30.93862,-29.69962 30.9388,-29.69964 30.93904,-29.69964 30.93928,-29.69962 30.93949,-29.6996 30.9397,-29.69958 30.93985,-29.69955 30.93996,-29.69954 30.94018,-29.69949 30.94055,-29.6994 30.94063,-29.69937 30.94086,-29.69929 30.94119,-29.69916 30.94144,-29.69905 30.94161,-29.69896 30.9421,-29.6987 30.94267,-29.69842 30.94301,-29.69825 30.94322,-29.69815 30.94344,-29.69807 30.94352,-29.69804 30.94362,-29.69801 30.94386,-29.69795 30.94404,-29.69792 30.94421,-29.69791 30.94455,-29.69789 30.94474,-29.69791 30.94493,-29.69794 30.94506,-29.69796 30.94524,-29.69801 30.94559,-29.6981 30.94588,-29.69818 30.94589,-29.69818 30.94611,-29.69823 30.94675,-29.6984 30.9469,-29.69843 30.94695,-29.69844 30.94707,-29.69846 30.9472,-29.69848 30.94734,-29.69849 30.94757,-29.69848 30.94771,-29.69847 30.94779,-29.69846 30.94785,-29.69846 30.94793,-29.69845 30.94804,-29.69843 30.94824,-29.69838 30.94833,-29.69836 30.94895,-29.69823 30.94966,-29.69807 30.94981,-29.69804 30.94984,-29.69803 30.95041,-29.6979 30.95062,-29.69786 30.95085,-29.69785 30.9512,-29.69784 30.95137,-29.69784 30.95147,-29.69784 30.95145,-29.69747 30.95141,-29.69713 30.9514,-29.69709 30.95141,-29.69702 30.95143,-29.69692 30.95148,-29.69658 30.9515,-29.69647 30.95152,-29.69607 30.95154,-29.69603 30.95158,-29.69596 30.95162,-29.69592 30.95164,-29.6959 30.95167,-29.69588 30.95151,-29.69552 30.95147,-29.69508 30.95147,-29.69506 30.95149,-29.69494 30.95152,-29.69481 30.95161,-29.69473 30.95174,-29.69467 30.95178,-29.69463 30.95185,-29.69457 30.95197,-29.69453 30.95213,-29.69444 30.9522,-29.69436 30.95222,-29.6943 30.95235,-29.69422 30.95248,-29.69419 30.95267,-29.69419 30.95278,-29.69419 30.95297,-29.69416 30.95312,-29.69412 30.95322,-29.6942 30.95333,-29.69429 30.95343,-29.69429 30.95362,-29.69432 30.95373,-29.69433 30.95387,-29.69432 30.95396,-29.69436 30.95406,-29.69439 30.9541,-29.69444 30.95419,-29.69455 30.95431,-29.69462 30.9544,-29.69462 30.95461,-29.69455 30.95479,-29.69448 30.95499,-29.69451 30.95518,-29.69453 30.95533,-29.69458 30.95546,-29.69467 30.95559,-29.69476 30.95568,-29.69484 30.95581,-29.69491 30.95592,-29.69497 30.95606,-29.69502 30.95617,-29.69499 30.95626,-29.69499 30.95636,-29.69498 30.95654,-29.69495 30.95678,-29.69493 30.95696,-29.69486 30.95714,-29.69481 30.95723,-29.69482 30.95735,-29.6948 30.95743,-29.6948 30.9575,-29.69482 30.95763,-29.69485 30.95768,-29.6949 30.95777,-29.69494 30.95783,-29.69492 30.95797,-29.69492 30.95808,-29.69496 30.95817,-29.69493 30.95828,-29.69495 30.95835,-29.69495 30.95843,-29.69494 30.95853,-29.69486 30.9586,-29.69481 30.95866,-29.69481 30.95872,-29.69472 30.95873,-29.69464 30.95876,-29.69459 30.95876,-29.69451 30.95876,-29.6944 30.95877,-29.69424 30.95885,-29.69418 30.95896,-29.69412 30.95903,-29.69406 30.95902,-29.69395 30.95903,-29.69384 30.95909,-29.69379 30.95919,-29.69371 30.95931,-29.69362 30.95937,-29.69358 30.95947,-29.69349 30.95956,-29.69344 30.95969,-29.69341 30.95976,-29.69338 30.95981,-29.69334 30.95987,-29.69331 30.95993,-29.69326 30.96002,-29.69322 30.96008,-29.69323 30.96014,-29.69322 30.96022,-29.6932 30.96036,-29.69318 30.96046,-29.69318 30.96051,-29.69318 30.96057,-29.69317 30.96062,-29.69321 30.96066,-29.69321 30.96072,-29.69324 30.96076,-29.69329 30.9608,-29.69335 30.96082,-29.69341 30.96085,-29.69344 30.96087,-29.69347 30.96091,-29.69352 30.96098,-29.69358 30.96106,-29.69363 30.96115,-29.69366 30.96122,-29.69366 30.96134,-29.69366 30.96146,-29.69364 30.9616,-29.69362 30.96171,-29.69362 30.96184,-29.69362 30.96192,-29.69361 30.96204,-29.6936 30.9621,-29.69359 30.96219,-29.69359 30.96226,-29.69359 30.96237,-29.69356 30.96242,-29.69355 30.96256,-29.69352 30.96268,-29.69351 30.96274,-29.69346 30.96278,-29.6934 30.9628,-29.69333 30.9628,-29.69326 30.96283,-29.6932 30.96287,-29.69312 30.96295,-29.69307 30.9633,-29.69289 30.96335,-29.69285 30.96342,-29.69279 30.96347,-29.69271 30.96389,-29.69258 30.96399,-29.69259 30.96406,-29.69261 30.96414,-29.69262 30.96423,-29.69263 30.96433,-29.69262 30.96443,-29.69259 30.96446,-29.69259 30.96453,-29.69256 30.96464,-29.69252 30.96466,-29.6925 30.96469,-29.69249 30.96474,-29.6925 30.96479,-29.6925 30.96484,-29.6925 30.96491,-29.69248 30.96494,-29.69247 30.96499,-29.69247 30.96513,-29.69248 30.96561,-29.69245 30.96577,-29.69245 30.96591,-29.69245 30.96618,-29.69245 30.96636,-29.69242 30.9664,-29.6924 30.96694,-29.69266 30.967,-29.69268 30.96704,-29.69275 30.96713,-29.69283 30.96723,-29.69287 30.9674,-29.6929 30.96747,-29.69292 30.9675,-29.69294 30.96751,-29.69299 30.96752,-29.69303 30.96751,-29.69308 30.96745,-29.69321 30.96742,-29.69327 30.96742,-29.69331 30.96745,-29.69338 30.9675,-29.6934 30.96755,-29.69344 30.96763,-29.69347 30.96765,-29.69358 30.9677,-29.69373 30.96777,-29.694 30.96779,-29.69413 30.96782,-29.6943 30.96784,-29.69444 30.96799,-29.69444 30.96819,-29.69442 30.9682,-29.69452 30.96832,-29.69454 30.96838,-29.69444 30.96858,-29.69443 30.96923,-29.6944 30.96986,-29.69436 30.96997,-29.69436 30.96998,-29.69435 30.97001,-29.69435 30.97003,-29.69435 30.97009,-29.69435 30.97051,-29.69433 30.97054,-29.6943 30.97054,-29.69428 30.97058,-29.69428 30.97059,-29.69426 30.97061,-29.69425 30.97064,-29.69425 30.97066,-29.69423 30.97067,-29.6942 30.97068,-29.69418 30.97071,-29.69416 30.97078,-29.69416 30.97087,-29.69417 30.9709,-29.69416 30.97096,-29.69416 30.97106,-29.6941 30.97117,-29.69419 30.97124,-29.69425 30.97132,-29.6943 30.97139,-29.6943 30.97144,-29.69429 30.97149,-29.69429 30.97154,-29.6943 30.97187,-29.69428 30.97238,-29.69426 30.97262,-29.69425 30.97266,-29.69422 30.97304,-29.6942 30.97366,-29.69417 30.97426,-29.69414 30.9744,-29.69413 30.97498,-29.6941 30.97522,-29.69408 30.97523,-29.69405 30.97525,-29.69403 30.97532,-29.694 30.97538,-29.69401 30.97548,-29.69404 30.97557,-29.69407 30.97612,-29.69404 30.97621,-29.69404 30.9766,-29.69402 30.97693,-29.6937 30.97707,-29.6936 30.97719,-29.69354 30.97738,-29.69346 30.97758,-29.6934 30.97779,-29.69336 30.97803,-29.69333 30.97821,-29.69331 30.97826,-29.69332 30.97836,-29.69332 30.97841,-29.69331 30.97846,-29.6933 30.97862,-29.69329 30.9787,-29.69329 30.97896,-29.69326 30.97941,-29.69324 30.97981,-29.69322 30.98003,-29.6932 30.98019,-29.69321 30.98036,-29.69324 30.98054,-29.6933 30.98073,-29.69338 30.98134,-29.69365 30.98136,-29.69367 30.98132,-29.69374 30.98113,-29.69426 30.98111,-29.69491 30.98109,-29.69538 30.98106,-29.69617 30.98109,-29.69631 30.98108,-29.69661 30.98103,-29.6975 30.98101,-29.698 30.98101,-29.69821 30.98101,-29.69834 30.981,-29.69847 30.981,-29.6985 30.981,-29.69851 30.981,-29.69854 30.98096,-29.69854 30.98094,-29.69895 30.98101,-29.699 30.98104,-29.69902 30.98112,-29.69913 30.98122,-29.69924 30.98114,-29.69936 30.98085,-29.69962 30.98084,-29.69972 30.9809,-29.69996 30.98083,-29.70007 30.9808,-29.70027 30.98084,-29.70037 30.98084,-29.70037 30.98087,-29.70037 30.98105,-29.70036 30.98129,-29.70034 30.98149,-29.70033 30.9817,-29.70031 30.98184,-29.7003 30.98198,-29.70029 30.98204,-29.70029 30.98209,-29.7003 30.98215,-29.7003 30.98205,-29.70048 30.98194,-29.70071 30.98184,-29.70107 30.98181,-29.70127 30.98179,-29.70172 30.98184,-29.70219 30.98184,-29.70226 30.98193,-29.70304 30.98195,-29.70326 30.98197,-29.70345 30.98197,-29.70345 30.98207,-29.70448 30.98208,-29.70454 30.98217,-29.70551 30.98221,-29.70586 30.9823,-29.70675 30.98212,-29.70676 30.98185,-29.70676 30.98155,-29.70676 30.98149,-29.70674 30.98133,-29.70663 30.98123,-29.70663 30.98114,-29.70664 30.98104,-29.70662 30.98087,-29.7066 30.98073,-29.7066 30.98065,-29.70663 30.98059,-29.70664 30.98052,-29.70663 30.98055,-29.70689 30.98057,-29.707 30.98048,-29.70713 30.98047,-29.70738 30.98045,-29.70748 30.98044,-29.70784 30.98046,-29.70799 30.9805,-29.70808 30.98048,-29.70835 30.98048,-29.70845 30.98048,-29.70875 30.98053,-29.709 30.98053,-29.70906 30.9804,-29.70902 30.98035,-29.70902 30.98023,-29.70904 30.98009,-29.70908 30.97988,-29.70914 30.97973,-29.7092 30.97966,-29.70921 30.97959,-29.70928 30.97951,-29.70936 30.97947,-29.70946 30.97934,-29.70949 30.97928,-29.7095 30.97928,-29.70951 30.97929,-29.70955 30.97933,-29.70959 30.97935,-29.70964 30.97936,-29.70968 30.97944,-29.70976 30.98012,-29.71046 30.9788,-29.71154 30.97883,-29.71157 30.97858,-29.71179 30.97807,-29.7122 30.97809,-29.71222 30.97814,-29.7123 30.97833,-29.71265 30.97871,-29.71333 30.97856,-29.71336 30.97851,-29.71334 30.97846,-29.71331 30.97841,-29.71329 30.97837,-29.7133 30.97832,-29.71328 30.97826,-29.71328 30.97822,-29.71328 30.97818,-29.7133 30.97814,-29.71332 30.9781,-29.71332 30.97807,-29.71332 30.97804,-29.71333 30.978,-29.71336 30.97797,-29.71337 30.97793,-29.71338 30.97798,-29.71387 30.97801,-29.71398 30.97806,-29.7141 30.97806,-29.71415 30.97806,-29.71418 30.97805,-29.71421 30.97802,-29.71424 30.97797,-29.71427 30.97789,-29.71431 30.97781,-29.71433 30.97773,-29.71436 30.97756,-29.71443 30.97766,-29.71445 30.97776,-29.71449 30.97784,-29.71454 30.97788,-29.71457 30.9779,-29.71461 30.9779,-29.71464 30.9779,-29.71468 30.97788,-29.71473 30.97783,-29.71481 30.97793,-29.71486 30.97789,-29.71501 30.97785,-29.71519 30.97786,-29.71525 30.97786,-29.7153 30.97786,-29.71549 30.97782,-29.71554 30.97783,-29.71558 30.97784,-29.71563 30.97784,-29.71593 30.9778,-29.71596 30.97777,-29.71601 30.97783,-29.71604 30.97782,-29.71609 30.97776,-29.71614 30.97782,-29.71628 30.97781,-29.71658 30.9778,-29.71682 30.97777,-29.71712 30.97776,-29.71716 30.9778,-29.71725 30.97774,-29.71728 30.97771,-29.71733 30.97774,-29.71739 30.97778,-29.71743 30.97779,-29.71745 30.97776,-29.71749 30.97771,-29.71752 30.9777,-29.71754 30.97776,-29.71765 30.97778,-29.71774 30.97783,-29.71781 30.9777,-29.71791 30.97737,-29.71811 30.97721,-29.71824 30.97705,-29.71837 30.97695,-29.71847 30.97687,-29.71845 30.97679,-29.71842 30.97674,-29.71841 30.97657,-29.71835 30.97649,-29.71832 30.97645,-29.71831 30.97629,-29.71828 30.97623,-29.71827 30.97589,-29.7182 30.97563,-29.71815 30.97542,-29.7181 30.97524,-29.71806 30.97513,-29.71799 30.97486,-29.71791 30.97476,-29.71786 30.97468,-29.71779 30.97455,-29.71769 30.97446,-29.71774 30.97439,-29.71778 30.97434,-29.71783 30.97428,-29.71784 30.97423,-29.71789 30.97419,-29.71793 30.97416,-29.71796 30.97412,-29.71802 30.97409,-29.71803 30.97402,-29.71805 30.97393,-29.71806 30.9738,-29.71809 30.97379,-29.7181 30.97387,-29.71835 30.97396,-29.71864 30.974,-29.71876 30.97409,-29.71893 30.97413,-29.71902 30.97427,-29.71921 30.97441,-29.71935 30.97455,-29.71948 30.97466,-29.71955 30.97481,-29.71966 30.97487,-29.71969 30.97503,-29.71978 30.97517,-29.71985 30.97532,-29.71993 30.97538,-29.71999 30.97543,-29.72005 30.97548,-29.72008 30.97553,-29.72009 30.97565,-29.72008 30.97575,-29.72011 30.97594,-29.72017 30.9761,-29.72022 30.97618,-29.72025 30.97623,-29.72025 30.97629,-29.72024 30.97635,-29.72026 30.97639,-29.72029 30.97641,-29.72031 30.9765,-29.72034 30.97656,-29.72039 30.97676,-29.72056 30.97698,-29.72068 30.97712,-29.72076 30.97712,-29.72076 30.97712,-29.72076 30.97709,-29.7208 30.977,-29.72088 30.97685,-29.72096 30.97656,-29.7211 30.9764,-29.72119 30.97625,-29.72133 30.97615,-29.72146 30.9761,-29.72163 30.97613,-29.72198 30.97616,-29.7223 30.97615,-29.72233 30.97612,-29.72236 30.97606,-29.72244 30.976,-29.72247 30.97592,-29.7225 30.97586,-29.72254 30.97576,-29.72258 30.97568,-29.7226 30.97567,-29.72261 30.97555,-29.72268 30.97548,-29.72271 30.97544,-29.72272 30.97539,-29.72272 30.97535,-29.72273 30.9753,-29.72272 30.97529,-29.72278 30.97527,-29.72286 30.97522,-29.72295 30.97518,-29.72298 30.9751,-29.72302 30.97505,-29.72304 30.97499,-29.72306 30.97495,-29.72306 30.9749,-29.72305 30.97486,-29.72304 30.97481,-29.72303 30.97476,-29.72302 30.9747,-29.72302 30.97462,-29.72305 30.97456,-29.72308 30.97448,-29.72307 30.97441,-29.72304 30.97435,-29.72302 30.97429,-29.72299 30.9743,-29.72289 30.97432,-29.72282 30.97432,-29.72277 30.97427,-29.72273 30.97422,-29.72269 30.97416,-29.72268 30.9741,-29.72266 30.97403,-29.72266 30.97398,-29.72263 30.97392,-29.72261 30.97385,-29.72264 30.97378,-29.72262 30.97368,-29.72258 30.97359,-29.72255 30.97349,-29.72254 30.97337,-29.72249 30.97327,-29.72244 30.97317,-29.72243 30.9731,-29.72242 30.97308,-29.72242 30.97301,-29.72242 30.97292,-29.7224 30.97282,-29.72237 30.97276,-29.72234 30.97268,-29.72228 30.97259,-29.72224 30.97254,-29.72219 30.97241,-29.72214 30.97225,-29.72207 30.97191,-29.72189 30.97169,-29.72225 30.97163,-29.72232 30.97163,-29.72232 30.97154,-29.72228 30.97135,-29.7222 30.9712,-29.72215 30.97105,-29.72213 30.97087,-29.72213 30.97071,-29.72215 30.97056,-29.72219 30.97038,-29.72227 30.97011,-29.72243 30.96989,-29.72258 30.96958,-29.7228 30.96938,-29.72295 30.96916,-29.72291 30.96904,-29.72288 30.96867,-29.7228 30.96854,-29.72278 30.96853,-29.72277 30.96841,-29.72273 30.96829,-29.72265 30.96823,-29.72258 30.96818,-29.72252 30.96815,-29.72245 30.96812,-29.72235 30.96812,-29.72227 30.96816,-29.72208 30.96829,-29.72155 30.96834,-29.72133 30.96841,-29.72106 30.96846,-29.72086 30.96855,-29.72052 30.96863,-29.72019 30.96867,-29.71998 30.96869,-29.71983 30.96869,-29.71973 30.9687,-29.71963 30.9687,-29.71963 30.96864,-29.71962 30.96857,-29.71961 30.96851,-29.71958 30.96844,-29.7195 30.96836,-29.71943 30.9683,-29.71939 30.96819,-29.71936 30.96807,-29.71933 30.96801,-29.71924 30.96793,-29.71919 30.96782,-29.71913 30.96768,-29.71907 30.96757,-29.71903 30.96746,-29.71902 30.96734,-29.71897 30.96729,-29.7189 30.96718,-29.71888 30.96699,-29.71875 30.96693,-29.71868 30.96684,-29.7186 30.96669,-29.71856 30.96662,-29.71854 30.96648,-29.71845 30.96634,-29.71843 30.96615,-29.71843 30.96598,-29.71838 30.96581,-29.7184 30.96563,-29.71839 30.96547,-29.7184 30.96526,-29.71838 30.96515,-29.71837 30.96491,-29.71834 30.96483,-29.7185 30.96438,-29.71826 30.9633,-29.71769 30.96305,-29.71756 30.9629,-29.71747 30.96235,-29.71719 30.96217,-29.71714 30.96206,-29.71714 30.96195,-29.71713 30.96185,-29.71713 30.96185,-29.7172 30.96189,-29.71732 30.9619,-29.71743 30.9619,-29.71758 30.96192,-29.71772 30.96189,-29.71783 30.96189,-29.71796 30.96189,-29.71802 30.96191,-29.71811 30.96191,-29.71823 30.9619,-29.71833 30.96188,-29.71849 30.96188,-29.7186 30.96188,-29.71877 30.96184,-29.71894 30.96178,-29.719 30.96174,-29.71907 30.96165,-29.71918 30.9615,-29.71928 30.96139,-29.7193 30.96129,-29.71938 30.96116,-29.71955 30.961,-29.71974 30.96092,-29.71986 30.96091,-29.71996 30.96091,-29.72013 30.96088,-29.72026 30.9608,-29.72034 30.96074,-29.72034 30.96066,-29.72037 30.96047,-29.72052 30.96029,-29.72061 30.95999,-29.72079 30.9599,-29.72078 30.95985,-29.72074 30.95979,-29.7207 30.95971,-29.72068 30.95964,-29.72063 30.95957,-29.72058 30.95952,-29.72052 30.95947,-29.72048 30.95942,-29.72044 30.95935,-29.72038 30.95928,-29.72033 30.95925,-29.72031 30.95917,-29.72025 30.95908,-29.7202 30.95902,-29.72015 30.95895,-29.72008 30.95888,-29.72003 30.95887,-29.71999 30.95884,-29.71996 30.95882,-29.71996 30.95882,-29.71996 30.95881,-29.71994 30.95877,-29.71993 30.95873,-29.7199 30.95868,-29.71986 30.95864,-29.71984 30.95861,-29.7198 30.95851,-29.71973 30.95848,-29.71969 30.95842,-29.71966 30.95836,-29.71965 30.95827,-29.71961 30.95821,-29.71957 30.95816,-29.71955 30.95812,-29.7195 30.95807,-29.71948 30.95805,-29.71946 30.958,-29.71943 30.95795,-29.71938 30.9579,-29.71934 30.95787,-29.71931 30.95784,-29.71928 30.95778,-29.71927 30.95774,-29.71925 30.95769,-29.71923 30.9576,-29.7192 30.95754,-29.71919 30.9575,-29.71918 30.95746,-29.71919 30.95743,-29.71917 30.95737,-29.71919 30.95733,-29.71919 30.9573,-29.7192 30.95727,-29.71919 30.95723,-29.71918 30.95722,-29.71916 30.95717,-29.71915 30.95715,-29.71913 30.95711,-29.7191 30.95707,-29.71909 30.95704,-29.71907 30.95701,-29.71905 30.95698,-29.719 30.95695,-29.71897 30.95691,-29.71896 30.95689,-29.71892 30.95685,-29.7189 30.95683,-29.71888 30.95678,-29.71884 30.95673,-29.7188 30.9567,-29.71873 30.95666,-29.7187 30.95664,-29.71866 30.95662,-29.71862 30.95656,-29.71858 30.95649,-29.71854 30.95642,-29.71849 30.95637,-29.71846 30.95633,-29.71846 30.9563,-29.71846 30.95627,-29.71842 30.95624,-29.71842 30.95619,-29.71841 30.95616,-29.71839 30.95615,-29.71837 30.95611,-29.71836 30.95608,-29.71837 30.95602,-29.71832 30.95597,-29.71834 30.95594,-29.71834 30.9559,-29.71831 30.95587,-29.71832 30.95584,-29.71831 30.9558,-29.7183 30.95577,-29.71828 30.95572,-29.7183 30.95569,-29.7183 30.95564,-29.71828 30.95555,-29.71827 30.95553,-29.71824 30.9557,-29.71792 30.95589,-29.71752 30.95597,-29.71736 30.9559,-29.71733 30.95583,-29.7173 30.95582,-29.71728 30.95603,-29.71708 30.95612,-29.71714 30.95615,-29.71709 30.95628,-29.7169 30.95629,-29.71688 30.95621,-29.71683 30.95617,-29.7168 30.95613,-29.71676 30.9561,-29.71672 30.95606,-29.71667 30.95603,-29.71661 30.95599,-29.7165 30.95591,-29.71628 30.95588,-29.71621 30.95585,-29.71617 30.95581,-29.71612 30.95576,-29.71608 30.9557,-29.71605 30.95564,-29.71603 30.95554,-29.71599 30.9554,-29.71595 30.95527,-29.71591 30.95519,-29.71587 30.95512,-29.71582 30.95508,-29.71578 30.95503,-29.71571 30.95501,-29.71565 30.955,-29.71562 30.955,-29.71558 30.95501,-29.71552 30.95503,-29.71531 30.95504,-29.71513 30.95505,-29.71502 30.95505,-29.71495 30.95505,-29.71489 30.95505,-29.71487 30.95504,-29.71479 30.95502,-29.7147 30.95497,-29.71454 30.95491,-29.71432 30.9549,-29.71427 30.9549,-29.71424 30.9549,-29.7142 30.95491,-29.71414 30.95493,-29.71411 30.95497,-29.71403 30.95502,-29.71398 30.95508,-29.71395 30.95517,-29.7139 30.95527,-29.71386 30.95558,-29.71373 30.95558,-29.71367 30.95557,-29.7135 30.95556,-29.71323 30.95555,-29.71298 30.95527,-29.71299 30.95496,-29.71298 30.95486,-29.71294 30.9548,-29.71293 30.95463,-29.71291 30.9546,-29.71297 30.95446,-29.71311 30.95432,-29.71305 30.95428,-29.71303 30.95412,-29.71301 30.95407,-29.71301 30.95401,-29.71301 30.95334,-29.71298 30.95329,-29.71297 30.95308,-29.71281 30.95292,-29.71288 30.95293,-29.71296 30.95295,-29.71317 30.95295,-29.71326 30.95295,-29.7133 30.95296,-29.71338 30.95296,-29.71347 30.95295,-29.71353 30.95293,-29.71358 30.9529,-29.71363 30.95287,-29.71366 30.95283,-29.71369 30.95276,-29.71371 30.9527,-29.71372 30.95263,-29.71371 30.95249,-29.71369 30.95243,-29.71369 30.95234,-29.71366 30.95224,-29.71363 30.95219,-29.71361 30.95214,-29.7136 30.95212,-29.7136 30.95208,-29.7136 30.95203,-29.71361 30.95205,-29.71366 30.95212,-29.71391 30.95216,-29.71403 30.95218,-29.71422 30.95219,-29.71427 30.9522,-29.71435 30.95224,-29.7147 30.95228,-29.71496 30.95228,-29.71497 30.9524,-29.71619 30.95221,-29.71625 30.95196,-29.71632 30.95162,-29.71642 30.95121,-29.71655 30.95087,-29.71665 30.95048,-29.71677 30.95009,-29.71689 30.94978,-29.71698 30.94968,-29.71701 30.94952,-29.71706 30.94945,-29.71708 30.94923,-29.71714 30.94911,-29.71718 30.94891,-29.71724 30.94856,-29.71735 30.94837,-29.71741 30.94812,-29.71749 30.94813,-29.71754 30.94804,-29.71754 30.94804,-29.71751 30.94799,-29.71752 30.94786,-29.71756 30.94785,-29.71756 30.94779,-29.71758 30.94777,-29.7176 30.94775,-29.71762 30.94772,-29.71763 30.94767,-29.71763 30.94761,-29.71763 30.94758,-29.71764 30.94753,-29.71767 30.9475,-29.71769 30.94745,-29.71774 30.94742,-29.71775 30.94729,-29.71774 30.94727,-29.71774 30.94724,-29.71775 30.94722,-29.71778 30.94717,-29.71779 30.94702,-29.71784 30.947,-29.71785 30.94698,-29.71785 30.94688,-29.71788 30.94676,-29.71791 30.94662,-29.71795 30.94644,-29.71801 30.94629,-29.71805 30.94621,-29.71808 30.94616,-29.71808 30.94612,-29.71808 30.94612,-29.71809 30.94613,-29.71813 30.94608,-29.71813 30.94606,-29.71813 30.946,-29.71814 30.9459,-29.71816 30.94579,-29.71819 30.94573,-29.7182 30.94573,-29.71821 30.94571,-29.71826 30.94567,-29.7183 30.94563,-29.71831 30.9456,-29.71832 30.94555,-29.71828 30.94549,-29.71831 30.94543,-29.71833 30.94539,-29.7183 30.9452,-29.71836 30.94501,-29.71842 30.9448,-29.71849 30.94463,-29.71854 30.94456,-29.71856 30.94441,-29.7186 30.9444,-29.7186 30.94438,-29.7186 30.94435,-29.7186 30.94434,-29.7186 30.94431,-29.71861 30.94428,-29.71862 30.94426,-29.71865 30.94407,-29.71871 30.94381,-29.71878 30.94379,-29.71878 30.94375,-29.71879 30.9437,-29.71881 30.94366,-29.71882 30.94341,-29.7189 30.94336,-29.7189 30.94333,-29.7189 30.94332,-29.71892 30.94332,-29.71893 30.94328,-29.71894 30.94306,-29.71901 30.94292,-29.71905 30.94284,-29.71907 30.94253,-29.71917 30.94249,-29.71917 30.94236,-29.71921 30.94226,-29.71924 30.94211,-29.71928 30.94194,-29.71933 30.94181,-29.71937 30.94179,-29.71938 30.94176,-29.71939 30.94174,-29.7194 30.94168,-29.71942 30.94161,-29.71944 30.94155,-29.71947 30.94163,-29.71979 30.94163,-29.71984 30.94143,-29.72002 30.94137,-29.72009 30.94134,-29.72015 30.94125,-29.72025 30.94114,-29.72036 30.94112,-29.7204 30.94099,-29.72058 30.94097,-29.72055 30.94095,-29.72053 30.94093,-29.72049 30.94091,-29.72046 30.94089,-29.72041 30.94087,-29.72037 30.94083,-29.72026 30.9408,-29.72019 30.94078,-29.72015 30.94074,-29.7201 30.94067,-29.72003 30.94061,-29.71996 30.94051,-29.71988 30.94014,-29.71955 30.94011,-29.71952 30.94007,-29.71948 30.94006,-29.71948 30.94007,-29.71946 30.93994,-29.7193 30.93986,-29.71918 30.93978,-29.71922 30.93979,-29.71925 30.93981,-29.71932 30.93981,-29.71937 30.93982,-29.71943 30.93983,-29.71951 30.93983,-29.71956 30.93983,-29.7196 30.93982,-29.71966 30.9398,-29.71981 30.93979,-29.71984 30.93978,-29.7199 30.93976,-29.71995 30.93972,-29.72002 30.93967,-29.7201 30.9396,-29.72022 30.93956,-29.72029 30.9394,-29.72022 30.93908,-29.72017 30.93895,-29.72016 30.93853,-29.72012 30.93727,-29.72001 30.93673,-29.71996 30.93667,-29.71995 30.93642,-29.71993 30.9362,-29.71993 30.93603,-29.71995 30.93592,-29.71997 30.93574,-29.72001 30.93562,-29.72005 30.93556,-29.72009 30.93547,-29.71996 30.93539,-29.71983 30.93531,-29.71984 30.93524,-29.71984 30.93517,-29.71985 30.9351,-29.71985 30.93507,-29.71985 30.93498,-29.71983 30.93491,-29.71981 30.93475,-29.71982 30.93471,-29.71982 30.93404,-29.71986 30.93375,-29.71988 30.93338,-29.7199 30.93313,-29.71991 30.93293,-29.71992 30.9322,-29.71996 30.9317,-29.71999 30.93129,-29.72002 30.93126,-29.72004 30.93124,-29.72006 30.93119,-29.72006 30.93083,-29.72006 30.93064,-29.72008 30.9305,-29.72006 30.93044,-29.72008 30.93036,-29.72009 30.93019,-29.72009 30.92982,-29.72012 30.92965,-29.72012 30.92936,-29.72013 30.92914,-29.72015 30.92877,-29.72017 30.92834,-29.72019 30.92799,-29.72022 30.92799,-29.72026 30.92739,-29.72029 30.92705,-29.72032 30.92649,-29.72035 30.92562,-29.72039 30.92557,-29.72039 30.92497,-29.72043 30.92447,-29.72045 30.92413,-29.72045 30.92409,-29.72051 30.92406,-29.72063 30.92407,-29.72077 30.9238,-29.72087 30.92373,-29.72089 30.92339,-29.72105 30.923,-29.72124 30.92293,-29.72127 30.92281,-29.72105 30.92271,-29.72088 30.9226,-29.7207 30.92233,-29.72033 30.92211,-29.72038 30.92036,-29.7208 30.92004,-29.72088 30.91995,-29.72097 30.91976,-29.72082 30.91947,-29.72097 30.9193,-29.72106 30.91778,-29.72183 30.91738,-29.72203 30.9172,-29.72199 30.91706,-29.72197 30.91702,-29.72194 30.91696,-29.72188 30.91595,-29.72219 30.91588,-29.72227 30.91579,-29.72232 30.91573,-29.72235 30.91568,-29.72236 30.9154,-29.7224 30.91533,-29.72241 30.91493,-29.72252 30.9149,-29.72239 30.91429,-29.72255 30.91386,-29.72233 30.91354,-29.72239 30.91326,-29.72245 30.91313,-29.72184 30.91309,-29.72181 30.91302,-29.72179 30.91267,-29.72183 30.91261,-29.72182 30.9122,-29.72149 30.91216,-29.72144 30.91261,-29.72114 30.91269,-29.72108 30.91291,-29.72091 30.91273,-29.71992 30.91259,-29.71903 30.91255,-29.71881 30.91247,-29.71873 30.91245,-29.71871 30.91249,-29.71864 30.91243,-29.71828 30.91217,-29.71844 30.912,-29.71837 30.91199,-29.71836 30.91212,-29.71793 30.91158,-29.7178 30.91162,-29.71758 30.91166,-29.71743 30.91151,-29.71706 30.91183,-29.71647 30.91196,-29.71637 30.91222,-29.71622 30.91248,-29.71544 30.91232,-29.71538 30.91235,-29.71515 30.91276,-29.71411 30.91277,-29.71407 30.91296,-29.71408 30.91306,-29.71376 30.91309,-29.71352 30.9131,-29.71346 30.91316,-29.71333 30.91337,-29.71296 30.91342,-29.7128 30.91345,-29.71278 30.91348,-29.71276 30.91354,-29.71274 30.91359,-29.71272 30.91364,-29.71269 30.91372,-29.71262 30.91376,-29.71255 30.91379,-29.71251 30.91384,-29.71248 30.91413,-29.71232 30.91503,-29.7111 30.91518,-29.71089 30.91521,-29.71086 30.91609,-29.70967 30.91661,-29.70918 30.9167,-29.70895 30.91677,-29.70887 30.91702,-29.70862 30.91817,-29.70688 30.91914,-29.70561 30.92023,-29.70395 30.92029,-29.70374 30.92045,-29.70337 30.92053,-29.70326 30.92067,-29.7032 30.92095,-29.70308 30.92105,-29.70311 30.9211,-29.70299 30.92113,-29.70291 30.92172,-29.70304 30.9217,-29.70315 30.9217,-29.7033 30.92174,-29.70356 30.92181,-29.70393 30.92198,-29.70392 30.9222,-29.70389 30.92241,-29.70388 30.92254,-29.7039 30.9227,-29.70393 30.92286,-29.70398 30.92315,-29.70414 30.92334,-29.70425 30.92347,-29.70433 30.92426,-29.70474 30.92463,-29.70494 30.92498,-29.70515 30.92505,-29.70519 30.92542,-29.70532 30.92569,-29.70538 30.92582,-29.7054 30.92606,-29.70541 30.92664,-29.70538 30.92738,-29.70534 30.92748,-29.70533 30.92871,-29.70527 30.929,-29.70526 30.92912,-29.70526 30.92922,-29.70528 30.92926,-29.70529 30.92934,-29.70497 30.92939,-29.70481 30.92944,-29.70465 30.92955,-29.70434 30.92968,-29.70398 30.92994,-29.70342 30.93005,-29.7032 30.93017,-29.7029 30.9303,-29.70254 30.93046,-29.70221 30.93052,-29.70204 30.93061,-29.7018 30.93068,-29.70165 30.93074,-29.70151 30.93085,-29.7013 30.93091,-29.70119 30.93098,-29.70102 30.93103,-29.70095 30.93113,-29.70085 30.93116,-29.7008 30.93118,-29.70069 30.93127,-29.70058 30.93109,-29.70047 30.93103,-29.70046 30.93081,-29.70054 30.93069,-29.70057 30.93064,-29.70057 30.93054,-29.70047 30.9304,-29.70035 30.93022,-29.70019 30.92995,-29.69989 30.92988,-29.6998 30.92982,-29.69971 30.92966,-29.69944 30.92948,-29.69901 30.9297,-29.69868 30.92987,-29.69842 30.93008,-29.69808 30.93025,-29.69782 30.93035,-29.69765 30.93048,-29.69749 30.93069,-29.69729 30.93095,-29.69715 30.93132,-29.697 30.9317,-29.69695 30.93208,-29.69695 30.93249,-29.69705 30.9325,-29.69701 30.93247,-29.69688 30.93243,-29.69684 30.93232,-29.69675 30.93225,-29.69667 30.93214,-29.69652 30.93207,-29.69643 30.93199,-29.69636 30.9319,-29.69628 30.9318,-29.69621 30.93166,-29.69614 30.93153,-29.69608 30.9314,-29.69605 30.93123,-29.69601 30.93108,-29.69598 30.93091,-29.69596 30.93076,-29.69594 30.93059,-29.69594 30.9305,-29.69595 30.93039,-29.69537 30.93028,-29.69536 30.93016,-29.69536 30.93006,-29.69535 30.93004,-29.69469 30.93004,-29.69458 30.93006,-29.69455 30.93006,-29.69451 30.92992,-29.69406 30.93006,-29.69403 30.93027,-29.694 30.93045,-29.69394 30.93047,-29.69389 30.9305,-29.69384 30.93052,-29.6938 30.93057,-29.69374 30.93061,-29.6937 30.93066,-29.69366 30.93067,-29.69364 30.93068,-29.69362 30.93069,-29.69359 30.9307,-29.69354 30.93072,-29.69346 30.93076,-29.69335 30.93077,-29.6933 30.9308,-29.69322 30.93084,-29.6931 30.93085,-29.69301 30.93087,-29.69294 30.93088,-29.69291 30.93092,-29.69289 30.93096,-29.69286 30.93099,-29.69285 30.93101,-29.69283 30.93103,-29.6928 30.93106,-29.69276 30.93094,-29.69272 30.93083,-29.69269 30.93074,-29.69264 30.93059,-29.69257 30.93044,-29.69248 30.93031,-29.6924 30.93002,-29.69222 30.92968,-29.69202 30.92953,-29.69193 30.92933,-29.69181 30.92917,-29.69171 30.92887,-29.69153 30.92861,-29.69137 30.92832,-29.6912 30.92813,-29.69109 30.92808,-29.69106 30.9279,-29.69094 30.92767,-29.69082 30.92752,-29.69075 30.92736,-29.69068 30.92715,-29.69062 30.92696,-29.69058 30.92678,-29.69055 30.92658,-29.69052 30.92642,-29.6905 30.92622,-29.69048 30.92605,-29.69047 30.92591,-29.69046 30.92579,-29.69045 30.92558,-29.69043 30.92536,-29.6904 30.92521,-29.69039 30.925,-29.69036 30.92473,-29.69031 30.92452,-29.69028 30.92435,-29.69025 30.92408,-29.69021 30.9238,-29.69018 30.92366,-29.69015 30.92356,-29.69014 30.92316,-29.69008 30.92297,-29.69005 30.9228,-29.69001 30.92265,-29.68998 30.92236,-29.6899 30.92214,-29.68983 30.92193,-29.68977 30.92174,-29.68973 30.92155,-29.6897 30.92137,-29.68969 30.92119,-29.68969 30.92104,-29.6897 30.92095,-29.68971 30.92082,-29.68972 30.92055,-29.68976 30.92026,-29.68979 30.9201,-29.68981 30.91996,-29.68982 30.91968,-29.68986 30.91943,-29.68989 30.91927,-29.68991 30.91903,-29.68993 30.91888,-29.68993 30.91879,-29.68992 30.91869,-29.68991 30.91859,-29.68989 30.91851,-29.68987 30.91841,-29.68984 30.91836,-29.68983 30.91824,-29.68979 30.91814,-29.68976 30.91801,-29.6897 30.91788,-29.68964 30.91778,-29.68959 30.91752,-29.68948 30.91712,-29.68929 30.91674,-29.68912 30.91644,-29.68897 30.9156,-29.68856 30.91537,-29.68845 30.91537,-29.68844 30.91538,-29.68839 30.91539,-29.68834 30.91542,-29.6883 30.91545,-29.68827 30.91547,-29.68824 30.91548,-29.68819 30.91546,-29.68816 30.91542,-29.68811 30.91543,-29.68807 30.91542,-29.68802 30.91542,-29.68797 30.91543,-29.68792 30.91546,-29.68792 30.9155,-29.68789 30.9155,-29.68785 30.91546,-29.68781 30.91546,-29.68774 30.91548,-29.68768 30.91547,-29.68761 30.91544,-29.68757 30.91542,-29.68753 30.9154,-29.68749 30.91536,-29.68748 30.91533,-29.68745 30.91535,-29.68741 30.91538,-29.68736 30.91539,-29.68731 30.91541,-29.68729 30.91543,-29.68725 30.91543,-29.68721 30.91539,-29.6872 30.91534,-29.68718 30.9153,-29.68715 30.91527,-29.6871 30.91526,-29.68703 30.91524,-29.68694 30.91518,-29.68685 30.9151,-29.68677 30.91506,-29.68666 30.91501,-29.68662 30.91497,-29.68661 30.91493,-29.68659 30.91489,-29.68658 30.91487,-29.68657 30.91485,-29.68654 30.91484,-29.68651 30.91484,-29.68647 30.91481,-29.68642 30.91479,-29.6864 30.91475,-29.68636 30.91474,-29.68633 30.91477,-29.68628 30.9148,-29.68625 30.91483,-29.6862 30.91488,-29.68618 30.91491,-29.68615 30.91491,-29.68612 30.91486,-29.68603 30.91484,-29.68599 30.91477,-29.68592 30.91473,-29.68587 30.91467,-29.68583 30.91464,-29.68578 30.91461,-29.68573 30.91456,-29.68571 30.9145,-29.68569 30.91445,-29.68563 30.9144,-29.68555 30.91434,-29.68549 30.91432,-29.68546 30.91429,-29.68541 30.91424,-29.68539 30.91421,-29.68535 30.91422,-29.68532 30.91422,-29.68527 30.91419,-29.68524 30.91415,-29.6852 30.91412,-29.68515 30.91411,-29.6851 30.91409,-29.68506 30.91406,-29.68502 30.91405,-29.68498 30.91404,-29.68493 30.91403,-29.6849 30.91398,-29.68486 30.91394,-29.68483 30.91389,-29.68482 30.91382,-29.68477 30.91378,-29.68476 30.91372,-29.68477 30.91367,-29.68477 30.91362,-29.68475 30.9136,-29.68472 30.91358,-29.68467 30.91357,-29.68464 30.91353,-29.6846 30.91351,-29.68455 30.91347,-29.68451 30.91342,-29.68448 30.91339,-29.68448 30.91336,-29.68446 30.91333,-29.68444 30.9133,-29.68437 30.91327,-29.68432 30.91327,-29.6843 30.91325,-29.68428 30.91321,-29.68423 30.91318,-29.68418 30.91314,-29.6841 30.91312,-29.68404 30.91311,-29.68399 30.9131,-29.68391 30.91307,-29.68384 30.91303,-29.68381 30.91305,-29.68374 30.91309,-29.6837 30.91313,-29.68368 30.91316,-29.68368 30.91318,-29.68364 30.91317,-29.68362 30.91315,-29.68358 30.91314,-29.68356 30.9131,-29.6835 30.91309,-29.68346 30.91308,-29.68341 30.91305,-29.68339 30.91303,-29.68334 30.91303,-29.68331 30.91305,-29.68327 30.91309,-29.68326 30.91312,-29.68323 30.91316,-29.68318 30.91317,-29.68315 30.9132,-29.68311 30.91322,-29.68308 30.91322,-29.68305 30.91323,-29.68299 30.91326,-29.68292 30.91327,-29.68289 30.91327,-29.68284 30.9133,-29.6828 30.91333,-29.68276 30.91332,-29.68272 30.91329,-29.68271 30.91328,-29.6827 30.91328,-29.68268 30.91329,-29.68264 30.91331,-29.68261 30.91333,-29.68255 30.91336,-29.68251 30.9134,-29.68245 30.91343,-29.68239 30.91354,-29.68222 30.91386,-29.68185 30.91403,-29.68171 30.91428,-29.68149 30.91457,-29.68131 30.91469,-29.68113 30.91494,-29.68082 30.91502,-29.6806 30.91527,-29.68035 30.91535,-29.68012 30.91551,-29.67985 30.91543,-29.67962 30.91543,-29.67931 30.91532,-29.67906 30.91516,-29.67874 30.91495,-29.67853 30.91477,-29.67824 30.9146,-29.67799 30.91439,-29.67743 30.91429,-29.67702 30.91425,-29.67701 30.91423,-29.677 30.9142,-29.67696 30.9142,-29.67693 30.91419,-29.67688 30.91418,-29.67682 30.91414,-29.67678 30.91409,-29.6767 30.91403,-29.67664 30.914,-29.67661 30.91395,-29.67659 30.91391,-29.67659 30.91388,-29.67658 30.91385,-29.67657 30.91383,-29.67654 30.91382,-29.67652 30.91378,-29.67649 30.91375,-29.67647 30.91372,-29.67648 30.9137,-29.6765 30.91367,-29.67652 30.91362,-29.67653 30.9136,-29.67653 30.91359,-29.67652 30.91358,-29.6765 30.91357,-29.67649 30.91355,-29.6765 30.91354,-29.67651 30.91354,-29.67653 30.9135,-29.67653 30.91347,-29.67654 30.91345,-29.67654 30.91341,-29.67655 30.91335,-29.67656 30.9133,-29.67658 30.91322,-29.67663 30.91313,-29.67665 30.91308,-29.67666 30.91303,-29.67668 30.91296,-29.67672 30.91291,-29.67676 30.91286,-29.67679 30.91281,-29.6768 30.9128,-29.67681 30.91276,-29.6768 30.91273,-29.67678 30.91267,-29.67674 30.91265,-29.67676 30.91261,-29.67679 30.91256,-29.67683 30.91253,-29.67684 30.91248,-29.67683 30.91242,-29.67685 30.9124,-29.67689 30.91238,-29.67694 30.91231,-29.67695 30.91227,-29.67696 30.91223,-29.67694 30.91219,-29.6769 30.91212,-29.67667 30.91204,-29.67633 30.91195,-29.67627 30.91189,-29.67618 30.91186,-29.67605 30.91187,-29.67591 30.91176,-29.6758 30.91161,-29.67553 30.91146,-29.6749 30.9114,-29.67442 30.91134,-29.67431 30.91118,-29.67423 30.91094,-29.67416 30.91088,-29.67406 30.91075,-29.67402 30.9105,-29.67398 30.91035,-29.67379 30.90995,-29.67361 30.90946,-29.67344 30.90884,-29.67328 30.90823,-29.6732 30.90738,-29.67244 30.90735,-29.67227 30.90731,-29.672 30.90732,-29.67157 30.90734,-29.67116 30.90737,-29.67089 30.90747,-29.67051 30.90754,-29.67021 30.90766,-29.66982 30.90781,-29.66986 30.90812,-29.67001 30.90826,-29.67006 30.90856,-29.67015 30.9086,-29.67018 30.90884,-29.67022 30.90897,-29.67022 30.90911,-29.6702 30.9093,-29.67016 30.90944,-29.67013 30.90954,-29.67005 30.90963,-29.66992 30.90972,-29.66983 30.9098,-29.66978 30.90996,-29.66972 30.91006,-29.66969 30.91029,-29.66964 30.91048,-29.6696 30.91058,-29.66958 30.91066,-29.66956 30.91074,-29.6695 30.91079,-29.66945 30.91086,-29.66942 30.91105,-29.66933 30.9112,-29.66928 30.91128,-29.66924 30.91129,-29.66917 30.91142,-29.66902 30.91154,-29.66889 30.91168,-29.66881 30.91176,-29.66874 30.91186,-29.6687 30.91193,-29.66869 30.91209,-29.66869 30.91226,-29.66869 30.91238,-29.66865 30.91249,-29.66863 30.9126,-29.66857 30.91283,-29.66847 30.91299,-29.66838 30.91314,-29.66828 30.9133,-29.66821 30.91343,-29.66812 30.9136,-29.66798 30.9138,-29.66778 30.91397,-29.66763 30.91417,-29.66745 30.91428,-29.66737 30.91446,-29.66728 30.91466,-29.66718 30.9149,-29.66705 30.91509,-29.66694 30.9152,-29.66689 30.91535,-29.66683 30.91538,-29.66681 30.91697,-29.66605 30.91736,-29.6662 30.91822,-29.66599 30.91879,-29.66595 30.91924,-29.66594 30.9196,-29.66594 30.91989,-29.66599 30.92006,-29.66614 30.92024,-29.66636 30.92049,-29.66667 30.92069,-29.66704 30.92076,-29.6673 30.92078,-29.66762 30.92091,-29.6682 30.92123,-29.66868 30.92154,-29.66903 30.92197,-29.66931 30.92272,-29.66929 30.92317,-29.66873 30.92395,-29.668 30.92448,-29.66749 30.92508,-29.66704 30.9256,-29.66662 30.92616,-29.66614 30.92702,-29.66536 30.92821,-29.66528 30.92898,-29.66545 30.92934,-29.66526 30.92974,-29.6652 30.93048,-29.6652 30.93121,-29.66505 30.93158,-29.66506 30.93219,-29.66514 30.93258,-29.66517 30.93314,-29.66508 30.93363,-29.66489 30.93412,-29.66484 30.93452,-29.66508</coordinates></LinearRing></outerBoundaryIs></Polygon></MultiGeometry></Placemark></Document></kml>