<?xml version="1.0" encoding="UTF-8"?><kml xmlns="http://www.opengis.net/kml/2.2"><Document><Placemark><name>Umdloti</name><description>Main Place 599049</description><ExtendedData><Data name="code"><value>599049</value></Data><Data name="name"><value>Umdloti</value></Data><Data name="description"><value>Main Place 599049</value></Data></ExtendedData><MultiGeometry><Polygon><outerBoundaryIs><LinearRing><coordinates>31.12674,-29.65696 31.12666,-29.65713 31.12653,-29.65744 31.1264,-29.65778 31.12624,-29.6582 31.12609,-29.65848 31.12594,-29.65877 31.12572,-29.65917 31.12558,-29.65937 31.1254,-29.65969 31.12523,-29.65993 31.12507,-29.6601 31.12491,-29.66029 31.12473,-29.66053 31.12471,-29.66068 31.12466,-29.66101 31.12458,-29.66118 31.12452,-29.66134 31.1245,-29.66148 31.1245,-29.66165 31.12449,-29.6618 31.12437,-29.66209 31.12431,-29.6623 31.12423,-29.66249 31.12417,-29.66263 31.12411,-29.6628 31.12412,-29.66296 31.12414,-29.66311 31.12411,-29.66332 31.12407,-29.66352 31.12406,-29.66355 31.12404,-29.66364 31.12401,-29.6638 31.12397,-29.66403 31.12395,-29.66417 31.12392,-29.66431 31.12383,-29.66445 31.12373,-29.6646 31.12363,-29.66472 31.12352,-29.66486 31.12344,-29.66498 31.12334,-29.66512 31.12322,-29.66538 31.12317,-29.66551 31.12317,-29.66564 31.12315,-29.66589 31.12311,-29.66617 31.12311,-29.66617 31.12305,-29.66631 31.12285,-29.66655 31.1227,-29.66666 31.12251,-29.66675 31.12232,-29.66685 31.12217,-29.66695 31.122,-29.66708 31.12183,-29.66722 31.12167,-29.66737 31.12155,-29.66751 31.12144,-29.66765 31.12132,-29.6678 31.12115,-29.66806 31.12111,-29.66812 31.12096,-29.66835 31.12083,-29.66853 31.1207,-29.66875 31.12055,-29.66896 31.12049,-29.66905 31.12044,-29.66916 31.12034,-29.66933 31.12022,-29.6695 31.12009,-29.66968 31.11987,-29.66989 31.11976,-29.67 31.11962,-29.67017 31.11946,-29.67035 31.11937,-29.67046 31.11918,-29.67066 31.11899,-29.67087 31.11887,-29.67099 31.11876,-29.67113 31.11867,-29.67124 31.1186,-29.67132 31.11847,-29.67147 31.11831,-29.67172 31.11819,-29.67191 31.11808,-29.67205 31.11795,-29.67225 31.11782,-29.67242 31.11769,-29.67261 31.11759,-29.67276 31.11746,-29.67296 31.11728,-29.67336 31.11718,-29.67355 31.11706,-29.67372 31.11693,-29.67395 31.11684,-29.67411 31.11677,-29.67423 31.11661,-29.67453 31.11645,-29.67491 31.11645,-29.67491 31.11635,-29.67508 31.11628,-29.67533 31.11627,-29.6755 31.11625,-29.67567 31.11625,-29.67573 31.11621,-29.67608 31.1161,-29.67674 31.11597,-29.67755 31.11523,-29.67888 31.11461,-29.68011 31.11379,-29.68145 31.11351,-29.68234 31.11289,-29.68381 31.11287,-29.68384 31.11284,-29.68387 31.11281,-29.68391 31.11107,-29.68235 31.11022,-29.68159 31.11033,-29.68125 31.11035,-29.68121 31.11036,-29.68115 31.11043,-29.68071 31.11044,-29.68068 31.11046,-29.68065 31.11116,-29.67959 31.11125,-29.67945 31.11152,-29.679 31.11156,-29.67893 31.1118,-29.67851 31.11218,-29.67789 31.11222,-29.67783 31.11227,-29.6777 31.11235,-29.67752 31.11235,-29.67749 31.11235,-29.67746 31.11234,-29.67741 31.11232,-29.67737 31.11229,-29.67733 31.11216,-29.67723 31.1126,-29.67689 31.11192,-29.67661 31.11107,-29.67625 31.11064,-29.67569 31.1104,-29.67537 31.1108,-29.67464 31.11187,-29.6747 31.11224,-29.67471 31.11228,-29.67461 31.11232,-29.67454 31.1125,-29.67422 31.11251,-29.67421 31.11252,-29.6742 31.11279,-29.67404 31.11288,-29.67398 31.11289,-29.67397 31.11289,-29.67396 31.11295,-29.67392 31.11306,-29.67386 31.1132,-29.67388 31.11325,-29.67368 31.11383,-29.67266 31.11467,-29.67145 31.11528,-29.67058 31.11605,-29.66945 31.11607,-29.66943 31.11605,-29.66941 31.11582,-29.66919 31.11564,-29.66888 31.11554,-29.66861 31.11549,-29.66825 31.11549,-29.66789 31.11555,-29.66765 31.11581,-29.66692 31.11587,-29.66668 31.1159,-29.6665 31.11591,-29.66631 31.1159,-29.66616 31.11585,-29.66597 31.11577,-29.66583 31.11569,-29.66573 31.11559,-29.66562 31.11645,-29.66482 31.11801,-29.66416 31.11908,-29.6636 31.11936,-29.66334 31.11987,-29.66287 31.12017,-29.66236 31.12116,-29.66069 31.1219,-29.65845 31.12217,-29.65765 31.12188,-29.65746 31.12214,-29.65691 31.1226,-29.65698 31.12289,-29.6564 31.12395,-29.65314 31.1244,-29.65176 31.12501,-29.64995 31.12505,-29.64984 31.12537,-29.64888 31.12583,-29.64909 31.12594,-29.64914 31.12966,-29.65094 31.12962,-29.65102 31.12953,-29.65118 31.12939,-29.65141 31.12927,-29.65161 31.12914,-29.65183 31.12899,-29.65205 31.12887,-29.65221 31.12874,-29.6524 31.12861,-29.6526 31.12853,-29.65272 31.1285,-29.65277 31.12837,-29.65292 31.12832,-29.65309 31.12822,-29.65324 31.12814,-29.65337 31.12802,-29.65358 31.12796,-29.65374 31.12784,-29.65396 31.12777,-29.65413 31.12775,-29.65419 31.12764,-29.65447 31.12755,-29.65471 31.12741,-29.65509 31.12734,-29.65533 31.12722,-29.65565 31.12713,-29.65598 31.12695,-29.65646 31.12683,-29.65674 31.12674,-29.65696</coordinates></LinearRing></outerBoundaryIs></Polygon></MultiGeometry></Placemark></Document></kml>