<?xml version="1.0" encoding="UTF-8"?><kml xmlns="http://www.opengis.net/kml/2.2"><Document><Placemark><name>Cato Crest</name><description>Sub Place 599054043</description><ExtendedData><Data name="code"><value>599054043</value></Data><Data name="name"><value>Cato Crest</value></Data><Data name="description"><value>Sub Place 599054043</value></Data></ExtendedData><MultiGeometry><Polygon><outerBoundaryIs><LinearRing><coordinates>30.97986,-29.8492 30.97988,-29.8494 30.97993,-29.84953 30.97994,-29.84954 30.98,-29.84962 30.98002,-29.84963 30.98012,-29.84972 30.98014,-29.84974 30.98068,-29.85015 30.98074,-29.85019 30.98082,-29.85023 30.98093,-29.85025 30.98113,-29.85027 30.98123,-29.85027 30.98149,-29.85025 30.98177,-29.85008 30.98231,-29.84986 30.98207,-29.85031 30.98202,-29.85041 30.98194,-29.85057 30.98237,-29.85084 30.98196,-29.85139 30.98171,-29.85175 30.98188,-29.85187 30.98177,-29.85201 30.98197,-29.85214 30.98219,-29.85227 30.98178,-29.85257 30.98174,-29.8526 30.98171,-29.85267 30.98166,-29.85284 30.98156,-29.8529 30.98144,-29.85298 30.98105,-29.85327 30.98098,-29.85333 30.98087,-29.85343 30.98079,-29.85356 30.98076,-29.85354 30.98061,-29.85347 30.98054,-29.85344 30.98033,-29.85335 30.98017,-29.85328 30.98005,-29.85324 30.97994,-29.85318 30.97987,-29.85315 30.97978,-29.85311 30.97962,-29.85306 30.97945,-29.85301 30.97927,-29.85294 30.97917,-29.85291 30.97905,-29.85287 30.97892,-29.85283 30.97876,-29.85277 30.9787,-29.85275 30.97866,-29.85274 30.97857,-29.85273 30.97843,-29.85273 30.97826,-29.85272 30.97811,-29.85273 30.97803,-29.85274 30.97793,-29.85277 30.97785,-29.85283 30.9778,-29.8529 30.97773,-29.85302 30.97766,-29.85319 30.97759,-29.85337 30.97752,-29.85353 30.97749,-29.85364 30.97749,-29.85365 30.9775,-29.85375 30.97752,-29.85384 30.97756,-29.85398 30.97763,-29.85414 30.97764,-29.85417 30.97743,-29.85421 30.9772,-29.85426 30.97691,-29.85433 30.97666,-29.85439 30.97664,-29.85439 30.97641,-29.85445 30.9762,-29.8545 30.97593,-29.85456 30.97556,-29.85465 30.97519,-29.85474 30.97489,-29.85481 30.97457,-29.85487 30.97436,-29.85493 30.97429,-29.85495 30.97426,-29.85496 30.97404,-29.85501 30.97379,-29.85507 30.97359,-29.85512 30.97344,-29.85514 30.97333,-29.85514 30.97319,-29.85511 30.97306,-29.85505 30.97297,-29.85501 30.97292,-29.85512 30.97286,-29.85542 30.97279,-29.85578 30.97275,-29.85604 30.97271,-29.85647 30.9727,-29.85657 30.97269,-29.85682 30.97268,-29.85696 30.97268,-29.85702 30.97267,-29.85714 30.97267,-29.85732 30.97268,-29.85762 30.9727,-29.85785 30.97271,-29.85806 30.97271,-29.85824 30.97269,-29.85842 30.97266,-29.85852 30.97256,-29.85855 30.9725,-29.85858 30.97248,-29.85859 30.97247,-29.85859 30.97237,-29.85864 30.97225,-29.8587 30.97212,-29.85874 30.97201,-29.85876 30.97185,-29.85876 30.97171,-29.85876 30.97166,-29.85878 30.9716,-29.85881 30.97154,-29.85881 30.97151,-29.8588 30.97147,-29.85877 30.97142,-29.85875 30.97138,-29.85874 30.97129,-29.85872 30.97119,-29.85868 30.97107,-29.8586 30.97095,-29.85855 30.97085,-29.85848 30.97077,-29.85842 30.97067,-29.85835 30.97051,-29.85827 30.97039,-29.8582 30.97028,-29.85816 30.97017,-29.85811 30.97011,-29.8581 30.97004,-29.85812 30.96991,-29.85815 30.96998,-29.85795 30.97001,-29.85777 30.97003,-29.85755 30.97002,-29.85738 30.96999,-29.8572 30.96995,-29.85708 30.96989,-29.85693 30.9697,-29.85632 30.96967,-29.85623 30.96956,-29.85577 30.96948,-29.85539 30.96947,-29.85527 30.96948,-29.85511 30.96949,-29.85505 30.9695,-29.85498 30.96955,-29.85482 30.9696,-29.85468 30.96976,-29.85442 30.97006,-29.85394 30.97023,-29.85367 30.97045,-29.85331 30.97065,-29.85301 30.97099,-29.85246 30.97131,-29.85196 30.97135,-29.8519 30.97147,-29.85175 30.97159,-29.85163 30.97178,-29.85152 30.97216,-29.85134 30.97265,-29.85111 30.97304,-29.85095 30.97323,-29.85086 30.97342,-29.85078 30.97356,-29.85071 30.97376,-29.85057 30.97411,-29.85028 30.97437,-29.85007 30.9746,-29.84989 30.97475,-29.84979 30.9748,-29.84975 30.97504,-29.84962 30.97531,-29.84948 30.97558,-29.84935 30.97597,-29.84925 30.97639,-29.84917 30.97661,-29.84914 30.97677,-29.84913 30.97702,-29.84914 30.97735,-29.84921 30.97766,-29.84928 30.9778,-29.8493 30.97789,-29.84929 30.97798,-29.84929 30.9782,-29.84925 30.97842,-29.84915 30.97864,-29.84905 30.97897,-29.84888 30.97931,-29.84875 30.97942,-29.84871 30.97974,-29.84863 30.97976,-29.84863 30.97983,-29.84887 30.97984,-29.84902 30.97986,-29.8492</coordinates></LinearRing></outerBoundaryIs></Polygon></MultiGeometry></Placemark></Document></kml>