<?xml version="1.0" encoding="UTF-8"?><kml xmlns="http://www.opengis.net/kml/2.2"><Document><Placemark><name>Verulam</name><description>Main Place 599034</description><ExtendedData><Data name="code"><value>599034</value></Data><Data name="name"><value>Verulam</value></Data><Data name="description"><value>Main Place 599034</value></Data></ExtendedData><MultiGeometry><Polygon><outerBoundaryIs><LinearRing><coordinates>31.05161,-29.61917 31.05201,-29.61928 31.05227,-29.6192 31.05247,-29.6192 31.05268,-29.61929 31.0529,-29.61951 31.05304,-29.61978 31.05312,-29.61986 31.05328,-29.61991 31.05338,-29.61993 31.05343,-29.61997 31.05348,-29.62002 31.05363,-29.62011 31.0537,-29.62017 31.05389,-29.62016 31.054,-29.62019 31.05417,-29.62024 31.05431,-29.62029 31.0546,-29.62036 31.05482,-29.62039 31.05504,-29.62037 31.05523,-29.6204 31.05546,-29.62048 31.05564,-29.62052 31.05579,-29.62059 31.05599,-29.62063 31.05609,-29.62066 31.05624,-29.62065 31.05637,-29.62065 31.05651,-29.62066 31.05664,-29.62069 31.0568,-29.62077 31.05691,-29.62073 31.05699,-29.62076 31.05712,-29.62082 31.05733,-29.62088 31.05763,-29.621 31.05781,-29.62096 31.05815,-29.62082 31.05833,-29.62082 31.05849,-29.62087 31.05864,-29.62088 31.05878,-29.62095 31.05912,-29.62106 31.05927,-29.62121 31.05926,-29.62129 31.05927,-29.62138 31.0593,-29.62141 31.05938,-29.62148 31.05938,-29.62149 31.05944,-29.62156 31.05955,-29.62166 31.05965,-29.62172 31.0597,-29.62178 31.05975,-29.62186 31.0598,-29.62194 31.05986,-29.622 31.0599,-29.62204 31.05997,-29.62213 31.06003,-29.6222 31.06012,-29.6222 31.06028,-29.62222 31.06034,-29.62224 31.06043,-29.62223 31.06046,-29.62224 31.06051,-29.62223 31.06058,-29.62223 31.06063,-29.62224 31.06068,-29.62224 31.06074,-29.62225 31.0608,-29.62225 31.06087,-29.62225 31.061,-29.62226 31.06107,-29.62227 31.06092,-29.6225 31.06074,-29.62271 31.0605,-29.62288 31.06025,-29.62305 31.0603,-29.6232 31.06032,-29.62324 31.06038,-29.62332 31.06044,-29.62343 31.06051,-29.6236 31.06063,-29.62385 31.06065,-29.62389 31.06068,-29.62397 31.06076,-29.62405 31.06077,-29.62406 31.06079,-29.62409 31.06083,-29.62411 31.06087,-29.62416 31.06094,-29.62425 31.06107,-29.62437 31.06115,-29.62447 31.06123,-29.62452 31.06134,-29.62464 31.06142,-29.62474 31.06146,-29.62482 31.06153,-29.62491 31.06187,-29.62501 31.06203,-29.62504 31.06214,-29.62496 31.06231,-29.62497 31.06249,-29.62499 31.06267,-29.62506 31.06285,-29.62507 31.06312,-29.62508 31.06323,-29.62511 31.06345,-29.62508 31.06362,-29.6252 31.06375,-29.62517 31.06392,-29.62512 31.06406,-29.62508 31.0642,-29.62502 31.06432,-29.62502 31.06444,-29.62495 31.06462,-29.62486 31.06487,-29.62478 31.06497,-29.62474 31.0651,-29.62474 31.06522,-29.62476 31.06531,-29.62483 31.06582,-29.62513 31.0656,-29.62528 31.06525,-29.62551 31.06491,-29.62576 31.06453,-29.62608 31.06427,-29.62631 31.06383,-29.62674 31.06368,-29.6269 31.06323,-29.62745 31.06267,-29.62818 31.06218,-29.62882 31.06165,-29.62952 31.0611,-29.63022 31.06102,-29.63034 31.06064,-29.63084 31.06012,-29.63152 31.06046,-29.63162 31.06036,-29.63178 31.05979,-29.63254 31.05967,-29.63271 31.05928,-29.6332 31.05894,-29.6337 31.05877,-29.63398 31.05862,-29.63422 31.05834,-29.63473 31.05843,-29.63473 31.05849,-29.63477 31.05856,-29.63486 31.0586,-29.63489 31.05864,-29.63498 31.05869,-29.63502 31.05878,-29.6352 31.05886,-29.63523 31.05889,-29.63526 31.05894,-29.63534 31.05902,-29.63547 31.0591,-29.63553 31.05916,-29.63555 31.05918,-29.63564 31.05924,-29.63573 31.05928,-29.63577 31.05944,-29.636 31.05959,-29.63618 31.05969,-29.6363 31.05973,-29.6364 31.05959,-29.6365 31.05937,-29.63672 31.05911,-29.63693 31.05891,-29.63704 31.05883,-29.6371 31.05877,-29.63719 31.0588,-29.63727 31.05883,-29.6373 31.0589,-29.6374 31.05891,-29.63755 31.05888,-29.6377 31.05889,-29.63779 31.05889,-29.63795 31.0589,-29.63815 31.05891,-29.63826 31.05891,-29.63834 31.05893,-29.63841 31.05883,-29.63847 31.05885,-29.63883 31.05879,-29.64017 31.05898,-29.6403 31.05912,-29.6404 31.05914,-29.64054 31.05921,-29.64073 31.0593,-29.64086 31.05936,-29.64174 31.05944,-29.64322 31.05948,-29.64321 31.05954,-29.6432 31.06016,-29.64307 31.0606,-29.64298 31.0607,-29.64296 31.0608,-29.64294 31.06121,-29.64284 31.0614,-29.6431 31.06164,-29.64334 31.06176,-29.64347 31.06183,-29.64353 31.06229,-29.64391 31.06236,-29.64383 31.06245,-29.64365 31.06259,-29.64348 31.06272,-29.64337 31.06283,-29.64321 31.0629,-29.64318 31.06296,-29.64318 31.06299,-29.64319 31.06304,-29.64319 31.06318,-29.64306 31.06339,-29.64274 31.0634,-29.64261 31.0636,-29.64252 31.06385,-29.64247 31.06401,-29.64247 31.06426,-29.64249 31.06444,-29.64249 31.06456,-29.64247 31.0648,-29.6425 31.065,-29.64254 31.06515,-29.64259 31.06522,-29.64276 31.0653,-29.6428 31.06548,-29.64288 31.06547,-29.64308 31.06547,-29.64321 31.06539,-29.64338 31.06536,-29.64364 31.06539,-29.64375 31.06588,-29.64412 31.0661,-29.64437 31.0665,-29.64501 31.06731,-29.64613 31.06792,-29.64742 31.06824,-29.64838 31.06808,-29.64886 31.06779,-29.64908 31.06754,-29.64914 31.06746,-29.64933 31.06738,-29.64946 31.06731,-29.64955 31.06719,-29.64962 31.06699,-29.64969 31.06671,-29.64987 31.06659,-29.64994 31.06524,-29.6494 31.06485,-29.65007 31.06445,-29.65077 31.06444,-29.6508 31.06277,-29.65359 31.06207,-29.6548 31.06178,-29.65527 31.06112,-29.65489 31.061,-29.65498 31.06093,-29.65501 31.06085,-29.65504 31.06069,-29.65508 31.06045,-29.65514 31.06029,-29.65519 31.06014,-29.65526 31.06004,-29.65534 31.05999,-29.6554 31.05996,-29.65543 31.05984,-29.65558 31.05983,-29.65557 31.05976,-29.65553 31.05968,-29.65548 31.05956,-29.65542 31.05937,-29.65534 31.05923,-29.65528 31.05904,-29.65521 31.05888,-29.65517 31.05877,-29.65515 31.0587,-29.65514 31.05863,-29.65513 31.05847,-29.65512 31.0583,-29.65513 31.0583,-29.65513 31.05811,-29.65514 31.05791,-29.65517 31.05774,-29.6552 31.05763,-29.65523 31.0575,-29.65527 31.05737,-29.65532 31.0572,-29.65539 31.05707,-29.65545 31.05698,-29.6555 31.05677,-29.65563 31.05673,-29.65567 31.05669,-29.6557 31.05663,-29.65574 31.05652,-29.65584 31.05643,-29.65592 31.05635,-29.65602 31.05629,-29.6561 31.05622,-29.6562 31.05616,-29.65628 31.05612,-29.65635 31.05604,-29.65651 31.05598,-29.6566 31.05594,-29.65669 31.05558,-29.65728 31.05553,-29.65738 31.05535,-29.65768 31.05513,-29.65802 31.05487,-29.65843 31.05477,-29.65859 31.05469,-29.6587 31.05462,-29.65879 31.05457,-29.65886 31.05451,-29.65893 31.05443,-29.65901 31.0543,-29.65913 31.05423,-29.65919 31.05418,-29.65924 31.05408,-29.65931 31.054,-29.65937 31.05391,-29.65944 31.05382,-29.65949 31.05369,-29.65957 31.05356,-29.65963 31.05342,-29.6597 31.0533,-29.65974 31.05319,-29.65979 31.05305,-29.65983 31.05293,-29.65987 31.05283,-29.65989 31.05272,-29.65992 31.05261,-29.65994 31.05252,-29.65995 31.05241,-29.65996 31.05228,-29.65997 31.05214,-29.65998 31.052,-29.65998 31.05189,-29.65998 31.05176,-29.65997 31.05163,-29.65996 31.05151,-29.65994 31.0513,-29.65991 31.05114,-29.65987 31.05101,-29.65984 31.05078,-29.65978 31.05062,-29.65974 31.05046,-29.6597 31.05029,-29.65966 31.05014,-29.65964 31.05004,-29.65963 31.04991,-29.65962 31.04969,-29.65962 31.04969,-29.65963 31.04969,-29.6597 31.04969,-29.65977 31.04968,-29.65982 31.04967,-29.65985 31.04966,-29.65988 31.04957,-29.65999 31.04954,-29.66004 31.04952,-29.66008 31.0495,-29.66013 31.04949,-29.66017 31.04949,-29.66021 31.04948,-29.66025 31.04948,-29.6603 31.04949,-29.66034 31.0495,-29.66038 31.04951,-29.66042 31.04961,-29.66067 31.04985,-29.66129 31.0499,-29.66142 31.04993,-29.66152 31.04994,-29.66159 31.04995,-29.66165 31.04996,-29.66171 31.04996,-29.66181 31.04996,-29.6619 31.04994,-29.66198 31.04993,-29.66208 31.04992,-29.66209 31.04989,-29.66223 31.04979,-29.6626 31.04974,-29.6628 31.04973,-29.66283 31.0497,-29.66293 31.04967,-29.66301 31.04963,-29.66308 31.04947,-29.66302 31.04943,-29.663 31.0494,-29.66298 31.04937,-29.66295 31.04935,-29.66293 31.04933,-29.66289 31.04932,-29.66285 31.04932,-29.66281 31.04932,-29.66272 31.04935,-29.66251 31.04899,-29.66243 31.04852,-29.66248 31.04847,-29.66257 31.04844,-29.66262 31.0484,-29.66268 31.04835,-29.66274 31.04828,-29.66284 31.04823,-29.66291 31.04819,-29.66297 31.04808,-29.66309 31.048,-29.66319 31.04791,-29.66327 31.04785,-29.66333 31.04779,-29.66339 31.04771,-29.66347 31.04759,-29.66358 31.04747,-29.66367 31.04739,-29.66373 31.04725,-29.66383 31.04718,-29.66388 31.04695,-29.66403 31.0468,-29.66411 31.0467,-29.66417 31.04662,-29.66422 31.04661,-29.66422 31.0465,-29.66427 31.04634,-29.66435 31.04621,-29.6644 31.04612,-29.66444 31.04606,-29.66446 31.04593,-29.66451 31.0458,-29.66455 31.04571,-29.66458 31.04558,-29.66462 31.04548,-29.66464 31.04536,-29.66468 31.04516,-29.66472 31.04515,-29.66474 31.04515,-29.66476 31.04488,-29.66573 31.04475,-29.66575 31.04471,-29.66576 31.04468,-29.66576 31.04464,-29.66576 31.04464,-29.66574 31.04459,-29.66574 31.04453,-29.66579 31.04449,-29.66582 31.04446,-29.66584 31.04441,-29.66586 31.04437,-29.66588 31.04431,-29.66584 31.0442,-29.66583 31.04413,-29.66587 31.04402,-29.66597 31.044,-29.66601 31.04398,-29.66608 31.04396,-29.66615 31.04398,-29.66619 31.04398,-29.66625 31.04398,-29.66629 31.04394,-29.66634 31.0439,-29.6664 31.04389,-29.66643 31.04388,-29.66648 31.04385,-29.66652 31.0438,-29.6665 31.04374,-29.66651 31.0437,-29.66653 31.04367,-29.66658 31.04367,-29.66663 31.04364,-29.66668 31.04361,-29.66677 31.04362,-29.66688 31.04364,-29.66695 31.04369,-29.66697 31.04373,-29.66702 31.04376,-29.66709 31.04378,-29.66718 31.04377,-29.66726 31.04376,-29.66739 31.04376,-29.66744 31.04376,-29.6675 31.04379,-29.66754 31.0438,-29.66758 31.0438,-29.66764 31.04382,-29.66771 31.04384,-29.66773 31.04388,-29.66773 31.04391,-29.6678 31.04394,-29.66787 31.04396,-29.66795 31.04394,-29.66801 31.04389,-29.66806 31.04384,-29.6681 31.04384,-29.66817 31.04385,-29.66821 31.04389,-29.66824 31.04389,-29.66831 31.04389,-29.66837 31.04385,-29.66843 31.04378,-29.6686 31.04373,-29.66868 31.04369,-29.66871 31.04366,-29.6689 31.04366,-29.669 31.04362,-29.66906 31.0436,-29.66914 31.04358,-29.66921 31.04358,-29.66927 31.04359,-29.66934 31.04361,-29.66941 31.04357,-29.66951 31.04355,-29.66961 31.04353,-29.66971 31.04352,-29.6698 31.0435,-29.66988 31.04348,-29.66994 31.04344,-29.67005 31.04341,-29.67012 31.04338,-29.6702 31.04334,-29.67029 31.0433,-29.67037 31.04327,-29.67044 31.04317,-29.67047 31.04311,-29.67047 31.04304,-29.67048 31.04295,-29.67049 31.04287,-29.6705 31.04275,-29.6705 31.04265,-29.67053 31.04251,-29.67054 31.0424,-29.67056 31.04231,-29.67062 31.04221,-29.67068 31.04216,-29.67069 31.04207,-29.67069 31.04193,-29.67072 31.04182,-29.67078 31.04178,-29.67089 31.04174,-29.67097 31.04171,-29.67105 31.04168,-29.67105 31.04165,-29.67108 31.04157,-29.67115 31.04145,-29.67122 31.04139,-29.67123 31.04136,-29.67121 31.04136,-29.67117 31.04128,-29.67114 31.04122,-29.67119 31.04116,-29.67125 31.04114,-29.67137 31.04116,-29.67144 31.04119,-29.6715 31.0412,-29.67157 31.04117,-29.67167 31.04113,-29.67175 31.04104,-29.67185 31.04089,-29.67199 31.04081,-29.67205 31.04069,-29.67214 31.0406,-29.67224 31.04051,-29.6723 31.04035,-29.67236 31.04024,-29.67249 31.04011,-29.67266 31.04003,-29.67274 31.04,-29.67286 31.0399,-29.673 31.03979,-29.67314 31.03973,-29.67323 31.03972,-29.67331 31.03964,-29.67346 31.03958,-29.67358 31.03957,-29.67375 31.03952,-29.67387 31.03947,-29.67401 31.03942,-29.67407 31.03932,-29.67418 31.03928,-29.6742 31.03922,-29.67431 31.03915,-29.6744 31.03905,-29.67451 31.03897,-29.67462 31.03895,-29.67471 31.03892,-29.6748 31.03891,-29.67491 31.03895,-29.675 31.03896,-29.67508 31.0389,-29.6752 31.03886,-29.67527 31.03885,-29.67537 31.03886,-29.67544 31.0389,-29.67551 31.03894,-29.67556 31.03908,-29.6757 31.03917,-29.67578 31.03918,-29.67584 31.03918,-29.67595 31.03915,-29.67602 31.0391,-29.67608 31.03903,-29.67608 31.03896,-29.67614 31.03887,-29.67628 31.03874,-29.67635 31.03863,-29.67634 31.03856,-29.67639 31.03843,-29.67645 31.03832,-29.67645 31.03824,-29.67641 31.03812,-29.6764 31.03798,-29.67642 31.03783,-29.67647 31.03772,-29.67647 31.03754,-29.67646 31.03747,-29.67651 31.03739,-29.67657 31.03731,-29.67656 31.03723,-29.67655 31.03713,-29.67655 31.03705,-29.67654 31.03693,-29.67654 31.03682,-29.67654 31.03674,-29.67654 31.03666,-29.67655 31.0365,-29.67656 31.03642,-29.67655 31.03633,-29.67655 31.0362,-29.67654 31.03618,-29.67658 31.03615,-29.6767 31.03614,-29.67672 31.03597,-29.67719 31.03591,-29.67733 31.03581,-29.67763 31.03575,-29.67779 31.03565,-29.67778 31.03559,-29.67777 31.03505,-29.67766 31.03494,-29.67764 31.03455,-29.67757 31.03393,-29.67745 31.03328,-29.67733 31.03286,-29.67725 31.03274,-29.67722 31.03238,-29.67716 31.03213,-29.67711 31.03185,-29.67706 31.03136,-29.67696 31.0309,-29.67688 31.03042,-29.67679 31.03019,-29.67675 31.02997,-29.67671 31.02983,-29.67671 31.02983,-29.6767 31.02983,-29.67532 31.02984,-29.67472 31.02984,-29.67447 31.02985,-29.67289 31.02985,-29.67262 31.02985,-29.67249 31.02985,-29.67249 31.02978,-29.67244 31.0297,-29.67243 31.02961,-29.67243 31.02938,-29.67253 31.02924,-29.67248 31.02902,-29.67243 31.02886,-29.67236 31.02881,-29.6724 31.02872,-29.67239 31.02857,-29.67228 31.02846,-29.67226 31.0284,-29.67228 31.02828,-29.67222 31.02823,-29.67222 31.02808,-29.6722 31.02791,-29.67219 31.02782,-29.67219 31.0277,-29.67217 31.02759,-29.67216 31.02754,-29.67217 31.02748,-29.67211 31.02744,-29.67207 31.02734,-29.67199 31.02727,-29.67193 31.02718,-29.67194 31.02709,-29.672 31.02704,-29.67203 31.02699,-29.67202 31.02694,-29.67192 31.02686,-29.67182 31.02681,-29.67174 31.02682,-29.67167 31.02677,-29.67158 31.02678,-29.67145 31.02679,-29.67133 31.02685,-29.67128 31.02687,-29.67124 31.02686,-29.67119 31.02682,-29.67113 31.02679,-29.67106 31.02679,-29.67098 31.02682,-29.67087 31.0268,-29.67078 31.0268,-29.67074 31.02683,-29.67074 31.02688,-29.67076 31.0269,-29.67075 31.02696,-29.67067 31.02701,-29.67059 31.02704,-29.67051 31.02701,-29.67044 31.02703,-29.67034 31.02705,-29.67025 31.02704,-29.67014 31.02708,-29.67002 31.02713,-29.66991 31.02717,-29.66974 31.02717,-29.66968 31.02715,-29.66961 31.02716,-29.66955 31.02718,-29.66946 31.02716,-29.66941 31.02707,-29.66938 31.02699,-29.66934 31.02693,-29.6693 31.02699,-29.66926 31.02703,-29.66922 31.02703,-29.66915 31.02692,-29.66909 31.02682,-29.66906 31.02672,-29.66907 31.02661,-29.6691 31.02656,-29.66913 31.02656,-29.66918 31.02652,-29.66924 31.02648,-29.66924 31.02639,-29.66924 31.02636,-29.6693 31.02631,-29.66931 31.02623,-29.66929 31.02617,-29.66926 31.02609,-29.66922 31.02605,-29.66916 31.02599,-29.66908 31.026,-29.66899 31.02595,-29.6689 31.02593,-29.66883 31.02594,-29.66874 31.02593,-29.6687 31.02586,-29.66865 31.02582,-29.6686 31.02578,-29.66854 31.02577,-29.66848 31.02575,-29.66842 31.02571,-29.66837 31.02571,-29.66832 31.02575,-29.66827 31.02576,-29.66823 31.0257,-29.66816 31.02567,-29.66813 31.02562,-29.66812 31.02556,-29.66811 31.02555,-29.66803 31.02556,-29.66796 31.02554,-29.66789 31.02549,-29.66784 31.02549,-29.66783 31.0255,-29.66777 31.02549,-29.66773 31.02548,-29.66771 31.02546,-29.66766 31.02551,-29.66757 31.02557,-29.66749 31.0256,-29.66745 31.02562,-29.66738 31.02565,-29.66733 31.02568,-29.66728 31.02567,-29.66718 31.02567,-29.66707 31.0257,-29.66698 31.02569,-29.66688 31.02566,-29.66678 31.02561,-29.66669 31.02554,-29.66658 31.02548,-29.6665 31.02541,-29.66641 31.02534,-29.66642 31.02528,-29.66639 31.02521,-29.66632 31.02515,-29.66629 31.02505,-29.6662 31.02501,-29.66617 31.02501,-29.66616 31.02503,-29.66609 31.02497,-29.66602 31.02488,-29.66593 31.02481,-29.66586 31.02475,-29.66583 31.02472,-29.66577 31.02468,-29.66572 31.0246,-29.66567 31.0245,-29.66565 31.02445,-29.66564 31.02442,-29.66561 31.02436,-29.66555 31.0243,-29.66556 31.02422,-29.66554 31.02417,-29.66553 31.02412,-29.66551 31.02408,-29.66549 31.02403,-29.66545 31.02398,-29.66539 31.02384,-29.66528 31.02378,-29.66525 31.02373,-29.66521 31.02369,-29.6652 31.02365,-29.66517 31.02363,-29.6651 31.02359,-29.66508 31.02354,-29.66506 31.02349,-29.66506 31.02344,-29.66505 31.0234,-29.66504 31.02335,-29.66502 31.0233,-29.66502 31.02326,-29.66504 31.02325,-29.66495 31.02326,-29.6649 31.02323,-29.66487 31.02317,-29.66485 31.02313,-29.66485 31.02307,-29.66484 31.02303,-29.66482 31.02297,-29.66482 31.02289,-29.66482 31.02286,-29.6648 31.02279,-29.66477 31.0227,-29.66476 31.02261,-29.66476 31.02254,-29.66477 31.02244,-29.66475 31.02236,-29.66471 31.02223,-29.66468 31.02217,-29.66471 31.02207,-29.66471 31.02202,-29.6647 31.02198,-29.66468 31.02185,-29.66471 31.02175,-29.66473 31.02164,-29.66475 31.02155,-29.66478 31.02146,-29.66481 31.02134,-29.66486 31.02128,-29.66489 31.02123,-29.66491 31.02116,-29.66493 31.02108,-29.66497 31.02102,-29.66498 31.02096,-29.66502 31.02072,-29.66511 31.02065,-29.66516 31.02061,-29.6652 31.02044,-29.66525 31.02039,-29.66526 31.02035,-29.66528 31.02026,-29.6653 31.02017,-29.66535 31.02009,-29.66538 31.02001,-29.66541 31.01995,-29.66544 31.01991,-29.66545 31.01986,-29.66546 31.0198,-29.66546 31.01972,-29.66546 31.01968,-29.66546 31.01963,-29.66548 31.01957,-29.6655 31.01951,-29.66552 31.01942,-29.66555 31.01936,-29.66557 31.01928,-29.6656 31.0192,-29.6656 31.01913,-29.6656 31.01909,-29.66561 31.01903,-29.66564 31.019,-29.66565 31.01895,-29.66567 31.01884,-29.66567 31.0188,-29.66567 31.01873,-29.66571 31.01864,-29.66575 31.01858,-29.66575 31.01852,-29.66577 31.01847,-29.66579 31.01844,-29.66579 31.01836,-29.66579 31.01828,-29.66579 31.01824,-29.66582 31.01816,-29.66584 31.01812,-29.66586 31.01806,-29.66589 31.01803,-29.66592 31.018,-29.66595 31.01795,-29.66599 31.0179,-29.66601 31.01785,-29.66605 31.01781,-29.66609 31.01777,-29.66615 31.01774,-29.66621 31.01768,-29.66629 31.01766,-29.66635 31.01768,-29.66641 31.0177,-29.66649 31.01768,-29.66653 31.01764,-29.66659 31.01761,-29.66664 31.01756,-29.66668 31.01751,-29.66672 31.01747,-29.66677 31.01741,-29.66685 31.01735,-29.66694 31.01734,-29.66698 31.01732,-29.66701 31.01729,-29.66706 31.01727,-29.66653 31.0173,-29.6658 31.01737,-29.66579 31.01738,-29.66577 31.01739,-29.66561 31.01734,-29.6656 31.01731,-29.6656 31.01732,-29.66512 31.01733,-29.66453 31.01739,-29.66452 31.01739,-29.66433 31.01731,-29.66434 31.01731,-29.66379 31.01731,-29.66315 31.01727,-29.6626 31.01737,-29.66207 31.01736,-29.66182 31.01742,-29.6616 31.01739,-29.66138 31.01739,-29.66104 31.01738,-29.66077 31.01729,-29.66053 31.01728,-29.66033 31.01729,-29.66014 31.01731,-29.65993 31.01732,-29.65974 31.01733,-29.65944 31.01741,-29.65784 31.01743,-29.657 31.01748,-29.65577 31.01741,-29.65468 31.01742,-29.65451 31.01742,-29.65451 31.01742,-29.65446 31.01742,-29.65419 31.01742,-29.65399 31.01742,-29.65362 31.01743,-29.65319 31.01743,-29.65301 31.01743,-29.65295 31.01743,-29.65294 31.01718,-29.65288 31.01682,-29.65278 31.01589,-29.65255 31.0157,-29.65251 31.01535,-29.65244 31.01502,-29.65235 31.01479,-29.65229 31.01468,-29.65227 31.01461,-29.65224 31.01458,-29.65222 31.01449,-29.65216 31.01401,-29.65203 31.01377,-29.65197 31.01375,-29.652 31.01371,-29.65209 31.01363,-29.65207 31.01353,-29.65205 31.01337,-29.65202 31.0133,-29.65202 31.01327,-29.65203 31.01321,-29.65208 31.01318,-29.65222 31.01316,-29.6523 31.01312,-29.65252 31.01304,-29.65273 31.01303,-29.65277 31.01299,-29.6529 31.01294,-29.65308 31.01292,-29.65324 31.0129,-29.65323 31.01271,-29.65319 31.01262,-29.65323 31.01259,-29.65329 31.01252,-29.65353 31.01241,-29.65395 31.01221,-29.65391 31.01175,-29.6538 31.01172,-29.6538 31.01167,-29.65397 31.01162,-29.65408 31.01159,-29.65422 31.01159,-29.65423 31.0115,-29.65422 31.01082,-29.65418 31.01001,-29.65417 31.00994,-29.65417 31.00925,-29.65415 31.00924,-29.65404 31.00922,-29.65392 31.0092,-29.65383 31.0092,-29.65378 31.00921,-29.65373 31.00927,-29.65352 31.0088,-29.65351 31.00852,-29.65292 31.00843,-29.65294 31.00837,-29.65295 31.00829,-29.65296 31.00822,-29.65295 31.00816,-29.65294 31.00811,-29.65292 31.00805,-29.65289 31.00799,-29.65284 31.00795,-29.65279 31.00794,-29.65274 31.00794,-29.65272 31.00795,-29.65267 31.00797,-29.65261 31.00803,-29.65251 31.00811,-29.65239 31.00814,-29.65234 31.00822,-29.65219 31.00742,-29.65187 31.0072,-29.65197 31.00708,-29.65202 31.00698,-29.65206 31.00696,-29.65206 31.00689,-29.65174 31.00687,-29.65164 31.00683,-29.65155 31.0068,-29.65148 31.00675,-29.65141 31.00668,-29.65131 31.0066,-29.65121 31.00651,-29.65111 31.00644,-29.651 31.00635,-29.65088 31.0063,-29.65082 31.00612,-29.65063 31.00576,-29.65024 31.00583,-29.65006 31.00588,-29.64994 31.00616,-29.65001 31.00623,-29.64981 31.00636,-29.64943 31.00647,-29.64946 31.00659,-29.64945 31.00708,-29.64893 31.00723,-29.64878 31.00733,-29.64889 31.0074,-29.64894 31.00748,-29.64898 31.0082,-29.64916 31.00826,-29.64911 31.00837,-29.64898 31.00842,-29.6489 31.00846,-29.64887 31.00848,-29.64886 31.00852,-29.64885 31.00855,-29.64885 31.00858,-29.64885 31.0088,-29.64896 31.00886,-29.64899 31.00911,-29.64906 31.00914,-29.64904 31.00919,-29.64904 31.00951,-29.64911 31.01029,-29.6493 31.01114,-29.64935 31.01132,-29.64936 31.0113,-29.64939 31.01127,-29.64945 31.01125,-29.64949 31.01123,-29.64952 31.01119,-29.64959 31.01118,-29.64966 31.01118,-29.64973 31.01118,-29.64982 31.01118,-29.64991 31.01117,-29.65 31.0109,-29.65052 31.01124,-29.651 31.01145,-29.65105 31.01276,-29.65136 31.01387,-29.65033 31.01458,-29.65052 31.01484,-29.65026 31.01505,-29.65034 31.01529,-29.65014 31.01557,-29.65038 31.01573,-29.65023 31.01588,-29.65002 31.01615,-29.64975 31.01646,-29.64945 31.0166,-29.64931 31.01715,-29.64878 31.01748,-29.64846 31.01769,-29.64826 31.018,-29.64795 31.01839,-29.64757 31.01866,-29.6473 31.0187,-29.64726 31.01889,-29.64707 31.01889,-29.64705 31.01894,-29.64699 31.01908,-29.64688 31.01914,-29.64683 31.01917,-29.64681 31.01946,-29.64652 31.01966,-29.64632 31.01986,-29.64613 31.01977,-29.64611 31.01971,-29.64608 31.01966,-29.64605 31.01962,-29.64602 31.01959,-29.64599 31.01952,-29.64595 31.01948,-29.64594 31.01948,-29.64591 31.01952,-29.64584 31.01957,-29.64579 31.01962,-29.64576 31.01971,-29.64574 31.01978,-29.64575 31.0199,-29.64576 31.01995,-29.64578 31.02002,-29.64579 31.02009,-29.64581 31.02021,-29.64578 31.02025,-29.64575 31.02062,-29.64538 31.02094,-29.64507 31.02117,-29.64485 31.02145,-29.64458 31.02174,-29.6443 31.02186,-29.64417 31.0221,-29.6439 31.02221,-29.64379 31.02233,-29.64367 31.02264,-29.64338 31.02272,-29.64331 31.02287,-29.64317 31.02298,-29.64308 31.02307,-29.643 31.02357,-29.64251 31.02407,-29.64203 31.0241,-29.642 31.02452,-29.64159 31.02462,-29.64148 31.02471,-29.6414 31.02483,-29.6413 31.02491,-29.64121 31.025,-29.64116 31.02508,-29.6411 31.02515,-29.64101 31.02521,-29.64093 31.02524,-29.64087 31.02525,-29.64081 31.0253,-29.64078 31.02539,-29.64071 31.02541,-29.64069 31.02545,-29.64067 31.02548,-29.64064 31.02556,-29.64056 31.02757,-29.63855 31.02856,-29.63755 31.02857,-29.63755 31.02957,-29.63635 31.03055,-29.63519 31.03099,-29.63468 31.03289,-29.63248 31.03363,-29.63155 31.03426,-29.63077 31.03438,-29.63063 31.0345,-29.63048 31.03543,-29.62936 31.03616,-29.62857 31.03666,-29.62794 31.03736,-29.62706 31.03737,-29.62709 31.03738,-29.62712 31.03738,-29.62716 31.03735,-29.6272 31.03732,-29.62725 31.03732,-29.62732 31.0373,-29.62737 31.03727,-29.62742 31.03725,-29.62747 31.03724,-29.62751 31.03725,-29.62755 31.03725,-29.62759 31.03722,-29.62763 31.03718,-29.62766 31.03717,-29.6277 31.03718,-29.62774 31.0372,-29.62777 31.0372,-29.62781 31.03721,-29.62786 31.03724,-29.6279 31.03724,-29.62793 31.03724,-29.62798 31.03726,-29.62801 31.03728,-29.62804 31.03731,-29.62808 31.03734,-29.62813 31.03738,-29.62816 31.0374,-29.62819 31.03742,-29.62823 31.03746,-29.62826 31.03753,-29.6283 31.03758,-29.62829 31.03764,-29.62831 31.03773,-29.62832 31.0378,-29.62832 31.0379,-29.62832 31.03797,-29.62833 31.03805,-29.62833 31.03818,-29.62837 31.03828,-29.62837 31.03835,-29.62837 31.03839,-29.6284 31.03845,-29.62843 31.03851,-29.62845 31.03855,-29.62846 31.03861,-29.62849 31.03864,-29.62852 31.03869,-29.62855 31.03875,-29.62859 31.03881,-29.62862 31.03888,-29.62866 31.03893,-29.62869 31.03897,-29.62873 31.03899,-29.62876 31.03902,-29.62878 31.03903,-29.6288 31.03907,-29.62885 31.0391,-29.6289 31.03918,-29.62897 31.03925,-29.62901 31.03931,-29.62904 31.03936,-29.62908 31.03944,-29.62912 31.03951,-29.62915 31.03952,-29.62918 31.03955,-29.62921 31.03959,-29.62925 31.03962,-29.6293 31.03963,-29.62934 31.03961,-29.62941 31.03959,-29.62949 31.03958,-29.62954 31.03957,-29.62959 31.03953,-29.62965 31.03952,-29.6297 31.03947,-29.62977 31.0394,-29.62982 31.03935,-29.62987 31.03932,-29.62991 31.03927,-29.62998 31.03922,-29.63003 31.0392,-29.63009 31.0392,-29.63012 31.03922,-29.63016 31.03924,-29.63021 31.03923,-29.63027 31.03922,-29.63032 31.03916,-29.63038 31.03913,-29.63047 31.03909,-29.63052 31.03906,-29.63056 31.03904,-29.63061 31.03903,-29.63067 31.03898,-29.63071 31.03895,-29.63076 31.03895,-29.6308 31.03895,-29.63085 31.03897,-29.63089 31.03898,-29.63093 31.03895,-29.63097 31.03894,-29.63101 31.03892,-29.63107 31.03893,-29.63111 31.03892,-29.63115 31.03892,-29.6312 31.03895,-29.63124 31.03895,-29.63128 31.03895,-29.63134 31.03897,-29.63138 31.03899,-29.63142 31.03901,-29.63148 31.03903,-29.63152 31.03905,-29.63155 31.03908,-29.63161 31.03913,-29.63164 31.03923,-29.63157 31.03943,-29.63141 31.03952,-29.63133 31.03967,-29.63127 31.03983,-29.63119 31.04005,-29.6311 31.04027,-29.63098 31.04041,-29.63095 31.0406,-29.63083 31.04083,-29.63072 31.04099,-29.63064 31.04119,-29.63062 31.04137,-29.63054 31.04156,-29.63034 31.04175,-29.63016 31.04173,-29.63008 31.04179,-29.62999 31.04207,-29.62973 31.04223,-29.62964 31.04257,-29.62947 31.04287,-29.62935 31.04312,-29.62927 31.04321,-29.62924 31.04339,-29.6291 31.04349,-29.629 31.04351,-29.62883 31.04353,-29.62869 31.04357,-29.6286 31.04367,-29.62859 31.04373,-29.62856 31.04378,-29.62854 31.04382,-29.62848 31.04389,-29.62839 31.0439,-29.62832 31.04397,-29.62823 31.04401,-29.62815 31.04402,-29.62811 31.04399,-29.62804 31.04393,-29.62797 31.04392,-29.62794 31.04392,-29.6279 31.04389,-29.62791 31.04384,-29.62793 31.04378,-29.62794 31.04369,-29.6279 31.04359,-29.62782 31.04348,-29.62777 31.04335,-29.62772 31.04321,-29.62767 31.04311,-29.62757 31.04305,-29.62749 31.04293,-29.62742 31.04293,-29.62729 31.04293,-29.62723 31.0429,-29.62717 31.04286,-29.62714 31.04279,-29.6271 31.04275,-29.6271 31.04272,-29.62706 31.04265,-29.627 31.04261,-29.62693 31.04258,-29.62686 31.04256,-29.62681 31.04254,-29.62672 31.04251,-29.62663 31.04251,-29.62656 31.04255,-29.6264 31.04255,-29.62636 31.04253,-29.6263 31.0425,-29.62622 31.04247,-29.62601 31.04245,-29.62591 31.04249,-29.62586 31.04255,-29.6258 31.04259,-29.62574 31.04263,-29.62567 31.04266,-29.62563 31.04267,-29.62558 31.04267,-29.62552 31.04267,-29.62547 31.04268,-29.62536 31.04269,-29.6253 31.0427,-29.62523 31.04273,-29.62516 31.04277,-29.62508 31.04282,-29.62502 31.04288,-29.62491 31.04291,-29.62486 31.04293,-29.62481 31.043,-29.62468 31.04304,-29.6246 31.04305,-29.62455 31.04308,-29.62451 31.04311,-29.62443 31.04315,-29.62435 31.04316,-29.6243 31.04316,-29.62424 31.04317,-29.62415 31.04325,-29.62403 31.04329,-29.62393 31.04328,-29.62378 31.04329,-29.6236 31.04347,-29.62353 31.04367,-29.62353 31.04382,-29.62341 31.04387,-29.62315 31.04389,-29.6228 31.04403,-29.6226 31.04429,-29.62237 31.04466,-29.62213 31.04472,-29.62207 31.04486,-29.62191 31.04491,-29.62173 31.04514,-29.62138 31.04545,-29.62111 31.04565,-29.62094 31.04609,-29.6207 31.0464,-29.62053 31.04662,-29.62044 31.04701,-29.62032 31.04737,-29.62027 31.0479,-29.62018 31.04825,-29.62013 31.04859,-29.61992 31.04885,-29.61988 31.04912,-29.61984 31.04946,-29.61972 31.04989,-29.61953 31.0502,-29.61937 31.05048,-29.6193 31.05065,-29.61929 31.05097,-29.6192 31.05118,-29.61915 31.05161,-29.61917</coordinates></LinearRing></outerBoundaryIs></Polygon></MultiGeometry></Placemark></Document></kml>