<?xml version="1.0" encoding="UTF-8"?><kml xmlns="http://www.opengis.net/kml/2.2"><Document><Placemark><name>Lindelani D</name><description>Sub Place 599056005</description><ExtendedData><Data name="code"><value>599056005</value></Data><Data name="name"><value>Lindelani D</value></Data><Data name="description"><value>Sub Place 599056005</value></Data></ExtendedData><MultiGeometry><Polygon><outerBoundaryIs><LinearRing><coordinates>30.92215,-29.72977 30.92221,-29.7298 30.92228,-29.72979 30.92232,-29.72982 30.92237,-29.72982 30.92245,-29.72984 30.9225,-29.72986 30.92255,-29.72987 30.9226,-29.72988 30.92264,-29.7299 30.92271,-29.72995 30.92279,-29.72998 30.92282,-29.73003 30.92288,-29.73005 30.92295,-29.73005 30.92299,-29.73006 30.92305,-29.73009 30.9231,-29.73013 30.92315,-29.73017 30.92315,-29.73017 30.92319,-29.73019 30.92324,-29.7302 30.92329,-29.73023 30.92338,-29.73022 30.92347,-29.73022 30.92354,-29.73022 30.92358,-29.73023 30.92362,-29.73024 30.92371,-29.73025 30.92377,-29.73028 30.92384,-29.73024 30.92392,-29.73024 30.92399,-29.73028 30.92406,-29.73028 30.92413,-29.7303 30.92419,-29.73031 30.92424,-29.73033 30.92431,-29.73032 30.92438,-29.73032 30.92442,-29.73035 30.92448,-29.73037 30.92452,-29.73038 30.92458,-29.73037 30.92467,-29.73037 30.92472,-29.73038 30.92477,-29.73037 30.92481,-29.73037 30.92492,-29.73036 30.92496,-29.73033 30.92497,-29.73032 30.925,-29.73029 30.92504,-29.73024 30.92509,-29.73019 30.92514,-29.73016 30.92519,-29.73019 30.92519,-29.73025 30.92522,-29.73028 30.92527,-29.7303 30.92532,-29.73033 30.92538,-29.73032 30.92544,-29.73032 30.92552,-29.73033 30.92557,-29.73035 30.92561,-29.73037 30.92567,-29.73038 30.92573,-29.73044 30.92576,-29.73047 30.92582,-29.73046 30.92584,-29.73048 30.92588,-29.73047 30.92592,-29.73045 30.92597,-29.73042 30.92603,-29.73043 30.9261,-29.73045 30.92617,-29.73048 30.92623,-29.7305 30.92632,-29.73052 30.92637,-29.73053 30.9264,-29.73054 30.92645,-29.73054 30.9265,-29.73056 30.92652,-29.73061 30.92661,-29.73058 30.92669,-29.73062 30.92677,-29.73065 30.92682,-29.73067 30.92688,-29.73067 30.92699,-29.73065 30.9271,-29.73064 30.92716,-29.73065 30.92721,-29.73068 30.92727,-29.73067 30.92731,-29.73067 30.92734,-29.73062 30.92736,-29.73066 30.92739,-29.73069 30.92747,-29.73072 30.92754,-29.73074 30.92757,-29.73077 30.92764,-29.73078 30.92771,-29.73082 30.92777,-29.73083 30.92783,-29.73086 30.92787,-29.73086 30.92792,-29.73088 30.92797,-29.7309 30.92805,-29.73091 30.92811,-29.73092 30.92818,-29.73097 30.92825,-29.73103 30.9283,-29.73106 30.92837,-29.73108 30.92842,-29.73108 30.9285,-29.73107 30.92857,-29.73107 30.92862,-29.73104 30.92866,-29.73098 30.92868,-29.73095 30.92871,-29.73091 30.92887,-29.73099 30.92922,-29.73115 30.92937,-29.73122 30.93012,-29.73157 30.93062,-29.7318 30.93078,-29.73187 30.93156,-29.73224 30.93157,-29.73259 30.93149,-29.7326 30.93139,-29.7326 30.93128,-29.73265 30.93124,-29.73268 30.93122,-29.73274 30.93121,-29.73289 30.93121,-29.73304 30.93121,-29.73309 30.93124,-29.73315 30.93129,-29.73321 30.93134,-29.73326 30.93137,-29.73332 30.93139,-29.73338 30.93142,-29.73342 30.93142,-29.73342 30.93148,-29.73346 30.93161,-29.73349 30.93173,-29.73351 30.93176,-29.73351 30.93169,-29.73369 30.93167,-29.73376 30.93164,-29.73391 30.93162,-29.73417 30.93164,-29.73439 30.93171,-29.73447 30.93174,-29.73454 30.9318,-29.73455 30.93187,-29.73457 30.93195,-29.73459 30.93201,-29.73461 30.93209,-29.73463 30.93211,-29.73466 30.93207,-29.7347 30.93198,-29.73482 30.93214,-29.73495 30.93207,-29.73503 30.93222,-29.73514 30.93209,-29.73527 30.93211,-29.73531 30.93223,-29.73543 30.93232,-29.7355 30.93262,-29.73568 30.93275,-29.73577 30.93287,-29.73594 30.93292,-29.73603 30.93318,-29.73636 30.93321,-29.73639 30.93353,-29.73656 30.93393,-29.73668 30.93407,-29.73671 30.93409,-29.7367 30.93421,-29.73674 30.93427,-29.73676 30.9343,-29.73677 30.93438,-29.73678 30.93455,-29.73682 30.93469,-29.73686 30.93474,-29.73688 30.93488,-29.73692 30.935,-29.73697 30.935,-29.73697 30.93485,-29.73745 30.93473,-29.73784 30.9346,-29.73828 30.93455,-29.73841 30.93455,-29.73843 30.93444,-29.73862 30.93429,-29.73884 30.93374,-29.73946 30.93341,-29.73982 30.93314,-29.74013 30.93283,-29.74048 30.93224,-29.74114 30.93212,-29.74127 30.93199,-29.74142 30.93183,-29.74167 30.93149,-29.74224 30.93132,-29.74254 30.9313,-29.74258 30.93104,-29.74294 30.93087,-29.74317 30.93084,-29.7432 30.93072,-29.74333 30.93062,-29.74339 30.93033,-29.74347 30.93009,-29.74353 30.92971,-29.74368 30.92964,-29.74373 30.92963,-29.74374 30.9295,-29.74383 30.92932,-29.74404 30.92906,-29.74437 30.92905,-29.74438 30.92801,-29.74575 30.92774,-29.7461 30.92748,-29.74645 30.92724,-29.74677 30.92712,-29.74694 30.92695,-29.74698 30.92685,-29.74698 30.92658,-29.74704 30.92608,-29.74718 30.92621,-29.74757 30.92644,-29.74829 30.92519,-29.74865 30.9252,-29.74853 30.92513,-29.74836 30.92503,-29.74823 30.92502,-29.74824 30.92502,-29.74828 30.92498,-29.74834 30.92467,-29.74815 30.92444,-29.748 30.92427,-29.74781 30.92413,-29.74761 30.92394,-29.74722 30.92376,-29.74692 30.92346,-29.74666 30.92335,-29.74625 30.92321,-29.74611 30.92321,-29.74611 30.92293,-29.74642 30.92264,-29.7463 30.92248,-29.74596 30.92248,-29.74569 30.92212,-29.74557 30.92181,-29.74547 30.92158,-29.74521 30.9215,-29.74498 30.92125,-29.74487 30.92099,-29.74469 30.92069,-29.74455 30.92064,-29.74429 30.92058,-29.74418 30.92054,-29.74415 30.92045,-29.74416 30.92029,-29.74431 30.92006,-29.74463 30.91992,-29.74471 30.9199,-29.74468 30.91987,-29.74449 30.91977,-29.74414 30.91961,-29.7434 30.91934,-29.7421 30.91934,-29.74197 30.91944,-29.74152 30.91949,-29.74118 30.9195,-29.74111 30.91957,-29.74087 30.91961,-29.74064 30.91962,-29.7404 30.91962,-29.74029 30.91973,-29.73977 30.91983,-29.73939 30.92003,-29.73908 30.92017,-29.73887 30.9202,-29.73882 30.92021,-29.7388 30.92027,-29.73868 30.92033,-29.73863 30.92065,-29.73852 30.92069,-29.73843 30.92095,-29.73837 30.92116,-29.73833 30.92132,-29.73831 30.92142,-29.73828 30.92149,-29.73823 30.92169,-29.73823 30.92202,-29.73802 30.9218,-29.73783 30.92165,-29.73769 30.92158,-29.73763 30.92149,-29.73755 30.92135,-29.73745 30.92122,-29.73737 30.9211,-29.73729 30.92081,-29.73716 30.92047,-29.737 30.92027,-29.73691 30.92017,-29.73687 30.92009,-29.73684 30.92005,-29.73682 30.92014,-29.73635 30.92048,-29.73462 30.92008,-29.7344 30.91999,-29.73423 30.91999,-29.73369 30.91974,-29.7333 30.91976,-29.73325 30.91982,-29.73302 30.91993,-29.73282 30.91991,-29.73266 30.91992,-29.73261 30.92027,-29.7322 30.92031,-29.7322 30.92041,-29.7322 30.92058,-29.7322 30.92098,-29.7322 30.92098,-29.73212 30.92096,-29.73211 30.92088,-29.73208 30.92084,-29.73206 30.92067,-29.73193 30.92045,-29.73176 30.92056,-29.73164 30.92064,-29.7315 30.92069,-29.73146 30.92074,-29.73143 30.92079,-29.73141 30.92082,-29.73138 30.92082,-29.73132 30.92085,-29.73126 30.92081,-29.73123 30.92081,-29.73121 30.92082,-29.73117 30.92083,-29.73109 30.92091,-29.73081 30.92096,-29.73078 30.92096,-29.73077 30.92102,-29.73073 30.92106,-29.73071 30.92111,-29.73067 30.9211,-29.73065 30.92112,-29.73063 30.92126,-29.73055 30.92124,-29.73048 30.92124,-29.73044 30.92125,-29.73018 30.92126,-29.73015 30.92126,-29.73002 30.92126,-29.73 30.92127,-29.73001 30.92128,-29.73001 30.92133,-29.73003 30.92136,-29.73 30.92142,-29.72999 30.92145,-29.72998 30.92149,-29.72998 30.92155,-29.72995 30.9216,-29.72991 30.92167,-29.7299 30.92179,-29.72989 30.92185,-29.72986 30.9219,-29.72984 30.92196,-29.7298 30.92201,-29.72974 30.92206,-29.72973 30.92211,-29.72975 30.92215,-29.72977</coordinates></LinearRing></outerBoundaryIs></Polygon></MultiGeometry></Placemark></Document></kml>