<?xml version="1.0" encoding="UTF-8"?><kml xmlns="http://www.opengis.net/kml/2.2"><Document><Placemark><name>Tongaat</name><description>Main Place 599002</description><ExtendedData><Data name="code"><value>599002</value></Data><Data name="name"><value>Tongaat</value></Data><Data name="description"><value>Main Place 599002</value></Data></ExtendedData><MultiGeometry><Polygon><outerBoundaryIs><LinearRing><coordinates>31.14661,-29.53634 31.14684,-29.53684 31.14692,-29.537 31.14739,-29.53809 31.1478,-29.539 31.14785,-29.53909 31.14806,-29.5395 31.14752,-29.54006 31.14699,-29.54059 31.14669,-29.5409 31.14619,-29.54141 31.14562,-29.542 31.14553,-29.54208 31.14496,-29.54267 31.14496,-29.54268 31.1452,-29.54281 31.14527,-29.54292 31.14527,-29.54303 31.14522,-29.54314 31.1452,-29.54331 31.14515,-29.54341 31.14505,-29.54345 31.14501,-29.54353 31.145,-29.54367 31.14517,-29.54372 31.1453,-29.54381 31.14553,-29.54399 31.1463,-29.54453 31.14605,-29.54478 31.14584,-29.54499 31.14554,-29.54527 31.14525,-29.54556 31.14437,-29.54643 31.14449,-29.54668 31.14458,-29.54681 31.14461,-29.54693 31.14462,-29.54703 31.14465,-29.54713 31.14464,-29.54722 31.1446,-29.54733 31.14458,-29.54743 31.14454,-29.54748 31.14454,-29.54749 31.14461,-29.54762 31.14426,-29.54782 31.14422,-29.54784 31.14408,-29.54802 31.14413,-29.54817 31.14416,-29.54826 31.14423,-29.54841 31.14439,-29.5486 31.1445,-29.54869 31.1446,-29.5489 31.14468,-29.54906 31.14484,-29.54937 31.14498,-29.54974 31.14509,-29.54979 31.14523,-29.54987 31.14527,-29.54997 31.1452,-29.55013 31.14571,-29.55089 31.14571,-29.5509 31.14571,-29.55095 31.14572,-29.55101 31.14578,-29.55113 31.14586,-29.55124 31.14594,-29.55136 31.14598,-29.55144 31.14605,-29.5516 31.14609,-29.55165 31.14609,-29.5517 31.1461,-29.55173 31.14615,-29.55178 31.14619,-29.55183 31.14622,-29.5519 31.14625,-29.55196 31.14629,-29.55203 31.14632,-29.55207 31.14636,-29.5521 31.1464,-29.55215 31.14643,-29.55221 31.1465,-29.5523 31.14655,-29.55237 31.14659,-29.55244 31.1466,-29.55245 31.14666,-29.5525 31.14668,-29.55251 31.14669,-29.55252 31.14672,-29.55255 31.14675,-29.5526 31.14677,-29.55265 31.14678,-29.5527 31.14675,-29.55273 31.14674,-29.55275 31.14673,-29.55276 31.14672,-29.55277 31.14669,-29.55281 31.14667,-29.55283 31.14655,-29.55296 31.14642,-29.55308 31.14638,-29.55316 31.14633,-29.55321 31.14625,-29.55327 31.14623,-29.55329 31.14574,-29.5538 31.14574,-29.5538 31.14574,-29.55381 31.14512,-29.55444 31.14505,-29.55451 31.14495,-29.55461 31.14472,-29.55491 31.14508,-29.55513 31.14537,-29.55529 31.14569,-29.55545 31.14605,-29.55562 31.14631,-29.55575 31.14671,-29.55593 31.14669,-29.556 31.14663,-29.55606 31.14642,-29.55625 31.14632,-29.55637 31.14629,-29.55641 31.14623,-29.55645 31.14594,-29.55679 31.14554,-29.55725 31.14525,-29.55754 31.14499,-29.55783 31.14486,-29.558 31.14486,-29.55809 31.14486,-29.5581 31.14489,-29.55816 31.14492,-29.55827 31.1444,-29.55877 31.14439,-29.55875 31.14427,-29.55859 31.14427,-29.55859 31.14413,-29.55851 31.1437,-29.55844 31.14346,-29.55836 31.14335,-29.55829 31.14326,-29.5581 31.14314,-29.55798 31.14301,-29.55787 31.14297,-29.55781 31.14284,-29.55763 31.14283,-29.55762 31.14263,-29.55747 31.14239,-29.55738 31.14233,-29.55741 31.14229,-29.55743 31.14219,-29.55754 31.142,-29.55776 31.14193,-29.55789 31.14191,-29.55805 31.14196,-29.55817 31.14191,-29.55838 31.14186,-29.55856 31.14173,-29.55872 31.14166,-29.55878 31.14163,-29.5588 31.14159,-29.55888 31.14155,-29.55894 31.14136,-29.55919 31.14113,-29.55958 31.14096,-29.55986 31.14082,-29.56005 31.14058,-29.56031 31.14038,-29.56049 31.1403,-29.56062 31.14002,-29.56102 31.1398,-29.56129 31.13963,-29.56148 31.13943,-29.56162 31.13936,-29.56167 31.1391,-29.56172 31.13887,-29.56172 31.1387,-29.56175 31.13858,-29.56189 31.13846,-29.56195 31.13832,-29.56204 31.13816,-29.56211 31.13801,-29.56212 31.13788,-29.56219 31.13771,-29.56219 31.13754,-29.56225 31.1373,-29.56231 31.13707,-29.56232 31.13706,-29.56232 31.13676,-29.56233 31.13663,-29.56244 31.1365,-29.56252 31.13597,-29.5625 31.13574,-29.56256 31.1356,-29.56263 31.13534,-29.56277 31.13521,-29.56288 31.1351,-29.56296 31.13499,-29.56302 31.13484,-29.5632 31.13478,-29.56328 31.13457,-29.56323 31.13444,-29.56321 31.13427,-29.56335 31.13417,-29.56342 31.134,-29.56345 31.13366,-29.5634 31.13327,-29.56328 31.13289,-29.56319 31.13229,-29.56311 31.1318,-29.56301 31.13155,-29.56244 31.13127,-29.56242 31.13103,-29.56244 31.13052,-29.5623 31.13027,-29.56225 31.13,-29.56238 31.12939,-29.56243 31.12883,-29.56247 31.12866,-29.56222 31.12808,-29.56206 31.12789,-29.56203 31.1276,-29.56201 31.12734,-29.562 31.1272,-29.56201 31.1272,-29.56201 31.12703,-29.5621 31.12669,-29.56227 31.12643,-29.56238 31.1263,-29.5625 31.12618,-29.56262 31.12606,-29.56267 31.12596,-29.56262 31.12591,-29.56256 31.12583,-29.56244 31.12571,-29.5623 31.12564,-29.5622 31.12557,-29.5622 31.12545,-29.56223 31.12531,-29.56221 31.12521,-29.56221 31.12506,-29.56217 31.12498,-29.56218 31.12484,-29.56222 31.12476,-29.56227 31.12462,-29.56237 31.12479,-29.56248 31.12499,-29.56252 31.12495,-29.56262 31.12483,-29.56274 31.12472,-29.56289 31.12468,-29.56301 31.12467,-29.56319 31.12466,-29.56335 31.12468,-29.5636 31.1247,-29.5638 31.1247,-29.56398 31.12466,-29.56418 31.12454,-29.56441 31.12442,-29.56459 31.12428,-29.56475 31.12411,-29.56501 31.12394,-29.56512 31.12376,-29.56518 31.12363,-29.56519 31.12347,-29.56528 31.1233,-29.56544 31.12326,-29.56559 31.12324,-29.56571 31.12331,-29.56597 31.12327,-29.56612 31.12324,-29.5662 31.12312,-29.56632 31.1231,-29.56639 31.12304,-29.5665 31.12295,-29.56661 31.12294,-29.5667 31.12277,-29.56693 31.12259,-29.56708 31.12249,-29.56724 31.12242,-29.56736 31.12227,-29.56747 31.1222,-29.5677 31.12216,-29.56778 31.12231,-29.56781 31.12248,-29.56786 31.12265,-29.56796 31.12285,-29.56815 31.12296,-29.56831 31.12306,-29.56852 31.12309,-29.56857 31.12317,-29.56871 31.12318,-29.56874 31.12318,-29.56876 31.12319,-29.56879 31.12319,-29.56879 31.12331,-29.56872 31.12335,-29.5687 31.12338,-29.56868 31.12342,-29.56865 31.1235,-29.56859 31.12356,-29.56852 31.12361,-29.56846 31.12381,-29.56811 31.12441,-29.56832 31.12449,-29.56838 31.12458,-29.56846 31.12479,-29.56855 31.1251,-29.56867 31.12534,-29.56872 31.12556,-29.56872 31.12593,-29.56873 31.12607,-29.56873 31.12627,-29.5688 31.1264,-29.56892 31.12659,-29.56905 31.12742,-29.56957 31.12759,-29.5697 31.12769,-29.56975 31.12777,-29.56975 31.12791,-29.56974 31.1287,-29.56876 31.12887,-29.56853 31.12888,-29.56841 31.12894,-29.56829 31.129,-29.56825 31.12905,-29.56819 31.12913,-29.56818 31.12927,-29.56818 31.12952,-29.56823 31.12967,-29.56823 31.12976,-29.56822 31.12984,-29.5682 31.12991,-29.56815 31.12994,-29.56808 31.12995,-29.568 31.12997,-29.56758 31.13007,-29.56759 31.1301,-29.56759 31.13013,-29.56758 31.13018,-29.56757 31.13022,-29.56755 31.13032,-29.56747 31.1305,-29.5673 31.13044,-29.56711 31.13041,-29.56702 31.13041,-29.56702 31.13049,-29.5668 31.13053,-29.5667 31.13066,-29.56653 31.1312,-29.56611 31.13183,-29.56671 31.13198,-29.56707 31.13199,-29.56714 31.13194,-29.56725 31.13126,-29.5682 31.13119,-29.56831 31.13108,-29.5684 31.13095,-29.56848 31.13072,-29.5686 31.13065,-29.56866 31.13063,-29.5689 31.13067,-29.56909 31.13076,-29.56934 31.13086,-29.56947 31.13098,-29.56959 31.13118,-29.5697 31.13179,-29.56991 31.13144,-29.57051 31.13166,-29.5709 31.13185,-29.57127 31.13191,-29.57147 31.13198,-29.57182 31.13206,-29.57241 31.13204,-29.57247 31.13196,-29.57247 31.13112,-29.57246 31.13083,-29.57239 31.13071,-29.57238 31.1306,-29.57241 31.12955,-29.57288 31.12885,-29.573 31.12868,-29.57259 31.12829,-29.57219 31.12819,-29.57211 31.12746,-29.57178 31.1273,-29.57178 31.12718,-29.57178 31.12695,-29.57182 31.12553,-29.57212 31.12401,-29.57267 31.12258,-29.57316 31.12242,-29.57326 31.12243,-29.57331 31.12247,-29.57336 31.12266,-29.57343 31.12264,-29.57352 31.12258,-29.5736 31.12234,-29.57384 31.12214,-29.57399 31.12206,-29.57396 31.12129,-29.5736 31.12117,-29.57394 31.12099,-29.57452 31.12162,-29.57481 31.12206,-29.57501 31.12242,-29.5753 31.12266,-29.57557 31.12281,-29.57578 31.12298,-29.57612 31.12309,-29.57645 31.12311,-29.57682 31.12313,-29.57743 31.12313,-29.57815 31.12316,-29.57844 31.12318,-29.57851 31.12317,-29.57851 31.12267,-29.57886 31.1225,-29.57906 31.12238,-29.5792 31.12222,-29.57948 31.12214,-29.57978 31.1222,-29.58009 31.12227,-29.58025 31.12216,-29.58035 31.11937,-29.58043 31.11915,-29.58033 31.11727,-29.57947 31.11561,-29.58184 31.11406,-29.58051 31.1112,-29.57795 31.11103,-29.5778 31.11097,-29.57774 31.11096,-29.57774 31.11094,-29.57776 31.11088,-29.57781 31.11082,-29.57786 31.11074,-29.57793 31.11055,-29.57813 31.11003,-29.57864 31.10951,-29.57918 31.1089,-29.57979 31.10831,-29.58039 31.10807,-29.58063 31.108,-29.5807 31.10773,-29.58095 31.10744,-29.58122 31.10727,-29.58138 31.10715,-29.58151 31.10686,-29.58179 31.10679,-29.58186 31.10645,-29.58217 31.10634,-29.58227 31.10618,-29.58241 31.1059,-29.58264 31.10568,-29.58281 31.10541,-29.58302 31.10518,-29.58319 31.10456,-29.58364 31.10393,-29.58406 31.1038,-29.58415 31.10322,-29.58453 31.1029,-29.58475 31.10254,-29.58499 31.1021,-29.5853 31.10203,-29.58535 31.10194,-29.58541 31.10175,-29.58555 31.10159,-29.58567 31.10154,-29.58572 31.1015,-29.58576 31.10139,-29.58586 31.1013,-29.58597 31.10128,-29.58598 31.10123,-29.58604 31.10115,-29.58613 31.10108,-29.58624 31.10099,-29.58637 31.10093,-29.58646 31.10089,-29.58653 31.10083,-29.58664 31.10075,-29.5868 31.1007,-29.58694 31.10066,-29.58705 31.10061,-29.58719 31.10055,-29.58741 31.10052,-29.58749 31.10051,-29.58754 31.10046,-29.5877 31.10041,-29.5879 31.10041,-29.5879 31.10031,-29.58829 31.10019,-29.58823 31.10016,-29.58821 31.10013,-29.5882 31.10011,-29.58817 31.1001,-29.58815 31.10007,-29.58806 31.09999,-29.58785 31.09994,-29.58771 31.09992,-29.58769 31.0999,-29.58767 31.09966,-29.58751 31.09859,-29.58683 31.09847,-29.58675 31.09846,-29.58675 31.09845,-29.58674 31.09844,-29.58673 31.09834,-29.58665 31.09813,-29.58649 31.09811,-29.58647 31.09808,-29.58645 31.09806,-29.58644 31.09805,-29.58642 31.09791,-29.58627 31.09784,-29.5862 31.09784,-29.58619 31.09783,-29.58619 31.09782,-29.58618 31.09781,-29.58618 31.09775,-29.58616 31.09774,-29.58616 31.09772,-29.58615 31.09771,-29.58615 31.0977,-29.58614 31.09768,-29.58613 31.09763,-29.5861 31.09703,-29.58566 31.09684,-29.58553 31.09666,-29.58541 31.09661,-29.58537 31.09658,-29.58535 31.09655,-29.58534 31.09654,-29.58533 31.09652,-29.58532 31.09632,-29.58525 31.09587,-29.58509 31.095,-29.58478 31.09494,-29.58476 31.09491,-29.58475 31.09489,-29.58474 31.09484,-29.58471 31.09481,-29.58469 31.0948,-29.58468 31.09479,-29.58468 31.09478,-29.58467 31.09476,-29.58467 31.09475,-29.58467 31.09467,-29.58465 31.09466,-29.58464 31.09455,-29.58461 31.0945,-29.5846 31.0944,-29.58457 31.09407,-29.58445 31.09384,-29.58436 31.09367,-29.5843 31.09352,-29.58424 31.0935,-29.58423 31.09348,-29.58422 31.09345,-29.5842 31.09344,-29.5842 31.09343,-29.58419 31.09342,-29.58419 31.09335,-29.5842 31.09327,-29.5843 31.09313,-29.58421 31.0931,-29.58419 31.09293,-29.58408 31.09289,-29.58405 31.0928,-29.58402 31.09153,-29.58358 31.09138,-29.58353 31.09047,-29.58323 31.09004,-29.58308 31.09004,-29.5831 31.09003,-29.5831 31.09003,-29.58311 31.09003,-29.58312 31.09003,-29.58313 31.09005,-29.58316 31.09005,-29.58318 31.09004,-29.5832 31.09003,-29.5832 31.09001,-29.58321 31.08997,-29.58322 31.08994,-29.58325 31.0899,-29.58328 31.08986,-29.58334 31.08983,-29.58338 31.08982,-29.58341 31.08978,-29.58352 31.08975,-29.58358 31.08974,-29.58361 31.08964,-29.58373 31.08955,-29.58382 31.08952,-29.58386 31.08949,-29.58389 31.08943,-29.58398 31.0894,-29.58403 31.08935,-29.58416 31.08933,-29.58421 31.08932,-29.58424 31.08923,-29.58436 31.08889,-29.58481 31.08845,-29.58539 31.08836,-29.58551 31.08833,-29.58558 31.08825,-29.58576 31.08704,-29.58532 31.08666,-29.58519 31.08653,-29.58514 31.08576,-29.58486 31.08486,-29.58449 31.08448,-29.58434 31.08407,-29.58418 31.08337,-29.58392 31.08245,-29.58359 31.08227,-29.58353 31.0821,-29.58347 31.08204,-29.58345 31.08189,-29.58339 31.08175,-29.58333 31.08169,-29.5833 31.08164,-29.58328 31.08154,-29.58326 31.0815,-29.58325 31.08146,-29.58323 31.08131,-29.58314 31.08123,-29.58311 31.08118,-29.5831 31.08107,-29.58307 31.081,-29.58305 31.08092,-29.58303 31.08047,-29.58285 31.08037,-29.58281 31.0803,-29.58278 31.08026,-29.58276 31.08014,-29.58272 31.08002,-29.58268 31.0799,-29.58263 31.07975,-29.58257 31.07966,-29.58254 31.0796,-29.58252 31.07949,-29.58247 31.07934,-29.58241 31.07913,-29.58233 31.07885,-29.58224 31.07881,-29.58224 31.07871,-29.58223 31.07864,-29.58222 31.07858,-29.5822 31.07851,-29.58217 31.07843,-29.58212 31.07832,-29.58205 31.07828,-29.58203 31.07817,-29.58198 31.07798,-29.5819 31.0777,-29.58181 31.07755,-29.58178 31.07752,-29.58176 31.07746,-29.58174 31.07739,-29.58171 31.07734,-29.58169 31.07718,-29.58164 31.07714,-29.58164 31.07713,-29.58163 31.07709,-29.5816 31.07705,-29.58157 31.07689,-29.58148 31.07651,-29.58127 31.0763,-29.58119 31.07596,-29.58107 31.07539,-29.58088 31.0754,-29.58084 31.07541,-29.58081 31.07542,-29.58078 31.07534,-29.58078 31.07532,-29.58077 31.0753,-29.58077 31.07525,-29.58076 31.07523,-29.58076 31.07508,-29.58071 31.07475,-29.58061 31.07443,-29.58052 31.07408,-29.58037 31.07405,-29.58036 31.0739,-29.58029 31.07346,-29.58051 31.07336,-29.58057 31.07326,-29.58061 31.07317,-29.58065 31.07312,-29.58067 31.07224,-29.57822 31.07231,-29.57812 31.0737,-29.57628 31.07544,-29.57399 31.0758,-29.57351 31.07619,-29.5738 31.07905,-29.57653 31.07906,-29.57654 31.07934,-29.57614 31.07991,-29.57536 31.08002,-29.57521 31.08172,-29.57286 31.08257,-29.57319 31.08253,-29.57327 31.0833,-29.57353 31.08345,-29.57358 31.08481,-29.57407 31.0852,-29.57421 31.08587,-29.57444 31.0863,-29.57458 31.08676,-29.57474 31.08687,-29.57477 31.08696,-29.57479 31.08708,-29.57481 31.08723,-29.57483 31.08734,-29.57484 31.08747,-29.57486 31.08757,-29.57488 31.08766,-29.57491 31.08776,-29.57495 31.08819,-29.57513 31.08843,-29.57523 31.08884,-29.5754 31.08884,-29.5754 31.08893,-29.57544 31.08921,-29.57558 31.08923,-29.57559 31.08923,-29.57559 31.08926,-29.5756 31.0893,-29.5756 31.08945,-29.57561 31.08954,-29.5756 31.08956,-29.5756 31.08959,-29.57561 31.08962,-29.57561 31.08993,-29.5757 31.08995,-29.57571 31.08999,-29.57572 31.09003,-29.57572 31.09005,-29.57572 31.09006,-29.57572 31.09007,-29.57572 31.09008,-29.57573 31.09009,-29.57573 31.0901,-29.57573 31.09011,-29.57575 31.09016,-29.57581 31.09017,-29.57582 31.09018,-29.57584 31.09019,-29.57586 31.0902,-29.57587 31.09021,-29.57588 31.09061,-29.57608 31.09071,-29.57612 31.09206,-29.57658 31.09286,-29.57686 31.09479,-29.57755 31.09479,-29.57755 31.09518,-29.57771 31.09517,-29.57769 31.09516,-29.57755 31.09515,-29.57743 31.09514,-29.5774 31.09514,-29.57734 31.09514,-29.57728 31.09515,-29.5772 31.09516,-29.57711 31.09516,-29.57706 31.09517,-29.57701 31.09518,-29.57695 31.09518,-29.5769 31.0952,-29.57685 31.09521,-29.57679 31.09524,-29.5767 31.09526,-29.57664 31.09527,-29.57658 31.0953,-29.57653 31.09533,-29.57645 31.09538,-29.57632 31.09542,-29.57624 31.09548,-29.57614 31.09553,-29.57605 31.0956,-29.57595 31.09565,-29.57587 31.0957,-29.57581 31.09579,-29.57572 31.09587,-29.57563 31.09596,-29.57553 31.09604,-29.57546 31.09614,-29.57538 31.09624,-29.57529 31.09638,-29.5752 31.09649,-29.57513 31.09657,-29.57508 31.09669,-29.57502 31.0968,-29.57496 31.09692,-29.5749 31.09704,-29.57486 31.09725,-29.57478 31.09729,-29.57477 31.09728,-29.57477 31.09722,-29.57467 31.09714,-29.57454 31.09722,-29.57449 31.09731,-29.57439 31.09746,-29.57415 31.09759,-29.57391 31.09759,-29.57391 31.09765,-29.57374 31.09763,-29.5737 31.0974,-29.57366 31.09719,-29.57355 31.0971,-29.57355 31.09698,-29.57355 31.09688,-29.57357 31.09681,-29.57359 31.09672,-29.57369 31.09668,-29.57373 31.09625,-29.57318 31.0959,-29.57277 31.09588,-29.57275 31.09586,-29.57274 31.09584,-29.57274 31.09581,-29.57274 31.09579,-29.57273 31.09577,-29.57272 31.09572,-29.57267 31.09553,-29.5724 31.0955,-29.57237 31.09547,-29.57236 31.09546,-29.57235 31.09529,-29.57234 31.09529,-29.57231 31.09529,-29.57221 31.09532,-29.57198 31.09534,-29.57184 31.09536,-29.57176 31.09552,-29.57158 31.0957,-29.57138 31.09588,-29.5712 31.096,-29.57114 31.09615,-29.5711 31.09722,-29.57098 31.0977,-29.57096 31.09796,-29.57044 31.09804,-29.57039 31.09884,-29.57038 31.099,-29.57043 31.09946,-29.56967 31.09948,-29.56975 31.09947,-29.56989 31.09946,-29.56997 31.09948,-29.57009 31.09949,-29.57028 31.09949,-29.57037 31.09956,-29.57047 31.0997,-29.5705 31.09976,-29.57052 31.09984,-29.57059 31.09993,-29.57061 31.10003,-29.57065 31.10005,-29.57069 31.10018,-29.5707 31.10022,-29.5707 31.10038,-29.57072 31.10049,-29.5708 31.10071,-29.57083 31.10084,-29.57081 31.10092,-29.57074 31.1011,-29.57071 31.10132,-29.5707 31.10156,-29.5707 31.10177,-29.5707 31.10193,-29.57065 31.10205,-29.57057 31.10212,-29.57055 31.10224,-29.57055 31.10235,-29.57054 31.10243,-29.57053 31.10253,-29.57057 31.10259,-29.57065 31.1026,-29.57077 31.10267,-29.57084 31.10271,-29.57093 31.10267,-29.57099 31.10267,-29.57105 31.10274,-29.57118 31.10277,-29.57129 31.10286,-29.57141 31.10293,-29.57153 31.103,-29.57156 31.10308,-29.57157 31.10311,-29.57157 31.10317,-29.57159 31.10322,-29.57158 31.10326,-29.57154 31.10332,-29.57159 31.10339,-29.57161 31.10344,-29.57166 31.10353,-29.57168 31.10356,-29.57168 31.1036,-29.57177 31.10367,-29.57185 31.1037,-29.57182 31.10376,-29.57178 31.10378,-29.57176 31.10389,-29.57178 31.10394,-29.57177 31.104,-29.57175 31.10405,-29.57171 31.10407,-29.57166 31.10411,-29.5716 31.1042,-29.57148 31.10432,-29.57138 31.10455,-29.57136 31.10477,-29.57128 31.10492,-29.57127 31.10519,-29.57119 31.10537,-29.57116 31.10553,-29.57118 31.10563,-29.57122 31.10575,-29.57127 31.10584,-29.57134 31.10608,-29.57129 31.10626,-29.57129 31.10639,-29.57136 31.1065,-29.57138 31.10659,-29.57158 31.10676,-29.57173 31.10693,-29.57192 31.10695,-29.57212 31.10705,-29.57224 31.10715,-29.57232 31.10721,-29.57236 31.10732,-29.57221 31.10734,-29.5722 31.10735,-29.57219 31.10736,-29.57219 31.10738,-29.57219 31.10739,-29.5722 31.10748,-29.57224 31.10752,-29.57226 31.10755,-29.57227 31.10759,-29.57228 31.10761,-29.57228 31.10766,-29.57229 31.10774,-29.57229 31.10778,-29.57229 31.10782,-29.57229 31.10784,-29.57229 31.10787,-29.57228 31.108,-29.57224 31.10806,-29.57221 31.10813,-29.57218 31.10822,-29.57214 31.10833,-29.57208 31.10879,-29.57181 31.10884,-29.57178 31.10898,-29.57167 31.10904,-29.57163 31.1091,-29.57159 31.10919,-29.57152 31.10938,-29.57137 31.10947,-29.57131 31.10953,-29.57126 31.10964,-29.57119 31.10975,-29.57112 31.10988,-29.57105 31.10998,-29.571 31.11011,-29.57094 31.11018,-29.5709 31.11076,-29.57063 31.11093,-29.57055 31.11098,-29.57052 31.11106,-29.57048 31.11116,-29.57042 31.11124,-29.57037 31.11133,-29.57031 31.11144,-29.57024 31.11151,-29.57019 31.11163,-29.5701 31.11168,-29.57006 31.11178,-29.56998 31.11188,-29.5699 31.11203,-29.56977 31.11218,-29.56963 31.11229,-29.56952 31.11237,-29.56944 31.11244,-29.56936 31.11254,-29.56924 31.11257,-29.56918 31.1126,-29.56912 31.11263,-29.56906 31.11265,-29.56899 31.11268,-29.56893 31.11272,-29.56879 31.11278,-29.56864 31.11283,-29.56845 31.11289,-29.56816 31.11293,-29.56796 31.11295,-29.56787 31.11296,-29.56775 31.11295,-29.56768 31.11295,-29.56762 31.11293,-29.56754 31.11292,-29.56744 31.11289,-29.56728 31.11288,-29.5672 31.11288,-29.56713 31.11289,-29.56704 31.1129,-29.56699 31.11293,-29.56693 31.11296,-29.56688 31.113,-29.56685 31.11313,-29.56676 31.11317,-29.56674 31.11323,-29.56672 31.11329,-29.56671 31.11332,-29.56671 31.11336,-29.56671 31.1134,-29.56671 31.11343,-29.56671 31.11346,-29.56671 31.11349,-29.56671 31.11353,-29.56672 31.1136,-29.56674 31.11373,-29.56677 31.11376,-29.56678 31.11378,-29.56678 31.11381,-29.56679 31.11381,-29.56679 31.11385,-29.56679 31.11387,-29.56679 31.11391,-29.56678 31.11394,-29.56678 31.11396,-29.56677 31.11399,-29.56677 31.11404,-29.56675 31.11411,-29.56671 31.11416,-29.56667 31.11421,-29.56664 31.11425,-29.5666 31.11427,-29.56658 31.11429,-29.56655 31.11431,-29.56651 31.11434,-29.56645 31.11437,-29.56637 31.11439,-29.56626 31.11442,-29.56615 31.11446,-29.56604 31.11455,-29.56578 31.11463,-29.56559 31.11467,-29.56549 31.11472,-29.5654 31.11481,-29.56526 31.11496,-29.56506 31.11504,-29.56496 31.11512,-29.56489 31.11518,-29.56485 31.11525,-29.56481 31.11533,-29.56478 31.11542,-29.56477 31.1155,-29.56476 31.11558,-29.56476 31.11565,-29.56478 31.11571,-29.5648 31.11578,-29.56483 31.11585,-29.56487 31.11591,-29.56491 31.11596,-29.56496 31.11642,-29.56544 31.11661,-29.56563 31.11666,-29.56568 31.11674,-29.56574 31.11688,-29.56588 31.11681,-29.56558 31.11669,-29.56527 31.11644,-29.56499 31.11636,-29.5649 31.11636,-29.56477 31.1164,-29.56463 31.11625,-29.56448 31.11608,-29.56433 31.11596,-29.5642 31.11588,-29.56399 31.1158,-29.56375 31.11577,-29.56366 31.11573,-29.56349 31.1157,-29.56341 31.11531,-29.56317 31.11531,-29.56317 31.11409,-29.56254 31.11365,-29.5623 31.11345,-29.5622 31.11343,-29.56219 31.11327,-29.56254 31.11298,-29.56255 31.11295,-29.56256 31.11293,-29.56256 31.11292,-29.56257 31.11284,-29.56261 31.11281,-29.56262 31.11279,-29.56263 31.11274,-29.56263 31.11269,-29.56263 31.11265,-29.56263 31.11259,-29.56262 31.11253,-29.5626 31.1125,-29.56259 31.11249,-29.56258 31.11248,-29.56256 31.11248,-29.56254 31.11249,-29.56253 31.11255,-29.56242 31.1126,-29.56233 31.11261,-29.56231 31.11262,-29.56228 31.11262,-29.56227 31.11264,-29.56218 31.11267,-29.56206 31.11268,-29.56203 31.11269,-29.56199 31.1127,-29.56195 31.11271,-29.56192 31.11271,-29.56189 31.11271,-29.56186 31.1127,-29.56184 31.11269,-29.56182 31.11265,-29.56177 31.1125,-29.56169 31.11207,-29.56146 31.11203,-29.56152 31.11202,-29.56154 31.11201,-29.56155 31.11195,-29.56162 31.11192,-29.56165 31.11186,-29.56172 31.11184,-29.56174 31.11182,-29.56175 31.1118,-29.56176 31.11179,-29.56178 31.11176,-29.56182 31.11172,-29.56182 31.11141,-29.56168 31.11031,-29.56117 31.10944,-29.56075 31.10899,-29.56055 31.10834,-29.56029 31.10831,-29.56027 31.10843,-29.56002 31.10911,-29.55855 31.10948,-29.55775 31.10994,-29.55682 31.1101,-29.55689 31.11054,-29.55707 31.11132,-29.55739 31.11157,-29.55749 31.11184,-29.55761 31.11215,-29.55779 31.11244,-29.55791 31.11331,-29.55828 31.11374,-29.55846 31.11398,-29.55858 31.1141,-29.55863 31.11502,-29.55901 31.11515,-29.55906 31.1171,-29.55973 31.11741,-29.55984 31.11816,-29.56008 31.11866,-29.56026 31.11908,-29.56042 31.11919,-29.56045 31.11925,-29.56045 31.11933,-29.56048 31.11935,-29.56049 31.12,-29.56071 31.12041,-29.56084 31.12031,-29.56124 31.12064,-29.56127 31.12092,-29.56131 31.12129,-29.56149 31.12148,-29.56158 31.12204,-29.56187 31.12252,-29.56211 31.12267,-29.56223 31.12308,-29.56189 31.12335,-29.56165 31.12354,-29.56144 31.12392,-29.56098 31.124,-29.56087 31.12376,-29.56066 31.12372,-29.56053 31.12356,-29.56041 31.12338,-29.56033 31.12334,-29.56031 31.12338,-29.56016 31.12346,-29.56 31.12349,-29.55995 31.12354,-29.55986 31.12364,-29.55972 31.12367,-29.55957 31.12381,-29.55938 31.12391,-29.55921 31.12386,-29.55904 31.12412,-29.55871 31.12427,-29.55857 31.12433,-29.55845 31.1244,-29.5584 31.12447,-29.55836 31.12458,-29.55829 31.12464,-29.55823 31.12467,-29.55816 31.12472,-29.55807 31.12477,-29.55804 31.12483,-29.55802 31.12492,-29.55795 31.12497,-29.55787 31.12502,-29.55777 31.12507,-29.55771 31.12513,-29.55762 31.12522,-29.5575 31.12529,-29.5574 31.12531,-29.55727 31.12532,-29.55714 31.12535,-29.55707 31.12536,-29.55704 31.12539,-29.55697 31.12538,-29.5569 31.12537,-29.55685 31.12537,-29.55677 31.12539,-29.55672 31.12546,-29.55668 31.12552,-29.55665 31.12556,-29.55661 31.1256,-29.55661 31.1259,-29.55629 31.12611,-29.55609 31.12634,-29.55586 31.12631,-29.55555 31.12625,-29.55537 31.12623,-29.55519 31.12635,-29.55507 31.12647,-29.55505 31.12658,-29.55503 31.1266,-29.55503 31.12653,-29.55489 31.12656,-29.55483 31.12662,-29.55478 31.12663,-29.55474 31.1266,-29.55468 31.12659,-29.55461 31.12655,-29.55451 31.12656,-29.55442 31.12658,-29.55433 31.12662,-29.55418 31.12662,-29.55408 31.12673,-29.55399 31.12677,-29.55389 31.12678,-29.55378 31.12682,-29.55371 31.12684,-29.55361 31.12683,-29.55353 31.12687,-29.55343 31.12686,-29.55328 31.12684,-29.55315 31.12682,-29.55298 31.12677,-29.55284 31.12671,-29.55272 31.1267,-29.55255 31.12669,-29.55236 31.12668,-29.55227 31.12677,-29.55225 31.12682,-29.55214 31.12687,-29.55203 31.12692,-29.55193 31.12696,-29.55185 31.12698,-29.55172 31.12703,-29.55164 31.12711,-29.55155 31.12719,-29.55148 31.1273,-29.55146 31.12737,-29.55145 31.12743,-29.55145 31.12746,-29.55139 31.12748,-29.55133 31.12752,-29.55125 31.12754,-29.55111 31.1276,-29.55107 31.12774,-29.55094 31.12777,-29.55089 31.12783,-29.55079 31.12786,-29.55072 31.128,-29.55062 31.12806,-29.55056 31.12811,-29.55053 31.12823,-29.55045 31.12828,-29.55037 31.12837,-29.55023 31.12842,-29.55013 31.12846,-29.55001 31.12853,-29.54971 31.12862,-29.54948 31.12854,-29.54894 31.1285,-29.54849 31.12854,-29.54821 31.12842,-29.54783 31.12834,-29.54782 31.12834,-29.5478 31.12837,-29.54751 31.12831,-29.5471 31.12813,-29.54669 31.12801,-29.54642 31.12786,-29.54639 31.12777,-29.54637 31.12757,-29.54626 31.12745,-29.54609 31.1273,-29.54609 31.1272,-29.546 31.12717,-29.54584 31.12722,-29.54547 31.12718,-29.54537 31.12712,-29.5453 31.12729,-29.54501 31.1274,-29.54478 31.12756,-29.5445 31.12759,-29.54439 31.12783,-29.54414 31.12791,-29.54397 31.12801,-29.54378 31.12798,-29.54351 31.12805,-29.54335 31.12812,-29.54307 31.12816,-29.54287 31.12817,-29.54263 31.12823,-29.54231 31.12833,-29.54198 31.12849,-29.5417 31.12872,-29.54146 31.12893,-29.54128 31.12927,-29.54109 31.12982,-29.54085 31.13021,-29.5407 31.13063,-29.54058 31.13092,-29.54056 31.13118,-29.5405 31.1314,-29.54044 31.13158,-29.54035 31.13182,-29.5403 31.13207,-29.54034 31.13228,-29.54044 31.13256,-29.54052 31.13274,-29.54053 31.13299,-29.54047 31.13323,-29.54043 31.13338,-29.54041 31.13359,-29.54044 31.1338,-29.54039 31.13408,-29.54027 31.13421,-29.54015 31.1344,-29.54004 31.13475,-29.53982 31.13496,-29.53969 31.13432,-29.53881 31.13373,-29.53799 31.13353,-29.5377 31.13353,-29.5377 31.13371,-29.5376 31.13498,-29.53753 31.13492,-29.53731 31.13547,-29.53714 31.13665,-29.53684 31.13682,-29.53674 31.1371,-29.53671 31.13732,-29.53674 31.13764,-29.53688 31.13807,-29.53751 31.13835,-29.53724 31.13848,-29.53702 31.13865,-29.53654 31.1387,-29.53574 31.13873,-29.53569 31.13882,-29.53557 31.13884,-29.53551 31.13878,-29.53538 31.13889,-29.53514 31.13902,-29.53488 31.13912,-29.53475 31.13917,-29.53475 31.13942,-29.53479 31.13959,-29.53441 31.13959,-29.53431 31.13959,-29.53423 31.13972,-29.5342 31.13993,-29.53412 31.14004,-29.53426 31.14021,-29.53417 31.14027,-29.5342 31.14035,-29.53425 31.14039,-29.53426 31.1404,-29.53429 31.14043,-29.53431 31.14047,-29.53433 31.14051,-29.53435 31.14054,-29.53439 31.14054,-29.53446 31.14051,-29.53458 31.14052,-29.53469 31.14047,-29.53476 31.14051,-29.53481 31.14058,-29.5348 31.1406,-29.53506 31.14052,-29.5364 31.14052,-29.5365 31.14056,-29.53675 31.14128,-29.53625 31.14369,-29.53459 31.14533,-29.53347 31.14534,-29.53352 31.14611,-29.53538 31.14638,-29.53591 31.14646,-29.53606 31.14661,-29.53634</coordinates></LinearRing></outerBoundaryIs></Polygon></MultiGeometry></Placemark></Document></kml>