<?xml version="1.0" encoding="UTF-8"?><kml xmlns="http://www.opengis.net/kml/2.2"><Document><Placemark><name>Magaweni</name><description>Sub Place 599002007</description><ExtendedData><Data name="code"><value>599002007</value></Data><Data name="name"><value>Magaweni</value></Data><Data name="description"><value>Sub Place 599002007</value></Data></ExtendedData><MultiGeometry><Polygon><outerBoundaryIs><LinearRing><coordinates>31.14525,-29.54556 31.14437,-29.54643 31.14449,-29.54668 31.14458,-29.54681 31.14461,-29.54693 31.14462,-29.54703 31.14465,-29.54713 31.14464,-29.54722 31.1446,-29.54733 31.14458,-29.54743 31.14454,-29.54748 31.14454,-29.54749 31.14461,-29.54762 31.14426,-29.54782 31.14422,-29.54784 31.14408,-29.54802 31.14413,-29.54817 31.14416,-29.54826 31.14423,-29.54841 31.14439,-29.5486 31.1445,-29.54869 31.1446,-29.5489 31.14468,-29.54906 31.14484,-29.54937 31.14498,-29.54974 31.14509,-29.54979 31.14523,-29.54987 31.14527,-29.54997 31.1452,-29.55013 31.14571,-29.55089 31.14571,-29.5509 31.14571,-29.55095 31.14572,-29.55101 31.14578,-29.55113 31.14586,-29.55124 31.14594,-29.55136 31.14598,-29.55144 31.14605,-29.5516 31.14609,-29.55165 31.14609,-29.5517 31.1461,-29.55173 31.14615,-29.55178 31.14619,-29.55183 31.14622,-29.5519 31.14625,-29.55196 31.14629,-29.55203 31.14632,-29.55207 31.14636,-29.5521 31.1464,-29.55215 31.14643,-29.55221 31.1465,-29.5523 31.14655,-29.55237 31.14659,-29.55244 31.1466,-29.55245 31.14666,-29.5525 31.14668,-29.55251 31.14669,-29.55252 31.14672,-29.55255 31.14675,-29.5526 31.14677,-29.55265 31.14678,-29.5527 31.14675,-29.55273 31.14674,-29.55275 31.14673,-29.55276 31.14672,-29.55277 31.14669,-29.55281 31.14667,-29.55283 31.14655,-29.55296 31.14642,-29.55308 31.14638,-29.55316 31.14633,-29.55321 31.14625,-29.55327 31.14623,-29.55329 31.14574,-29.5538 31.14574,-29.5538 31.14574,-29.55381 31.14512,-29.55444 31.14505,-29.55451 31.14495,-29.55461 31.14472,-29.55491 31.14508,-29.55513 31.14537,-29.55529 31.14569,-29.55545 31.14605,-29.55562 31.14631,-29.55575 31.14671,-29.55593 31.14669,-29.556 31.14663,-29.55606 31.14642,-29.55625 31.14632,-29.55637 31.14629,-29.55641 31.14623,-29.55645 31.14594,-29.55679 31.14554,-29.55725 31.14525,-29.55754 31.14499,-29.55783 31.14486,-29.558 31.14486,-29.55809 31.14486,-29.5581 31.14489,-29.55816 31.14492,-29.55827 31.1444,-29.55877 31.14439,-29.55875 31.14427,-29.55859 31.14427,-29.55859 31.14413,-29.55851 31.1437,-29.55844 31.14346,-29.55836 31.14335,-29.55829 31.14326,-29.5581 31.14314,-29.55798 31.14301,-29.55787 31.14297,-29.55781 31.14284,-29.55763 31.14283,-29.55762 31.14263,-29.55747 31.14239,-29.55738 31.14233,-29.55741 31.14229,-29.55743 31.14219,-29.55754 31.142,-29.55776 31.14193,-29.55789 31.14191,-29.55805 31.14196,-29.55817 31.14191,-29.55838 31.14186,-29.55856 31.14173,-29.55872 31.14166,-29.55878 31.14163,-29.5588 31.14159,-29.55888 31.14155,-29.55894 31.14136,-29.55919 31.14113,-29.55958 31.14096,-29.55986 31.14082,-29.56005 31.14058,-29.56031 31.14038,-29.56049 31.1403,-29.56062 31.14002,-29.56102 31.1398,-29.56129 31.13963,-29.56148 31.13943,-29.56162 31.13936,-29.56167 31.1391,-29.56172 31.13887,-29.56172 31.1387,-29.56175 31.13858,-29.56189 31.13846,-29.56195 31.13832,-29.56204 31.13816,-29.56211 31.13801,-29.56212 31.13788,-29.56219 31.13771,-29.56219 31.13754,-29.56225 31.1373,-29.56231 31.13707,-29.56232 31.13706,-29.56232 31.13706,-29.56232 31.13703,-29.5623 31.137,-29.5623 31.13694,-29.56229 31.13689,-29.56227 31.1368,-29.56223 31.13672,-29.56221 31.13667,-29.56218 31.1366,-29.56211 31.13653,-29.56201 31.13641,-29.56187 31.13636,-29.56157 31.13624,-29.5612 31.13627,-29.56078 31.13639,-29.56031 31.13665,-29.55978 31.13687,-29.5595 31.13709,-29.55937 31.13732,-29.55929 31.13733,-29.55913 31.13749,-29.55899 31.13777,-29.55892 31.13819,-29.55868 31.1383,-29.5586 31.13854,-29.55845 31.13867,-29.55831 31.13878,-29.55814 31.13881,-29.5581 31.13894,-29.55801 31.13908,-29.55784 31.13893,-29.55761 31.13869,-29.55734 31.13847,-29.55712 31.13826,-29.55689 31.13807,-29.55689 31.138,-29.55683 31.13795,-29.55667 31.13783,-29.55658 31.13767,-29.55647 31.1375,-29.55636 31.13737,-29.5562 31.13726,-29.55604 31.13719,-29.55593 31.13703,-29.55561 31.13683,-29.55542 31.1367,-29.55533 31.13664,-29.5553 31.13657,-29.55526 31.1365,-29.55519 31.13637,-29.55513 31.13625,-29.55504 31.13607,-29.555 31.13596,-29.55503 31.13585,-29.55504 31.13571,-29.55501 31.13561,-29.55495 31.13557,-29.55485 31.13549,-29.55478 31.13528,-29.55476 31.13513,-29.55469 31.13501,-29.55462 31.13487,-29.55463 31.13478,-29.55467 31.13464,-29.55465 31.13448,-29.55463 31.13428,-29.55463 31.13414,-29.55462 31.134,-29.55459 31.13388,-29.55458 31.13376,-29.5546 31.1336,-29.5546 31.13344,-29.55463 31.13333,-29.55467 31.13324,-29.55472 31.13304,-29.55476 31.13294,-29.55474 31.13283,-29.55467 31.13277,-29.55468 31.13268,-29.55469 31.13254,-29.55476 31.13246,-29.55479 31.13236,-29.55478 31.13224,-29.55475 31.13238,-29.55464 31.13265,-29.55442 31.13295,-29.55416 31.13321,-29.55394 31.13361,-29.5536 31.13399,-29.55326 31.13421,-29.553 31.13437,-29.55275 31.13443,-29.55265 31.13485,-29.55298 31.13572,-29.55233 31.13683,-29.55164 31.13773,-29.55108 31.13822,-29.55076 31.13907,-29.55021 31.13957,-29.54988 31.14133,-29.54876 31.14235,-29.54809 31.14257,-29.54794 31.14217,-29.54715 31.14213,-29.54705 31.14202,-29.54697 31.14207,-29.54691 31.14194,-29.54671 31.14236,-29.54633 31.14253,-29.54635 31.14297,-29.54603 31.14253,-29.54566 31.14201,-29.54469 31.14218,-29.54458 31.14271,-29.54425 31.14337,-29.54384 31.14386,-29.54354 31.14414,-29.54336 31.14444,-29.54314 31.14469,-29.54293 31.14468,-29.54292 31.14468,-29.54292 31.14475,-29.54286 31.14495,-29.54267 31.14496,-29.54268 31.1452,-29.54281 31.14527,-29.54292 31.14527,-29.54303 31.14522,-29.54314 31.1452,-29.54331 31.14515,-29.54341 31.14505,-29.54345 31.14501,-29.54353 31.145,-29.54367 31.14517,-29.54372 31.1453,-29.54381 31.14553,-29.54399 31.1463,-29.54453 31.14605,-29.54478 31.14584,-29.54499 31.14554,-29.54527 31.14525,-29.54556</coordinates></LinearRing></outerBoundaryIs></Polygon></MultiGeometry></Placemark></Document></kml>