<?xml version="1.0" encoding="UTF-8"?><kml xmlns="http://www.opengis.net/kml/2.2"><Document><Placemark><name>Bluff</name><description>Sub Place 599054033</description><ExtendedData><Data name="code"><value>599054033</value></Data><Data name="name"><value>Bluff</value></Data><Data name="description"><value>Sub Place 599054033</value></Data></ExtendedData><MultiGeometry><Polygon><outerBoundaryIs><LinearRing><coordinates>31.06123,-29.87361 31.06129,-29.87382 31.06146,-29.87408 31.06145,-29.8742 31.06144,-29.87429 31.0613,-29.87453 31.06128,-29.87481 31.06128,-29.87482 31.06131,-29.8751 31.06131,-29.87511 31.06131,-29.87541 31.06131,-29.87541 31.06132,-29.87548 31.06133,-29.87554 31.06136,-29.87569 31.06139,-29.87581 31.06141,-29.87586 31.06141,-29.87592 31.06142,-29.87598 31.06142,-29.87598 31.06132,-29.87617 31.06119,-29.87636 31.06102,-29.87657 31.0609,-29.87674 31.06081,-29.87691 31.06074,-29.87708 31.06069,-29.87721 31.0606,-29.87744 31.0606,-29.87744 31.0606,-29.87744 31.06049,-29.87766 31.06038,-29.87782 31.06029,-29.87797 31.06018,-29.87816 31.06009,-29.87832 31.05999,-29.87852 31.05991,-29.87867 31.05983,-29.87881 31.05975,-29.87897 31.05971,-29.87904 31.0597,-29.87906 31.05969,-29.87908 31.05969,-29.87933 31.05969,-29.87935 31.05968,-29.87942 31.05965,-29.87951 31.05954,-29.87959 31.05947,-29.87963 31.05942,-29.87967 31.05932,-29.87973 31.05928,-29.87978 31.05928,-29.87978 31.0592,-29.87985 31.0592,-29.87985 31.05918,-29.87987 31.0591,-29.87998 31.05899,-29.88008 31.05884,-29.88021 31.05863,-29.88034 31.05862,-29.88035 31.05861,-29.88035 31.05849,-29.88043 31.0583,-29.8806 31.05812,-29.88075 31.05798,-29.8809 31.05792,-29.88096 31.05781,-29.88111 31.05777,-29.88122 31.05775,-29.88128 31.05774,-29.88131 31.05771,-29.88135 31.05768,-29.88149 31.05762,-29.88161 31.05756,-29.88173 31.05743,-29.88192 31.05719,-29.88219 31.05717,-29.88221 31.057,-29.88246 31.05691,-29.88257 31.05683,-29.88268 31.05667,-29.88285 31.05648,-29.88306 31.05626,-29.8833 31.05604,-29.88355 31.05589,-29.88371 31.05576,-29.88386 31.05567,-29.88398 31.05557,-29.88408 31.05546,-29.88423 31.05537,-29.88436 31.05531,-29.88447 31.05509,-29.88493 31.05491,-29.88517 31.05469,-29.88539 31.05453,-29.88556 31.0545,-29.88559 31.0545,-29.88559 31.0544,-29.88572 31.0543,-29.88582 31.05429,-29.88583 31.0542,-29.88593 31.0541,-29.88605 31.05408,-29.88607 31.05395,-29.88623 31.05389,-29.88634 31.05385,-29.88644 31.05375,-29.88659 31.05367,-29.88668 31.05354,-29.88684 31.05342,-29.88699 31.05325,-29.88718 31.05308,-29.88734 31.0529,-29.88752 31.0528,-29.88759 31.05261,-29.88773 31.05246,-29.88786 31.05222,-29.88807 31.05196,-29.88831 31.05164,-29.88859 31.0515,-29.88872 31.05133,-29.88889 31.05124,-29.88899 31.05108,-29.88915 31.05093,-29.88933 31.05065,-29.88975 31.05046,-29.88996 31.05032,-29.89012 31.05021,-29.89027 31.05013,-29.89044 31.05005,-29.89058 31.04995,-29.89071 31.04986,-29.89084 31.04978,-29.89098 31.04967,-29.89113 31.04957,-29.89125 31.04946,-29.89139 31.04942,-29.89145 31.04938,-29.89152 31.04926,-29.89171 31.04912,-29.89187 31.04895,-29.89207 31.04879,-29.89226 31.04862,-29.89248 31.04846,-29.89264 31.04832,-29.89281 31.04819,-29.893 31.04805,-29.89317 31.04792,-29.89331 31.04787,-29.89339 31.04783,-29.89347 31.04776,-29.89358 31.04764,-29.89366 31.04746,-29.89385 31.04728,-29.89403 31.04711,-29.89421 31.04695,-29.89443 31.04679,-29.89461 31.04653,-29.89482 31.04635,-29.89501 31.046,-29.89536 31.04581,-29.8956 31.04564,-29.89577 31.04541,-29.89598 31.04525,-29.89619 31.04513,-29.89636 31.04493,-29.89654 31.04472,-29.89672 31.04457,-29.89686 31.04453,-29.8969 31.04432,-29.8971 31.04419,-29.89727 31.0441,-29.89738 31.04408,-29.89743 31.04407,-29.89746 31.04389,-29.89769 31.04375,-29.89785 31.04369,-29.8979 31.04363,-29.89797 31.04356,-29.89807 31.04342,-29.89822 31.04332,-29.89838 31.04321,-29.89853 31.0431,-29.89869 31.04294,-29.89884 31.04282,-29.89903 31.04271,-29.89919 31.0426,-29.89932 31.04249,-29.89943 31.04239,-29.89956 31.0423,-29.89969 31.04225,-29.89984 31.04219,-29.90001 31.04208,-29.90017 31.04197,-29.9003 31.04184,-29.90043 31.04178,-29.90052 31.04169,-29.90066 31.0416,-29.90077 31.04153,-29.90084 31.04145,-29.90095 31.04136,-29.90107 31.0413,-29.90119 31.04125,-29.9013 31.04119,-29.90141 31.04115,-29.90149 31.04115,-29.90152 31.04108,-29.90166 31.04101,-29.90184 31.0409,-29.90197 31.04084,-29.90216 31.04074,-29.90235 31.0407,-29.90243 31.04068,-29.90248 31.04067,-29.90252 31.04064,-29.90267 31.04059,-29.90283 31.04048,-29.90298 31.04036,-29.90315 31.04021,-29.90331 31.0401,-29.90351 31.03997,-29.90369 31.03973,-29.90392 31.03961,-29.90406 31.03944,-29.90425 31.0392,-29.90445 31.03904,-29.90463 31.03885,-29.9048 31.03858,-29.90505 31.03835,-29.90523 31.03811,-29.90553 31.03795,-29.90576 31.03783,-29.90594 31.03769,-29.90618 31.03751,-29.90637 31.03726,-29.90653 31.03709,-29.90664 31.03704,-29.90668 31.03689,-29.90692 31.03688,-29.90695 31.03681,-29.90711 31.0367,-29.90737 31.03647,-29.90763 31.03628,-29.90788 31.03607,-29.90813 31.0359,-29.90838 31.03583,-29.90853 31.03578,-29.90865 31.03555,-29.90886 31.03533,-29.90915 31.03479,-29.90967 31.03458,-29.90993 31.03428,-29.9102 31.03396,-29.91049 31.03369,-29.91074 31.03347,-29.91102 31.03306,-29.91143 31.03287,-29.91175 31.03281,-29.91181 31.03274,-29.91187 31.03259,-29.91201 31.03247,-29.91218 31.03231,-29.91239 31.03215,-29.91256 31.032,-29.91268 31.03184,-29.91286 31.0317,-29.91303 31.03164,-29.9131 31.0315,-29.91325 31.03136,-29.91338 31.03112,-29.91362 31.03089,-29.91381 31.03087,-29.91383 31.03063,-29.91405 31.03056,-29.91412 31.03041,-29.91425 31.0302,-29.91446 31.02999,-29.91472 31.02981,-29.9149 31.02956,-29.91511 31.02929,-29.9153 31.02894,-29.91555 31.02881,-29.9157 31.02875,-29.91576 31.02868,-29.91588 31.02859,-29.91595 31.02847,-29.91604 31.02839,-29.91612 31.02825,-29.91629 31.02814,-29.91646 31.02803,-29.91661 31.02784,-29.91673 31.02765,-29.91689 31.02747,-29.91703 31.02723,-29.91722 31.02703,-29.91736 31.02686,-29.9175 31.02672,-29.9176 31.02653,-29.91773 31.02638,-29.91787 31.02624,-29.918 31.02609,-29.91812 31.02593,-29.91827 31.0258,-29.91839 31.02566,-29.91853 31.0256,-29.9186 31.02556,-29.91864 31.02547,-29.91877 31.02536,-29.91888 31.02528,-29.91898 31.0252,-29.9191 31.02509,-29.91923 31.02497,-29.91932 31.02477,-29.91944 31.02466,-29.91952 31.02458,-29.91957 31.02422,-29.91975 31.02387,-29.91999 31.02361,-29.92025 31.02338,-29.92046 31.02324,-29.92057 31.02303,-29.92079 31.02268,-29.92107 31.02235,-29.9213 31.02211,-29.92153 31.02188,-29.92182 31.02157,-29.9221 31.02128,-29.92237 31.02112,-29.92261 31.02095,-29.92285 31.02078,-29.92311 31.02059,-29.92337 31.0203,-29.92368 31.02002,-29.92401 31.01985,-29.92421 31.01972,-29.92437 31.01944,-29.92465 31.01921,-29.92495 31.01919,-29.92499 31.01909,-29.92516 31.01894,-29.92531 31.01883,-29.92554 31.01866,-29.92573 31.01844,-29.92595 31.01823,-29.92615 31.01809,-29.92639 31.01794,-29.92663 31.01775,-29.92684 31.01754,-29.92706 31.01728,-29.92733 31.01727,-29.92734 31.01701,-29.9276 31.01675,-29.92787 31.0165,-29.92814 31.01635,-29.92839 31.0163,-29.92847 31.01628,-29.92851 31.01622,-29.92857 31.0162,-29.92862 31.01615,-29.92867 31.01611,-29.92873 31.01608,-29.92879 31.01604,-29.92884 31.01601,-29.92888 31.01596,-29.92893 31.01593,-29.92897 31.01589,-29.92901 31.01587,-29.92905 31.01581,-29.92911 31.01578,-29.92916 31.01574,-29.9292 31.01571,-29.92924 31.01567,-29.92927 31.01562,-29.92933 31.01557,-29.92936 31.01549,-29.92944 31.01544,-29.92948 31.01521,-29.92963 31.01504,-29.92983 31.01497,-29.92991 31.0148,-29.93016 31.01459,-29.93039 31.0144,-29.93058 31.01427,-29.93084 31.01406,-29.93118 31.01395,-29.9315 31.01383,-29.93182 31.01372,-29.93213 31.01381,-29.9324 31.01368,-29.93278 31.01354,-29.93304 31.01351,-29.9331 31.01338,-29.93344 31.01304,-29.93368 31.01297,-29.93372 31.01256,-29.93399 31.0125,-29.93401 31.01223,-29.93425 31.01183,-29.93446 31.01148,-29.93465 31.01114,-29.93492 31.01081,-29.93517 31.01053,-29.93539 31.01028,-29.93565 31.01006,-29.93596 31.00976,-29.93628 31.00951,-29.93666 31.00926,-29.93708 31.00896,-29.93746 31.00874,-29.93779 31.00873,-29.9378 31.00851,-29.93815 31.00819,-29.9385 31.00802,-29.93875 31.00799,-29.93877 31.00791,-29.93887 31.00786,-29.93893 31.00765,-29.93909 31.00755,-29.93927 31.00746,-29.93945 31.00723,-29.93966 31.00707,-29.93987 31.00687,-29.94004 31.00663,-29.94029 31.00643,-29.9405 31.00614,-29.94076 31.00588,-29.94102 31.00567,-29.94122 31.00539,-29.94143 31.00508,-29.94168 31.00472,-29.94196 31.00445,-29.94219 31.00414,-29.9424 31.00385,-29.94261 31.00358,-29.94279 31.00334,-29.94301 31.0033,-29.94305 31.00313,-29.94319 31.00306,-29.94325 31.00297,-29.94333 31.00286,-29.94341 31.0028,-29.94346 31.00273,-29.94352 31.00268,-29.94357 31.00262,-29.94362 31.00252,-29.94376 31.0024,-29.9439 31.00235,-29.94397 31.00232,-29.94401 31.0023,-29.94404 31.00225,-29.94412 31.00219,-29.9442 31.00212,-29.94429 31.00207,-29.94436 31.00202,-29.94442 31.00195,-29.94452 31.00187,-29.94461 31.00182,-29.94469 31.00176,-29.94474 31.00173,-29.94477 31.00175,-29.94484 31.00174,-29.94488 31.00171,-29.9449 31.00167,-29.94493 31.00165,-29.94495 31.00163,-29.94499 31.0016,-29.94503 31.00158,-29.94505 31.00156,-29.94509 31.00151,-29.94513 31.00142,-29.94519 31.0014,-29.94522 31.00133,-29.94526 31.00131,-29.94528 31.00127,-29.94529 31.00125,-29.94531 31.00121,-29.94532 31.0011,-29.94543 31.00106,-29.94545 31.00104,-29.94548 31.00099,-29.94553 31.00095,-29.94561 31.00092,-29.94564 31.00083,-29.94567 31.0008,-29.94571 31.00074,-29.94576 31.00071,-29.94581 31.00065,-29.94585 31.00061,-29.9459 31.00056,-29.94594 31.00043,-29.94607 31.0004,-29.94612 31.00038,-29.94614 31.00035,-29.94614 31.00033,-29.94616 31.00031,-29.94619 31.0003,-29.9462 31.00023,-29.94624 31.00022,-29.94624 31.00019,-29.94625 31.00015,-29.94627 31.00012,-29.94631 31.00009,-29.94633 31,-29.94642 30.9999,-29.94649 30.99988,-29.94651 30.99986,-29.94655 30.99983,-29.94658 30.99979,-29.94661 30.99976,-29.94664 30.99971,-29.94666 30.99968,-29.9467 30.99955,-29.94679 30.9995,-29.94683 30.99947,-29.94684 30.99939,-29.94689 30.99936,-29.94693 30.99931,-29.94698 30.99929,-29.94705 30.99924,-29.94713 30.99918,-29.94718 30.99915,-29.94719 30.9991,-29.94721 30.99904,-29.94726 30.99901,-29.94728 30.99886,-29.94743 30.99876,-29.94756 30.99872,-29.94758 30.99869,-29.9476 30.99865,-29.94763 30.99856,-29.9477 30.99851,-29.94775 30.99842,-29.94785 30.99835,-29.94794 30.99828,-29.94801 30.99824,-29.94804 30.99819,-29.94808 30.99815,-29.94813 30.99807,-29.94817 30.9979,-29.94834 30.99784,-29.94839 30.99777,-29.94844 30.99772,-29.94849 30.99767,-29.94853 30.99764,-29.94857 30.99746,-29.9487 30.99741,-29.94875 30.99734,-29.94878 30.9973,-29.94883 30.99727,-29.94889 30.99721,-29.94896 30.99714,-29.94903 30.99709,-29.94907 30.99706,-29.94911 30.99704,-29.94917 30.99697,-29.94927 30.99687,-29.9494 30.99672,-29.9496 30.9967,-29.94965 30.99664,-29.94974 30.9966,-29.94982 30.99653,-29.94991 30.99643,-29.94998 30.99636,-29.95002 30.99633,-29.95004 30.99629,-29.9501 30.99626,-29.95013 30.99624,-29.95016 30.99621,-29.95023 30.99618,-29.95027 30.99614,-29.95029 30.99609,-29.95032 30.99605,-29.95039 30.99601,-29.95045 30.99591,-29.95055 30.99588,-29.95061 30.99585,-29.95064 30.99583,-29.95067 30.99571,-29.95073 30.99569,-29.95075 30.99566,-29.95079 30.99565,-29.95083 30.99563,-29.95087 30.99561,-29.95091 30.9956,-29.95097 30.99558,-29.95101 30.99556,-29.95107 30.99553,-29.95111 30.9955,-29.95112 30.99547,-29.95114 30.99543,-29.95118 30.99537,-29.95122 30.99535,-29.95124 30.99526,-29.95135 30.99523,-29.95138 30.99519,-29.95142 30.99515,-29.95145 30.99512,-29.95149 30.99505,-29.95155 30.99496,-29.95166 30.9949,-29.95176 30.99489,-29.9518 30.99486,-29.95185 30.9948,-29.9519 30.9947,-29.952 30.99465,-29.95204 30.99461,-29.95209 30.99456,-29.95215 30.99444,-29.95231 30.99422,-29.95255 30.99418,-29.9526 30.99411,-29.95266 30.99407,-29.95269 30.99399,-29.95274 30.99391,-29.95284 30.99382,-29.9529 30.99378,-29.95294 30.99371,-29.95304 30.99367,-29.95308 30.99362,-29.95311 30.99357,-29.95317 30.99339,-29.95328 30.99334,-29.95334 30.99329,-29.95339 30.99325,-29.95344 30.99317,-29.95349 30.99298,-29.95367 30.99292,-29.95371 30.99277,-29.95392 30.99271,-29.95398 30.99269,-29.95401 30.99263,-29.95405 30.99259,-29.95409 30.99256,-29.95413 30.99253,-29.95415 30.99248,-29.95425 30.99244,-29.95427 30.99241,-29.95429 30.99234,-29.95434 30.99224,-29.95438 30.99208,-29.95454 30.99204,-29.95457 30.99202,-29.9546 30.99195,-29.95465 30.9919,-29.95469 30.99182,-29.95478 30.99178,-29.95487 30.99176,-29.95497 30.9917,-29.95503 30.99168,-29.95507 30.99163,-29.95507 30.9916,-29.95508 30.99157,-29.95507 30.99152,-29.95509 30.9915,-29.95511 30.99146,-29.95513 30.99144,-29.95516 30.99133,-29.95526 30.99127,-29.95533 30.99126,-29.95533 30.99099,-29.95557 30.99089,-29.95582 30.99088,-29.95603 30.99056,-29.95615 30.99038,-29.9563 30.99017,-29.95658 30.98998,-29.95679 30.9899,-29.95688 30.98965,-29.95717 30.98949,-29.95745 30.98931,-29.95779 30.98909,-29.95801 30.98876,-29.9582 30.98858,-29.95838 30.98848,-29.95863 30.98844,-29.95882 30.98858,-29.95901 30.98875,-29.95912 30.98889,-29.95904 30.98883,-29.95919 30.98882,-29.95928 30.98873,-29.95935 30.98875,-29.95941 30.98864,-29.95946 30.9886,-29.95956 30.98842,-29.95973 30.98818,-29.95982 30.98824,-29.95966 30.98819,-29.95947 30.988,-29.95958 30.98787,-29.95976 30.98782,-29.95997 30.98778,-29.96016 30.98751,-29.96032 30.98718,-29.96053 30.98704,-29.96069 30.98695,-29.96079 30.98673,-29.96102 30.98667,-29.96105 30.98664,-29.96107 30.9864,-29.96122 30.98608,-29.96148 30.98581,-29.96171 30.98546,-29.962 30.98515,-29.96229 30.98481,-29.96261 30.9845,-29.96289 30.98415,-29.96322 30.98396,-29.96351 30.9837,-29.96377 30.98342,-29.96397 30.98321,-29.96417 30.98316,-29.96423 30.98308,-29.96429 30.98291,-29.96448 30.98274,-29.9648 30.98256,-29.96514 30.98227,-29.96531 30.98195,-29.96557 30.98189,-29.96562 30.98181,-29.96571 30.98173,-29.96582 30.98164,-29.96595 30.98157,-29.96612 30.98146,-29.96628 30.98124,-29.96662 30.98114,-29.96675 30.981,-29.96689 30.98086,-29.96707 30.98079,-29.96715 30.9806,-29.96739 30.98045,-29.96754 30.98033,-29.96765 30.98026,-29.96771 30.98017,-29.96777 30.98005,-29.96786 30.98002,-29.96794 30.97995,-29.96804 30.97989,-29.96811 30.97983,-29.9682 30.97978,-29.96826 30.97971,-29.96832 30.97964,-29.96837 30.97958,-29.96841 30.97951,-29.96845 30.97946,-29.96847 30.97934,-29.96858 30.97916,-29.96875 30.97902,-29.96893 30.97897,-29.969 30.97892,-29.96904 30.97885,-29.96912 30.9788,-29.96916 30.97874,-29.96923 30.97867,-29.9693 30.97824,-29.96903 30.97468,-29.96674 30.97433,-29.96652 30.97428,-29.96648 30.97398,-29.96626 30.97366,-29.96604 30.9706,-29.96405 30.96919,-29.96313 30.96739,-29.96196 30.96453,-29.96005 30.96223,-29.95855 30.96144,-29.95806 30.96084,-29.95772 30.96032,-29.95746 30.96001,-29.95733 30.9595,-29.95711 30.9582,-29.95662 30.9575,-29.9564 30.95634,-29.95611 30.95569,-29.95597 30.95517,-29.95586 30.95397,-29.95561 30.95384,-29.95558 30.95345,-29.95557 30.95317,-29.95553 30.95317,-29.95485 30.95316,-29.95478 30.95318,-29.95456 30.95317,-29.95384 30.95319,-29.95313 30.9532,-29.9529 30.9532,-29.95289 30.95321,-29.95229 30.95323,-29.9522 30.95372,-29.95177 30.95501,-29.95069 30.95575,-29.95008 30.95608,-29.94981 30.95618,-29.94975 30.95623,-29.94975 30.9563,-29.94975 30.95638,-29.94975 30.95646,-29.94977 30.95652,-29.9498 30.95658,-29.94981 30.95659,-29.94982 30.9566,-29.94982 30.95674,-29.94964 30.95683,-29.94952 30.95702,-29.94922 30.95738,-29.94868 30.95759,-29.9484 30.95763,-29.94836 30.95818,-29.94766 30.95872,-29.94703 30.9588,-29.94697 30.9589,-29.94691 30.95962,-29.94672 30.95965,-29.9467 30.95979,-29.94661 30.96003,-29.94631 30.96022,-29.94607 30.96026,-29.94602 30.96048,-29.94573 30.9608,-29.94532 30.96154,-29.94437 30.96173,-29.94414 30.96191,-29.94398 30.96192,-29.94397 30.96211,-29.94376 30.96228,-29.94356 30.96232,-29.94349 30.96338,-29.94415 30.9646,-29.94493 30.96465,-29.94496 30.96474,-29.94501 30.96551,-29.94549 30.96565,-29.94557 30.96599,-29.9458 30.96712,-29.94651 30.9674,-29.94671 30.96744,-29.94667 30.9678,-29.9463 30.96786,-29.94623 30.96788,-29.94621 30.96816,-29.9459 30.96825,-29.9458 30.96857,-29.9454 30.96882,-29.94505 30.96915,-29.94455 30.96938,-29.94416 30.96971,-29.94353 30.96996,-29.94302 30.96997,-29.943 30.9701,-29.94272 30.97053,-29.94185 30.97067,-29.94161 30.97116,-29.94077 30.97122,-29.94064 30.97159,-29.94077 30.97289,-29.94125 30.973,-29.94121 30.97329,-29.94118 30.9734,-29.94121 30.97408,-29.94062 30.97423,-29.94046 30.97439,-29.94045 30.97493,-29.93982 30.97499,-29.93977 30.97499,-29.93976 30.97499,-29.93976 30.97512,-29.93965 30.97513,-29.93965 30.97531,-29.93977 30.9754,-29.93985 30.9757,-29.94004 30.97585,-29.94013 30.97608,-29.94028 30.97609,-29.94027 30.9764,-29.94049 30.97658,-29.94062 30.97669,-29.94043 30.97705,-29.9407 30.97695,-29.94088 30.97739,-29.94121 30.97739,-29.94121 30.97748,-29.941 30.97765,-29.94064 30.97779,-29.94073 30.97828,-29.94111 30.97836,-29.94115 30.97846,-29.94111 30.97851,-29.94109 30.97905,-29.93998 30.97946,-29.93906 30.97956,-29.93884 30.97965,-29.93865 30.98003,-29.93781 30.98007,-29.93773 30.98043,-29.93792 30.98084,-29.9374 30.98105,-29.93709 30.98176,-29.93601 30.98204,-29.93568 30.98248,-29.93517 30.98324,-29.93428 30.98329,-29.93422 30.98352,-29.93383 30.98355,-29.93377 30.98398,-29.93403 30.98402,-29.93406 30.98417,-29.93356 30.98423,-29.93334 30.98424,-29.93333 30.98474,-29.93283 30.98525,-29.93237 30.98557,-29.93205 30.98586,-29.9318 30.9856,-29.93165 30.98536,-29.93143 30.98489,-29.93107 30.98491,-29.93104 30.98593,-29.92966 30.98613,-29.92939 30.98643,-29.929 30.98687,-29.92838 30.98706,-29.92814 30.98726,-29.92787 30.98769,-29.92729 30.98776,-29.92733 30.98799,-29.92746 30.9885,-29.92776 30.98893,-29.92803 30.98895,-29.92804 30.9894,-29.92827 30.98959,-29.92837 30.9896,-29.92835 30.98961,-29.92831 30.98963,-29.92828 30.98972,-29.92796 30.98983,-29.92728 30.98989,-29.92708 30.9905,-29.92629 30.99021,-29.92608 30.98996,-29.92589 30.98991,-29.9257 30.98986,-29.9254 30.98986,-29.92515 30.98987,-29.92507 30.98992,-29.92486 30.98997,-29.92476 30.99003,-29.92469 30.99006,-29.92466 30.99016,-29.92459 30.9903,-29.92446 30.99097,-29.92383 30.99131,-29.92352 30.99166,-29.92321 30.99194,-29.92296 30.99202,-29.92291 30.99206,-29.92289 30.99211,-29.92287 30.99229,-29.92285 30.9924,-29.92284 30.99251,-29.92282 30.99261,-29.92278 30.99268,-29.92276 30.99284,-29.92267 30.99292,-29.92263 30.99331,-29.92248 30.99355,-29.92239 30.99427,-29.92214 30.99475,-29.92197 30.99486,-29.92192 30.99489,-29.92188 30.99501,-29.92165 30.99516,-29.92141 30.9954,-29.92103 30.99547,-29.92091 30.99572,-29.92046 30.9958,-29.92031 30.99589,-29.92018 30.99595,-29.9201 30.99605,-29.92 30.99641,-29.91969 30.9966,-29.91956 30.99744,-29.91889 30.99764,-29.9187 30.99777,-29.91856 30.99818,-29.9182 30.99829,-29.91812 30.99859,-29.91789 30.99874,-29.91772 30.99881,-29.9176 30.99881,-29.9176 30.9988,-29.91758 30.99876,-29.91748 30.9986,-29.91697 30.99859,-29.91694 30.99901,-29.91669 30.99916,-29.91659 30.99929,-29.9165 30.99942,-29.9164 30.9995,-29.91634 30.99962,-29.91623 30.99982,-29.91606 31.00025,-29.91568 31.00059,-29.91539 31.00076,-29.91526 31.0009,-29.91516 31.00102,-29.91508 31.00121,-29.91497 31.0013,-29.91493 31.00137,-29.91489 31.00141,-29.91487 31.00202,-29.91457 31.00288,-29.91415 31.0038,-29.91372 31.00425,-29.9135 31.00463,-29.91332 31.00519,-29.91304 31.00534,-29.91295 31.00544,-29.91289 31.00553,-29.91284 31.00561,-29.91279 31.0057,-29.91273 31.00586,-29.91262 31.00594,-29.91256 31.00604,-29.91248 31.00611,-29.91242 31.00622,-29.91233 31.00628,-29.91227 31.00635,-29.9122 31.00638,-29.91217 31.00652,-29.91203 31.00672,-29.91182 31.00676,-29.91177 31.00701,-29.91151 31.00703,-29.91149 31.00719,-29.91133 31.00736,-29.91115 31.00744,-29.91106 31.00752,-29.91096 31.00758,-29.91088 31.00763,-29.91082 31.00767,-29.91076 31.00769,-29.91072 31.00773,-29.91066 31.00776,-29.91059 31.00789,-29.91031 31.00794,-29.91019 31.00798,-29.91008 31.0081,-29.90972 31.00821,-29.9094 31.00828,-29.90919 31.00836,-29.90896 31.00846,-29.90868 31.00854,-29.90845 31.00858,-29.90834 31.00863,-29.90824 31.00868,-29.90814 31.00872,-29.90808 31.00876,-29.908 31.00884,-29.90788 31.00893,-29.90777 31.00903,-29.90766 31.00913,-29.90756 31.00923,-29.90746 31.00938,-29.90735 31.00938,-29.90735 31.00939,-29.90734 31.00942,-29.90732 31.00952,-29.90725 31.00965,-29.90718 31.00982,-29.90709 31.01002,-29.90701 31.01032,-29.90688 31.01097,-29.90664 31.01188,-29.90628 31.01308,-29.90581 31.01322,-29.90575 31.01326,-29.90573 31.0134,-29.90566 31.0135,-29.9056 31.01354,-29.90565 31.01387,-29.90607 31.01396,-29.90615 31.01398,-29.90618 31.01401,-29.9062 31.01406,-29.90623 31.01417,-29.90629 31.01438,-29.90638 31.01463,-29.90648 31.01474,-29.90653 31.01485,-29.90656 31.01494,-29.9066 31.01503,-29.90664 31.01504,-29.90665 31.01516,-29.90671 31.01523,-29.90675 31.01531,-29.9068 31.01534,-29.90683 31.01623,-29.90763 31.01635,-29.90774 31.0166,-29.90797 31.01663,-29.908 31.01668,-29.90797 31.0167,-29.90795 31.01674,-29.90793 31.0168,-29.90791 31.01687,-29.9079 31.01693,-29.9079 31.01699,-29.9079 31.01708,-29.90793 31.01713,-29.90795 31.01748,-29.90807 31.01752,-29.90808 31.01759,-29.9081 31.01768,-29.90813 31.01778,-29.90815 31.01789,-29.90816 31.01808,-29.90819 31.01937,-29.90833 31.02014,-29.90841 31.02037,-29.90844 31.02047,-29.90844 31.02059,-29.90844 31.02065,-29.90843 31.02072,-29.90842 31.02085,-29.90839 31.02088,-29.90837 31.02094,-29.90835 31.02103,-29.9083 31.02111,-29.90825 31.02117,-29.90821 31.02256,-29.90705 31.02354,-29.90624 31.02408,-29.90581 31.02413,-29.90578 31.02449,-29.90548 31.02567,-29.90451 31.02724,-29.90322 31.02751,-29.903 31.02751,-29.903 31.02753,-29.90299 31.02794,-29.90336 31.02934,-29.90463 31.02934,-29.90463 31.02936,-29.90463 31.02937,-29.90463 31.0294,-29.9046 31.0301,-29.90401 31.03044,-29.90372 31.03046,-29.90371 31.03048,-29.90369 31.03049,-29.90368 31.03149,-29.90284 31.0315,-29.90283 31.03151,-29.90282 31.03152,-29.90281 31.03154,-29.90279 31.03186,-29.90252 31.0326,-29.9019 31.03345,-29.90118 31.03639,-29.89867 31.03641,-29.89866 31.03639,-29.89865 31.03606,-29.89837 31.03597,-29.89829 31.03574,-29.89811 31.03504,-29.89754 31.03494,-29.89745 31.03494,-29.89745 31.03494,-29.89745 31.0352,-29.89736 31.03545,-29.89727 31.03575,-29.89717 31.036,-29.89706 31.03616,-29.89698 31.03637,-29.89685 31.03674,-29.89644 31.03718,-29.89593 31.03751,-29.89555 31.03763,-29.89539 31.03789,-29.89493 31.03795,-29.89479 31.03795,-29.89473 31.03802,-29.8946 31.03816,-29.89432 31.03833,-29.89396 31.03807,-29.89361 31.03805,-29.89346 31.03801,-29.89319 31.03806,-29.89316 31.03826,-29.89301 31.03837,-29.89288 31.03842,-29.89277 31.03851,-29.89261 31.03854,-29.89251 31.03862,-29.89247 31.03859,-29.89244 31.03865,-29.89239 31.03886,-29.89231 31.03898,-29.89221 31.03896,-29.89219 31.03881,-29.8921 31.04034,-29.89161 31.04082,-29.89134 31.04105,-29.89105 31.04136,-29.89062 31.04186,-29.88991 31.04234,-29.88946 31.04276,-29.88916 31.04394,-29.8884 31.04452,-29.88794 31.04467,-29.88778 31.04517,-29.88721 31.04551,-29.8867 31.04599,-29.88612 31.04623,-29.88589 31.04701,-29.88515 31.0475,-29.88464 31.04816,-29.88392 31.0489,-29.8832 31.05019,-29.88224 31.05099,-29.88177 31.05142,-29.8813 31.05199,-29.88067 31.05234,-29.88086 31.05248,-29.88077 31.05251,-29.88071 31.053,-29.88015 31.05324,-29.87988 31.05342,-29.87979 31.05351,-29.87979 31.05358,-29.87968 31.05354,-29.87963 31.05365,-29.8795 31.05378,-29.87922 31.05433,-29.87856 31.05453,-29.87815 31.05472,-29.87764 31.055,-29.87705 31.05497,-29.87696 31.05503,-29.87666 31.05555,-29.87559 31.05606,-29.87492 31.05661,-29.87435 31.05707,-29.874 31.0572,-29.87391 31.05754,-29.87365 31.05745,-29.87365 31.05738,-29.87366 31.05704,-29.87357 31.05698,-29.87356 31.05745,-29.87346 31.0577,-29.87337 31.05773,-29.87335 31.05783,-29.87327 31.05792,-29.87319 31.05804,-29.87308 31.05813,-29.87295 31.05814,-29.87294 31.05822,-29.87284 31.05824,-29.87282 31.05837,-29.87267 31.05851,-29.8725 31.0586,-29.87238 31.05871,-29.8723 31.05965,-29.87007 31.05974,-29.86985 31.05975,-29.86983 31.05979,-29.86974 31.05986,-29.86961 31.05988,-29.86957 31.05997,-29.8694 31.06036,-29.86877 31.06038,-29.86877 31.06045,-29.86879 31.06045,-29.86907 31.06046,-29.86913 31.06049,-29.8694 31.0605,-29.86949 31.0605,-29.86949 31.06051,-29.8699 31.06051,-29.86992 31.06048,-29.87021 31.06047,-29.87036 31.06043,-29.87083 31.06043,-29.87083 31.06044,-29.87091 31.06044,-29.87091 31.06044,-29.87091 31.06043,-29.87095 31.06041,-29.8711 31.06046,-29.87136 31.06048,-29.87146 31.06061,-29.87181 31.06066,-29.87192 31.06073,-29.87206 31.06081,-29.87225 31.06088,-29.87243 31.06097,-29.87267 31.06107,-29.87288 31.06108,-29.87291 31.06123,-29.87313 31.06129,-29.87317 31.06134,-29.8732 31.0615,-29.87324 31.06158,-29.87332 31.0616,-29.87341 31.06161,-29.87343 31.06155,-29.87348 31.06139,-29.87352 31.06123,-29.87353 31.06123,-29.87361 31.06123,-29.87361</coordinates></LinearRing></outerBoundaryIs></Polygon></MultiGeometry></Placemark></Document></kml>