<?xml version="1.0" encoding="UTF-8"?><kml xmlns="http://www.opengis.net/kml/2.2"><Document><Placemark><name>Springfield</name><description>Sub Place 599054022</description><ExtendedData><Data name="code"><value>599054022</value></Data><Data name="name"><value>Springfield</value></Data><Data name="description"><value>Sub Place 599054022</value></Data></ExtendedData><MultiGeometry><Polygon><outerBoundaryIs><LinearRing><coordinates>31.00809,-29.81332 31.00818,-29.81402 31.00842,-29.81449 31.00845,-29.81485 31.00875,-29.81604 31.00907,-29.81654 31.00886,-29.81708 31.00869,-29.81757 31.00865,-29.81767 31.00856,-29.81789 31.00844,-29.81826 31.00799,-29.81826 31.00758,-29.81824 31.00733,-29.81817 31.007,-29.81809 31.00693,-29.81773 31.00691,-29.81753 31.00689,-29.81733 31.00604,-29.81727 31.00605,-29.81721 31.00574,-29.81718 31.00517,-29.81712 31.00429,-29.81703 31.00411,-29.81777 31.00408,-29.81789 31.00403,-29.8181 31.00396,-29.81823 31.00388,-29.81831 31.0038,-29.81837 31.00372,-29.81841 31.00361,-29.81843 31.00345,-29.8184 31.00321,-29.81832 31.00306,-29.81827 31.00296,-29.81822 31.0029,-29.81815 31.00228,-29.81813 31.00228,-29.81819 31.00229,-29.81837 31.00228,-29.81862 31.0023,-29.81886 31.00231,-29.8193 31.00231,-29.81937 31.00231,-29.81959 31.00233,-29.81969 31.00235,-29.81991 31.00236,-29.82016 31.00236,-29.82047 31.00238,-29.82077 31.0021,-29.82081 31.00171,-29.82094 31.00161,-29.82163 31.0015,-29.82198 31.00146,-29.82203 31.00141,-29.82218 31.00139,-29.82231 31.00138,-29.82237 31.00138,-29.82239 31.00136,-29.82247 31.00134,-29.82256 31.00131,-29.82279 31.00128,-29.8229 31.00125,-29.8231 31.0012,-29.82335 31.00114,-29.82359 31.00123,-29.82362 31.00122,-29.82368 31.00115,-29.82386 31.00117,-29.82394 31.00115,-29.82408 31.00102,-29.82463 31.00094,-29.82505 31.00082,-29.82566 31.00076,-29.82595 31.0007,-29.82623 31.0006,-29.82666 31.00058,-29.82683 31.00054,-29.82697 31.00051,-29.82712 31.00047,-29.8273 31.00002,-29.82725 30.99977,-29.82723 30.99956,-29.82722 30.99948,-29.82721 30.99918,-29.82717 30.99896,-29.82717 30.99811,-29.8271 30.99708,-29.82705 30.99707,-29.82704 30.99684,-29.82689 30.99668,-29.82676 30.99659,-29.82663 30.99653,-29.82646 30.99647,-29.82605 30.9964,-29.82573 30.99631,-29.82546 30.99614,-29.82518 30.99596,-29.82499 30.99575,-29.82481 30.99554,-29.82467 30.99528,-29.82457 30.995,-29.82452 30.99492,-29.82452 30.99473,-29.82452 30.99436,-29.82457 30.99407,-29.82468 30.99382,-29.8248 30.99379,-29.82481 30.99375,-29.82483 30.99361,-29.82489 30.99328,-29.82498 30.99301,-29.82501 30.99268,-29.82498 30.99248,-29.82493 30.99213,-29.8248 30.99177,-29.82466 30.99122,-29.82443 30.99072,-29.82426 30.99024,-29.82407 30.98961,-29.82389 30.98958,-29.82388 30.98922,-29.82382 30.9886,-29.82377 30.98822,-29.82377 30.98807,-29.82378 30.9878,-29.8238 30.98759,-29.82383 30.98744,-29.82387 30.98712,-29.82396 30.98678,-29.82407 30.98637,-29.8242 30.98591,-29.82437 30.98538,-29.82455 30.98493,-29.82471 30.98444,-29.82488 30.98405,-29.82502 30.9838,-29.82511 30.98368,-29.82518 30.98348,-29.82528 30.9836,-29.82501 30.98375,-29.82474 30.98394,-29.82433 30.98412,-29.82396 30.98413,-29.82393 30.98432,-29.82354 30.98452,-29.8231 30.98481,-29.82249 30.98499,-29.82215 30.98511,-29.82187 30.9852,-29.82172 30.9852,-29.82162 30.9852,-29.82159 30.9853,-29.8215 30.98543,-29.82143 30.98548,-29.82137 30.98555,-29.82133 30.98563,-29.82128 30.9857,-29.82124 30.98575,-29.82119 30.98614,-29.82068 30.98688,-29.8207 30.98704,-29.82063 30.98737,-29.8204 30.98754,-29.82037 30.98762,-29.82046 30.9875,-29.82104 30.98735,-29.8213 30.98781,-29.82167 30.98812,-29.82133 30.98854,-29.8209 30.98877,-29.82061 30.98899,-29.82034 30.9895,-29.81988 30.99034,-29.81937 30.9909,-29.81905 30.99136,-29.81875 30.99183,-29.81846 30.99234,-29.81818 30.99232,-29.81799 30.99264,-29.81765 30.99306,-29.81697 30.99361,-29.81646 30.9943,-29.81557 30.99542,-29.81481 30.99595,-29.81423 30.99646,-29.8141 30.99657,-29.81382 30.99661,-29.81383 30.99708,-29.81394 30.99752,-29.81399 30.99772,-29.81401 30.99818,-29.81402 30.99862,-29.81401 30.99867,-29.814 30.99948,-29.81389 31.00034,-29.8138 31.00057,-29.81378 31.00153,-29.81365 31.00238,-29.81355 31.00324,-29.81345 31.00352,-29.81342 31.00394,-29.81338 31.00483,-29.81333 31.0056,-29.81333 31.00629,-29.81334 31.00701,-29.81333 31.00748,-29.81332 31.00809,-29.81332</coordinates></LinearRing></outerBoundaryIs></Polygon></MultiGeometry></Placemark></Document></kml>