<?xml version="1.0" encoding="UTF-8"?><kml xmlns="http://www.opengis.net/kml/2.2"><Document><Placemark><name>Isipingo Rail</name><description>Sub Place 599054063</description><ExtendedData><Data name="code"><value>599054063</value></Data><Data name="name"><value>Isipingo Rail</value></Data><Data name="description"><value>Sub Place 599054063</value></Data></ExtendedData><MultiGeometry><Polygon><outerBoundaryIs><LinearRing><coordinates>30.93914,-29.96702 30.93973,-29.96789 30.94005,-29.96782 30.94046,-29.96845 30.94112,-29.96925 30.93911,-29.97176 30.93723,-29.97388 30.93683,-29.97439 30.93676,-29.97443 30.93659,-29.97435 30.93637,-29.97426 30.93631,-29.97423 30.93625,-29.97419 30.936,-29.97462 30.93593,-29.97461 30.93584,-29.97456 30.93559,-29.97444 30.9354,-29.97433 30.93542,-29.9743 30.93534,-29.97425 30.93524,-29.9742 30.93504,-29.9741 30.93453,-29.97381 30.93425,-29.97365 30.93414,-29.97358 30.9337,-29.97432 30.9335,-29.97465 30.93285,-29.97569 30.93246,-29.97635 30.93237,-29.97651 30.93185,-29.97734 30.93153,-29.97797 30.93139,-29.97825 30.93082,-29.97935 30.93037,-29.98031 30.93013,-29.98079 30.93004,-29.98096 30.92945,-29.98209 30.92944,-29.98211 30.92903,-29.983 30.92867,-29.98377 30.92804,-29.98514 30.92779,-29.98552 30.92779,-29.98552 30.9276,-29.98545 30.92752,-29.98541 30.92724,-29.98526 30.92676,-29.98499 30.9261,-29.98459 30.92556,-29.98429 30.92559,-29.98426 30.92585,-29.98379 30.92598,-29.9836 30.92606,-29.98351 30.92577,-29.98335 30.92471,-29.98277 30.92441,-29.9826 30.92434,-29.98253 30.92431,-29.98243 30.92433,-29.98229 30.92445,-29.98212 30.92456,-29.98196 30.92455,-29.98195 30.92451,-29.98192 30.92372,-29.98145 30.92257,-29.98077 30.92138,-29.98006 30.92069,-29.97965 30.91951,-29.97895 30.9199,-29.97873 30.9199,-29.9783 30.91904,-29.97777 30.91937,-29.97738 30.92003,-29.97657 30.92006,-29.97655 30.92045,-29.97607 30.92053,-29.97598 30.92056,-29.97594 30.92107,-29.97533 30.92114,-29.97498 30.92129,-29.97483 30.92155,-29.97464 30.92162,-29.97468 30.92234,-29.97383 30.92254,-29.97359 30.92325,-29.97275 30.92334,-29.97264 30.9244,-29.97139 30.92534,-29.97027 30.92553,-29.97004 30.92567,-29.97015 30.92604,-29.97038 30.92644,-29.9706 30.92696,-29.97081 30.92723,-29.97089 30.92758,-29.97096 30.92794,-29.97099 30.92825,-29.971 30.92841,-29.97098 30.92856,-29.97097 30.92874,-29.97094 30.92893,-29.9709 30.92932,-29.97079 30.92953,-29.97073 30.93009,-29.97056 30.93091,-29.97032 30.9313,-29.9702 30.93138,-29.97018 30.93245,-29.96986 30.93267,-29.9698 30.93358,-29.96954 30.93415,-29.96935 30.93505,-29.96911 30.93531,-29.96903 30.93555,-29.96897 30.93581,-29.9689 30.93608,-29.9688 30.93639,-29.96865 30.93661,-29.96854 30.93671,-29.96847 30.93705,-29.96821 30.93739,-29.96793 30.9382,-29.96725 30.9383,-29.96713 30.93865,-29.96673 30.93873,-29.96679 30.9389,-29.96688 30.93914,-29.96702</coordinates></LinearRing></outerBoundaryIs></Polygon></MultiGeometry></Placemark></Document></kml>