<?xml version="1.0" encoding="UTF-8"?><kml xmlns="http://www.opengis.net/kml/2.2"><Document><Placemark><name>Sandfields</name><description>Sub Place 599002003</description><ExtendedData><Data name="code"><value>599002003</value></Data><Data name="name"><value>Sandfields</value></Data><Data name="description"><value>Sub Place 599002003</value></Data></ExtendedData><MultiGeometry><Polygon><outerBoundaryIs><LinearRing><coordinates>31.13993,-29.53412 31.14004,-29.53426 31.14021,-29.53417 31.14027,-29.5342 31.14035,-29.53425 31.14039,-29.53426 31.1404,-29.53429 31.14043,-29.53431 31.14047,-29.53433 31.14051,-29.53435 31.14054,-29.53439 31.14054,-29.53446 31.14051,-29.53458 31.14052,-29.53469 31.14047,-29.53476 31.14051,-29.53481 31.14058,-29.5348 31.1406,-29.53506 31.14052,-29.5364 31.14052,-29.5365 31.14056,-29.53675 31.14056,-29.5368 31.14058,-29.5369 31.14059,-29.53696 31.14057,-29.53703 31.14056,-29.53715 31.14056,-29.53736 31.14057,-29.53744 31.14054,-29.53753 31.14049,-29.53768 31.14047,-29.53781 31.14039,-29.53792 31.14035,-29.53802 31.14034,-29.53812 31.14031,-29.53825 31.14027,-29.53837 31.14023,-29.53844 31.14021,-29.53853 31.14021,-29.53862 31.14022,-29.5387 31.14022,-29.53877 31.14019,-29.53886 31.14018,-29.53891 31.14016,-29.53903 31.14019,-29.53914 31.14022,-29.53925 31.14037,-29.53929 31.1405,-29.5393 31.14064,-29.53922 31.14075,-29.53924 31.14079,-29.53934 31.14107,-29.53932 31.14127,-29.53929 31.14145,-29.53929 31.1417,-29.53932 31.14195,-29.53922 31.14226,-29.53909 31.14247,-29.53904 31.14258,-29.539 31.1429,-29.5389 31.14309,-29.53887 31.14325,-29.53873 31.14338,-29.53876 31.14342,-29.53874 31.1436,-29.53864 31.14383,-29.53866 31.14422,-29.53855 31.14449,-29.53852 31.1447,-29.53845 31.14487,-29.53867 31.14501,-29.53883 31.14517,-29.53904 31.14524,-29.53925 31.14525,-29.53959 31.14518,-29.54004 31.14515,-29.54028 31.14504,-29.5404 31.14496,-29.54066 31.14489,-29.54082 31.14495,-29.54105 31.14488,-29.54126 31.14472,-29.54151 31.14461,-29.54172 31.14434,-29.54193 31.14422,-29.54201 31.14411,-29.54209 31.14394,-29.54223 31.1439,-29.5423 31.14388,-29.54231 31.14381,-29.54233 31.14374,-29.54237 31.14368,-29.54244 31.1436,-29.54249 31.14349,-29.54252 31.1434,-29.54253 31.14312,-29.54251 31.1427,-29.54249 31.14224,-29.5422 31.14176,-29.54194 31.14112,-29.54181 31.14078,-29.54191 31.1405,-29.54204 31.14019,-29.54229 31.13979,-29.54262 31.13934,-29.54282 31.13892,-29.54282 31.13843,-29.54255 31.13783,-29.54211 31.13737,-29.5423 31.13713,-29.54238 31.1371,-29.54235 31.13696,-29.54218 31.13682,-29.54201 31.1366,-29.54175 31.13624,-29.54133 31.13591,-29.54095 31.13582,-29.54084 31.13575,-29.54075 31.13566,-29.54064 31.13558,-29.54054 31.13546,-29.54038 31.13539,-29.54027 31.13526,-29.5401 31.13512,-29.53991 31.13496,-29.53969 31.13432,-29.53881 31.13373,-29.53799 31.13353,-29.5377 31.13353,-29.5377 31.13371,-29.5376 31.13498,-29.53753 31.13492,-29.53731 31.13547,-29.53714 31.13665,-29.53684 31.13682,-29.53674 31.1371,-29.53671 31.13732,-29.53674 31.13764,-29.53688 31.13807,-29.53751 31.13835,-29.53724 31.13848,-29.53702 31.13865,-29.53654 31.1387,-29.53574 31.13873,-29.53569 31.13882,-29.53557 31.13884,-29.53551 31.13878,-29.53538 31.13889,-29.53514 31.13902,-29.53488 31.13912,-29.53475 31.13917,-29.53475 31.13942,-29.53479 31.13959,-29.53441 31.13959,-29.53431 31.13959,-29.53423 31.13972,-29.5342 31.13993,-29.53412</coordinates></LinearRing></outerBoundaryIs></Polygon></MultiGeometry></Placemark></Document></kml>