<?xml version="1.0" encoding="UTF-8"?><kml xmlns="http://www.opengis.net/kml/2.2"><Document><Placemark><name>KwaMashu</name><description>Main Place 599055</description><ExtendedData><Data name="code"><value>599055</value></Data><Data name="name"><value>KwaMashu</value></Data><Data name="description"><value>Main Place 599055</value></Data></ExtendedData><MultiGeometry><Polygon><outerBoundaryIs><LinearRing><coordinates>30.97832,-29.71328 30.97837,-29.7133 30.97841,-29.71329 30.97846,-29.71331 30.97851,-29.71334 30.97856,-29.71336 30.97871,-29.71333 30.97871,-29.71333 30.97898,-29.71384 30.97938,-29.71459 30.97959,-29.71498 30.97984,-29.71545 30.98028,-29.71627 30.98035,-29.71641 30.98041,-29.71652 30.98062,-29.7169 30.98084,-29.71732 30.98095,-29.71753 30.98143,-29.71853 30.98193,-29.71939 30.98194,-29.7194 30.98214,-29.71969 30.98233,-29.71996 30.98315,-29.72091 30.98316,-29.72093 30.98367,-29.72139 30.98404,-29.72169 30.9845,-29.72204 30.98467,-29.72215 30.9847,-29.72217 30.98509,-29.72242 30.98602,-29.72292 30.98631,-29.72306 30.98729,-29.72342 30.98766,-29.72355 30.98812,-29.72366 30.98904,-29.72386 30.98994,-29.72403 30.99075,-29.72418 30.99207,-29.72443 30.99221,-29.72446 30.99248,-29.72451 30.99417,-29.72483 30.99452,-29.72492 30.99511,-29.72511 30.99533,-29.7252 30.99592,-29.72548 30.99641,-29.72577 30.99679,-29.72605 30.99698,-29.72621 30.99724,-29.72643 30.99757,-29.72679 30.99793,-29.72723 30.99823,-29.72772 30.99848,-29.7282 30.99872,-29.72865 30.99929,-29.72981 30.99961,-29.73035 30.99983,-29.73066 31.00018,-29.73104 31.00055,-29.7314 31.00168,-29.73231 31.00258,-29.73306 31.00342,-29.73376 31.00365,-29.73394 31.00553,-29.73544 31.00604,-29.73587 31.00646,-29.73629 31.00668,-29.73657 31.00693,-29.73694 31.0076,-29.73826 31.00761,-29.73826 31.00779,-29.73795 31.00814,-29.73739 31.00827,-29.73712 31.00856,-29.73654 31.00863,-29.73628 31.00869,-29.73606 31.00874,-29.73561 31.00874,-29.73532 31.0087,-29.73502 31.0086,-29.73463 31.00846,-29.7343 31.00832,-29.73404 31.00823,-29.73389 31.00793,-29.73341 31.00743,-29.73259 31.00689,-29.73174 31.00667,-29.73135 31.0065,-29.73095 31.00642,-29.7307 31.00635,-29.73039 31.00632,-29.73014 31.00628,-29.72858 31.00625,-29.72647 31.00651,-29.72648 31.00672,-29.7264 31.00693,-29.72626 31.00719,-29.72605 31.00725,-29.72592 31.00741,-29.7258 31.00763,-29.72558 31.00807,-29.7255 31.00824,-29.72547 31.00838,-29.72551 31.00879,-29.72546 31.00896,-29.72556 31.00927,-29.72552 31.0096,-29.7255 31.01003,-29.72556 31.01033,-29.72574 31.01067,-29.72577 31.0109,-29.72593 31.01118,-29.72626 31.01158,-29.72677 31.01173,-29.72699 31.01181,-29.72715 31.01179,-29.72733 31.01187,-29.72747 31.01199,-29.7276 31.01218,-29.72773 31.01216,-29.72774 31.01238,-29.72802 31.01246,-29.72815 31.0126,-29.72827 31.01279,-29.72836 31.01296,-29.72837 31.01307,-29.72846 31.01323,-29.72859 31.01327,-29.72869 31.01334,-29.72881 31.01345,-29.72896 31.01359,-29.7291 31.01371,-29.72922 31.01383,-29.7293 31.01395,-29.72935 31.01406,-29.72941 31.01411,-29.72947 31.0143,-29.72973 31.01453,-29.72984 31.0146,-29.72988 31.01478,-29.72996 31.01481,-29.73006 31.01498,-29.73026 31.01544,-29.73078 31.01598,-29.73127 31.01665,-29.73164 31.01694,-29.7318 31.0172,-29.73194 31.01767,-29.73247 31.01803,-29.7328 31.01826,-29.73306 31.01829,-29.73315 31.01834,-29.73303 31.01849,-29.73286 31.01861,-29.73276 31.0188,-29.73261 31.01915,-29.73248 31.01931,-29.73239 31.01955,-29.73233 31.01981,-29.73235 31.02001,-29.73233 31.02034,-29.73226 31.02061,-29.7322 31.021,-29.73174 31.02101,-29.73175 31.02127,-29.73182 31.02142,-29.73196 31.02156,-29.73212 31.02169,-29.73215 31.02179,-29.73223 31.02192,-29.73234 31.02205,-29.73245 31.02224,-29.73259 31.02238,-29.73268 31.02249,-29.73274 31.02265,-29.73286 31.02281,-29.73297 31.02292,-29.73311 31.02306,-29.73318 31.02321,-29.73325 31.02334,-29.73323 31.02344,-29.73326 31.02362,-29.73335 31.0238,-29.73349 31.02395,-29.73356 31.02407,-29.73364 31.02427,-29.7337 31.02447,-29.73379 31.02458,-29.73385 31.02474,-29.73387 31.02492,-29.73389 31.02509,-29.73389 31.02526,-29.73388 31.02536,-29.73383 31.0255,-29.7338 31.02561,-29.73376 31.02568,-29.73389 31.02573,-29.73401 31.02575,-29.73412 31.02576,-29.73423 31.02595,-29.73421 31.02624,-29.73405 31.02647,-29.73384 31.0266,-29.73372 31.02693,-29.73377 31.02749,-29.73345 31.02752,-29.73335 31.02749,-29.73331 31.02756,-29.73311 31.0277,-29.73297 31.02782,-29.73286 31.0279,-29.73281 31.02841,-29.73315 31.02886,-29.73342 31.02888,-29.73361 31.02922,-29.73385 31.0298,-29.73407 31.03079,-29.7342 31.03098,-29.73437 31.03112,-29.73472 31.03147,-29.73492 31.03167,-29.73495 31.03195,-29.73487 31.03236,-29.7346 31.03346,-29.73441 31.03394,-29.73474 31.03394,-29.73474 31.03384,-29.73511 31.03371,-29.73541 31.03346,-29.73582 31.03333,-29.736 31.03307,-29.73629 31.03295,-29.73638 31.03275,-29.73656 31.03241,-29.73678 31.0319,-29.73702 31.03149,-29.73715 31.03122,-29.73721 31.03089,-29.73726 31.03033,-29.73731 31.02959,-29.73738 31.02911,-29.73743 31.0288,-29.73749 31.02846,-29.73757 31.0281,-29.73768 31.02759,-29.73791 31.02752,-29.73794 31.02711,-29.73818 31.02684,-29.73836 31.02647,-29.73868 31.02615,-29.73901 31.026,-29.73919 31.02583,-29.73944 31.02532,-29.74016 31.02484,-29.74086 31.02505,-29.74102 31.02516,-29.74111 31.02574,-29.74162 31.02599,-29.74183 31.0262,-29.74195 31.02642,-29.74202 31.02691,-29.74209 31.02758,-29.74216 31.02776,-29.7422 31.02803,-29.74232 31.02821,-29.74244 31.02833,-29.74255 31.02847,-29.74272 31.02856,-29.7429 31.0286,-29.7431 31.02862,-29.74341 31.02863,-29.74346 31.0287,-29.74426 31.02871,-29.74431 31.02876,-29.74447 31.02885,-29.74464 31.02908,-29.74493 31.02973,-29.74565 31.03028,-29.74628 31.03024,-29.74631 31.03,-29.74644 31.02953,-29.74672 31.02939,-29.74681 31.02969,-29.74699 31.03006,-29.74721 31.03062,-29.74757 31.03083,-29.74742 31.03102,-29.74757 31.03133,-29.74781 31.03142,-29.74773 31.03156,-29.74754 31.03197,-29.7479 31.03239,-29.74838 31.03241,-29.74841 31.0293,-29.74922 31.02826,-29.74957 31.02748,-29.74987 31.02669,-29.75023 31.02589,-29.75064 31.02518,-29.75106 31.02454,-29.75149 31.02446,-29.75154 31.02231,-29.75304 31.02115,-29.75385 31.01874,-29.75554 31.01835,-29.75582 31.01552,-29.75782 31.01544,-29.75789 31.01543,-29.75789 31.0154,-29.75788 31.01482,-29.75773 31.01468,-29.75765 31.0146,-29.75754 31.01441,-29.75751 31.01425,-29.7575 31.01419,-29.75742 31.01418,-29.75725 31.01413,-29.7571 31.01398,-29.75703 31.01388,-29.75709 31.01385,-29.7572 31.01368,-29.7571 31.01351,-29.75703 31.01334,-29.75701 31.01319,-29.75678 31.01316,-29.75666 31.01326,-29.75662 31.01331,-29.75651 31.01326,-29.75643 31.01309,-29.75646 31.01291,-29.75662 31.0128,-29.75671 31.01264,-29.7566 31.01248,-29.75649 31.01241,-29.75634 31.01234,-29.75621 31.01218,-29.75609 31.01202,-29.75598 31.01184,-29.756 31.01183,-29.756 31.01177,-29.75586 31.01163,-29.75577 31.01141,-29.75565 31.01133,-29.75557 31.01126,-29.7553 31.01118,-29.75513 31.01115,-29.75481 31.01106,-29.75462 31.01095,-29.75432 31.01079,-29.75402 31.01077,-29.7538 31.01115,-29.75308 31.01103,-29.75286 31.01086,-29.75251 31.01065,-29.75234 31.00912,-29.75406 31.00909,-29.75403 31.0088,-29.75391 31.00844,-29.75382 31.0083,-29.75381 31.00744,-29.75377 31.00697,-29.75374 31.00662,-29.75367 31.00619,-29.75349 31.00604,-29.75338 31.00573,-29.75359 31.00565,-29.75361 31.00563,-29.75374 31.00563,-29.75374 31.00563,-29.75379 31.00547,-29.75399 31.00547,-29.75413 31.00537,-29.75431 31.00442,-29.75535 31.00394,-29.7554 31.00361,-29.75536 31.00346,-29.7553 31.00317,-29.7551 31.00277,-29.75483 31.00234,-29.75463 31.00204,-29.75456 31.00156,-29.75461 31.00003,-29.75485 31,-29.75486 30.99986,-29.75488 30.99986,-29.75488 30.99969,-29.75492 30.99951,-29.75495 30.99904,-29.75501 30.99875,-29.75512 30.99811,-29.75561 30.99708,-29.75632 30.99676,-29.75653 30.99674,-29.7565 30.9959,-29.75707 30.99585,-29.75728 30.99577,-29.7573 30.99551,-29.75731 30.99532,-29.75737 30.99529,-29.75739 30.99511,-29.75753 30.99511,-29.75753 30.99511,-29.75754 30.99503,-29.7576 30.9949,-29.75781 30.99488,-29.75797 30.99487,-29.75798 30.99483,-29.75815 30.99479,-29.75829 30.99472,-29.7584 30.99462,-29.7585 30.99448,-29.75857 30.99435,-29.75861 30.99421,-29.7586 30.9942,-29.7586 30.99421,-29.75852 30.99426,-29.75788 30.99427,-29.7575 30.99417,-29.75714 30.99399,-29.75676 30.99357,-29.75619 30.99272,-29.75571 30.99271,-29.75574 30.99271,-29.75573 30.99272,-29.75571 30.9926,-29.75564 30.99235,-29.75551 30.99197,-29.75512 30.99134,-29.75451 30.99134,-29.75451 30.99101,-29.75419 30.99059,-29.75377 30.98982,-29.75304 30.9895,-29.75273 30.98935,-29.75259 30.98919,-29.75246 30.98906,-29.75228 30.98895,-29.75233 30.98864,-29.75244 30.98817,-29.7526 30.98804,-29.75263 30.98797,-29.75264 30.98797,-29.75264 30.98758,-29.75262 30.98713,-29.75258 30.98646,-29.75252 30.98624,-29.7525 30.98614,-29.75251 30.98605,-29.75253 30.9859,-29.75259 30.98576,-29.75268 30.98524,-29.75317 30.98486,-29.75352 30.98443,-29.75392 30.98428,-29.75406 30.98416,-29.75414 30.98402,-29.7542 30.98384,-29.75428 30.98365,-29.75436 30.98334,-29.75449 30.98329,-29.75451 30.98286,-29.7547 30.98247,-29.75486 30.98219,-29.75496 30.98184,-29.75506 30.98106,-29.75528 30.98054,-29.75543 30.9801,-29.75555 30.97986,-29.75563 30.97939,-29.75576 30.97938,-29.75576 30.97929,-29.75579 30.97898,-29.75588 30.97826,-29.75608 30.97765,-29.75625 30.97763,-29.75626 30.97719,-29.75638 30.97679,-29.7565 30.97606,-29.7567 30.97578,-29.75678 30.97522,-29.75694 30.97513,-29.75697 30.97495,-29.75702 30.97467,-29.7571 30.9742,-29.75722 30.97401,-29.7573 30.97401,-29.75731 30.97401,-29.75731 30.97396,-29.75731 30.97379,-29.75735 30.9737,-29.75731 30.97362,-29.75727 30.97361,-29.75727 30.97361,-29.75726 30.97356,-29.75722 30.97351,-29.75718 30.97349,-29.75719 30.97344,-29.75716 30.97336,-29.75712 30.97315,-29.75701 30.97309,-29.75697 30.97301,-29.75692 30.97283,-29.75683 30.9727,-29.75676 30.97255,-29.75669 30.97244,-29.75661 30.9723,-29.75654 30.97218,-29.7565 30.97208,-29.75643 30.97201,-29.75637 30.97189,-29.75631 30.97178,-29.75624 30.97175,-29.75624 30.97168,-29.7562 30.97162,-29.75615 30.9715,-29.75598 30.97148,-29.75593 30.97146,-29.75586 30.97167,-29.75575 30.97164,-29.75572 30.97156,-29.75562 30.97123,-29.75563 30.97119,-29.75551 30.97096,-29.75558 30.97094,-29.75552 30.97061,-29.75564 30.97022,-29.75578 30.9702,-29.75583 30.97032,-29.75588 30.97068,-29.75604 30.97068,-29.75605 30.97066,-29.75608 30.97067,-29.75614 30.97071,-29.75621 30.97044,-29.75635 30.97044,-29.75635 30.97028,-29.75652 30.97015,-29.75664 30.97002,-29.75677 30.96982,-29.75697 30.96986,-29.75701 30.96999,-29.75709 30.96993,-29.75716 30.96989,-29.75719 30.96971,-29.75706 30.96969,-29.75709 30.96966,-29.75714 30.96956,-29.75726 30.96945,-29.75734 30.96937,-29.7574 30.96936,-29.7574 30.96936,-29.75741 30.96933,-29.75742 30.96921,-29.75748 30.96917,-29.75743 30.96915,-29.75745 30.96892,-29.75753 30.96888,-29.75755 30.9687,-29.75761 30.96863,-29.75763 30.96858,-29.75764 30.96849,-29.75768 30.96829,-29.75775 30.96806,-29.75781 30.96786,-29.75788 30.96761,-29.75796 30.96735,-29.75805 30.9673,-29.75806 30.96733,-29.75828 30.96747,-29.75832 30.96746,-29.75835 30.96738,-29.75858 30.96731,-29.75874 30.96723,-29.7589 30.96723,-29.75891 30.96711,-29.75887 30.96694,-29.75883 30.96678,-29.75879 30.96668,-29.75877 30.96663,-29.75877 30.96663,-29.75876 30.96647,-29.75874 30.96625,-29.75861 30.96606,-29.75843 30.966,-29.75836 30.96584,-29.75824 30.96562,-29.75806 30.96547,-29.75806 30.96544,-29.75806 30.96522,-29.75806 30.96497,-29.75805 30.96484,-29.7581 30.96484,-29.7581 30.96477,-29.75812 30.96464,-29.75818 30.96455,-29.75815 30.96448,-29.75819 30.96443,-29.75822 30.96436,-29.75825 30.96443,-29.75832 30.96424,-29.7584 30.96421,-29.75836 30.96405,-29.75844 30.9639,-29.75853 30.96389,-29.75855 30.96381,-29.75859 30.96366,-29.75867 30.96344,-29.7588 30.96342,-29.7588 30.96325,-29.7589 30.96298,-29.75905 30.96273,-29.75921 30.96257,-29.75931 30.96254,-29.75933 30.9624,-29.75939 30.96222,-29.75949 30.96221,-29.75952 30.96209,-29.7596 30.962,-29.75965 30.96199,-29.75965 30.96191,-29.75969 30.96192,-29.75971 30.9616,-29.75989 30.96146,-29.75996 30.96137,-29.76001 30.96129,-29.76004 30.96105,-29.76 30.96055,-29.75994 30.96019,-29.75988 30.9601,-29.75988 30.95994,-29.75987 30.9599,-29.75988 30.95958,-29.76 30.9594,-29.76009 30.9593,-29.76021 30.9592,-29.76035 30.95879,-29.76097 30.95879,-29.76099 30.95859,-29.76118 30.95858,-29.76122 30.95858,-29.76131 30.95857,-29.76131 30.95813,-29.76147 30.95784,-29.76157 30.95763,-29.76157 30.95723,-29.7616 30.95698,-29.76165 30.95664,-29.76176 30.95637,-29.76181 30.95637,-29.76181 30.95645,-29.76166 30.9565,-29.76158 30.9565,-29.76155 30.95653,-29.76149 30.95653,-29.76147 30.95602,-29.76144 30.95577,-29.76143 30.95555,-29.76142 30.95525,-29.76138 30.95492,-29.76132 30.95467,-29.76129 30.95458,-29.76128 30.95427,-29.76123 30.9541,-29.76122 30.95402,-29.76121 30.95399,-29.76121 30.95397,-29.76119 30.95391,-29.76118 30.95358,-29.76113 30.95354,-29.76113 30.95287,-29.76103 30.952,-29.7609 30.95115,-29.76078 30.95092,-29.76074 30.95092,-29.76071 30.95036,-29.76062 30.95016,-29.76059 30.95015,-29.76057 30.95013,-29.76056 30.95009,-29.76056 30.95006,-29.76056 30.95002,-29.76059 30.94999,-29.76059 30.94997,-29.76058 30.94994,-29.76057 30.94989,-29.76055 30.94986,-29.76054 30.94995,-29.76026 30.94999,-29.76013 30.94998,-29.7601 30.95,-29.76004 30.95005,-29.75989 30.95011,-29.7597 30.95013,-29.75958 30.95018,-29.75947 30.95022,-29.7593 30.95023,-29.75894 30.95024,-29.75868 30.95023,-29.75864 30.95023,-29.75844 30.95015,-29.75828 30.95015,-29.75824 30.95008,-29.75811 30.95003,-29.75804 30.95006,-29.75799 30.95011,-29.75796 30.95012,-29.7579 30.95018,-29.75786 30.95037,-29.75745 30.95044,-29.75731 30.95048,-29.75732 30.95051,-29.75732 30.95055,-29.75732 30.95057,-29.75733 30.95061,-29.75734 30.95064,-29.75734 30.95067,-29.75734 30.9507,-29.75735 30.95076,-29.75737 30.95079,-29.75738 30.95088,-29.75743 30.9513,-29.75754 30.95135,-29.75748 30.9514,-29.75745 30.95146,-29.75741 30.95156,-29.75739 30.95195,-29.75734 30.95223,-29.75732 30.95243,-29.7573 30.95247,-29.75701 30.95264,-29.75701 30.95281,-29.75701 30.95291,-29.75696 30.9531,-29.7568 30.95316,-29.75676 30.9532,-29.75674 30.95331,-29.75669 30.95312,-29.75642 30.95311,-29.75638 30.95327,-29.75629 30.95348,-29.75618 30.95369,-29.75604 30.95372,-29.75605 30.95381,-29.75614 30.95392,-29.7561 30.95397,-29.75599 30.95399,-29.75597 30.954,-29.75594 30.95403,-29.75587 30.95404,-29.75587 30.95411,-29.75586 30.95414,-29.75585 30.95415,-29.75579 30.95424,-29.75574 30.95437,-29.75564 30.95438,-29.75563 30.95449,-29.75554 30.95449,-29.7555 30.95452,-29.75546 30.95456,-29.75543 30.95458,-29.75539 30.95463,-29.75539 30.95467,-29.75538 30.95474,-29.75533 30.9548,-29.7553 30.95489,-29.75525 30.95497,-29.7552 30.955,-29.75518 30.95501,-29.75515 30.95504,-29.75513 30.95508,-29.75511 30.95513,-29.75508 30.95517,-29.75507 30.95524,-29.75495 30.95526,-29.75492 30.95533,-29.75478 30.95534,-29.75476 30.95535,-29.75472 30.95536,-29.75471 30.95549,-29.75452 30.95549,-29.75452 30.95548,-29.75452 30.95526,-29.75442 30.95514,-29.75436 30.95514,-29.75434 30.95507,-29.75431 30.95504,-29.7543 30.95501,-29.75431 30.95499,-29.75433 30.95491,-29.75432 30.95477,-29.7543 30.95475,-29.7543 30.9546,-29.75432 30.95458,-29.75427 30.95454,-29.75401 30.95454,-29.754 30.95454,-29.75396 30.95451,-29.75372 30.95449,-29.75368 30.95433,-29.75334 30.9542,-29.75306 30.95414,-29.75295 30.9541,-29.75285 30.95407,-29.75282 30.95403,-29.75276 30.95394,-29.75265 30.95402,-29.75257 30.95421,-29.75257 30.95443,-29.75256 30.95445,-29.75256 30.95449,-29.75254 30.95454,-29.75254 30.9546,-29.75253 30.95467,-29.75255 30.95471,-29.75256 30.95493,-29.75254 30.95517,-29.75251 30.95521,-29.7525 30.95522,-29.75247 30.95524,-29.75247 30.9553,-29.75246 30.95545,-29.75243 30.95549,-29.75242 30.95553,-29.75241 30.95555,-29.75239 30.95561,-29.75239 30.95565,-29.75237 30.95572,-29.75235 30.9558,-29.75233 30.95583,-29.75232 30.95586,-29.7523 30.95593,-29.75225 30.95609,-29.75215 30.95614,-29.75212 30.95617,-29.7521 30.9562,-29.75207 30.95622,-29.75206 30.95628,-29.75203 30.95633,-29.75201 30.95636,-29.75199 30.95645,-29.7519 30.95663,-29.75172 30.95667,-29.75168 30.95665,-29.75165 30.95658,-29.75153 30.9567,-29.75147 30.9568,-29.75142 30.95706,-29.75127 30.95735,-29.75113 30.9576,-29.751 30.95763,-29.75099 30.95763,-29.75099 30.95763,-29.75099 30.95758,-29.75084 30.95751,-29.75075 30.95744,-29.75041 30.95742,-29.75034 30.95747,-29.74989 30.95747,-29.74988 30.95749,-29.74956 30.95746,-29.7495 30.95745,-29.7494 30.95746,-29.74934 30.95747,-29.74929 30.95753,-29.74925 30.95756,-29.74903 30.95766,-29.74875 30.95771,-29.74863 30.95776,-29.74865 30.95779,-29.7486 30.95783,-29.7485 30.95785,-29.74844 30.95785,-29.74844 30.95784,-29.74842 30.95775,-29.74822 30.95766,-29.748 30.95754,-29.74766 30.95747,-29.74751 30.95741,-29.74735 30.95737,-29.74726 30.95737,-29.74719 30.95737,-29.74716 30.95751,-29.74711 30.95764,-29.74701 30.95773,-29.74695 30.95776,-29.74691 30.95792,-29.74682 30.95793,-29.74682 30.95803,-29.74678 30.95812,-29.74672 30.95816,-29.74668 30.95816,-29.74668 30.95819,-29.74649 30.95828,-29.74637 30.95793,-29.74508 30.95787,-29.74496 30.95783,-29.7449 30.95794,-29.74468 30.95815,-29.74363 30.95823,-29.74328 30.95828,-29.74309 30.95828,-29.74309 30.95841,-29.74243 30.95845,-29.74208 30.95843,-29.74179 30.95845,-29.74176 30.95857,-29.74162 30.95863,-29.74126 30.95864,-29.74105 30.95889,-29.74102 30.95903,-29.74092 30.9588,-29.7405 30.95846,-29.73986 30.95892,-29.73964 30.95897,-29.73961 30.95882,-29.73943 30.95883,-29.73935 30.95895,-29.73846 30.9591,-29.73735 30.9591,-29.73721 30.95911,-29.73713 30.95942,-29.73708 30.95942,-29.73704 30.95947,-29.73679 30.95971,-29.73676 30.96002,-29.73668 30.96027,-29.73663 30.96042,-29.73664 30.96065,-29.7366 30.96078,-29.73653 30.96093,-29.73652 30.96106,-29.73649 30.96138,-29.73643 30.9617,-29.73633 30.96216,-29.73606 30.96266,-29.73571 30.96288,-29.73555 30.96315,-29.73537 30.96338,-29.73524 30.96328,-29.73512 30.96347,-29.73497 30.96359,-29.73509 30.96399,-29.73481 30.96414,-29.7347 30.96438,-29.73452 30.9643,-29.73439 30.96451,-29.73425 30.96486,-29.73407 30.96472,-29.73394 30.9645,-29.73379 30.96423,-29.73363 30.9639,-29.73346 30.96348,-29.73326 30.96329,-29.73318 30.96314,-29.73315 30.96291,-29.73312 30.96271,-29.73311 30.96238,-29.73314 30.96185,-29.73322 30.96161,-29.7327 30.96155,-29.73254 30.96152,-29.73235 30.96152,-29.73234 30.96152,-29.73234 30.96162,-29.7323 30.96169,-29.73213 30.96174,-29.73193 30.96185,-29.73176 30.962,-29.7316 30.96221,-29.73144 30.96232,-29.73132 30.96253,-29.73102 30.96259,-29.73088 30.96267,-29.7307 30.96273,-29.73063 30.96284,-29.73061 30.96296,-29.73057 30.96307,-29.73062 30.96323,-29.73068 30.96343,-29.73076 30.96365,-29.73092 30.96383,-29.73103 30.96396,-29.73114 30.96404,-29.73123 30.9642,-29.73122 30.96428,-29.73128 30.9644,-29.73134 30.96461,-29.73145 30.96476,-29.73157 30.96488,-29.73165 30.96501,-29.7315 30.96518,-29.73142 30.96537,-29.73141 30.96554,-29.73141 30.96554,-29.73141 30.96562,-29.73105 30.96593,-29.73092 30.96584,-29.73069 30.9658,-29.73052 30.96579,-29.73035 30.96598,-29.72965 30.96604,-29.72966 30.96612,-29.72967 30.96626,-29.72964 30.96633,-29.72963 30.96637,-29.72941 30.9666,-29.72855 30.96664,-29.72843 30.96668,-29.72835 30.96673,-29.72827 30.96679,-29.72821 30.9669,-29.72811 30.96705,-29.72801 30.96708,-29.72799 30.96709,-29.72799 30.96721,-29.72794 30.96729,-29.72792 30.9674,-29.72791 30.96751,-29.72791 30.96761,-29.72792 30.96774,-29.72793 30.96782,-29.72795 30.96792,-29.72798 30.96847,-29.72822 30.96857,-29.72826 30.96886,-29.72839 30.96911,-29.72849 30.9692,-29.72854 30.96936,-29.72863 30.96948,-29.72871 30.96959,-29.72881 30.96964,-29.72886 30.96971,-29.72895 30.96981,-29.72907 30.96996,-29.72928 30.97026,-29.72972 30.97032,-29.72979 30.97037,-29.72982 30.97042,-29.72984 30.97047,-29.72985 30.97058,-29.72985 30.97079,-29.72984 30.9708,-29.72964 30.97081,-29.72952 30.97084,-29.72937 30.97091,-29.7291 30.97097,-29.72886 30.97099,-29.72873 30.97099,-29.72865 30.97098,-29.72852 30.97095,-29.72831 30.97095,-29.72826 30.97097,-29.72822 30.97099,-29.72819 30.97103,-29.72816 30.9711,-29.72813 30.971,-29.7279 30.97092,-29.7277 30.97091,-29.72768 30.9709,-29.72765 30.97081,-29.72741 30.97075,-29.72726 30.97068,-29.72708 30.97064,-29.72696 30.97061,-29.72687 30.97059,-29.7268 30.97058,-29.72673 30.97057,-29.72665 30.97057,-29.72656 30.97058,-29.72651 30.97059,-29.72642 30.9706,-29.72636 30.97063,-29.72628 30.97067,-29.72621 30.97068,-29.72618 30.9707,-29.72615 30.97072,-29.72611 30.97076,-29.72605 30.9711,-29.72625 30.97176,-29.72536 30.97211,-29.72546 30.97213,-29.72538 30.97218,-29.72531 30.97222,-29.72522 30.97229,-29.72505 30.97232,-29.72496 30.97239,-29.72484 30.97245,-29.72475 30.97212,-29.72458 30.97195,-29.7245 30.97215,-29.72425 30.97225,-29.72412 30.97242,-29.72389 30.9725,-29.72377 30.97255,-29.72367 30.97257,-29.72362 30.97259,-29.72354 30.9726,-29.72346 30.97261,-29.72334 30.9726,-29.72318 30.97255,-29.72302 30.9725,-29.72291 30.97248,-29.72288 30.97241,-29.72278 30.97236,-29.72273 30.97228,-29.72266 30.9722,-29.72261 30.97188,-29.72246 30.97176,-29.7224 30.97163,-29.72232 30.97163,-29.72232 30.97169,-29.72225 30.97191,-29.72189 30.97225,-29.72207 30.97241,-29.72214 30.97254,-29.72219 30.97259,-29.72224 30.97268,-29.72228 30.97276,-29.72234 30.97282,-29.72237 30.97292,-29.7224 30.97301,-29.72242 30.97308,-29.72242 30.9731,-29.72242 30.97317,-29.72243 30.97327,-29.72244 30.97337,-29.72249 30.97349,-29.72254 30.97359,-29.72255 30.97368,-29.72258 30.97378,-29.72262 30.97385,-29.72264 30.97392,-29.72261 30.97398,-29.72263 30.97403,-29.72266 30.9741,-29.72266 30.97416,-29.72268 30.97422,-29.72269 30.97427,-29.72273 30.97432,-29.72277 30.97432,-29.72282 30.9743,-29.72289 30.97429,-29.72299 30.97435,-29.72302 30.97441,-29.72304 30.97448,-29.72307 30.97456,-29.72308 30.97462,-29.72305 30.9747,-29.72302 30.97476,-29.72302 30.97481,-29.72303 30.97486,-29.72304 30.9749,-29.72305 30.97495,-29.72306 30.97499,-29.72306 30.97505,-29.72304 30.9751,-29.72302 30.97518,-29.72298 30.97522,-29.72295 30.97527,-29.72286 30.97529,-29.72278 30.9753,-29.72272 30.97535,-29.72273 30.97539,-29.72272 30.97544,-29.72272 30.97548,-29.72271 30.97555,-29.72268 30.97567,-29.72261 30.97568,-29.7226 30.97576,-29.72258 30.97586,-29.72254 30.97592,-29.7225 30.976,-29.72247 30.97606,-29.72244 30.97612,-29.72236 30.97615,-29.72233 30.97616,-29.7223 30.97613,-29.72198 30.9761,-29.72163 30.97615,-29.72146 30.97625,-29.72133 30.9764,-29.72119 30.97656,-29.7211 30.97685,-29.72096 30.977,-29.72088 30.97709,-29.7208 30.97712,-29.72076 30.97712,-29.72076 30.97712,-29.72076 30.97698,-29.72068 30.97676,-29.72056 30.97656,-29.72039 30.9765,-29.72034 30.97641,-29.72031 30.97639,-29.72029 30.97635,-29.72026 30.97629,-29.72024 30.97623,-29.72025 30.97618,-29.72025 30.9761,-29.72022 30.97594,-29.72017 30.97575,-29.72011 30.97565,-29.72008 30.97553,-29.72009 30.97548,-29.72008 30.97543,-29.72005 30.97538,-29.71999 30.97532,-29.71993 30.97517,-29.71985 30.97503,-29.71978 30.97487,-29.71969 30.97481,-29.71966 30.97466,-29.71955 30.97455,-29.71948 30.97441,-29.71935 30.97427,-29.71921 30.97413,-29.71902 30.97409,-29.71893 30.974,-29.71876 30.97396,-29.71864 30.97387,-29.71835 30.97379,-29.7181 30.9738,-29.71809 30.97393,-29.71806 30.97402,-29.71805 30.97409,-29.71803 30.97412,-29.71802 30.97416,-29.71796 30.97419,-29.71793 30.97423,-29.71789 30.97428,-29.71784 30.97434,-29.71783 30.97439,-29.71778 30.97446,-29.71774 30.97455,-29.71769 30.97468,-29.71779 30.97476,-29.71786 30.97486,-29.71791 30.97513,-29.71799 30.97524,-29.71806 30.97542,-29.7181 30.97563,-29.71815 30.97589,-29.7182 30.97623,-29.71827 30.97629,-29.71828 30.97645,-29.71831 30.97649,-29.71832 30.97657,-29.71835 30.97674,-29.71841 30.97679,-29.71842 30.97687,-29.71845 30.97695,-29.71847 30.97705,-29.71837 30.97721,-29.71824 30.97737,-29.71811 30.9777,-29.71791 30.97783,-29.71781 30.97778,-29.71774 30.97776,-29.71765 30.9777,-29.71754 30.97771,-29.71752 30.97776,-29.71749 30.97779,-29.71745 30.97778,-29.71743 30.97774,-29.71739 30.97771,-29.71733 30.97774,-29.71728 30.9778,-29.71725 30.97776,-29.71716 30.97777,-29.71712 30.9778,-29.71682 30.97781,-29.71658 30.97782,-29.71628 30.97776,-29.71614 30.97782,-29.71609 30.97783,-29.71604 30.97777,-29.71601 30.9778,-29.71596 30.97784,-29.71593 30.97784,-29.71563 30.97783,-29.71558 30.97782,-29.71554 30.97786,-29.71549 30.97786,-29.7153 30.97786,-29.71525 30.97785,-29.71519 30.97789,-29.71501 30.97793,-29.71486 30.97783,-29.71481 30.97788,-29.71473 30.9779,-29.71468 30.9779,-29.71464 30.9779,-29.71461 30.97788,-29.71457 30.97784,-29.71454 30.97776,-29.71449 30.97766,-29.71445 30.97756,-29.71443 30.97773,-29.71436 30.97781,-29.71433 30.97789,-29.71431 30.97797,-29.71427 30.97802,-29.71424 30.97805,-29.71421 30.97806,-29.71418 30.97806,-29.71415 30.97806,-29.7141 30.97801,-29.71398 30.97798,-29.71387 30.97793,-29.71338 30.97797,-29.71337 30.978,-29.71336 30.97804,-29.71333 30.97807,-29.71332 30.9781,-29.71332 30.97814,-29.71332 30.97818,-29.7133 30.97822,-29.71328 30.97826,-29.71328 30.97832,-29.71328</coordinates></LinearRing></outerBoundaryIs></Polygon></MultiGeometry></Placemark></Document></kml>