<?xml version="1.0" encoding="UTF-8"?><kml xmlns="http://www.opengis.net/kml/2.2"><Document><Placemark><name>Palmiet</name><description>Sub Place 599054019</description><ExtendedData><Data name="code"><value>599054019</value></Data><Data name="name"><value>Palmiet</value></Data><Data name="description"><value>Sub Place 599054019</value></Data></ExtendedData><MultiGeometry><Polygon><outerBoundaryIs><LinearRing><coordinates>30.97706,-29.80529 30.97759,-29.80561 30.97788,-29.80579 30.97833,-29.80606 30.97794,-29.80652 30.97762,-29.80691 30.9774,-29.80725 30.97715,-29.80771 30.97686,-29.80828 30.97666,-29.80871 30.97625,-29.80948 30.97596,-29.81004 30.9755,-29.81095 30.97531,-29.81131 30.97512,-29.81168 30.97469,-29.8125 30.97443,-29.81302 30.97418,-29.81351 30.97388,-29.81407 30.97357,-29.81471 30.97329,-29.81525 30.97299,-29.8158 30.9727,-29.81634 30.9725,-29.81665 30.97226,-29.81694 30.97196,-29.81727 30.97176,-29.81747 30.97175,-29.81749 30.97159,-29.81762 30.97112,-29.81796 30.97053,-29.81844 30.97009,-29.81877 30.96966,-29.81911 30.96958,-29.81917 30.96927,-29.81941 30.96898,-29.81964 30.96892,-29.81969 30.96871,-29.81986 30.9685,-29.82006 30.96822,-29.82038 30.96801,-29.82065 30.9678,-29.82098 30.96773,-29.82112 30.96767,-29.82124 30.96764,-29.82128 30.9675,-29.82165 30.96739,-29.82197 30.96734,-29.82219 30.96729,-29.82266 30.96725,-29.82311 30.96608,-29.82285 30.96568,-29.82262 30.96563,-29.82238 30.96558,-29.8223 30.96539,-29.82211 30.96537,-29.82206 30.96547,-29.82182 30.96551,-29.8215 30.96542,-29.82134 30.96536,-29.82126 30.96503,-29.82108 30.96493,-29.82102 30.96486,-29.82099 30.96483,-29.82098 30.96471,-29.82101 30.96462,-29.82105 30.96457,-29.82111 30.96453,-29.82123 30.96451,-29.8213 30.96446,-29.82134 30.96435,-29.82136 30.96415,-29.82138 30.964,-29.82147 30.96367,-29.8217 30.96358,-29.8219 30.96352,-29.82196 30.96345,-29.82203 30.96341,-29.82211 30.96349,-29.82225 30.9635,-29.82233 30.96333,-29.8227 30.96289,-29.8222 30.96295,-29.82206 30.96271,-29.82178 30.96252,-29.82159 30.96225,-29.82139 30.96199,-29.82116 30.96185,-29.82085 30.96097,-29.82032 30.96029,-29.82007 30.96002,-29.82011 30.95966,-29.82022 30.9593,-29.82028 30.95912,-29.82036 30.95885,-29.82043 30.95849,-29.82052 30.95804,-29.82058 30.95777,-29.82056 30.95752,-29.8205 30.95722,-29.8205 30.95689,-29.8206 30.95581,-29.82089 30.95554,-29.81939 30.95456,-29.81924 30.95552,-29.81881 30.9569,-29.81818 30.95617,-29.81807 30.95676,-29.81758 30.95678,-29.81732 30.95711,-29.817 30.95736,-29.81671 30.9575,-29.81666 30.95761,-29.81661 30.95769,-29.81638 30.95763,-29.81629 30.95644,-29.81584 30.95633,-29.81579 30.95572,-29.81553 30.95546,-29.81537 30.95545,-29.81536 30.95539,-29.81533 30.95489,-29.81506 30.95488,-29.81506 30.95419,-29.81468 30.95425,-29.81461 30.95427,-29.81453 30.95428,-29.81448 30.95422,-29.81437 30.95415,-29.81419 30.95308,-29.81365 30.95246,-29.81337 30.95257,-29.81331 30.95315,-29.81293 30.95356,-29.81267 30.95387,-29.81246 30.95395,-29.81241 30.95429,-29.81218 30.95481,-29.81179 30.9553,-29.81143 30.95558,-29.81122 30.95571,-29.81109 30.95579,-29.81096 30.95583,-29.81081 30.95585,-29.81061 30.95584,-29.8102 30.95584,-29.80978 30.95585,-29.80962 30.95587,-29.80955 30.95612,-29.80956 30.95691,-29.8096 30.95698,-29.80944 30.95708,-29.80933 30.9572,-29.80927 30.95736,-29.80927 30.95752,-29.80925 30.95766,-29.80919 30.95768,-29.80911 30.95766,-29.80901 30.9577,-29.80893 30.95781,-29.80885 30.95792,-29.80879 30.95813,-29.80872 30.95833,-29.8086 30.95845,-29.80849 30.95853,-29.80835 30.95857,-29.80812 30.95865,-29.80791 30.95881,-29.80783 30.959,-29.80777 30.95918,-29.80772 30.95932,-29.80764 30.95941,-29.80759 30.95951,-29.80759 30.95963,-29.80763 30.95975,-29.80771 30.95997,-29.80779 30.96016,-29.8078 30.96036,-29.80775 30.96054,-29.8077 30.9607,-29.80763 30.96082,-29.80753 30.96088,-29.80744 30.96091,-29.80736 30.96098,-29.80729 30.96106,-29.80723 30.96114,-29.80723 30.96122,-29.80722 30.9613,-29.80718 30.96139,-29.80712 30.9615,-29.80704 30.96157,-29.80693 30.96161,-29.80682 30.96168,-29.80676 30.96181,-29.80673 30.96199,-29.8067 30.96216,-29.80662 30.96229,-29.80657 30.96242,-29.80655 30.96255,-29.80653 30.96271,-29.80648 30.9629,-29.8064 30.96313,-29.8063 30.96333,-29.8062 30.9635,-29.80614 30.96369,-29.8061 30.96393,-29.80607 30.96415,-29.80599 30.96435,-29.80593 30.96447,-29.80585 30.96455,-29.80577 30.96467,-29.8057 30.96483,-29.80561 30.96491,-29.80553 30.96504,-29.80538 30.96528,-29.80542 30.96557,-29.80545 30.96581,-29.80544 30.96606,-29.80538 30.96622,-29.80531 30.96635,-29.80519 30.96638,-29.8051 30.9664,-29.80496 30.96612,-29.80495 30.96584,-29.8049 30.96567,-29.80485 30.96543,-29.80477 30.96522,-29.80466 30.9651,-29.80458 30.96489,-29.80444 30.96463,-29.8042 30.96564,-29.80389 30.96659,-29.80361 30.96726,-29.8034 30.96806,-29.80317 30.96844,-29.80305 30.969,-29.80294 30.96954,-29.80287 30.97004,-29.80282 30.97009,-29.80282 30.97041,-29.80282 30.97078,-29.80282 30.97119,-29.80283 30.97165,-29.80288 30.97205,-29.80294 30.97253,-29.80303 30.97301,-29.80315 30.9733,-29.80324 30.97373,-29.8034 30.97412,-29.80356 30.97456,-29.80377 30.97496,-29.80399 30.975,-29.80401 30.97526,-29.80418 30.97548,-29.80432 30.97602,-29.80464 30.97664,-29.80503 30.97706,-29.80529</coordinates></LinearRing></outerBoundaryIs></Polygon></MultiGeometry></Placemark></Document></kml>