<?xml version="1.0" encoding="UTF-8"?><kml xmlns="http://www.opengis.net/kml/2.2"><Document><Placemark><name>Bayhead</name><description>Sub Place 599054031</description><ExtendedData><Data name="code"><value>599054031</value></Data><Data name="name"><value>Bayhead</value></Data><Data name="description"><value>Sub Place 599054031</value></Data></ExtendedData><MultiGeometry><Polygon><outerBoundaryIs><LinearRing><coordinates>31.03338,-29.87617 31.03095,-29.8819 31.03372,-29.88128 31.03369,-29.88116 31.03383,-29.88113 31.03389,-29.88131 31.03393,-29.8813 31.03395,-29.8813 31.03394,-29.88128 31.03389,-29.88111 31.03468,-29.88093 31.0347,-29.88093 31.03471,-29.88095 31.03473,-29.88095 31.03516,-29.88144 31.0352,-29.88145 31.03526,-29.88145 31.03593,-29.88135 31.03595,-29.88136 31.03601,-29.88139 31.03605,-29.88144 31.03609,-29.88145 31.03613,-29.88151 31.03611,-29.88155 31.03683,-29.8828 31.03684,-29.88282 31.03686,-29.88281 31.04063,-29.88117 31.04065,-29.88116 31.04064,-29.88114 31.0406,-29.88107 31.04059,-29.88105 31.04061,-29.88104 31.04091,-29.88091 31.04093,-29.88091 31.04094,-29.88092 31.04178,-29.88238 31.0417,-29.88241 31.04166,-29.88243 31.0416,-29.88245 31.03713,-29.88439 31.0355,-29.88481 31.03493,-29.88518 31.03482,-29.88518 31.03475,-29.88521 31.03454,-29.88519 31.03105,-29.88472 31.03062,-29.88465 31.0306,-29.88464 31.03059,-29.88464 31.03051,-29.88461 31.0305,-29.8846 31.03048,-29.8846 31.03047,-29.88459 31.03045,-29.88458 31.03044,-29.88457 31.03042,-29.88457 31.03041,-29.88456 31.03038,-29.88455 31.03037,-29.88454 31.03034,-29.88452 31.03032,-29.88451 31.0303,-29.8845 31.03027,-29.88448 31.03026,-29.88447 31.03022,-29.88444 31.03021,-29.88443 31.03019,-29.88442 31.03017,-29.88441 31.03016,-29.8844 31.03015,-29.88439 31.03014,-29.88438 31.03011,-29.88437 31.03009,-29.88436 31.03007,-29.88435 31.03006,-29.88434 31.03004,-29.88433 31.03,-29.8843 31.02998,-29.88428 31.02996,-29.88428 31.02994,-29.88425 31.02991,-29.88429 31.0299,-29.8843 31.02987,-29.88433 31.02986,-29.88434 31.02985,-29.88435 31.02984,-29.88437 31.02981,-29.88438 31.0298,-29.88439 31.02978,-29.88439 31.02977,-29.8844 31.02976,-29.88441 31.02966,-29.88444 31.02965,-29.88445 31.02963,-29.88445 31.02961,-29.88446 31.02956,-29.88447 31.02955,-29.88447 31.02953,-29.88448 31.02951,-29.88448 31.0295,-29.88449 31.02948,-29.88449 31.02947,-29.88449 31.02945,-29.88449 31.02943,-29.8845 31.02942,-29.8845 31.0294,-29.8845 31.02937,-29.8845 31.02935,-29.8845 31.02621,-29.8879 31.02618,-29.88793 31.02616,-29.88795 31.02614,-29.88797 31.02611,-29.88801 31.0261,-29.88802 31.02609,-29.88804 31.02607,-29.88807 31.02605,-29.88809 31.02604,-29.88811 31.02603,-29.88812 31.02599,-29.8882 31.02597,-29.88822 31.02596,-29.88823 31.02596,-29.88825 31.02595,-29.88826 31.02594,-29.88827 31.02594,-29.88829 31.02593,-29.8883 31.02592,-29.88831 31.0259,-29.88837 31.02589,-29.88838 31.02589,-29.88841 31.02587,-29.88844 31.02587,-29.88845 31.02586,-29.88846 31.02586,-29.88849 31.02585,-29.88851 31.02585,-29.88853 31.02584,-29.88856 31.02583,-29.88858 31.02582,-29.88861 31.02582,-29.88865 31.02581,-29.88866 31.02581,-29.8887 31.02581,-29.88872 31.0258,-29.88876 31.0258,-29.88879 31.0258,-29.88881 31.0258,-29.88884 31.0258,-29.88887 31.02579,-29.8889 31.02579,-29.88896 31.02579,-29.88897 31.02579,-29.88899 31.0258,-29.88903 31.0258,-29.88906 31.02581,-29.88908 31.02581,-29.88909 31.02581,-29.8891 31.02582,-29.88913 31.02583,-29.88915 31.02584,-29.88917 31.02584,-29.88919 31.02585,-29.88921 31.02586,-29.88923 31.02698,-29.8913 31.02699,-29.89132 31.027,-29.89133 31.027,-29.89134 31.02703,-29.89138 31.02721,-29.89168 31.02724,-29.89174 31.02725,-29.89175 31.02726,-29.89177 31.02727,-29.89179 31.0271,-29.89186 31.02714,-29.89193 31.02717,-29.89199 31.02793,-29.89342 31.0281,-29.89335 31.02815,-29.89343 31.02821,-29.89353 31.02822,-29.89356 31.02826,-29.89365 31.02827,-29.89372 31.02827,-29.89381 31.02835,-29.89382 31.02844,-29.89426 31.02864,-29.8942 31.02887,-29.89411 31.02889,-29.8941 31.029,-29.89405 31.02917,-29.89436 31.02907,-29.89441 31.02905,-29.89442 31.02766,-29.89525 31.02745,-29.89538 31.02734,-29.89545 31.02726,-29.89549 31.02711,-29.89558 31.02613,-29.89617 31.02552,-29.89658 31.02461,-29.89711 31.02429,-29.89727 31.02354,-29.89771 31.02328,-29.89788 31.02284,-29.89806 31.02284,-29.89806 31.0225,-29.89818 31.02218,-29.89822 31.02159,-29.89827 31.02133,-29.89827 31.02081,-29.89827 31.02011,-29.89835 31.01895,-29.89864 31.0179,-29.89902 31.01722,-29.89961 31.01683,-29.90061 31.01641,-29.90207 31.01637,-29.9022 31.01593,-29.90372 31.01536,-29.90422 31.01519,-29.90436 31.01471,-29.90476 31.01449,-29.90494 31.01446,-29.90496 31.01392,-29.90533 31.01372,-29.90547 31.01356,-29.90557 31.0135,-29.9056 31.0134,-29.90566 31.01326,-29.90573 31.01322,-29.90575 31.01308,-29.90581 31.01188,-29.90628 31.01097,-29.90664 31.01032,-29.90688 31.01002,-29.90701 31.00982,-29.90709 31.00965,-29.90718 31.00952,-29.90725 31.00942,-29.90732 31.00939,-29.90734 31.00938,-29.90735 31.00938,-29.90735 31.00923,-29.90746 31.00913,-29.90756 31.00903,-29.90766 31.00893,-29.90777 31.00884,-29.90788 31.00876,-29.908 31.00872,-29.90808 31.00868,-29.90814 31.00863,-29.90824 31.00858,-29.90834 31.00854,-29.90845 31.00846,-29.90868 31.00836,-29.90896 31.00828,-29.90919 31.00821,-29.9094 31.0081,-29.90972 31.00798,-29.91008 31.00794,-29.91019 31.00789,-29.91031 31.00776,-29.91059 31.00773,-29.91066 31.00769,-29.91072 31.00767,-29.91076 31.00763,-29.91082 31.00758,-29.91088 31.00752,-29.91096 31.00744,-29.91106 31.00736,-29.91115 31.00719,-29.91133 31.00703,-29.91149 31.00701,-29.91151 31.00676,-29.91177 31.00672,-29.91182 31.00652,-29.91203 31.00638,-29.91217 31.00635,-29.9122 31.00628,-29.91227 31.00622,-29.91233 31.00611,-29.91242 31.00604,-29.91248 31.00594,-29.91256 31.00586,-29.91262 31.0057,-29.91273 31.00561,-29.91279 31.00553,-29.91284 31.00544,-29.91289 31.00534,-29.91295 31.00519,-29.91304 31.00463,-29.91332 31.00425,-29.9135 31.0038,-29.91372 31.00288,-29.91415 31.00202,-29.91457 31.00141,-29.91487 31.00137,-29.91489 31.0013,-29.91493 31.00121,-29.91497 31.00102,-29.91508 31.0009,-29.91516 31.00076,-29.91526 31.00059,-29.91539 31.00025,-29.91568 30.99982,-29.91606 30.99962,-29.91623 30.9995,-29.91634 30.99942,-29.9164 30.99929,-29.9165 30.99916,-29.91659 30.99901,-29.91669 30.99859,-29.91694 30.9986,-29.91697 30.99859,-29.91693 30.99851,-29.91671 30.99844,-29.91655 30.99828,-29.91624 30.99788,-29.91529 30.99727,-29.91457 30.99674,-29.91418 30.99669,-29.91414 30.99654,-29.91402 30.99484,-29.9129 30.9939,-29.91226 30.99386,-29.91223 30.99054,-29.9099 30.99049,-29.90987 30.99039,-29.90979 30.99009,-29.90961 30.98712,-29.90751 30.98703,-29.90745 30.98701,-29.90747 30.98698,-29.9075 30.98677,-29.90759 30.98669,-29.90763 30.98652,-29.90771 30.98632,-29.90782 30.986,-29.90798 30.98574,-29.90816 30.98556,-29.90829 30.98518,-29.90851 30.98466,-29.90879 30.98391,-29.90913 30.98332,-29.90932 30.98272,-29.90951 30.98205,-29.90966 30.98204,-29.90966 30.98154,-29.90979 30.98122,-29.90991 30.981,-29.91 30.98078,-29.91006 30.98059,-29.91012 30.9803,-29.91021 30.97997,-29.91021 30.97966,-29.9102 30.97928,-29.91025 30.97897,-29.91018 30.97888,-29.91013 30.97843,-29.9099 30.9779,-29.9097 30.9771,-29.90959 30.977,-29.90962 30.97675,-29.90968 30.97622,-29.90948 30.97511,-29.90916 30.9747,-29.90909 30.9745,-29.90909 30.97435,-29.90909 30.9743,-29.90909 30.97422,-29.90819 30.97433,-29.90781 30.97437,-29.90776 30.97472,-29.90729 30.97501,-29.90701 30.97566,-29.90653 30.97618,-29.90635 30.97634,-29.90629 30.97639,-29.90629 30.97678,-29.90628 30.97679,-29.90628 30.9768,-29.90628 30.97716,-29.90624 30.97746,-29.90617 30.97832,-29.90575 30.97894,-29.90473 30.97906,-29.90454 30.97948,-29.90331 30.98122,-29.8995 30.98199,-29.89828 30.98198,-29.89792 30.98218,-29.89687 30.98239,-29.8964 30.98239,-29.8964 30.9831,-29.89476 30.98314,-29.89468 30.98309,-29.89467 30.98277,-29.89459 30.98262,-29.89455 30.98256,-29.89454 30.98254,-29.89453 30.97981,-29.89443 30.97982,-29.89474 30.97949,-29.89473 30.97949,-29.89468 30.97957,-29.89394 30.97958,-29.89383 30.97955,-29.89383 30.97957,-29.89379 30.97967,-29.8935 30.97976,-29.89327 30.97981,-29.89313 30.98009,-29.89258 30.98045,-29.89181 30.98045,-29.8918 30.98048,-29.89174 30.9811,-29.89046 30.98111,-29.89045 30.98113,-29.89041 30.98114,-29.89038 30.98116,-29.89038 30.98118,-29.89033 30.98146,-29.88963 30.9819,-29.88892 30.98245,-29.88836 30.98317,-29.88782 30.98327,-29.88774 30.98331,-29.8877 30.98338,-29.88765 30.98359,-29.88748 30.98372,-29.88738 30.98373,-29.88738 30.98387,-29.88731 30.98409,-29.88719 30.9849,-29.88676 30.98496,-29.88673 30.98573,-29.88619 30.98583,-29.88608 30.98657,-29.88539 30.9866,-29.88536 30.98781,-29.88417 30.98833,-29.88383 30.98847,-29.88378 30.98851,-29.88377 30.98906,-29.88359 30.98943,-29.88344 30.99227,-29.88073 30.99235,-29.88076 30.99289,-29.88091 30.99343,-29.88115 30.99396,-29.88161 30.99417,-29.88179 30.99465,-29.88223 30.99481,-29.88234 30.99521,-29.88243 30.99545,-29.88248 30.99559,-29.88249 30.99496,-29.88387 30.99488,-29.88392 30.99492,-29.88421 30.99518,-29.88454 30.99569,-29.88732 30.99804,-29.88792 30.99807,-29.88784 30.99867,-29.8865 30.99874,-29.88642 31.00001,-29.88687 30.9993,-29.88827 30.99954,-29.88838 30.99957,-29.88839 30.99956,-29.8884 30.99955,-29.88842 30.99957,-29.88843 30.99973,-29.88849 31.00133,-29.88906 31.00135,-29.88907 31.00136,-29.88905 31.0022,-29.88707 31.00751,-29.88798 31.00316,-29.89831 31.00315,-29.89833 31.00317,-29.89834 31.00382,-29.89857 31.00417,-29.89869 31.0044,-29.89887 31.00773,-29.90401 31.00775,-29.90404 31.00776,-29.90406 31.00778,-29.90408 31.0078,-29.90411 31.00784,-29.90415 31.00786,-29.90416 31.00789,-29.90419 31.00791,-29.90421 31.00794,-29.90422 31.00798,-29.90424 31.00799,-29.90425 31.00801,-29.90426 31.00803,-29.90427 31.00806,-29.90429 31.00813,-29.90431 31.00816,-29.90431 31.00819,-29.90432 31.00822,-29.90433 31.00826,-29.90433 31.00828,-29.90433 31.00832,-29.90433 31.00834,-29.90433 31.00839,-29.90433 31.0084,-29.90433 31.00843,-29.90433 31.00845,-29.90433 31.00849,-29.90432 31.00852,-29.90431 31.00856,-29.9043 31.00858,-29.90429 31.0086,-29.90429 31.00864,-29.90427 31.00866,-29.90426 31.0087,-29.90425 31.00872,-29.90423 31.00875,-29.90421 31.00877,-29.9042 31.0088,-29.90418 31.00882,-29.90416 31.00884,-29.90414 31.00887,-29.90411 31.00889,-29.90409 31.00891,-29.90406 31.00892,-29.90404 31.00896,-29.90398 31.00897,-29.90395 31.00899,-29.90392 31.00899,-29.9039 31.009,-29.90388 31.00901,-29.90385 31.00901,-29.90382 31.00901,-29.90379 31.00902,-29.9037 31.00901,-29.90367 31.00901,-29.90364 31.00562,-29.89815 31.00668,-29.89667 31.00676,-29.89578 31.00683,-29.89534 31.00686,-29.89474 31.00716,-29.89416 31.0075,-29.8934 31.0076,-29.89326 31.00801,-29.89241 31.00807,-29.8923 31.00875,-29.89091 31.00961,-29.88981 31.00962,-29.8898 31.00964,-29.88981 31.01057,-29.89038 31.01024,-29.89148 31.00985,-29.89245 31.01025,-29.89287 31.01096,-29.8932 31.01143,-29.89202 31.01174,-29.89091 31.01136,-29.89017 31.01122,-29.88989 31.01114,-29.8896 31.01132,-29.88903 31.01147,-29.88889 31.01195,-29.88842 31.012,-29.88752 31.0114,-29.88642 31.01036,-29.8853 31.00965,-29.88451 31.00964,-29.88448 31.00962,-29.88444 31.00962,-29.88442 31.00961,-29.88439 31.00961,-29.88436 31.00961,-29.88433 31.00962,-29.88428 31.00962,-29.88426 31.00963,-29.88424 31.00964,-29.88421 31.00967,-29.88417 31.00969,-29.88414 31.00973,-29.8841 31.00976,-29.88407 31.00979,-29.88406 31.01127,-29.88243 31.01143,-29.87987 31.01142,-29.87914 31.01174,-29.87878 31.01243,-29.87855 31.01404,-29.87907 31.01421,-29.87866 31.01429,-29.87869 31.01411,-29.87906 31.01418,-29.87913 31.01399,-29.87959 31.01406,-29.8799 31.01407,-29.87992 31.01409,-29.87992 31.02328,-29.8781 31.0233,-29.8781 31.02329,-29.87808 31.02324,-29.87789 31.02324,-29.87788 31.02326,-29.87787 31.02387,-29.87776 31.02418,-29.87807 31.02178,-29.88372 31.02728,-29.88263 31.02975,-29.87682 31.03328,-29.87612 31.03338,-29.87617</coordinates></LinearRing></outerBoundaryIs></Polygon></MultiGeometry></Placemark></Document></kml>