<?xml version="1.0" encoding="UTF-8"?><kml xmlns="http://www.opengis.net/kml/2.2"><Document><Placemark><name>Durban</name><description>Main Place 599054</description><ExtendedData><Data name="code"><value>599054</value></Data><Data name="name"><value>Durban</value></Data><Data name="description"><value>Main Place 599054</value></Data></ExtendedData><MultiGeometry><Polygon><outerBoundaryIs><LinearRing><coordinates>31.03274,-29.74633 31.0352,-29.7475 31.03521,-29.7475 31.03519,-29.74751 31.03519,-29.74751 31.03536,-29.74757 31.03613,-29.74792 31.03628,-29.74796 31.03659,-29.74811 31.03688,-29.74824 31.03716,-29.74839 31.0374,-29.74847 31.03745,-29.74849 31.03759,-29.74855 31.03807,-29.74877 31.03818,-29.74878 31.0382,-29.7488 31.03821,-29.74882 31.03858,-29.74898 31.03867,-29.74903 31.03959,-29.74942 31.04036,-29.74975 31.04076,-29.74993 31.04132,-29.75018 31.04152,-29.75024 31.04163,-29.7503 31.04256,-29.75072 31.04268,-29.75077 31.04299,-29.7509 31.04324,-29.75101 31.04391,-29.7513 31.0446,-29.75162 31.04483,-29.75175 31.04487,-29.75178 31.04507,-29.75184 31.04529,-29.75194 31.04679,-29.75259 31.04733,-29.75282 31.04754,-29.75282 31.04772,-29.75274 31.04786,-29.75289 31.04805,-29.75316 31.04818,-29.75346 31.04821,-29.7536 31.04862,-29.75356 31.04893,-29.7535 31.04897,-29.75349 31.04933,-29.75363 31.04971,-29.75381 31.04984,-29.75388 31.05012,-29.75397 31.05041,-29.75409 31.05076,-29.75423 31.05078,-29.75425 31.05097,-29.75433 31.05157,-29.75458 31.05209,-29.7548 31.05248,-29.75497 31.05371,-29.75549 31.0538,-29.75553 31.0538,-29.75553 31.0546,-29.75585 31.05558,-29.75628 31.05611,-29.7565 31.05664,-29.75672 31.05665,-29.75673 31.05699,-29.75688 31.05733,-29.75701 31.05793,-29.75728 31.05903,-29.75774 31.05955,-29.75795 31.05967,-29.75801 31.0599,-29.75812 31.05994,-29.75814 31.06029,-29.75827 31.06033,-29.75829 31.06034,-29.75831 31.06042,-29.75834 31.06043,-29.75832 31.06101,-29.75857 31.06147,-29.75878 31.06183,-29.75892 31.06209,-29.75903 31.06226,-29.7591 31.06255,-29.75923 31.06325,-29.75954 31.06397,-29.75984 31.06398,-29.75984 31.06398,-29.75984 31.06407,-29.75987 31.06457,-29.76007 31.06471,-29.76014 31.06532,-29.76039 31.06578,-29.76059 31.06648,-29.76091 31.06602,-29.76161 31.06584,-29.76194 31.06528,-29.7628 31.06479,-29.76342 31.06453,-29.76389 31.06417,-29.76441 31.06378,-29.76496 31.06331,-29.76571 31.06316,-29.766 31.06303,-29.7662 31.06289,-29.76636 31.06272,-29.76656 31.06257,-29.76676 31.06248,-29.7669 31.06241,-29.76701 31.06217,-29.76742 31.06199,-29.76767 31.06183,-29.76797 31.06167,-29.76825 31.06147,-29.76858 31.06135,-29.76883 31.06118,-29.76903 31.06097,-29.76935 31.06081,-29.76962 31.0608,-29.76968 31.06067,-29.76994 31.06054,-29.77018 31.06053,-29.77025 31.06051,-29.77029 31.06041,-29.77051 31.06029,-29.77067 31.0601,-29.77081 31.05992,-29.771 31.05983,-29.77122 31.05972,-29.77146 31.05963,-29.77168 31.05946,-29.772 31.05936,-29.77217 31.05924,-29.77239 31.05909,-29.77261 31.05882,-29.77309 31.05858,-29.77344 31.0584,-29.77374 31.05818,-29.7742 31.05806,-29.77447 31.05785,-29.77479 31.05774,-29.77501 31.0576,-29.77527 31.05751,-29.77544 31.0574,-29.77567 31.05728,-29.77587 31.0571,-29.77615 31.057,-29.77627 31.0568,-29.77653 31.05679,-29.77656 31.05663,-29.77687 31.0565,-29.77723 31.05638,-29.7776 31.05627,-29.77795 31.05619,-29.77816 31.05605,-29.77839 31.05589,-29.77867 31.05567,-29.77901 31.05554,-29.77929 31.05548,-29.77938 31.05533,-29.77964 31.05515,-29.78002 31.05503,-29.7802 31.0549,-29.78044 31.0548,-29.78064 31.05465,-29.78091 31.05461,-29.78096 31.05436,-29.78139 31.05415,-29.78178 31.05395,-29.78213 31.05377,-29.78247 31.05363,-29.78279 31.05352,-29.78301 31.0534,-29.78327 31.05319,-29.78366 31.05301,-29.78408 31.05287,-29.78455 31.05269,-29.78495 31.05241,-29.78543 31.05019,-29.7897 31.05013,-29.7898 31.04965,-29.79083 31.04941,-29.79128 31.04914,-29.79174 31.04895,-29.79205 31.04871,-29.79252 31.04857,-29.79286 31.04847,-29.79304 31.04842,-29.79321 31.04835,-29.79338 31.04819,-29.79377 31.04806,-29.79405 31.04794,-29.79428 31.04784,-29.79451 31.04771,-29.79477 31.04762,-29.79498 31.04752,-29.7952 31.04743,-29.79541 31.04731,-29.79567 31.04728,-29.79574 31.04718,-29.79595 31.04717,-29.79598 31.04705,-29.79626 31.04691,-29.79668 31.04674,-29.79709 31.04664,-29.79738 31.04652,-29.79775 31.04635,-29.7982 31.04621,-29.79868 31.04608,-29.79906 31.04592,-29.79951 31.04573,-29.80004 31.04553,-29.80055 31.04495,-29.80197 31.04487,-29.80231 31.04478,-29.80264 31.04467,-29.80292 31.04444,-29.80339 31.04441,-29.80346 31.04423,-29.80385 31.04401,-29.80436 31.04386,-29.8048 31.0437,-29.80531 31.0436,-29.80565 31.04351,-29.80596 31.04345,-29.80623 31.04338,-29.80646 31.04332,-29.80668 31.04325,-29.80689 31.04324,-29.80693 31.04316,-29.80717 31.0431,-29.80763 31.04306,-29.80778 31.04294,-29.80831 31.04285,-29.80874 31.04284,-29.80881 31.04284,-29.80881 31.04275,-29.80921 31.04262,-29.80975 31.0425,-29.81023 31.04237,-29.8107 31.04235,-29.81075 31.04217,-29.81119 31.0421,-29.81153 31.04208,-29.81164 31.04205,-29.8118 31.04199,-29.81211 31.04189,-29.81242 31.04173,-29.81279 31.0417,-29.81283 31.04142,-29.81343 31.04126,-29.81393 31.04097,-29.81464 31.04082,-29.81522 31.04073,-29.81561 31.04065,-29.81587 31.04056,-29.81605 31.0405,-29.81621 31.04048,-29.81625 31.04045,-29.8163 31.04022,-29.81696 31.04013,-29.81744 31.04013,-29.8175 31.04008,-29.81767 31.04003,-29.81783 31.03986,-29.81834 31.03974,-29.81874 31.03968,-29.8189 31.03965,-29.81903 31.0396,-29.8192 31.03956,-29.81935 31.03953,-29.81949 31.03948,-29.81964 31.03942,-29.81985 31.03939,-29.81999 31.03935,-29.82015 31.03931,-29.82032 31.03924,-29.82048 31.03915,-29.82064 31.03902,-29.82088 31.03894,-29.82101 31.03888,-29.82118 31.03886,-29.82137 31.03881,-29.82158 31.03879,-29.82172 31.03871,-29.82196 31.03861,-29.82225 31.03857,-29.82238 31.03848,-29.82279 31.03845,-29.82294 31.03843,-29.82308 31.03841,-29.82323 31.03841,-29.82337 31.0384,-29.82352 31.0384,-29.8238 31.03839,-29.82398 31.0384,-29.82415 31.03837,-29.82431 31.03832,-29.82447 31.03833,-29.82459 31.03833,-29.82464 31.03831,-29.82471 31.03826,-29.82486 31.03819,-29.82506 31.03817,-29.82521 31.03814,-29.82537 31.03809,-29.82551 31.03802,-29.82571 31.03795,-29.826 31.03791,-29.82614 31.03787,-29.8263 31.03783,-29.82648 31.03777,-29.82667 31.03767,-29.82695 31.0376,-29.82732 31.03757,-29.82754 31.03755,-29.82773 31.03752,-29.82793 31.03747,-29.82813 31.03744,-29.82831 31.03743,-29.82849 31.03743,-29.82885 31.03748,-29.829 31.03748,-29.82901 31.03748,-29.82906 31.03747,-29.82918 31.03746,-29.82934 31.03745,-29.82953 31.03744,-29.82971 31.0374,-29.82989 31.03738,-29.83004 31.03736,-29.83025 31.03738,-29.83042 31.0374,-29.83053 31.03741,-29.83074 31.03739,-29.83095 31.03737,-29.8311 31.03735,-29.83122 31.03735,-29.83124 31.03733,-29.8314 31.0373,-29.8315 31.03727,-29.83159 31.03723,-29.83175 31.03721,-29.83184 31.0372,-29.83192 31.03715,-29.83211 31.03712,-29.83232 31.03709,-29.8325 31.03705,-29.83266 31.03705,-29.83268 31.03705,-29.83269 31.03704,-29.83286 31.03701,-29.83301 31.03695,-29.83319 31.03691,-29.8334 31.03689,-29.83351 31.03688,-29.8337 31.03688,-29.83388 31.03686,-29.83408 31.03685,-29.83425 31.03682,-29.83447 31.03684,-29.83461 31.03685,-29.83476 31.03687,-29.83476 31.0369,-29.83477 31.03704,-29.83479 31.03718,-29.83497 31.0372,-29.83522 31.03721,-29.83537 31.03723,-29.83551 31.03723,-29.83567 31.03724,-29.83581 31.03724,-29.83598 31.03727,-29.83617 31.03729,-29.83637 31.03731,-29.83656 31.03732,-29.83678 31.03733,-29.83706 31.03735,-29.83729 31.03736,-29.83748 31.03736,-29.83764 31.03735,-29.83781 31.03736,-29.83802 31.03737,-29.83822 31.03738,-29.83841 31.03739,-29.83861 31.03739,-29.83885 31.03738,-29.83906 31.03737,-29.83921 31.0374,-29.8394 31.03743,-29.83952 31.03746,-29.83963 31.03749,-29.83988 31.0375,-29.83991 31.0375,-29.83994 31.03752,-29.84002 31.03757,-29.84026 31.03761,-29.84042 31.03763,-29.84056 31.03762,-29.84071 31.03762,-29.84087 31.03761,-29.84102 31.03761,-29.84121 31.03762,-29.84135 31.03766,-29.84148 31.03773,-29.84163 31.03779,-29.84177 31.03786,-29.84192 31.03788,-29.84209 31.03791,-29.84223 31.03794,-29.84239 31.03797,-29.84252 31.03798,-29.84266 31.03799,-29.84295 31.03803,-29.84345 31.03806,-29.84359 31.03807,-29.84364 31.03809,-29.84371 31.0381,-29.84375 31.03806,-29.84408 31.03824,-29.84449 31.03832,-29.84465 31.03841,-29.84492 31.0387,-29.84548 31.03887,-29.84642 31.03888,-29.8468 31.03884,-29.84739 31.03865,-29.84827 31.03874,-29.8484 31.03881,-29.84854 31.03885,-29.84867 31.03892,-29.8488 31.039,-29.84896 31.03906,-29.8491 31.03911,-29.84938 31.03914,-29.84952 31.03916,-29.84967 31.03924,-29.84995 31.03929,-29.8501 31.03933,-29.85024 31.03939,-29.85038 31.03945,-29.85059 31.03956,-29.85092 31.03959,-29.85107 31.03966,-29.85131 31.03977,-29.85155 31.03985,-29.8517 31.03989,-29.85188 31.03995,-29.85214 31.04003,-29.85226 31.04015,-29.85253 31.04022,-29.85267 31.04028,-29.85289 31.04037,-29.85312 31.04046,-29.85332 31.04054,-29.85358 31.04061,-29.85381 31.04065,-29.85397 31.0407,-29.85411 31.04073,-29.85428 31.04075,-29.85439 31.04077,-29.85449 31.04077,-29.8545 31.04082,-29.85471 31.04081,-29.85489 31.04095,-29.85514 31.04108,-29.85528 31.04114,-29.85534 31.04115,-29.85546 31.04115,-29.85549 31.04116,-29.8555 31.0412,-29.85552 31.04154,-29.85575 31.04166,-29.85587 31.04177,-29.85603 31.04178,-29.85606 31.04187,-29.85625 31.04196,-29.85643 31.0421,-29.85679 31.04213,-29.857 31.04209,-29.85714 31.04208,-29.8573 31.04222,-29.85748 31.04232,-29.85765 31.04242,-29.85779 31.0425,-29.85795 31.04259,-29.85807 31.04267,-29.85822 31.04277,-29.85845 31.04282,-29.85862 31.04289,-29.85887 31.04295,-29.85906 31.04296,-29.85909 31.04301,-29.85923 31.04302,-29.85928 31.04305,-29.85941 31.04311,-29.85958 31.04324,-29.85993 31.04337,-29.86017 31.04352,-29.86045 31.04367,-29.86068 31.0439,-29.86108 31.04403,-29.86122 31.04412,-29.8614 31.04422,-29.86162 31.0443,-29.86176 31.0444,-29.86193 31.04472,-29.86235 31.04487,-29.8626 31.04495,-29.86273 31.04513,-29.86292 31.04523,-29.86302 31.04545,-29.86326 31.04555,-29.86338 31.04562,-29.86352 31.04566,-29.86359 31.04569,-29.86365 31.04576,-29.86379 31.04578,-29.86383 31.04583,-29.86394 31.04588,-29.86409 31.0459,-29.86412 31.04591,-29.86415 31.04592,-29.86416 31.04598,-29.86424 31.04607,-29.8644 31.04617,-29.86456 31.04625,-29.86471 31.04634,-29.86485 31.04643,-29.86497 31.04652,-29.86511 31.04662,-29.86528 31.04669,-29.86541 31.04683,-29.86554 31.04696,-29.86566 31.04707,-29.86576 31.04721,-29.86589 31.04737,-29.86601 31.04752,-29.86613 31.04765,-29.86622 31.04776,-29.86633 31.04797,-29.86651 31.04809,-29.8666 31.04812,-29.86662 31.04823,-29.86671 31.04835,-29.86682 31.04859,-29.86698 31.04875,-29.86707 31.0489,-29.86718 31.04922,-29.86742 31.04943,-29.86749 31.04974,-29.86751 31.04995,-29.86755 31.0502,-29.86762 31.05044,-29.86772 31.05064,-29.86784 31.05067,-29.86786 31.05077,-29.868 31.05087,-29.86815 31.05103,-29.86825 31.05118,-29.86839 31.05129,-29.86851 31.05136,-29.86854 31.05143,-29.86856 31.05151,-29.86861 31.05164,-29.86868 31.05174,-29.86872 31.05182,-29.86876 31.05193,-29.86878 31.05199,-29.86878 31.05205,-29.86881 31.0521,-29.86886 31.05229,-29.86892 31.05234,-29.86895 31.05238,-29.86898 31.05245,-29.86902 31.0525,-29.86905 31.05254,-29.86908 31.05257,-29.86909 31.05262,-29.86911 31.0527,-29.86914 31.05278,-29.86919 31.05284,-29.8692 31.05295,-29.86923 31.05302,-29.86927 31.05306,-29.86931 31.05313,-29.86934 31.05321,-29.86937 31.05325,-29.86939 31.05335,-29.86944 31.05342,-29.86948 31.05345,-29.8695 31.05353,-29.86952 31.05368,-29.86953 31.05375,-29.86955 31.05387,-29.86961 31.05397,-29.86962 31.05405,-29.86961 31.05411,-29.86966 31.05415,-29.8697 31.05421,-29.86973 31.05429,-29.86978 31.0545,-29.86986 31.05455,-29.86987 31.05456,-29.86987 31.05466,-29.8699 31.05467,-29.8699 31.05479,-29.8699 31.05496,-29.86989 31.05499,-29.86988 31.05508,-29.86988 31.05515,-29.86995 31.05514,-29.86999 31.05514,-29.87002 31.05518,-29.87004 31.05523,-29.87005 31.05529,-29.87007 31.05533,-29.8701 31.05541,-29.87012 31.05544,-29.87012 31.05551,-29.87012 31.05566,-29.87004 31.05567,-29.87003 31.05576,-29.86989 31.05577,-29.86983 31.05578,-29.86977 31.05578,-29.86972 31.05581,-29.86967 31.05585,-29.86966 31.05594,-29.86966 31.05597,-29.86966 31.05602,-29.8697 31.05606,-29.86972 31.05611,-29.86972 31.05614,-29.86968 31.05614,-29.86963 31.05616,-29.86949 31.05621,-29.86936 31.05633,-29.86919 31.05647,-29.86906 31.05662,-29.86897 31.05688,-29.86887 31.05703,-29.86885 31.05899,-29.86647 31.05907,-29.86637 31.05913,-29.86641 31.06379,-29.86538 31.06384,-29.86536 31.06388,-29.86535 31.06391,-29.86535 31.06401,-29.86542 31.064,-29.86543 31.06377,-29.86562 31.06299,-29.86619 31.06286,-29.86628 31.0628,-29.86632 31.06249,-29.86656 31.062,-29.86698 31.0616,-29.86738 31.06093,-29.86815 31.06068,-29.86847 31.06046,-29.86877 31.06045,-29.86879 31.06045,-29.86879 31.06045,-29.86907 31.06046,-29.86913 31.06049,-29.8694 31.0605,-29.86949 31.0605,-29.86949 31.06051,-29.8699 31.06051,-29.86992 31.06048,-29.87021 31.06047,-29.87036 31.06043,-29.87083 31.06043,-29.87083 31.06044,-29.87091 31.06044,-29.87091 31.06044,-29.87091 31.06043,-29.87095 31.06041,-29.8711 31.06046,-29.87136 31.06048,-29.87146 31.06061,-29.87181 31.06066,-29.87192 31.06073,-29.87206 31.06081,-29.87225 31.06088,-29.87243 31.06097,-29.87267 31.06107,-29.87288 31.06108,-29.87291 31.06123,-29.87313 31.06129,-29.87317 31.06134,-29.8732 31.0615,-29.87324 31.06158,-29.87332 31.0616,-29.87341 31.06161,-29.87343 31.06155,-29.87348 31.06139,-29.87352 31.06123,-29.87353 31.06123,-29.87361 31.06123,-29.87361 31.06129,-29.87382 31.06146,-29.87408 31.06145,-29.8742 31.06144,-29.87429 31.0613,-29.87453 31.06128,-29.87481 31.06128,-29.87482 31.06131,-29.8751 31.06131,-29.87511 31.06131,-29.87541 31.06131,-29.87541 31.06132,-29.87548 31.06133,-29.87554 31.06136,-29.87569 31.06139,-29.87581 31.06141,-29.87586 31.06141,-29.87592 31.06142,-29.87598 31.06142,-29.87598 31.06132,-29.87617 31.06119,-29.87636 31.06102,-29.87657 31.0609,-29.87674 31.06081,-29.87691 31.06074,-29.87708 31.06069,-29.87721 31.0606,-29.87744 31.0606,-29.87744 31.0606,-29.87744 31.06049,-29.87766 31.06038,-29.87782 31.06029,-29.87797 31.06018,-29.87816 31.06009,-29.87832 31.05999,-29.87852 31.05991,-29.87867 31.05983,-29.87881 31.05975,-29.87897 31.05971,-29.87904 31.0597,-29.87906 31.05969,-29.87908 31.05969,-29.87933 31.05969,-29.87935 31.05968,-29.87942 31.05965,-29.87951 31.05954,-29.87959 31.05947,-29.87963 31.05942,-29.87967 31.05932,-29.87973 31.05928,-29.87978 31.05928,-29.87978 31.0592,-29.87985 31.0592,-29.87985 31.05918,-29.87987 31.0591,-29.87998 31.05899,-29.88008 31.05884,-29.88021 31.05863,-29.88034 31.05862,-29.88035 31.05861,-29.88035 31.05849,-29.88043 31.0583,-29.8806 31.05812,-29.88075 31.05798,-29.8809 31.05792,-29.88096 31.05781,-29.88111 31.05777,-29.88122 31.05775,-29.88128 31.05774,-29.88131 31.05771,-29.88135 31.05768,-29.88149 31.05762,-29.88161 31.05756,-29.88173 31.05743,-29.88192 31.05719,-29.88219 31.05717,-29.88221 31.057,-29.88246 31.05691,-29.88257 31.05683,-29.88268 31.05667,-29.88285 31.05648,-29.88306 31.05626,-29.8833 31.05604,-29.88355 31.05589,-29.88371 31.05576,-29.88386 31.05567,-29.88398 31.05557,-29.88408 31.05546,-29.88423 31.05537,-29.88436 31.05531,-29.88447 31.05509,-29.88493 31.05491,-29.88517 31.05469,-29.88539 31.05453,-29.88556 31.0545,-29.88559 31.0545,-29.88559 31.0544,-29.88572 31.0543,-29.88582 31.05429,-29.88583 31.0542,-29.88593 31.0541,-29.88605 31.05408,-29.88607 31.05395,-29.88623 31.05389,-29.88634 31.05385,-29.88644 31.05375,-29.88659 31.05367,-29.88668 31.05354,-29.88684 31.05342,-29.88699 31.05325,-29.88718 31.05308,-29.88734 31.0529,-29.88752 31.0528,-29.88759 31.05261,-29.88773 31.05246,-29.88786 31.05222,-29.88807 31.05196,-29.88831 31.05164,-29.88859 31.0515,-29.88872 31.05133,-29.88889 31.05124,-29.88899 31.05108,-29.88915 31.05093,-29.88933 31.05065,-29.88975 31.05046,-29.88996 31.05032,-29.89012 31.05021,-29.89027 31.05013,-29.89044 31.05005,-29.89058 31.04995,-29.89071 31.04986,-29.89084 31.04978,-29.89098 31.04967,-29.89113 31.04957,-29.89125 31.04946,-29.89139 31.04942,-29.89145 31.04938,-29.89152 31.04926,-29.89171 31.04912,-29.89187 31.04895,-29.89207 31.04879,-29.89226 31.04862,-29.89248 31.04846,-29.89264 31.04832,-29.89281 31.04819,-29.893 31.04805,-29.89317 31.04792,-29.89331 31.04787,-29.89339 31.04783,-29.89347 31.04776,-29.89358 31.04764,-29.89366 31.04746,-29.89385 31.04728,-29.89403 31.04711,-29.89421 31.04695,-29.89443 31.04679,-29.89461 31.04653,-29.89482 31.04635,-29.89501 31.046,-29.89536 31.04581,-29.8956 31.04564,-29.89577 31.04541,-29.89598 31.04525,-29.89619 31.04513,-29.89636 31.04493,-29.89654 31.04472,-29.89672 31.04457,-29.89686 31.04453,-29.8969 31.04432,-29.8971 31.04419,-29.89727 31.0441,-29.89738 31.04408,-29.89743 31.04407,-29.89746 31.04389,-29.89769 31.04375,-29.89785 31.04369,-29.8979 31.04363,-29.89797 31.04356,-29.89807 31.04342,-29.89822 31.04332,-29.89838 31.04321,-29.89853 31.0431,-29.89869 31.04294,-29.89884 31.04282,-29.89903 31.04271,-29.89919 31.0426,-29.89932 31.04249,-29.89943 31.04239,-29.89956 31.0423,-29.89969 31.04225,-29.89984 31.04219,-29.90001 31.04208,-29.90017 31.04197,-29.9003 31.04184,-29.90043 31.04178,-29.90052 31.04169,-29.90066 31.0416,-29.90077 31.04153,-29.90084 31.04145,-29.90095 31.04136,-29.90107 31.0413,-29.90119 31.04125,-29.9013 31.04119,-29.90141 31.04115,-29.90149 31.04115,-29.90152 31.04108,-29.90166 31.04101,-29.90184 31.0409,-29.90197 31.04084,-29.90216 31.04074,-29.90235 31.0407,-29.90243 31.04068,-29.90248 31.04067,-29.90252 31.04064,-29.90267 31.04059,-29.90283 31.04048,-29.90298 31.04036,-29.90315 31.04021,-29.90331 31.0401,-29.90351 31.03997,-29.90369 31.03973,-29.90392 31.03961,-29.90406 31.03944,-29.90425 31.0392,-29.90445 31.03904,-29.90463 31.03885,-29.9048 31.03858,-29.90505 31.03835,-29.90523 31.03811,-29.90553 31.03795,-29.90576 31.03783,-29.90594 31.03769,-29.90618 31.03751,-29.90637 31.03726,-29.90653 31.03709,-29.90664 31.03704,-29.90668 31.03689,-29.90692 31.03688,-29.90695 31.03681,-29.90711 31.0367,-29.90737 31.03647,-29.90763 31.03628,-29.90788 31.03607,-29.90813 31.0359,-29.90838 31.03583,-29.90853 31.03578,-29.90865 31.03555,-29.90886 31.03533,-29.90915 31.03479,-29.90967 31.03458,-29.90993 31.03428,-29.9102 31.03396,-29.91049 31.03369,-29.91074 31.03347,-29.91102 31.03306,-29.91143 31.03287,-29.91175 31.03281,-29.91181 31.03274,-29.91187 31.03259,-29.91201 31.03247,-29.91218 31.03231,-29.91239 31.03215,-29.91256 31.032,-29.91268 31.03184,-29.91286 31.0317,-29.91303 31.03164,-29.9131 31.0315,-29.91325 31.03136,-29.91338 31.03112,-29.91362 31.03089,-29.91381 31.03087,-29.91383 31.03063,-29.91405 31.03056,-29.91412 31.03041,-29.91425 31.0302,-29.91446 31.02999,-29.91472 31.02981,-29.9149 31.02956,-29.91511 31.02929,-29.9153 31.02894,-29.91555 31.02881,-29.9157 31.02875,-29.91576 31.02868,-29.91588 31.02859,-29.91595 31.02847,-29.91604 31.02839,-29.91612 31.02825,-29.91629 31.02814,-29.91646 31.02803,-29.91661 31.02784,-29.91673 31.02765,-29.91689 31.02747,-29.91703 31.02723,-29.91722 31.02703,-29.91736 31.02686,-29.9175 31.02672,-29.9176 31.02653,-29.91773 31.02638,-29.91787 31.02624,-29.918 31.02609,-29.91812 31.02593,-29.91827 31.0258,-29.91839 31.02566,-29.91853 31.0256,-29.9186 31.02556,-29.91864 31.02547,-29.91877 31.02536,-29.91888 31.02528,-29.91898 31.0252,-29.9191 31.02509,-29.91923 31.02497,-29.91932 31.02477,-29.91944 31.02466,-29.91952 31.02458,-29.91957 31.02422,-29.91975 31.02387,-29.91999 31.02361,-29.92025 31.02338,-29.92046 31.02324,-29.92057 31.02303,-29.92079 31.02268,-29.92107 31.02235,-29.9213 31.02211,-29.92153 31.02188,-29.92182 31.02157,-29.9221 31.02128,-29.92237 31.02112,-29.92261 31.02095,-29.92285 31.02078,-29.92311 31.02059,-29.92337 31.0203,-29.92368 31.02002,-29.92401 31.01985,-29.92421 31.01972,-29.92437 31.01944,-29.92465 31.01921,-29.92495 31.01919,-29.92499 31.01909,-29.92516 31.01894,-29.92531 31.01883,-29.92554 31.01866,-29.92573 31.01844,-29.92595 31.01823,-29.92615 31.01809,-29.92639 31.01794,-29.92663 31.01775,-29.92684 31.01754,-29.92706 31.01728,-29.92733 31.01727,-29.92734 31.01701,-29.9276 31.01675,-29.92787 31.0165,-29.92814 31.01635,-29.92839 31.0163,-29.92847 31.01628,-29.92851 31.01622,-29.92857 31.0162,-29.92862 31.01615,-29.92867 31.01611,-29.92873 31.01608,-29.92879 31.01604,-29.92884 31.01601,-29.92888 31.01596,-29.92893 31.01593,-29.92897 31.01589,-29.92901 31.01587,-29.92905 31.01581,-29.92911 31.01578,-29.92916 31.01574,-29.9292 31.01571,-29.92924 31.01567,-29.92927 31.01562,-29.92933 31.01557,-29.92936 31.01549,-29.92944 31.01544,-29.92948 31.01521,-29.92963 31.01504,-29.92983 31.01497,-29.92991 31.0148,-29.93016 31.01459,-29.93039 31.0144,-29.93058 31.01427,-29.93084 31.01406,-29.93118 31.01395,-29.9315 31.01383,-29.93182 31.01372,-29.93213 31.01381,-29.9324 31.01368,-29.93278 31.01354,-29.93304 31.01351,-29.9331 31.01338,-29.93344 31.01304,-29.93368 31.01297,-29.93372 31.01256,-29.93399 31.0125,-29.93401 31.01223,-29.93425 31.01183,-29.93446 31.01148,-29.93465 31.01114,-29.93492 31.01081,-29.93517 31.01053,-29.93539 31.01028,-29.93565 31.01006,-29.93596 31.00976,-29.93628 31.00951,-29.93666 31.00926,-29.93708 31.00896,-29.93746 31.00874,-29.93779 31.00873,-29.9378 31.00851,-29.93815 31.00819,-29.9385 31.00802,-29.93875 31.00799,-29.93877 31.00791,-29.93887 31.00786,-29.93893 31.00765,-29.93909 31.00755,-29.93927 31.00746,-29.93945 31.00723,-29.93966 31.00707,-29.93987 31.00687,-29.94004 31.00663,-29.94029 31.00643,-29.9405 31.00614,-29.94076 31.00588,-29.94102 31.00567,-29.94122 31.00539,-29.94143 31.00508,-29.94168 31.00472,-29.94196 31.00445,-29.94219 31.00414,-29.9424 31.00385,-29.94261 31.00358,-29.94279 31.00334,-29.94301 31.0033,-29.94305 31.00313,-29.94319 31.00306,-29.94325 31.00297,-29.94333 31.00286,-29.94341 31.0028,-29.94346 31.00273,-29.94352 31.00268,-29.94357 31.00262,-29.94362 31.00252,-29.94376 31.0024,-29.9439 31.00235,-29.94397 31.00232,-29.94401 31.0023,-29.94404 31.00225,-29.94412 31.00219,-29.9442 31.00212,-29.94429 31.00207,-29.94436 31.00202,-29.94442 31.00195,-29.94452 31.00187,-29.94461 31.00182,-29.94469 31.00176,-29.94474 31.00173,-29.94477 31.00175,-29.94484 31.00174,-29.94488 31.00171,-29.9449 31.00167,-29.94493 31.00165,-29.94495 31.00163,-29.94499 31.0016,-29.94503 31.00158,-29.94505 31.00156,-29.94509 31.00151,-29.94513 31.00142,-29.94519 31.0014,-29.94522 31.00133,-29.94526 31.00131,-29.94528 31.00127,-29.94529 31.00125,-29.94531 31.00121,-29.94532 31.0011,-29.94543 31.00106,-29.94545 31.00104,-29.94548 31.00099,-29.94553 31.00095,-29.94561 31.00092,-29.94564 31.00083,-29.94567 31.0008,-29.94571 31.00074,-29.94576 31.00071,-29.94581 31.00065,-29.94585 31.00061,-29.9459 31.00056,-29.94594 31.00043,-29.94607 31.0004,-29.94612 31.00038,-29.94614 31.00035,-29.94614 31.00033,-29.94616 31.00031,-29.94619 31.0003,-29.9462 31.00023,-29.94624 31.00022,-29.94624 31.00019,-29.94625 31.00015,-29.94627 31.00012,-29.94631 31.00009,-29.94633 31,-29.94642 30.9999,-29.94649 30.99988,-29.94651 30.99986,-29.94655 30.99983,-29.94658 30.99979,-29.94661 30.99976,-29.94664 30.99971,-29.94666 30.99968,-29.9467 30.99955,-29.94679 30.9995,-29.94683 30.99947,-29.94684 30.99939,-29.94689 30.99936,-29.94693 30.99931,-29.94698 30.99929,-29.94705 30.99924,-29.94713 30.99918,-29.94718 30.99915,-29.94719 30.9991,-29.94721 30.99904,-29.94726 30.99901,-29.94728 30.99886,-29.94743 30.99876,-29.94756 30.99872,-29.94758 30.99869,-29.9476 30.99865,-29.94763 30.99856,-29.9477 30.99851,-29.94775 30.99842,-29.94785 30.99835,-29.94794 30.99828,-29.94801 30.99824,-29.94804 30.99819,-29.94808 30.99815,-29.94813 30.99807,-29.94817 30.9979,-29.94834 30.99784,-29.94839 30.99777,-29.94844 30.99772,-29.94849 30.99767,-29.94853 30.99764,-29.94857 30.99746,-29.9487 30.99741,-29.94875 30.99734,-29.94878 30.9973,-29.94883 30.99727,-29.94889 30.99721,-29.94896 30.99714,-29.94903 30.99709,-29.94907 30.99706,-29.94911 30.99704,-29.94917 30.99697,-29.94927 30.99687,-29.9494 30.99672,-29.9496 30.9967,-29.94965 30.99664,-29.94974 30.9966,-29.94982 30.99653,-29.94991 30.99643,-29.94998 30.99636,-29.95002 30.99633,-29.95004 30.99629,-29.9501 30.99626,-29.95013 30.99624,-29.95016 30.99621,-29.95023 30.99618,-29.95027 30.99614,-29.95029 30.99609,-29.95032 30.99605,-29.95039 30.99601,-29.95045 30.99591,-29.95055 30.99588,-29.95061 30.99585,-29.95064 30.99583,-29.95067 30.99571,-29.95073 30.99569,-29.95075 30.99566,-29.95079 30.99565,-29.95083 30.99563,-29.95087 30.99561,-29.95091 30.9956,-29.95097 30.99558,-29.95101 30.99556,-29.95107 30.99553,-29.95111 30.9955,-29.95112 30.99547,-29.95114 30.99543,-29.95118 30.99537,-29.95122 30.99535,-29.95124 30.99526,-29.95135 30.99523,-29.95138 30.99519,-29.95142 30.99515,-29.95145 30.99512,-29.95149 30.99505,-29.95155 30.99496,-29.95166 30.9949,-29.95176 30.99489,-29.9518 30.99486,-29.95185 30.9948,-29.9519 30.9947,-29.952 30.99465,-29.95204 30.99461,-29.95209 30.99456,-29.95215 30.99444,-29.95231 30.99422,-29.95255 30.99418,-29.9526 30.99411,-29.95266 30.99407,-29.95269 30.99399,-29.95274 30.99391,-29.95284 30.99382,-29.9529 30.99378,-29.95294 30.99371,-29.95304 30.99367,-29.95308 30.99362,-29.95311 30.99357,-29.95317 30.99339,-29.95328 30.99334,-29.95334 30.99329,-29.95339 30.99325,-29.95344 30.99317,-29.95349 30.99298,-29.95367 30.99292,-29.95371 30.99277,-29.95392 30.99271,-29.95398 30.99269,-29.95401 30.99263,-29.95405 30.99259,-29.95409 30.99256,-29.95413 30.99253,-29.95415 30.99248,-29.95425 30.99244,-29.95427 30.99241,-29.95429 30.99234,-29.95434 30.99224,-29.95438 30.99208,-29.95454 30.99204,-29.95457 30.99202,-29.9546 30.99195,-29.95465 30.9919,-29.95469 30.99182,-29.95478 30.99178,-29.95487 30.99176,-29.95497 30.9917,-29.95503 30.99168,-29.95507 30.99163,-29.95507 30.9916,-29.95508 30.99157,-29.95507 30.99152,-29.95509 30.9915,-29.95511 30.99146,-29.95513 30.99144,-29.95516 30.99133,-29.95526 30.99127,-29.95533 30.99126,-29.95533 30.99099,-29.95557 30.99089,-29.95582 30.99088,-29.95603 30.99056,-29.95615 30.99038,-29.9563 30.99017,-29.95658 30.98998,-29.95679 30.9899,-29.95688 30.98965,-29.95717 30.98949,-29.95745 30.98931,-29.95779 30.98909,-29.95801 30.98876,-29.9582 30.98858,-29.95838 30.98848,-29.95863 30.98844,-29.95882 30.98858,-29.95901 30.98875,-29.95912 30.98889,-29.95904 30.98883,-29.95919 30.98882,-29.95928 30.98873,-29.95935 30.98875,-29.95941 30.98864,-29.95946 30.9886,-29.95956 30.98842,-29.95973 30.98818,-29.95982 30.98824,-29.95966 30.98819,-29.95947 30.988,-29.95958 30.98787,-29.95976 30.98782,-29.95997 30.98778,-29.96016 30.98751,-29.96032 30.98718,-29.96053 30.98704,-29.96069 30.98695,-29.96079 30.98673,-29.96102 30.98667,-29.96105 30.98664,-29.96107 30.9864,-29.96122 30.98608,-29.96148 30.98581,-29.96171 30.98546,-29.962 30.98515,-29.96229 30.98481,-29.96261 30.9845,-29.96289 30.98415,-29.96322 30.98396,-29.96351 30.9837,-29.96377 30.98342,-29.96397 30.98321,-29.96417 30.98316,-29.96423 30.98308,-29.96429 30.98291,-29.96448 30.98274,-29.9648 30.98256,-29.96514 30.98227,-29.96531 30.98195,-29.96557 30.98189,-29.96562 30.98181,-29.96571 30.98173,-29.96582 30.98164,-29.96595 30.98157,-29.96612 30.98146,-29.96628 30.98124,-29.96662 30.98114,-29.96675 30.981,-29.96689 30.98086,-29.96707 30.98079,-29.96715 30.9806,-29.96739 30.98045,-29.96754 30.98033,-29.96765 30.98026,-29.96771 30.98017,-29.96777 30.98005,-29.96786 30.98002,-29.96794 30.97995,-29.96804 30.97989,-29.96811 30.97983,-29.9682 30.97978,-29.96826 30.97971,-29.96832 30.97964,-29.96837 30.97958,-29.96841 30.97951,-29.96845 30.97946,-29.96847 30.97934,-29.96858 30.97916,-29.96875 30.97902,-29.96893 30.97897,-29.969 30.97892,-29.96904 30.97885,-29.96912 30.9788,-29.96916 30.97874,-29.96923 30.97867,-29.9693 30.97866,-29.96931 30.97852,-29.96949 30.97843,-29.96959 30.97839,-29.96964 30.97834,-29.96972 30.97828,-29.96979 30.9782,-29.96988 30.97808,-29.97008 30.97768,-29.97048 30.97743,-29.97071 30.97576,-29.9727 30.9751,-29.97331 30.97308,-29.9759 30.97266,-29.97659 30.97157,-29.97785 30.97121,-29.97853 30.96898,-29.98094 30.96897,-29.981 30.96902,-29.98111 30.96906,-29.98115 30.96904,-29.98123 30.96901,-29.98128 30.96897,-29.98134 30.96892,-29.98136 30.96889,-29.98136 30.96885,-29.98131 30.9688,-29.98129 30.96867,-29.98129 30.96859,-29.9813 30.96852,-29.98133 30.96849,-29.98138 30.96846,-29.98148 30.96849,-29.98158 30.96853,-29.98164 30.96861,-29.98169 30.96863,-29.98172 30.96863,-29.98183 30.96857,-29.98212 30.96852,-29.98233 30.96838,-29.98244 30.96823,-29.98253 30.96798,-29.98267 30.96776,-29.98269 30.96776,-29.98254 30.96774,-29.98252 30.96771,-29.98251 30.96769,-29.98253 30.96767,-29.98257 30.9675,-29.98274 30.96754,-29.98282 30.96761,-29.98288 30.96764,-29.9829 30.96764,-29.983 30.96757,-29.98326 30.96741,-29.98342 30.96738,-29.98346 30.96732,-29.98346 30.96726,-29.98344 30.96721,-29.9834 30.96717,-29.98337 30.96712,-29.98336 30.96706,-29.98337 30.96699,-29.98339 30.96694,-29.98341 30.96667,-29.98358 30.9665,-29.9837 30.96649,-29.98377 30.96647,-29.98384 30.96644,-29.98387 30.96641,-29.98389 30.96637,-29.98391 30.96632,-29.98392 30.96629,-29.98392 30.96629,-29.9841 30.96605,-29.9843 30.96582,-29.98448 30.96572,-29.9845 30.96589,-29.98437 30.9659,-29.98434 30.96587,-29.98433 30.96584,-29.98434 30.96582,-29.98438 30.96573,-29.98442 30.96563,-29.98444 30.96536,-29.98462 30.96509,-29.98474 30.96489,-29.985 30.96465,-29.98562 30.96455,-29.9858 30.96432,-29.98596 30.96427,-29.98609 30.96416,-29.9863 30.96408,-29.98644 30.96397,-29.98655 30.96377,-29.98672 30.96357,-29.98683 30.96348,-29.98686 30.96331,-29.98692 30.96289,-29.98699 30.96272,-29.98706 30.96253,-29.98704 30.96244,-29.98701 30.96126,-29.98755 30.96062,-29.98799 30.96014,-29.98828 30.95983,-29.98858 30.95918,-29.98892 30.95859,-29.98924 30.95786,-29.98973 30.95634,-29.99097 30.95579,-29.99136 30.95511,-29.99185 30.95452,-29.99232 30.95359,-29.99305 30.9521,-29.99437 30.95185,-29.99464 30.95167,-29.99492 30.95146,-29.99513 30.95138,-29.99531 30.95137,-29.9954 30.95137,-29.99542 30.95145,-29.99542 30.95145,-29.99557 30.95153,-29.9956 30.95157,-29.99555 30.95161,-29.99549 30.95167,-29.99546 30.95169,-29.99556 30.95162,-29.99577 30.95154,-29.99584 30.95154,-29.996 30.95147,-29.99636 30.95143,-29.99645 30.95116,-29.99697 30.95087,-29.99736 30.95084,-29.9974 30.95067,-29.99757 30.9505,-29.99771 30.95036,-29.99785 30.95022,-29.99795 30.95004,-29.99809 30.94972,-29.99829 30.94961,-29.99842 30.94943,-29.99866 30.94932,-29.9989 30.94925,-29.99903 30.9491,-29.99922 30.94894,-29.99939 30.94875,-29.99954 30.94862,-29.99965 30.94851,-29.99974 30.94836,-29.99988 30.94806,-30.00002 30.94783,-30.00009 30.94763,-30.00014 30.94754,-30.00029 30.94737,-30.00056 30.94724,-30.00074 30.9471,-30.00089 30.94695,-30.00106 30.94681,-30.00121 30.94668,-30.00135 30.94656,-30.00149 30.94642,-30.00162 30.94628,-30.00176 30.94615,-30.00188 30.94603,-30.00202 30.94588,-30.0022 30.94572,-30.00239 30.94556,-30.00257 30.94542,-30.00273 30.94522,-30.00295 30.94511,-30.00307 30.94489,-30.00333 30.94474,-30.0035 30.94461,-30.00363 30.94448,-30.00374 30.94434,-30.00386 30.94418,-30.00401 30.94407,-30.00411 30.94393,-30.00427 30.94384,-30.00437 30.94373,-30.00451 30.94359,-30.00469 30.9435,-30.00486 30.94339,-30.00503 30.94329,-30.00521 30.94315,-30.00537 30.9428,-30.00557 30.94263,-30.00561 30.94237,-30.0057 30.94211,-30.0058 30.94188,-30.00591 30.94163,-30.00603 30.94138,-30.00616 30.94111,-30.00634 30.94085,-30.00652 30.94055,-30.00668 30.94037,-30.00679 30.94022,-30.00694 30.93998,-30.00716 30.93977,-30.00736 30.93962,-30.00748 30.9394,-30.00765 30.93917,-30.00785 30.939,-30.00799 30.93888,-30.00812 30.93867,-30.00832 30.93846,-30.00851 30.9383,-30.00863 30.93814,-30.00877 30.93793,-30.00893 30.93747,-30.00932 30.93724,-30.00952 30.93709,-30.00966 30.93707,-30.00968 30.93688,-30.00986 30.93674,-30.01001 30.93656,-30.01021 30.9364,-30.01039 30.93624,-30.01055 30.9361,-30.01073 30.93595,-30.01093 30.9357,-30.01109 30.93548,-30.01124 30.93525,-30.0114 30.9351,-30.01148 30.93468,-30.01186 30.93448,-30.01203 30.93425,-30.01217 30.93403,-30.01232 30.93386,-30.01241 30.93369,-30.01244 30.93365,-30.01245 30.93351,-30.01256 30.93337,-30.01264 30.93321,-30.01273 30.93271,-30.01278 30.93252,-30.01284 30.93232,-30.01291 30.93189,-30.01316 30.93164,-30.01337 30.9313,-30.01364 30.93101,-30.01389 30.93074,-30.01414 30.93039,-30.01443 30.93013,-30.01467 30.92983,-30.0149 30.92956,-30.01509 30.92928,-30.01533 30.92898,-30.01558 30.92863,-30.01583 30.92847,-30.01593 30.92843,-30.016 30.9284,-30.01604 30.92837,-30.01607 30.92832,-30.01611 30.92827,-30.01613 30.92819,-30.01619 30.92816,-30.01622 30.92812,-30.01624 30.9281,-30.01627 30.92807,-30.0163 30.92801,-30.01634 30.92789,-30.01647 30.92786,-30.0165 30.92782,-30.01653 30.92779,-30.01658 30.92775,-30.01663 30.92772,-30.01669 30.92768,-30.01671 30.92756,-30.0168 30.92754,-30.01682 30.92751,-30.01685 30.92749,-30.01688 30.92746,-30.0169 30.92744,-30.01692 30.92738,-30.01697 30.92735,-30.01698 30.92732,-30.017 30.92729,-30.017 30.92726,-30.01702 30.92722,-30.01703 30.9272,-30.01707 30.92719,-30.01712 30.92716,-30.01716 30.92713,-30.01718 30.92709,-30.01721 30.92702,-30.01726 30.92699,-30.01729 30.92696,-30.0173 30.92692,-30.01734 30.92689,-30.01736 30.92686,-30.01739 30.92681,-30.01741 30.92678,-30.01744 30.92672,-30.01747 30.92669,-30.01747 30.92666,-30.01748 30.92659,-30.01751 30.92656,-30.01753 30.9265,-30.01756 30.92642,-30.01759 30.92641,-30.01764 30.92638,-30.0177 30.92633,-30.01773 30.92631,-30.01776 30.92629,-30.01779 30.92626,-30.01781 30.92621,-30.01784 30.92619,-30.01787 30.92613,-30.01789 30.92611,-30.01791 30.92607,-30.01792 30.92599,-30.01796 30.92596,-30.01798 30.92593,-30.01801 30.9259,-30.01804 30.92587,-30.01805 30.92584,-30.01805 30.92579,-30.01809 30.92577,-30.01813 30.92575,-30.01817 30.92571,-30.01819 30.92568,-30.01821 30.92559,-30.01824 30.9255,-30.01829 30.92546,-30.0183 30.92543,-30.01832 30.92539,-30.01834 30.92533,-30.01839 30.92531,-30.01843 30.92527,-30.01848 30.92529,-30.01853 30.92526,-30.01855 30.92518,-30.01859 30.92514,-30.0186 30.92509,-30.01864 30.92505,-30.01867 30.92503,-30.0187 30.92499,-30.01874 30.92494,-30.01878 30.92492,-30.0188 30.92491,-30.01883 30.92489,-30.01885 30.92487,-30.01889 30.92482,-30.01894 30.92474,-30.01905 30.92472,-30.01907 30.92467,-30.01908 30.92462,-30.0191 30.92458,-30.01913 30.92454,-30.01916 30.92451,-30.01918 30.92449,-30.0192 30.92447,-30.01923 30.92446,-30.01927 30.92445,-30.0193 30.92443,-30.01932 30.92441,-30.01935 30.92436,-30.01937 30.92427,-30.01937 30.92425,-30.01939 30.92423,-30.01944 30.92421,-30.01946 30.92418,-30.01947 30.92414,-30.01949 30.92407,-30.01951 30.92403,-30.01953 30.92399,-30.01958 30.92397,-30.01961 30.92395,-30.01966 30.92394,-30.0197 30.92395,-30.01973 30.92395,-30.01976 30.92393,-30.01978 30.92391,-30.0198 30.92388,-30.01982 30.92385,-30.01983 30.92381,-30.01983 30.92374,-30.01984 30.9237,-30.01987 30.92366,-30.01991 30.92363,-30.01992 30.92361,-30.01998 30.9236,-30.02 30.92357,-30.02003 30.92355,-30.02005 30.92352,-30.02008 30.92349,-30.0201 30.92347,-30.02014 30.92343,-30.02015 30.9234,-30.02013 30.92337,-30.02015 30.92334,-30.02017 30.92331,-30.0202 30.9232,-30.02031 30.92313,-30.02034 30.92308,-30.02036 30.92301,-30.02036 30.92299,-30.02039 30.923,-30.02042 30.92299,-30.02046 30.92298,-30.02049 30.9229,-30.02057 30.92287,-30.02058 30.92281,-30.02063 30.92277,-30.02065 30.92274,-30.02066 30.92269,-30.02071 30.92266,-30.02073 30.92257,-30.02077 30.92253,-30.0208 30.92244,-30.02088 30.92234,-30.02095 30.92231,-30.02099 30.9223,-30.02103 30.92225,-30.0211 30.92224,-30.02115 30.92224,-30.02119 30.92221,-30.02121 30.92218,-30.02124 30.92213,-30.02126 30.92211,-30.02128 30.92207,-30.02131 30.92204,-30.02134 30.92197,-30.02136 30.92195,-30.02139 30.92192,-30.02143 30.92189,-30.02144 30.92187,-30.02146 30.92185,-30.0215 30.92185,-30.02156 30.92183,-30.02159 30.92179,-30.02161 30.92176,-30.02164 30.92173,-30.02167 30.92165,-30.02167 30.92159,-30.02168 30.92158,-30.02171 30.92154,-30.02175 30.92148,-30.02179 30.92145,-30.02182 30.92143,-30.02186 30.92142,-30.02191 30.92137,-30.02196 30.92135,-30.022 30.92134,-30.02202 30.92134,-30.02206 30.92126,-30.02207 30.92123,-30.02209 30.92122,-30.02213 30.92119,-30.02214 30.92115,-30.02216 30.92112,-30.02221 30.92107,-30.02222 30.92103,-30.02223 30.92098,-30.02225 30.92096,-30.02227 30.92093,-30.02229 30.92094,-30.02234 30.92093,-30.02237 30.92089,-30.02238 30.92086,-30.02242 30.92086,-30.02245 30.92081,-30.02248 30.92078,-30.0225 30.92077,-30.02253 30.92076,-30.02256 30.92073,-30.02259 30.9207,-30.02263 30.92067,-30.02266 30.92064,-30.02267 30.92062,-30.02269 30.92059,-30.0227 30.92057,-30.02272 30.92051,-30.02276 30.92044,-30.02283 30.9204,-30.02285 30.92039,-30.02288 30.92037,-30.02291 30.92036,-30.02294 30.92035,-30.02296 30.9203,-30.02297 30.92024,-30.02303 30.9202,-30.02306 30.92019,-30.02312 30.92014,-30.02314 30.92011,-30.02317 30.92011,-30.0232 30.92008,-30.02323 30.92006,-30.02328 30.92005,-30.02331 30.92003,-30.02333 30.91997,-30.0234 30.91991,-30.02344 30.91986,-30.02349 30.91982,-30.02352 30.9198,-30.02356 30.91976,-30.02356 30.91972,-30.02358 30.91966,-30.02362 30.91964,-30.02366 30.91959,-30.02368 30.91954,-30.02369 30.91951,-30.0237 30.91947,-30.02372 30.91944,-30.02374 30.9194,-30.02375 30.91937,-30.02376 30.91926,-30.02376 30.91917,-30.0238 30.91914,-30.0238 30.91908,-30.02382 30.91905,-30.02385 30.91903,-30.02387 30.91901,-30.02389 30.91898,-30.02394 30.91894,-30.02396 30.9189,-30.02397 30.91888,-30.02399 30.91888,-30.02402 30.91886,-30.02404 30.91882,-30.02407 30.91879,-30.02408 30.91879,-30.02411 30.91877,-30.02415 30.9187,-30.02418 30.91867,-30.0242 30.91864,-30.02423 30.91861,-30.02424 30.91861,-30.02427 30.91859,-30.0243 30.91858,-30.02435 30.91855,-30.02436 30.91852,-30.02439 30.91849,-30.02439 30.91842,-30.02443 30.91843,-30.02447 30.91845,-30.02449 30.91843,-30.02452 30.91839,-30.02452 30.91837,-30.02453 30.91834,-30.02455 30.91828,-30.02456 30.91825,-30.02458 30.91824,-30.02461 30.91821,-30.02464 30.91818,-30.02467 30.91815,-30.02469 30.9181,-30.02473 30.91807,-30.02474 30.91803,-30.02478 30.918,-30.0248 30.91791,-30.02483 30.91788,-30.02484 30.91785,-30.02486 30.91783,-30.02491 30.91783,-30.02495 30.91776,-30.02496 30.91777,-30.02493 30.91777,-30.02489 30.91776,-30.02486 30.91774,-30.02483 30.91772,-30.02481 30.91767,-30.02481 30.91765,-30.02483 30.91765,-30.02486 30.91763,-30.02489 30.91762,-30.02494 30.9176,-30.02498 30.9176,-30.02502 30.91758,-30.02506 30.91758,-30.02509 30.91755,-30.02512 30.91751,-30.02514 30.91748,-30.02515 30.91746,-30.02517 30.91741,-30.0252 30.91735,-30.02526 30.91729,-30.02538 30.91717,-30.02546 30.91714,-30.02547 30.91709,-30.02551 30.91703,-30.02557 30.917,-30.02563 30.91698,-30.02565 30.91693,-30.02568 30.9169,-30.02571 30.91687,-30.02579 30.91685,-30.02581 30.91682,-30.02584 30.91678,-30.02585 30.91677,-30.02589 30.91674,-30.02591 30.91672,-30.02593 30.91668,-30.02595 30.91664,-30.02596 30.91662,-30.02599 30.91661,-30.02602 30.91655,-30.02607 30.9165,-30.0261 30.91647,-30.02612 30.91645,-30.02615 30.9164,-30.02621 30.91637,-30.02625 30.91635,-30.02628 30.91632,-30.02632 30.9163,-30.02634 30.91624,-30.02636 30.91621,-30.02639 30.91617,-30.0264 30.91613,-30.02642 30.91608,-30.02649 30.91604,-30.02653 30.91597,-30.02659 30.91592,-30.02662 30.91591,-30.02666 30.9159,-30.02669 30.91586,-30.02673 30.91583,-30.02675 30.9158,-30.02678 30.91577,-30.02681 30.91572,-30.02687 30.91569,-30.02689 30.91563,-30.0269 30.91561,-30.02694 30.91557,-30.02698 30.91555,-30.027 30.91554,-30.02703 30.91551,-30.02704 30.91548,-30.0271 30.91545,-30.02712 30.91543,-30.02715 30.91542,-30.02719 30.91537,-30.02722 30.91532,-30.02726 30.91528,-30.02728 30.91525,-30.02732 30.91522,-30.02734 30.91519,-30.02736 30.91516,-30.02742 30.91512,-30.02743 30.91509,-30.02744 30.91509,-30.02747 30.91505,-30.02751 30.91502,-30.02754 30.91497,-30.02758 30.91492,-30.02764 30.9149,-30.02766 30.91486,-30.02767 30.91483,-30.02768 30.91482,-30.02771 30.91479,-30.02773 30.91475,-30.02777 30.91472,-30.02778 30.91468,-30.02781 30.91462,-30.02785 30.91458,-30.02788 30.91455,-30.0279 30.9145,-30.02793 30.91446,-30.02798 30.91443,-30.02802 30.91438,-30.02804 30.91435,-30.02805 30.91431,-30.02807 30.9143,-30.02813 30.91425,-30.02813 30.91424,-30.02817 30.91419,-30.02822 30.91416,-30.02826 30.91412,-30.02829 30.9141,-30.02831 30.91401,-30.02841 30.91397,-30.02843 30.91376,-30.02864 30.91367,-30.02872 30.91362,-30.02877 30.91356,-30.02885 30.91343,-30.02896 30.9134,-30.02899 30.91337,-30.02903 30.91336,-30.02908 30.91328,-30.02912 30.91321,-30.02916 30.91317,-30.02917 30.9131,-30.02924 30.91306,-30.02926 30.91299,-30.02931 30.91298,-30.02939 30.91295,-30.02943 30.9129,-30.02947 30.91285,-30.02949 30.91281,-30.02952 30.91277,-30.02953 30.91274,-30.02957 30.91263,-30.02966 30.91244,-30.02978 30.91232,-30.02986 30.91224,-30.02994 30.91221,-30.02999 30.91218,-30.03004 30.91216,-30.03007 30.91214,-30.03009 30.91212,-30.03013 30.9121,-30.03015 30.91205,-30.03019 30.91202,-30.0302 30.91195,-30.03024 30.91193,-30.03027 30.9119,-30.0303 30.91189,-30.03032 30.91187,-30.03036 30.91186,-30.0304 30.91181,-30.03042 30.91178,-30.03046 30.91177,-30.0305 30.91173,-30.03053 30.9117,-30.03056 30.91166,-30.03059 30.91159,-30.03062 30.91157,-30.03064 30.91153,-30.03065 30.91149,-30.03067 30.91145,-30.03068 30.91141,-30.03072 30.9114,-30.03075 30.91137,-30.03079 30.91133,-30.03082 30.9113,-30.03085 30.91128,-30.03086 30.91122,-30.0309 30.91118,-30.03092 30.91116,-30.03094 30.91113,-30.03095 30.91106,-30.03097 30.91104,-30.03099 30.91101,-30.03102 30.91101,-30.03109 30.91096,-30.03112 30.91089,-30.03116 30.91085,-30.03117 30.91081,-30.0312 30.91078,-30.03124 30.91077,-30.03127 30.91076,-30.0313 30.91075,-30.03132 30.91073,-30.03135 30.9107,-30.0314 30.91066,-30.03148 30.91065,-30.03151 30.91058,-30.03159 30.91056,-30.03163 30.91053,-30.03167 30.9105,-30.0317 30.91045,-30.03176 30.91042,-30.03177 30.91039,-30.03179 30.91031,-30.03184 30.91026,-30.03185 30.91023,-30.03186 30.91019,-30.03188 30.91019,-30.0319 30.91017,-30.03192 30.91012,-30.03195 30.91009,-30.03197 30.91007,-30.032 30.91002,-30.03205 30.90997,-30.03211 30.90993,-30.03214 30.90989,-30.03216 30.90986,-30.03218 30.90981,-30.03222 30.90978,-30.03225 30.90973,-30.03227 30.9097,-30.0323 30.90965,-30.03234 30.90963,-30.03237 30.9096,-30.03239 30.90957,-30.03242 30.90954,-30.03244 30.90949,-30.03248 30.90947,-30.0325 30.90943,-30.03251 30.9094,-30.03253 30.90935,-30.03255 30.90928,-30.03262 30.90924,-30.03264 30.90919,-30.03269 30.90913,-30.03276 30.9091,-30.03277 30.90904,-30.03279 30.90902,-30.03281 30.90898,-30.03284 30.9089,-30.03284 30.90885,-30.03285 30.90883,-30.03288 30.9088,-30.03289 30.90878,-30.03292 30.90875,-30.03295 30.90872,-30.03299 30.90871,-30.03302 30.90871,-30.03306 30.90865,-30.03313 30.90861,-30.03315 30.9086,-30.03318 30.90863,-30.03321 30.90863,-30.03325 30.90862,-30.03328 30.90858,-30.03331 30.90854,-30.03335 30.9085,-30.03338 30.90846,-30.03341 30.90841,-30.03341 30.90838,-30.03342 30.90835,-30.03345 30.90833,-30.03345 30.9083,-30.03349 30.90822,-30.03354 30.90819,-30.03355 30.90816,-30.03358 30.90816,-30.03363 30.90812,-30.03366 30.9081,-30.03367 30.90809,-30.03371 30.90807,-30.03373 30.90806,-30.03376 30.90801,-30.03381 30.90799,-30.03383 30.90794,-30.03387 30.90791,-30.0339 30.90786,-30.03392 30.90777,-30.03392 30.90775,-30.03394 30.90774,-30.03397 30.90767,-30.03404 30.90763,-30.03406 30.90761,-30.03406 30.90756,-30.03409 30.90753,-30.03414 30.9075,-30.03416 30.90748,-30.03418 30.90746,-30.03419 30.90743,-30.0342 30.90742,-30.03423 30.90742,-30.03426 30.90744,-30.03429 30.90742,-30.03432 30.90739,-30.03433 30.90735,-30.03435 30.90732,-30.03434 30.90729,-30.03436 30.90728,-30.0344 30.90726,-30.03445 30.90722,-30.0345 30.90719,-30.03452 30.90713,-30.03458 30.9071,-30.0346 30.90707,-30.03461 30.90701,-30.03468 30.90697,-30.03469 30.90693,-30.03471 30.9069,-30.03472 30.90688,-30.03475 30.90686,-30.0348 30.90683,-30.03483 30.90681,-30.03484 30.90678,-30.03485 30.90676,-30.03487 30.90672,-30.03489 30.90669,-30.03493 30.90666,-30.03494 30.90664,-30.03496 30.90663,-30.03499 30.90661,-30.03502 30.90657,-30.03502 30.90652,-30.03504 30.90649,-30.03506 30.90643,-30.03508 30.90641,-30.0351 30.90635,-30.03514 30.90632,-30.0352 30.90632,-30.03524 30.90631,-30.03528 30.90626,-30.03535 30.90623,-30.03538 30.9062,-30.03539 30.90618,-30.03541 30.90611,-30.03546 30.90609,-30.03546 30.90607,-30.03548 30.90604,-30.03549 30.90597,-30.03556 30.90593,-30.03559 30.90582,-30.03566 30.90574,-30.03571 30.90572,-30.03573 30.90569,-30.03575 30.90564,-30.03578 30.90555,-30.03585 30.90553,-30.03587 30.90549,-30.03589 30.90543,-30.03593 30.9054,-30.03595 30.90537,-30.03598 30.90534,-30.03603 30.90531,-30.03607 30.90527,-30.03607 30.90524,-30.03609 30.90521,-30.03612 30.90512,-30.0362 30.90507,-30.03623 30.90504,-30.03625 30.90502,-30.03627 30.90498,-30.0363 30.90492,-30.03633 30.90489,-30.03637 30.90483,-30.03643 30.9048,-30.03647 30.90477,-30.03651 30.90471,-30.03657 30.90468,-30.03658 30.90465,-30.03661 30.90463,-30.03663 30.90461,-30.03666 30.90458,-30.03669 30.90452,-30.03675 30.90446,-30.03679 30.90442,-30.03681 30.9044,-30.03683 30.90438,-30.03687 30.90434,-30.03691 30.90432,-30.03694 30.90429,-30.03698 30.90424,-30.037 30.90421,-30.03701 30.9042,-30.03703 30.90418,-30.03707 30.90414,-30.03711 30.90413,-30.03716 30.90411,-30.03719 30.90409,-30.0372 30.90406,-30.03722 30.90404,-30.03724 30.904,-30.03727 30.90398,-30.03729 30.90395,-30.03731 30.90391,-30.03734 30.90389,-30.03736 30.90387,-30.03738 30.90384,-30.0374 30.90382,-30.03745 30.90379,-30.0375 30.90376,-30.03752 30.90373,-30.03754 30.90371,-30.03758 30.90368,-30.03761 30.90364,-30.03765 30.90357,-30.03769 30.90356,-30.03772 30.90354,-30.03775 30.90351,-30.03776 30.90347,-30.03778 30.90344,-30.03779 30.90338,-30.03783 30.90335,-30.03786 30.90332,-30.03787 30.9033,-30.03789 30.90325,-30.03791 30.90322,-30.03792 30.90318,-30.03793 30.90314,-30.03794 30.90311,-30.03795 30.90307,-30.03797 30.90305,-30.03798 30.90303,-30.038 30.90297,-30.03805 30.90294,-30.03806 30.90291,-30.03808 30.90288,-30.03811 30.90283,-30.03815 30.9028,-30.03819 30.90268,-30.03831 30.90268,-30.03839 30.90266,-30.03841 30.90265,-30.03846 30.90261,-30.03847 30.90258,-30.0385 30.90254,-30.03852 30.90252,-30.03855 30.90248,-30.03856 30.90243,-30.03857 30.90241,-30.03859 30.90238,-30.0386 30.90235,-30.03862 30.90233,-30.03864 30.90229,-30.03865 30.90223,-30.03868 30.90215,-30.03871 30.90212,-30.03874 30.90208,-30.03876 30.90206,-30.03878 30.90205,-30.03881 30.90204,-30.03884 30.90201,-30.03886 30.90197,-30.03887 30.90194,-30.03887 30.90189,-30.03888 30.90186,-30.03891 30.90182,-30.03894 30.90178,-30.03898 30.9017,-30.03907 30.90167,-30.03909 30.9016,-30.03916 30.90155,-30.03919 30.90148,-30.03924 30.90144,-30.03927 30.90142,-30.03929 30.90136,-30.03933 30.90134,-30.03935 30.90133,-30.0394 30.90133,-30.03944 30.90129,-30.03946 30.90127,-30.03948 30.90124,-30.0395 30.90122,-30.03952 30.90119,-30.03953 30.90115,-30.03955 30.90113,-30.03957 30.90111,-30.0396 30.90109,-30.03964 30.90107,-30.03966 30.90104,-30.03967 30.90102,-30.03969 30.90102,-30.03972 30.90098,-30.0398 30.90096,-30.03984 30.90092,-30.03988 30.90088,-30.03992 30.90087,-30.03996 30.90085,-30.03999 30.90084,-30.04002 30.90076,-30.04017 30.90074,-30.04022 30.90075,-30.0403 30.90076,-30.04035 30.90076,-30.0404 30.90075,-30.04044 30.9007,-30.04052 30.90066,-30.04056 30.90064,-30.04059 30.90061,-30.04062 30.90057,-30.04065 30.90054,-30.04068 30.90045,-30.04078 30.90039,-30.04082 30.90035,-30.04086 30.90031,-30.04088 30.90026,-30.04089 30.90022,-30.0409 30.90019,-30.04093 30.90011,-30.04102 30.90006,-30.04103 30.90002,-30.04106 30.89998,-30.04106 30.89993,-30.04108 30.89989,-30.0411 30.89982,-30.04112 30.89976,-30.04115 30.89972,-30.04117 30.89968,-30.04119 30.89959,-30.04126 30.89956,-30.04128 30.89952,-30.04128 30.89949,-30.04129 30.89945,-30.04131 30.89942,-30.04131 30.89939,-30.04132 30.89934,-30.04135 30.89927,-30.0414 30.89922,-30.04143 30.89918,-30.04145 30.89915,-30.04148 30.89909,-30.04152 30.89903,-30.04154 30.899,-30.04155 30.89894,-30.04156 30.8989,-30.04157 30.89887,-30.04159 30.89885,-30.04161 30.89881,-30.04162 30.89878,-30.04164 30.89876,-30.04165 30.89874,-30.04168 30.89871,-30.04169 30.89868,-30.04172 30.89867,-30.04175 30.89865,-30.04178 30.89863,-30.04182 30.8986,-30.04189 30.89858,-30.04193 30.89858,-30.04197 30.89857,-30.04199 30.89853,-30.04204 30.89849,-30.04209 30.89845,-30.04209 30.89841,-30.0421 30.89838,-30.04211 30.89835,-30.04214 30.89832,-30.04217 30.89829,-30.04218 30.89825,-30.04221 30.89824,-30.04223 30.8982,-30.04225 30.89817,-30.04227 30.89815,-30.0423 30.89812,-30.04231 30.89812,-30.04235 30.89811,-30.0424 30.89809,-30.04244 30.89806,-30.04247 30.89803,-30.04247 30.89797,-30.0425 30.89794,-30.04252 30.8979,-30.04255 30.89786,-30.04256 30.89783,-30.04256 30.89777,-30.04258 30.89774,-30.0426 30.89759,-30.04275 30.89759,-30.04278 30.89756,-30.04287 30.89754,-30.0429 30.89751,-30.04293 30.89748,-30.04299 30.89749,-30.04305 30.89746,-30.04313 30.89742,-30.04317 30.89742,-30.04324 30.89739,-30.04328 30.89737,-30.04337 30.89737,-30.04343 30.89738,-30.04346 30.89737,-30.04349 30.89736,-30.04353 30.89734,-30.04358 30.89731,-30.04361 30.89728,-30.04364 30.89723,-30.04368 30.89711,-30.04377 30.89709,-30.04379 30.89706,-30.0438 30.89702,-30.04384 30.89686,-30.04393 30.89684,-30.04395 30.89672,-30.04403 30.89667,-30.04408 30.89652,-30.04414 30.89647,-30.04415 30.89644,-30.04416 30.8964,-30.04419 30.89637,-30.0442 30.89634,-30.04423 30.89624,-30.04428 30.89622,-30.04431 30.89581,-30.04399 30.89521,-30.04354 30.89515,-30.04349 30.89491,-30.04333 30.89478,-30.04322 30.8948,-30.04318 30.89481,-30.04313 30.8948,-30.04311 30.89478,-30.04311 30.89476,-30.04312 30.89473,-30.04313 30.89471,-30.04314 30.89468,-30.04316 30.8946,-30.0431 30.89428,-30.04285 30.89415,-30.04275 30.89404,-30.04268 30.89396,-30.04267 30.8939,-30.04264 30.8939,-30.0426 30.89418,-30.04231 30.89382,-30.04206 30.89377,-30.04202 30.89346,-30.04185 30.89349,-30.04182 30.8939,-30.04135 30.89422,-30.041 30.89497,-30.04015 30.89538,-30.03967 30.8957,-30.03927 30.89584,-30.03913 30.89586,-30.0391 30.8959,-30.03905 30.89635,-30.03854 30.89678,-30.03804 30.89723,-30.03756 30.89781,-30.037 30.89823,-30.03657 30.89813,-30.03653 30.89797,-30.03644 30.89738,-30.03616 30.8967,-30.03585 30.89636,-30.03576 30.89616,-30.03572 30.89597,-30.03568 30.89563,-30.03563 30.89525,-30.03558 30.89497,-30.03554 30.89471,-30.0355 30.89442,-30.03545 30.89417,-30.03538 30.89412,-30.03536 30.89399,-30.03532 30.89386,-30.03527 30.89371,-30.0352 30.89361,-30.03515 30.89348,-30.03509 30.89334,-30.035 30.89321,-30.03492 30.89288,-30.03472 30.89273,-30.03463 30.89246,-30.03445 30.89216,-30.03426 30.89165,-30.03394 30.89146,-30.03381 30.89107,-30.03356 30.89047,-30.03319 30.89009,-30.03295 30.89009,-30.03294 30.88985,-30.0328 30.88941,-30.0325 30.88895,-30.03221 30.88841,-30.03184 30.88809,-30.0316 30.88768,-30.03128 30.88724,-30.03091 30.88674,-30.03046 30.88664,-30.03036 30.88613,-30.02988 30.88596,-30.02973 30.88585,-30.02964 30.8856,-30.02939 30.88523,-30.02912 30.88496,-30.02893 30.88463,-30.02878 30.8843,-30.02867 30.88399,-30.02859 30.88383,-30.02855 30.88372,-30.02853 30.88333,-30.0285 30.88314,-30.02849 30.88293,-30.0285 30.88272,-30.02852 30.8827,-30.02851 30.88244,-30.02829 30.88241,-30.02827 30.88214,-30.02811 30.88193,-30.02796 30.88159,-30.02771 30.88145,-30.02762 30.88129,-30.02753 30.88115,-30.02745 30.88106,-30.0274 30.8806,-30.02712 30.87994,-30.02668 30.8797,-30.02654 30.87906,-30.02614 30.87883,-30.02599 30.87881,-30.02598 30.87884,-30.02594 30.87892,-30.02589 30.87908,-30.0258 30.87917,-30.02574 30.87932,-30.02565 30.88007,-30.02516 30.88027,-30.02504 30.88063,-30.02482 30.88077,-30.02473 30.88124,-30.02447 30.88142,-30.02435 30.8816,-30.02424 30.88163,-30.02423 30.88194,-30.02403 30.88211,-30.02392 30.88234,-30.02378 30.8827,-30.02356 30.88302,-30.02337 30.88316,-30.02327 30.88329,-30.02319 30.88337,-30.02316 30.8835,-30.02307 30.88369,-30.02296 30.88379,-30.0229 30.88392,-30.02286 30.88449,-30.02256 30.88522,-30.02211 30.88592,-30.0217 30.88694,-30.02107 30.88791,-30.02047 30.88942,-30.01926 30.88949,-30.01924 30.88977,-30.01918 30.8899,-30.01914 30.88994,-30.01913 30.89006,-30.01908 30.89024,-30.01901 30.89041,-30.01894 30.8906,-30.01885 30.89087,-30.0187 30.89106,-30.01857 30.89117,-30.01848 30.89135,-30.01835 30.89155,-30.01814 30.89177,-30.01792 30.89188,-30.01775 30.89202,-30.01754 30.89216,-30.01727 30.89269,-30.01629 30.89282,-30.0161 30.89292,-30.01597 30.89314,-30.01574 30.89326,-30.01562 30.89344,-30.0155 30.89379,-30.01532 30.89415,-30.01515 30.89479,-30.01487 30.89515,-30.01469 30.89537,-30.0146 30.89549,-30.01452 30.89575,-30.01435 30.89611,-30.01407 30.89623,-30.01398 30.89683,-30.01352 30.89705,-30.01339 30.89726,-30.01328 30.89741,-30.01321 30.89749,-30.01317 30.89768,-30.01313 30.89822,-30.01302 30.89908,-30.01281 30.89925,-30.01276 30.89938,-30.01269 30.89949,-30.01264 30.89961,-30.01256 30.89974,-30.01245 30.89988,-30.01232 30.90003,-30.01217 30.90015,-30.01197 30.90044,-30.01157 30.90051,-30.01147 30.90066,-30.01126 30.90083,-30.01104 30.90098,-30.01089 30.90115,-30.01079 30.90139,-30.01065 30.90168,-30.01056 30.90205,-30.01046 30.90264,-30.01033 30.90389,-30.01005 30.90449,-30.0099 30.9054,-30.0097 30.90547,-30.00968 30.90683,-30.00936 30.90689,-30.00917 30.9069,-30.00903 30.90688,-30.00898 30.90681,-30.00893 30.90671,-30.00886 30.90666,-30.00881 30.9066,-30.00871 30.90657,-30.00859 30.90648,-30.00847 30.90638,-30.00838 30.90633,-30.00812 30.90631,-30.00773 30.90628,-30.00728 30.90625,-30.00708 30.9062,-30.00696 30.90606,-30.00675 30.90577,-30.0065 30.90533,-30.00617 30.90508,-30.00596 30.90514,-30.00587 30.90531,-30.00564 30.90553,-30.00537 30.90596,-30.00492 30.90638,-30.00444 30.90665,-30.004 30.9067,-30.00364 30.9066,-30.00344 30.90645,-30.00335 30.90594,-30.0031 30.90561,-30.00294 30.90527,-30.00276 30.90526,-30.00265 30.90527,-30.00248 30.90528,-30.0022 30.90534,-30.00203 30.90542,-30.00185 30.90549,-30.00171 30.90556,-30.00152 30.90559,-30.00135 30.90561,-30.00124 30.90563,-30.00109 30.90564,-30.00101 30.90564,-30.00071 30.90564,-30.00056 30.90566,-30.00047 30.90573,-30.00036 30.90582,-30.00026 30.90594,-30.00014 30.90595,-30.00012 30.90609,-29.99998 30.90619,-29.99983 30.90637,-29.99957 30.90643,-29.99949 30.90647,-29.99951 30.9067,-29.99963 30.90684,-29.99975 30.90694,-29.99984 30.90701,-29.99987 30.90709,-29.99991 30.9072,-29.99998 30.90741,-30.00009 30.9075,-30.00014 30.90757,-30.00019 30.90768,-30.0003 30.90781,-30.00034 30.90787,-30.00036 30.908,-30.00039 30.90813,-30.00043 30.90819,-30.00048 30.90831,-30.00054 30.90843,-30.00063 30.90853,-30.00069 30.90868,-30.00078 30.90878,-30.00081 30.90903,-30.00086 30.90931,-30.00091 30.90933,-30.00088 30.90949,-30.00045 30.90959,-30.00018 30.90959,-30.00003 30.90957,-29.99982 30.90951,-29.99965 30.90941,-29.99948 30.90935,-29.99944 30.9093,-29.99944 30.90926,-29.99944 30.9092,-29.99948 30.90902,-29.99961 30.90889,-29.99953 30.90875,-29.99946 30.90856,-29.99941 30.90826,-29.99932 30.90806,-29.99926 30.9079,-29.99922 30.90755,-29.99907 30.90759,-29.999 30.90772,-29.99868 30.90805,-29.99879 30.9083,-29.99869 30.90836,-29.99864 30.90843,-29.99858 30.90856,-29.99848 30.90861,-29.99843 30.90863,-29.9984 30.90865,-29.99834 30.90868,-29.99826 30.90868,-29.99821 30.90866,-29.99814 30.90863,-29.99802 30.90864,-29.99791 30.90864,-29.99783 30.90866,-29.99775 30.9087,-29.99765 30.90876,-29.99758 30.90883,-29.99744 30.90886,-29.99739 30.90892,-29.99728 30.90899,-29.99716 30.90909,-29.99701 30.9093,-29.99678 30.90941,-29.9967 30.90952,-29.99664 30.90964,-29.99658 30.90971,-29.99655 30.90973,-29.99637 30.90979,-29.99617 30.90989,-29.99589 30.90995,-29.99563 30.91,-29.99554 30.9101,-29.99532 30.91027,-29.99509 30.9103,-29.99502 30.91044,-29.99485 30.91053,-29.99477 30.91059,-29.99468 30.91067,-29.99459 30.91075,-29.9945 30.91079,-29.99444 30.91083,-29.9944 30.91091,-29.99435 30.91119,-29.9944 30.9113,-29.9944 30.91142,-29.99442 30.91159,-29.99449 30.91199,-29.99461 30.91248,-29.99473 30.91302,-29.99489 30.9134,-29.99428 30.91341,-29.99427 30.91385,-29.99356 30.91351,-29.99343 30.91342,-29.99333 30.91341,-29.99326 30.91344,-29.99315 30.9135,-29.99306 30.91357,-29.99301 30.91371,-29.99298 30.91387,-29.99295 30.91398,-29.99294 30.91411,-29.99287 30.91413,-29.99275 30.91404,-29.9926 30.91395,-29.99253 30.91386,-29.9925 30.91379,-29.99248 30.91383,-29.99239 30.91411,-29.99205 30.91376,-29.99176 30.91308,-29.99117 30.91257,-29.99073 30.91215,-29.99037 30.91181,-29.99009 30.91153,-29.98989 30.91125,-29.98973 30.91106,-29.9896 30.91098,-29.98953 30.9109,-29.98938 30.91085,-29.98924 30.91082,-29.98905 30.91084,-29.98886 30.91088,-29.9887 30.91102,-29.98846 30.91122,-29.98829 30.91132,-29.98818 30.91199,-29.9859 30.91201,-29.9858 30.91116,-29.9861 30.91102,-29.98621 30.90991,-29.987 30.90935,-29.9874 30.90792,-29.98841 30.90715,-29.98684 30.91268,-29.98302 30.91282,-29.98292 30.91402,-29.98209 30.91485,-29.98152 30.91526,-29.98124 30.91527,-29.98124 30.91536,-29.9811 30.91541,-29.98105 30.91551,-29.98099 30.91561,-29.98095 30.91593,-29.98073 30.91624,-29.98052 30.91693,-29.98006 30.91726,-29.97984 30.91766,-29.97939 30.91853,-29.97837 30.91853,-29.97837 30.91904,-29.97777 30.91937,-29.97738 30.92003,-29.97657 30.92006,-29.97655 30.92045,-29.97607 30.92053,-29.97598 30.92056,-29.97594 30.92107,-29.97533 30.92114,-29.97498 30.92129,-29.97483 30.92155,-29.97464 30.92162,-29.97468 30.92234,-29.97383 30.92254,-29.97359 30.92325,-29.97275 30.92334,-29.97264 30.9244,-29.97139 30.92534,-29.97027 30.92553,-29.97004 30.92567,-29.96988 30.92588,-29.96963 30.9264,-29.96901 30.92685,-29.96848 30.92691,-29.96852 30.927,-29.96843 30.92712,-29.96832 30.92762,-29.96781 30.92769,-29.96785 30.92776,-29.96784 30.92781,-29.96784 30.92801,-29.96781 30.9282,-29.96773 30.92885,-29.96769 30.92961,-29.96785 30.93019,-29.96789 30.9307,-29.96799 30.93078,-29.968 30.93104,-29.96806 30.93118,-29.96809 30.9314,-29.96813 30.93161,-29.96819 30.93222,-29.96833 30.93275,-29.96844 30.93297,-29.96847 30.9334,-29.96853 30.93347,-29.96847 30.93368,-29.96806 30.93399,-29.9682 30.93444,-29.96835 30.93482,-29.96843 30.93507,-29.96845 30.93508,-29.96883 30.93506,-29.96908 30.93505,-29.96911 30.93531,-29.96903 30.93555,-29.96897 30.93581,-29.9689 30.93608,-29.9688 30.93639,-29.96865 30.93661,-29.96854 30.93671,-29.96847 30.93705,-29.96821 30.93739,-29.96793 30.9382,-29.96725 30.9383,-29.96713 30.93865,-29.96673 30.93873,-29.96679 30.9389,-29.96688 30.93914,-29.96702 30.93973,-29.96789 30.94005,-29.96782 30.94046,-29.96845 30.94112,-29.96925 30.94149,-29.96971 30.94215,-29.9687 30.94408,-29.96571 30.94523,-29.96396 30.94702,-29.96134 30.9472,-29.96109 30.94722,-29.96105 30.94751,-29.96063 30.9482,-29.95947 30.94887,-29.95848 30.94911,-29.95793 30.94925,-29.95735 30.94976,-29.95711 30.95212,-29.95617 30.95291,-29.9559 30.95304,-29.95577 30.95317,-29.95553 30.95236,-29.95542 30.95151,-29.95526 30.94853,-29.95473 30.9485,-29.95472 30.94849,-29.95472 30.94813,-29.95465 30.94739,-29.95453 30.94736,-29.95452 30.94624,-29.95432 30.94588,-29.95432 30.9454,-29.95444 30.94459,-29.95443 30.94429,-29.95426 30.94403,-29.954 30.94382,-29.95375 30.94364,-29.95352 30.94334,-29.95313 30.94305,-29.95291 30.94293,-29.95284 30.94332,-29.95203 30.94354,-29.95155 30.94374,-29.95114 30.94409,-29.95038 30.94415,-29.95023 30.9443,-29.94987 30.94448,-29.94942 30.94469,-29.94898 30.94486,-29.94861 30.94504,-29.94827 30.94506,-29.94823 30.94517,-29.94829 30.94522,-29.94832 30.94528,-29.94833 30.94532,-29.94834 30.94537,-29.94835 30.94544,-29.94837 30.94547,-29.94838 30.9455,-29.94841 30.94553,-29.94842 30.9457,-29.94915 30.94572,-29.94927 30.94576,-29.9494 30.94572,-29.95002 30.94574,-29.95033 30.94579,-29.95047 30.94601,-29.95061 30.94609,-29.95066 30.9464,-29.95079 30.94719,-29.95084 30.94719,-29.94969 30.94745,-29.94864 30.94772,-29.94798 30.94807,-29.94735 30.94911,-29.94575 30.95042,-29.94355 30.95043,-29.94355 30.95067,-29.94322 30.95095,-29.94258 30.9512,-29.94183 30.95125,-29.94155 30.95134,-29.94106 30.95128,-29.94103 30.95104,-29.94098 30.9498,-29.9403 30.94921,-29.93998 30.94813,-29.93938 30.94789,-29.93912 30.94785,-29.93908 30.94758,-29.93877 30.94705,-29.93819 30.94622,-29.93728 30.94598,-29.93671 30.94587,-29.93647 30.94578,-29.93624 30.94542,-29.93611 30.94488,-29.93591 30.94487,-29.93589 30.9449,-29.93583 30.94491,-29.9358 30.94492,-29.93576 30.94492,-29.93574 30.9449,-29.93574 30.94485,-29.93575 30.94479,-29.93576 30.94463,-29.93581 30.94459,-29.93582 30.94454,-29.93582 30.94442,-29.93575 30.94435,-29.9357 30.94417,-29.93564 30.9439,-29.93557 30.94386,-29.93555 30.94374,-29.9355 30.94365,-29.93545 30.94356,-29.93542 30.94345,-29.9354 30.94332,-29.93535 30.94317,-29.93528 30.94288,-29.93518 30.94255,-29.93506 30.94247,-29.93503 30.94221,-29.93492 30.94217,-29.93489 30.94205,-29.93488 30.94176,-29.93486 30.94163,-29.93485 30.94134,-29.93481 30.94117,-29.93478 30.94085,-29.93473 30.94071,-29.93471 30.9404,-29.93466 30.94014,-29.93461 30.94004,-29.9346 30.93993,-29.93457 30.93986,-29.93455 30.93982,-29.93454 30.93975,-29.93451 30.9397,-29.93447 30.93957,-29.93434 30.93937,-29.93411 30.93924,-29.93395 30.93906,-29.93375 30.93899,-29.93359 30.93893,-29.93348 30.93876,-29.93352 30.93872,-29.93353 30.9387,-29.93352 30.93869,-29.93349 30.93866,-29.9334 30.93858,-29.9333 30.93854,-29.93328 30.93852,-29.93327 30.93849,-29.93327 30.93846,-29.93327 30.93842,-29.93328 30.93833,-29.93329 30.93822,-29.93332 30.93746,-29.93347 30.93662,-29.93366 30.93588,-29.93385 30.93568,-29.93388 30.93498,-29.93397 30.9343,-29.93413 30.9341,-29.93414 30.93375,-29.93408 30.93355,-29.93402 30.93352,-29.93391 30.93361,-29.93343 30.93356,-29.93316 30.93348,-29.93214 30.93359,-29.93191 30.93363,-29.93181 30.93369,-29.93169 30.93378,-29.9315 30.93427,-29.93095 30.93467,-29.9305 30.93574,-29.92941 30.93608,-29.92905 30.93636,-29.92877 30.93648,-29.92865 30.93663,-29.92843 30.93664,-29.92843 30.93659,-29.92841 30.93668,-29.92831 30.9367,-29.92829 30.93704,-29.92792 30.93715,-29.9278 30.93716,-29.9278 30.93718,-29.9278 30.93718,-29.92779 30.93719,-29.92779 30.93719,-29.92778 30.93719,-29.92777 30.93719,-29.92775 30.93737,-29.92756 30.93744,-29.92756 30.93745,-29.92755 30.93762,-29.92736 30.93811,-29.92681 30.93726,-29.92662 30.93592,-29.9263 30.93587,-29.92629 30.9348,-29.92603 30.93429,-29.92592 30.93385,-29.92581 30.93344,-29.92569 30.93314,-29.92557 30.93291,-29.92549 30.93255,-29.92533 30.93212,-29.9251 30.93176,-29.92489 30.93117,-29.92452 30.93045,-29.92411 30.93039,-29.92408 30.9301,-29.9239 30.92946,-29.92354 30.92915,-29.92336 30.92892,-29.92322 30.92878,-29.92314 30.92863,-29.92305 30.92807,-29.92271 30.9276,-29.92237 30.92709,-29.92196 30.92688,-29.92171 30.9266,-29.92138 30.92605,-29.92078 30.92592,-29.92063 30.9252,-29.91978 30.92518,-29.91975 30.92457,-29.91898 30.92404,-29.91839 30.92344,-29.91772 30.92311,-29.91737 30.92229,-29.91673 30.9225,-29.91645 30.92253,-29.91641 30.92263,-29.9163 30.9237,-29.91514 30.92431,-29.9145 30.92498,-29.91373 30.92564,-29.91303 30.92657,-29.91199 30.92682,-29.91173 30.92714,-29.91138 30.92828,-29.91014 30.92914,-29.90912 30.93028,-29.90791 30.93105,-29.90703 30.93112,-29.90699 30.93156,-29.90676 30.9319,-29.90646 30.93223,-29.90608 30.93552,-29.90225 30.93816,-29.90228 30.9385,-29.90229 30.93947,-29.90213 30.94006,-29.90182 30.94053,-29.90162 30.94136,-29.90124 30.94154,-29.90069 30.94098,-29.90069 30.94014,-29.90069 30.93991,-29.90069 30.93968,-29.9007 30.93913,-29.90072 30.93874,-29.90073 30.93801,-29.90077 30.93794,-29.90078 30.93754,-29.90083 30.93705,-29.90085 30.93698,-29.90086 30.93569,-29.90091 30.93537,-29.90093 30.9344,-29.90099 30.93378,-29.90102 30.93343,-29.90104 30.93221,-29.90111 30.93161,-29.9011 30.93159,-29.9011 30.93089,-29.90099 30.93038,-29.90084 30.93015,-29.90073 30.92974,-29.90051 30.9292,-29.90019 30.92857,-29.89972 30.92855,-29.89971 30.92807,-29.89936 30.92787,-29.89922 30.92723,-29.89877 30.92711,-29.89868 30.92697,-29.89859 30.92666,-29.89838 30.92641,-29.8982 30.92595,-29.89788 30.92548,-29.89756 30.9253,-29.89744 30.92498,-29.89711 30.9249,-29.89702 30.92451,-29.89659 30.92435,-29.89644 30.92382,-29.89593 30.92321,-29.89543 30.9229,-29.8952 30.92261,-29.89492 30.92224,-29.89442 30.92196,-29.89418 30.92193,-29.89401 30.92216,-29.89377 30.92322,-29.89268 30.92343,-29.89246 30.92348,-29.89241 30.9236,-29.89228 30.92372,-29.89216 30.92384,-29.89204 30.92396,-29.89191 30.92408,-29.89179 30.92414,-29.89172 30.92423,-29.89162 30.92457,-29.89128 30.92512,-29.89068 30.92564,-29.89015 30.92611,-29.88966 30.92644,-29.8893 30.92623,-29.88915 30.92605,-29.88903 30.92585,-29.88887 30.92568,-29.88872 30.92558,-29.88861 30.9257,-29.88847 30.92616,-29.88788 30.9268,-29.88709 30.92694,-29.88689 30.92704,-29.88682 30.92711,-29.88675 30.92718,-29.88667 30.9273,-29.88653 30.92738,-29.88644 30.92745,-29.88638 30.92754,-29.88632 30.92765,-29.88625 30.92774,-29.88618 30.9279,-29.88601 30.92799,-29.88592 30.92812,-29.88576 30.92823,-29.88563 30.92844,-29.88566 30.92881,-29.88574 30.92969,-29.88594 30.93043,-29.88518 30.93065,-29.88495 30.93073,-29.88486 30.93108,-29.88449 30.93116,-29.88442 30.93124,-29.88433 30.93146,-29.88409 30.93149,-29.88405 30.93205,-29.88426 30.93203,-29.88431 30.9322,-29.88437 30.93239,-29.88446 30.93308,-29.88473 30.9333,-29.88401 30.93334,-29.88389 30.93352,-29.88333 30.93376,-29.88258 30.9339,-29.88213 30.93398,-29.88191 30.93405,-29.8817 30.93416,-29.8813 30.93423,-29.88112 30.93426,-29.881 30.93437,-29.88069 30.9345,-29.88063 30.93429,-29.88048 30.93395,-29.88031 30.9335,-29.88016 30.93312,-29.88002 30.9325,-29.87979 30.93198,-29.8796 30.93129,-29.87935 30.93076,-29.87916 30.93025,-29.87899 30.9301,-29.87896 30.92983,-29.87891 30.92953,-29.87889 30.92937,-29.87877 30.92892,-29.87806 30.92914,-29.87793 30.92931,-29.87781 30.9295,-29.87768 30.92978,-29.87749 30.93,-29.87734 30.93019,-29.87723 30.93048,-29.87709 30.9307,-29.877 30.93093,-29.87694 30.93109,-29.8769 30.93142,-29.87685 30.93171,-29.87684 30.93187,-29.87684 30.93214,-29.87687 30.93241,-29.87654 30.93306,-29.87591 30.93363,-29.87525 30.93398,-29.87485 30.93426,-29.87457 30.9347,-29.87409 30.93499,-29.87376 30.93623,-29.87279 30.93624,-29.8725 30.936,-29.87216 30.93583,-29.87196 30.93562,-29.87153 30.93558,-29.87135 30.93552,-29.87122 30.93533,-29.87091 30.93517,-29.87066 30.935,-29.87041 30.93482,-29.87018 30.93481,-29.87008 30.93475,-29.87 30.93459,-29.86993 30.93441,-29.86985 30.9343,-29.86971 30.93423,-29.86952 30.93417,-29.86938 30.93406,-29.86931 30.93393,-29.86929 30.93357,-29.86926 30.93295,-29.86922 30.93241,-29.86917 30.93194,-29.86913 30.93158,-29.86915 30.93116,-29.86922 30.93091,-29.86928 30.93063,-29.86946 30.93036,-29.8696 30.93015,-29.86967 30.92991,-29.8696 30.92966,-29.86947 30.92947,-29.86938 30.92934,-29.86931 30.92934,-29.8693 30.92988,-29.86819 30.93029,-29.86734 30.93069,-29.86652 30.93119,-29.86549 30.93172,-29.86439 30.93219,-29.86342 30.93262,-29.86254 30.93301,-29.86174 30.93333,-29.86106 30.93374,-29.86023 30.93439,-29.8589 30.93484,-29.85795 30.93495,-29.85773 30.93549,-29.85663 30.93543,-29.8566 30.93534,-29.85656 30.93519,-29.85647 30.93508,-29.85638 30.93518,-29.85631 30.93588,-29.85582 30.93612,-29.85531 30.93658,-29.85436 30.93667,-29.85419 30.93696,-29.8536 30.93699,-29.85328 30.9371,-29.8529 30.9373,-29.85269 30.93743,-29.8526 30.93748,-29.85248 30.93739,-29.85242 30.93749,-29.85229 30.93753,-29.85217 30.93802,-29.85107 30.9384,-29.85028 30.93913,-29.84867 30.93934,-29.84833 30.94,-29.84731 30.94008,-29.84714 30.9402,-29.8469 30.94052,-29.84624 30.94057,-29.84589 30.94078,-29.84564 30.94114,-29.84564 30.94157,-29.84564 30.9427,-29.84561 30.94313,-29.8456 30.94417,-29.84564 30.9444,-29.84564 30.94436,-29.84541 30.94462,-29.84541 30.94499,-29.84541 30.94537,-29.84541 30.9454,-29.84573 30.94612,-29.84575 30.94634,-29.84576 30.94687,-29.84577 30.94757,-29.84579 30.9481,-29.8458 30.94847,-29.84581 30.94943,-29.84583 30.95014,-29.84585 30.95088,-29.84582 30.95142,-29.84584 30.95171,-29.84585 30.95212,-29.84587 30.95262,-29.84592 30.95395,-29.84594 30.95406,-29.84599 30.95431,-29.84602 30.95466,-29.84602 30.95601,-29.84599 30.95608,-29.84569 30.95613,-29.84526 30.95616,-29.84481 30.9562,-29.84431 30.95621,-29.8439 30.95626,-29.84347 30.95634,-29.84311 30.95644,-29.84273 30.9566,-29.84227 30.95677,-29.84182 30.95697,-29.84132 30.95721,-29.84072 30.9574,-29.84018 30.95772,-29.83935 30.95794,-29.83881 30.958,-29.83865 30.95829,-29.83789 30.95855,-29.83723 30.95878,-29.83663 30.95904,-29.83597 30.95926,-29.8354 30.95947,-29.83485 30.95995,-29.83361 30.96039,-29.83248 30.96065,-29.83185 30.96073,-29.83164 30.96097,-29.83121 30.96119,-29.8309 30.96148,-29.83048 30.96133,-29.83047 30.96106,-29.83043 30.96085,-29.8304 30.96057,-29.83036 30.96025,-29.83029 30.96005,-29.83025 30.95988,-29.83019 30.95975,-29.83013 30.95955,-29.83003 30.95937,-29.82992 30.9591,-29.82971 30.95917,-29.82959 30.95956,-29.82883 30.95981,-29.82839 30.95995,-29.8281 30.96034,-29.82751 30.96045,-29.82715 30.96056,-29.82683 30.96082,-29.82631 30.96117,-29.82565 30.9613,-29.82536 30.96134,-29.82529 30.96142,-29.82517 30.96146,-29.82507 30.96157,-29.82483 30.96163,-29.82473 30.96167,-29.8246 30.96178,-29.82442 30.96188,-29.82422 30.96196,-29.82407 30.96201,-29.82393 30.96211,-29.82376 30.96217,-29.82362 30.96228,-29.82338 30.96235,-29.82316 30.96244,-29.82292 30.96263,-29.82273 30.96275,-29.82249 30.96289,-29.8222 30.96295,-29.82206 30.96271,-29.82178 30.96252,-29.82159 30.96225,-29.82139 30.96199,-29.82116 30.96185,-29.82085 30.96097,-29.82032 30.96029,-29.82007 30.96002,-29.82011 30.95966,-29.82022 30.9593,-29.82028 30.95912,-29.82036 30.95885,-29.82043 30.95849,-29.82052 30.95804,-29.82058 30.95777,-29.82056 30.95752,-29.8205 30.95722,-29.8205 30.95689,-29.8206 30.95581,-29.82089 30.95554,-29.81939 30.95456,-29.81924 30.95552,-29.81881 30.9569,-29.81818 30.95617,-29.81807 30.95676,-29.81758 30.95678,-29.81732 30.95711,-29.817 30.95736,-29.81671 30.9575,-29.81666 30.95761,-29.81661 30.95769,-29.81638 30.95763,-29.81629 30.95644,-29.81584 30.95633,-29.81579 30.95572,-29.81553 30.95546,-29.81537 30.95545,-29.81536 30.95539,-29.81533 30.95489,-29.81506 30.95488,-29.81506 30.95419,-29.81468 30.95425,-29.81461 30.95427,-29.81453 30.95428,-29.81448 30.95422,-29.81437 30.95415,-29.81419 30.95308,-29.81365 30.95246,-29.81337 30.95235,-29.81342 30.95205,-29.81353 30.95171,-29.81367 30.95145,-29.81379 30.9512,-29.81393 30.95092,-29.81408 30.95044,-29.81434 30.95008,-29.81452 30.94948,-29.81483 30.949,-29.81507 30.94866,-29.81523 30.94855,-29.8153 30.9483,-29.81562 30.94733,-29.81473 30.94691,-29.81441 30.94648,-29.814 30.94615,-29.81369 30.94575,-29.81327 30.94533,-29.81281 30.94494,-29.81246 30.94442,-29.81186 30.94412,-29.81196 30.94323,-29.81226 30.94255,-29.8125 30.94185,-29.81277 30.94129,-29.81301 30.9407,-29.81324 30.93999,-29.81353 30.93947,-29.81374 30.93911,-29.81387 30.93877,-29.81398 30.93841,-29.81405 30.93808,-29.8141 30.93757,-29.81411 30.93716,-29.81408 30.93672,-29.814 30.93632,-29.81389 30.936,-29.81376 30.93547,-29.81353 30.93499,-29.81334 30.93456,-29.81322 30.93405,-29.81313 30.93359,-29.81311 30.9331,-29.81313 30.93264,-29.81322 30.93197,-29.81338 30.9312,-29.81354 30.93088,-29.81359 30.93104,-29.81276 30.93032,-29.81206 30.92998,-29.81173 30.92969,-29.81143 30.929,-29.81154 30.92846,-29.81163 30.92831,-29.81069 30.92873,-29.81093 30.92894,-29.81107 30.92939,-29.81118 30.92939,-29.81094 30.92938,-29.81076 30.92938,-29.81061 30.9294,-29.81053 30.92948,-29.81053 30.92953,-29.81051 30.92962,-29.81047 30.92957,-29.81027 30.92955,-29.81016 30.9295,-29.80995 30.92944,-29.80965 30.9294,-29.80945 30.92934,-29.80929 30.92928,-29.80898 30.92921,-29.80865 30.92911,-29.80818 30.92923,-29.80816 30.92948,-29.80814 30.92976,-29.80812 30.92999,-29.80809 30.93015,-29.80808 30.9302,-29.80791 30.93029,-29.80773 30.93041,-29.8075 30.93043,-29.80747 30.93053,-29.80727 30.93074,-29.80691 30.93081,-29.80675 30.93081,-29.80664 30.93078,-29.80652 30.93049,-29.80662 30.93027,-29.8067 30.9299,-29.80682 30.92954,-29.80695 30.92915,-29.80708 30.92879,-29.80721 30.92861,-29.80727 30.9284,-29.80731 30.92818,-29.80733 30.92806,-29.80735 30.92815,-29.80684 30.92823,-29.80659 30.92833,-29.80621 30.92841,-29.80594 30.92845,-29.80578 30.9284,-29.80538 30.92838,-29.80492 30.92839,-29.8048 30.92834,-29.80457 30.92795,-29.80458 30.92755,-29.80459 30.92727,-29.80458 30.92708,-29.80456 30.92676,-29.80446 30.9264,-29.80425 30.9261,-29.80403 30.92579,-29.8038 30.92562,-29.80363 30.92566,-29.80351 30.92573,-29.80324 30.92583,-29.80276 30.92594,-29.80232 30.926,-29.80203 30.92599,-29.8019 30.926,-29.80155 30.92599,-29.80116 30.92598,-29.80064 30.92623,-29.8004 30.92592,-29.80031 30.92561,-29.80027 30.9254,-29.80023 30.92527,-29.80016 30.92511,-29.80011 30.92487,-29.8001 30.92512,-29.79855 30.92533,-29.79723 30.92521,-29.79664 30.92528,-29.79633 30.92542,-29.79566 30.92548,-29.79553 30.92567,-29.79496 30.92587,-29.79385 30.92592,-29.79351 30.9261,-29.79243 30.92618,-29.79189 30.92631,-29.79107 30.92648,-29.79002 30.92664,-29.78905 30.92671,-29.78859 30.92684,-29.78777 30.92693,-29.78721 30.92698,-29.78695 30.92694,-29.78683 30.92681,-29.78645 30.92713,-29.78559 30.92713,-29.78559 30.92721,-29.78537 30.92726,-29.78501 30.92731,-29.78466 30.92749,-29.78357 30.92804,-29.78025 30.92808,-29.77988 30.9281,-29.77991 30.92817,-29.77997 30.92836,-29.78014 30.92847,-29.78021 30.92867,-29.78035 30.9288,-29.78044 30.9289,-29.78052 30.92902,-29.78061 30.92905,-29.78063 30.92935,-29.78085 30.92957,-29.78101 30.92971,-29.78112 30.93003,-29.78137 30.93023,-29.78152 30.93054,-29.78182 30.93101,-29.78225 30.93131,-29.78249 30.93149,-29.78262 30.93156,-29.78267 30.93167,-29.78274 30.93194,-29.7829 30.93215,-29.783 30.93226,-29.78303 30.93241,-29.78308 30.93262,-29.78315 30.93281,-29.78322 30.93294,-29.78326 30.93307,-29.78332 30.93331,-29.78337 30.93363,-29.78346 30.93397,-29.78356 30.93425,-29.78363 30.93439,-29.78367 30.93454,-29.78372 30.93475,-29.78379 30.93513,-29.78395 30.93544,-29.78413 30.93562,-29.78428 30.93575,-29.78437 30.93609,-29.78454 30.93634,-29.78466 30.93644,-29.78468 30.93655,-29.78471 30.93665,-29.78474 30.93681,-29.78478 30.93691,-29.78481 30.93696,-29.78483 30.93709,-29.78485 30.93722,-29.78487 30.93728,-29.78488 30.93743,-29.78491 30.93763,-29.78496 30.93769,-29.78496 30.93774,-29.78497 30.93796,-29.78503 30.9382,-29.78509 30.93828,-29.78511 30.93838,-29.78514 30.93854,-29.7852 30.93882,-29.7853 30.93913,-29.7854 30.93926,-29.78544 30.93952,-29.78549 30.93981,-29.78556 30.94004,-29.78559 30.94018,-29.7856 30.94049,-29.78551 30.94054,-29.7855 30.94081,-29.78543 30.94086,-29.78544 30.94092,-29.78544 30.941,-29.78542 30.9412,-29.78546 30.94135,-29.78552 30.94139,-29.78555 30.94153,-29.78563 30.94171,-29.78576 30.94195,-29.78597 30.94219,-29.78619 30.94228,-29.78631 30.9424,-29.78644 30.9425,-29.78655 30.94259,-29.78665 30.94268,-29.78673 30.944,-29.78849 30.94438,-29.78888 30.94462,-29.78913 30.94479,-29.78947 30.94493,-29.78975 30.94564,-29.79066 30.94622,-29.79131 30.94662,-29.79203 30.94704,-29.79295 30.94752,-29.79372 30.94806,-29.79456 30.94895,-29.79546 30.94899,-29.79549 30.94948,-29.79596 30.95021,-29.79656 30.95094,-29.79674 30.95172,-29.79681 30.95192,-29.79683 30.95273,-29.79691 30.95365,-29.79688 30.95445,-29.79691 30.95553,-29.79712 30.95709,-29.7973 30.95732,-29.79732 30.95904,-29.79748 30.96066,-29.79762 30.962,-29.79753 30.9631,-29.79743 30.96312,-29.79743 30.96426,-29.79727 30.96502,-29.79717 30.96539,-29.79713 30.96602,-29.79709 30.96637,-29.79707 30.9664,-29.79707 30.9666,-29.79706 30.96726,-29.79702 30.96853,-29.79711 30.96916,-29.79717 30.96969,-29.79723 30.96983,-29.79725 30.97054,-29.79728 30.9713,-29.79736 30.97173,-29.79752 30.97211,-29.79773 30.97218,-29.79777 30.97278,-29.79804 30.97362,-29.79843 30.97421,-29.79862 30.97485,-29.79902 30.97552,-29.79941 30.97568,-29.79959 30.97599,-29.79995 30.97652,-29.80049 30.97721,-29.80112 30.97797,-29.80176 30.9786,-29.80233 30.97897,-29.8026 30.97947,-29.80302 30.97989,-29.80327 30.98019,-29.80351 30.98045,-29.80367 30.98066,-29.80342 30.98085,-29.8032 30.9811,-29.80294 30.98135,-29.8027 30.98163,-29.80245 30.98188,-29.80227 30.9823,-29.80199 30.98265,-29.80177 30.98307,-29.80152 30.98358,-29.80119 30.98455,-29.80059 30.98519,-29.80019 30.98586,-29.79979 30.98595,-29.79973 30.98766,-29.79863 30.98832,-29.7982 30.98909,-29.79766 30.98942,-29.79739 30.99022,-29.79654 30.99058,-29.79603 30.99198,-29.79434 30.99394,-29.79189 30.99511,-29.79033 30.99557,-29.78948 30.99588,-29.78864 30.99589,-29.78861 30.99596,-29.78833 30.99621,-29.78731 30.99651,-29.78588 30.99663,-29.7853 30.99673,-29.78491 30.99673,-29.78489 30.99674,-29.78489 30.99713,-29.785 30.99719,-29.78512 30.99729,-29.78513 30.99734,-29.78521 30.99747,-29.78523 30.99759,-29.7853 30.99769,-29.78533 30.99778,-29.7854 30.9979,-29.78539 30.99797,-29.78543 30.99806,-29.78547 30.99812,-29.78552 30.99823,-29.78549 30.99835,-29.78543 30.99847,-29.78539 30.99863,-29.78537 30.99879,-29.78535 30.99894,-29.78531 30.99907,-29.78527 30.99927,-29.78556 30.99931,-29.7856 31.00142,-29.78458 31.00249,-29.78615 31.00279,-29.78605 31.00297,-29.78598 31.00384,-29.78566 31.00459,-29.78538 31.00619,-29.78479 31.00699,-29.78414 31.00837,-29.78298 31.00738,-29.78183 31.00818,-29.7813 31.00857,-29.78111 31.00855,-29.78087 31.00842,-29.78068 31.00836,-29.78055 31.00835,-29.78028 31.00832,-29.78008 31.00826,-29.7799 31.00779,-29.77982 31.00761,-29.77975 31.00743,-29.77959 31.00689,-29.77925 31.00652,-29.77903 31.00632,-29.7786 31.00605,-29.77816 31.00587,-29.77789 31.00534,-29.77751 31.00488,-29.77717 31.00505,-29.77709 31.0054,-29.7764 31.00542,-29.77623 31.00545,-29.77595 31.00564,-29.77579 31.00569,-29.77559 31.00578,-29.77532 31.0057,-29.77505 31.00546,-29.77484 31.0055,-29.77469 31.00534,-29.77437 31.005,-29.77376 31.00499,-29.77375 31.00495,-29.77368 31.00488,-29.77342 31.00479,-29.77318 31.00488,-29.77275 31.0048,-29.77262 31.00472,-29.77225 31.00449,-29.77199 31.00464,-29.77139 31.00473,-29.7712 31.00457,-29.77106 31.00435,-29.77076 31.00415,-29.77024 31.0044,-29.77017 31.00464,-29.77014 31.00507,-29.7701 31.00553,-29.77006 31.00591,-29.77 31.00614,-29.76993 31.00649,-29.7698 31.00728,-29.76947 31.00754,-29.76936 31.00805,-29.76916 31.00832,-29.76908 31.0085,-29.76901 31.00865,-29.76892 31.00877,-29.76881 31.00897,-29.76848 31.00909,-29.7683 31.00882,-29.76787 31.00874,-29.76773 31.00861,-29.76752 31.00847,-29.76735 31.00811,-29.76692 31.00793,-29.76654 31.00791,-29.76616 31.00795,-29.76591 31.00827,-29.76505 31.0083,-29.76498 31.00853,-29.7646 31.00873,-29.76433 31.00904,-29.76409 31.00918,-29.76405 31.00956,-29.7638 31.00992,-29.76369 31.00949,-29.76322 31.00943,-29.76321 31.00951,-29.76314 31.00958,-29.76307 31.00962,-29.76303 31.00969,-29.76293 31.00974,-29.76285 31.00977,-29.76281 31.00981,-29.76278 31.00984,-29.76276 31.00998,-29.76268 31.01012,-29.76261 31.01033,-29.76245 31.01063,-29.76221 31.0108,-29.76205 31.0109,-29.76201 31.01109,-29.76193 31.01137,-29.76183 31.01163,-29.76174 31.01178,-29.76171 31.01189,-29.76164 31.01199,-29.76153 31.01203,-29.76133 31.01212,-29.76128 31.01219,-29.76141 31.01224,-29.76157 31.01231,-29.76169 31.01247,-29.76156 31.0127,-29.76145 31.01277,-29.76133 31.01281,-29.76115 31.01312,-29.76104 31.01321,-29.76115 31.0134,-29.76115 31.01365,-29.7611 31.01383,-29.76097 31.01407,-29.76086 31.01451,-29.76081 31.01465,-29.76073 31.015,-29.76052 31.01543,-29.76035 31.01572,-29.76041 31.01597,-29.76041 31.01633,-29.76047 31.01782,-29.76079 31.01797,-29.76075 31.01812,-29.76071 31.01826,-29.76056 31.01846,-29.7606 31.01871,-29.76093 31.01888,-29.76097 31.01914,-29.76091 31.01916,-29.7609 31.01931,-29.76084 31.01943,-29.76069 31.01957,-29.76046 31.0197,-29.76018 31.01991,-29.7602 31.02017,-29.76013 31.02053,-29.76021 31.02069,-29.7602 31.02084,-29.76019 31.02105,-29.76001 31.0211,-29.75982 31.02103,-29.75955 31.02089,-29.75942 31.02058,-29.75917 31.02021,-29.75897 31.01984,-29.75865 31.0194,-29.75838 31.01919,-29.75818 31.01896,-29.75811 31.01851,-29.75811 31.01822,-29.75817 31.01806,-29.75812 31.01788,-29.75814 31.01758,-29.75809 31.01734,-29.75803 31.01706,-29.75804 31.0168,-29.75803 31.01658,-29.758 31.01623,-29.75799 31.01581,-29.7579 31.01544,-29.75789 31.01552,-29.75782 31.01835,-29.75582 31.01874,-29.75554 31.02115,-29.75385 31.02231,-29.75304 31.02446,-29.75154 31.02454,-29.75149 31.02518,-29.75106 31.02589,-29.75064 31.02669,-29.75023 31.02748,-29.74987 31.02826,-29.74957 31.0293,-29.74922 31.03241,-29.74841 31.03239,-29.74838 31.03197,-29.7479 31.03156,-29.74754 31.03142,-29.74773 31.03133,-29.74781 31.03102,-29.74757 31.03083,-29.74742 31.03062,-29.74757 31.03006,-29.74721 31.02969,-29.74699 31.02939,-29.74681 31.02953,-29.74672 31.03,-29.74644 31.03024,-29.74631 31.03028,-29.74628 31.02973,-29.74565 31.02908,-29.74493 31.02885,-29.74464 31.02876,-29.74447 31.02871,-29.74431 31.02879,-29.74432 31.02921,-29.74448 31.03055,-29.74527 31.03274,-29.74633</coordinates></LinearRing></outerBoundaryIs></Polygon></MultiGeometry></Placemark></Document></kml>