<?xml version="1.0" encoding="UTF-8"?><kml xmlns="http://www.opengis.net/kml/2.2"><Document><Placemark><name>Westbrook</name><description>Main Place 599012</description><ExtendedData><Data name="code"><value>599012</value></Data><Data name="name"><value>Westbrook</value></Data><Data name="description"><value>Main Place 599012</value></Data></ExtendedData><MultiGeometry><Polygon><outerBoundaryIs><LinearRing><coordinates>31.17557,-29.58671 31.17552,-29.58677 31.17546,-29.58685 31.17541,-29.58692 31.17536,-29.58698 31.1752,-29.58709 31.17503,-29.58723 31.17484,-29.58742 31.17474,-29.58758 31.17472,-29.58761 31.17467,-29.58772 31.17464,-29.58779 31.17462,-29.58782 31.17454,-29.58797 31.17441,-29.58819 31.17439,-29.58822 31.17421,-29.58848 31.17406,-29.58869 31.17385,-29.58896 31.17378,-29.58907 31.17371,-29.5892 31.17362,-29.58935 31.17355,-29.58947 31.17331,-29.58975 31.17308,-29.59003 31.17287,-29.59029 31.17262,-29.59052 31.17235,-29.59078 31.17214,-29.591 31.17192,-29.59125 31.17172,-29.59155 31.17167,-29.59167 31.17161,-29.5918 31.1715,-29.59212 31.17146,-29.59231 31.17142,-29.59246 31.17141,-29.59259 31.17139,-29.59275 31.17135,-29.59302 31.17134,-29.59313 31.17133,-29.59318 31.17129,-29.59336 31.17115,-29.59363 31.17101,-29.59387 31.17088,-29.59405 31.1708,-29.59415 31.17058,-29.5944 31.17042,-29.59458 31.17039,-29.59464 31.17038,-29.59472 31.17037,-29.59483 31.1703,-29.595 31.17027,-29.59505 31.17026,-29.59507 31.17023,-29.59515 31.17021,-29.59525 31.1702,-29.59529 31.17018,-29.59535 31.17016,-29.5954 31.17012,-29.59549 31.17008,-29.59558 31.16998,-29.59569 31.16996,-29.59573 31.16993,-29.5958 31.1699,-29.59588 31.16981,-29.59601 31.16978,-29.59606 31.16973,-29.59615 31.16971,-29.59618 31.16969,-29.5962 31.16961,-29.59628 31.16956,-29.59634 31.16952,-29.5964 31.16948,-29.59647 31.16945,-29.59655 31.16942,-29.59659 31.16939,-29.59663 31.16918,-29.59698 31.16913,-29.59709 31.16909,-29.59721 31.16899,-29.59731 31.16891,-29.59741 31.16889,-29.59743 31.16885,-29.5975 31.16884,-29.59755 31.16884,-29.59759 31.16883,-29.59765 31.16878,-29.59772 31.16874,-29.59778 31.16862,-29.598 31.1686,-29.59809 31.1685,-29.5983 31.16847,-29.59835 31.1684,-29.59849 31.16831,-29.59865 31.16825,-29.59875 31.16819,-29.59883 31.16815,-29.5989 31.1681,-29.59899 31.16807,-29.59907 31.16781,-29.59947 31.16746,-29.59982 31.16745,-29.59987 31.16724,-29.60031 31.16716,-29.6005 31.167,-29.60083 31.16692,-29.60102 31.16688,-29.60111 31.16669,-29.60139 31.16649,-29.60174 31.16624,-29.60211 31.16613,-29.60228 31.16609,-29.60235 31.16606,-29.60239 31.16595,-29.60256 31.16569,-29.60294 31.16538,-29.60335 31.16528,-29.60348 31.16387,-29.60289 31.16288,-29.60247 31.16296,-29.60238 31.16339,-29.60181 31.16362,-29.60151 31.16391,-29.60112 31.16406,-29.60092 31.16409,-29.60089 31.16489,-29.59984 31.16553,-29.599 31.16698,-29.59708 31.16717,-29.59685 31.16724,-29.59676 31.16649,-29.59665 31.16576,-29.5967 31.16493,-29.59671 31.16469,-29.59668 31.16432,-29.59659 31.16431,-29.59659 31.16316,-29.5961 31.16259,-29.59584 31.16105,-29.59512 31.16088,-29.59503 31.16104,-29.59473 31.16163,-29.5941 31.16218,-29.59444 31.16246,-29.59408 31.16198,-29.59378 31.16107,-29.59319 31.16093,-29.59311 31.16061,-29.59279 31.16045,-29.59257 31.16025,-29.59215 31.1602,-29.59199 31.16017,-29.5919 31.16016,-29.59183 31.16016,-29.5918 31.16018,-29.59176 31.16025,-29.59171 31.16051,-29.59158 31.16057,-29.59157 31.16063,-29.59158 31.16073,-29.59175 31.1609,-29.59201 31.16096,-29.59208 31.16102,-29.59214 31.16114,-29.5922 31.1612,-29.59223 31.16125,-29.59229 31.16149,-29.59253 31.16161,-29.59262 31.16169,-29.59266 31.1618,-29.59268 31.16185,-29.59269 31.16192,-29.59269 31.16195,-29.59266 31.1622,-29.59113 31.16223,-29.59084 31.16227,-29.59066 31.16228,-29.59061 31.1623,-29.59034 31.16231,-29.58976 31.16241,-29.5895 31.1625,-29.58919 31.16242,-29.58913 31.16216,-29.589 31.16188,-29.58888 31.16203,-29.5887 31.16223,-29.58844 31.16239,-29.58824 31.16266,-29.58786 31.16275,-29.58778 31.16285,-29.58771 31.16293,-29.58766 31.16302,-29.58773 31.16395,-29.58804 31.16437,-29.58816 31.16453,-29.58822 31.16475,-29.58829 31.16497,-29.58835 31.16511,-29.58836 31.16532,-29.58835 31.16583,-29.58829 31.16647,-29.58796 31.16649,-29.58795 31.16655,-29.58793 31.16679,-29.58791 31.16687,-29.58791 31.16697,-29.58793 31.16722,-29.58806 31.16739,-29.58817 31.1676,-29.58838 31.16767,-29.58849 31.16775,-29.58863 31.16777,-29.58866 31.16787,-29.58896 31.16789,-29.58897 31.1679,-29.58896 31.16799,-29.58886 31.16818,-29.5886 31.16845,-29.58825 31.16848,-29.58821 31.16916,-29.58731 31.16928,-29.58718 31.17023,-29.58597 31.17074,-29.58531 31.17148,-29.58576 31.17238,-29.5863 31.17317,-29.58677 31.17356,-29.58627 31.17369,-29.58611 31.17434,-29.58523 31.17529,-29.58393 31.17563,-29.58348 31.17572,-29.58336 31.17613,-29.58282 31.17707,-29.58157 31.17719,-29.58142 31.1782,-29.58011 31.17848,-29.57973 31.17863,-29.57955 31.17868,-29.57948 31.17892,-29.57921 31.17923,-29.57885 31.17968,-29.57835 31.1799,-29.57809 31.17997,-29.57801 31.1802,-29.57774 31.18053,-29.57737 31.18099,-29.57684 31.18128,-29.57652 31.18129,-29.57651 31.18154,-29.57624 31.18198,-29.57572 31.18222,-29.57545 31.1829,-29.57466 31.18305,-29.57448 31.18353,-29.57394 31.18377,-29.57366 31.18391,-29.57346 31.18406,-29.57324 31.1844,-29.57266 31.18451,-29.57247 31.185,-29.57158 31.18506,-29.57149 31.18517,-29.57154 31.18527,-29.57158 31.18573,-29.57178 31.18575,-29.57178 31.18619,-29.57196 31.18606,-29.57219 31.18596,-29.57231 31.18585,-29.57244 31.1855,-29.57293 31.1855,-29.57306 31.18549,-29.57317 31.1854,-29.57342 31.18526,-29.57357 31.18513,-29.57364 31.18508,-29.57367 31.18503,-29.57368 31.18498,-29.57369 31.18497,-29.57374 31.18497,-29.57378 31.18496,-29.57384 31.18493,-29.57396 31.18491,-29.57406 31.18489,-29.57415 31.18486,-29.57426 31.18484,-29.57435 31.18482,-29.57442 31.1848,-29.57452 31.18477,-29.5746 31.18473,-29.57475 31.18467,-29.57496 31.18465,-29.57502 31.18463,-29.57508 31.18461,-29.57516 31.18459,-29.57521 31.18456,-29.5753 31.18448,-29.57561 31.18445,-29.57575 31.18444,-29.57579 31.1844,-29.57591 31.18425,-29.57629 31.18423,-29.57634 31.18416,-29.57654 31.18409,-29.57673 31.18398,-29.57689 31.18376,-29.5771 31.18368,-29.57717 31.18355,-29.57729 31.18344,-29.5774 31.18336,-29.57747 31.18318,-29.57763 31.18305,-29.57775 31.18302,-29.57777 31.18295,-29.57783 31.18275,-29.57804 31.18252,-29.57829 31.18228,-29.57855 31.18195,-29.5789 31.18171,-29.57917 31.18144,-29.57942 31.18121,-29.57962 31.18109,-29.57976 31.18099,-29.57993 31.18095,-29.58001 31.18085,-29.58019 31.18075,-29.5803 31.18063,-29.58042 31.1805,-29.58048 31.18043,-29.58052 31.18032,-29.58064 31.18027,-29.58074 31.18019,-29.5809 31.18014,-29.58101 31.18003,-29.58124 31.17986,-29.58162 31.17975,-29.58188 31.17965,-29.58208 31.17958,-29.58221 31.17949,-29.58241 31.17936,-29.58265 31.17933,-29.5827 31.17918,-29.5829 31.17902,-29.58306 31.17884,-29.5832 31.17881,-29.58323 31.17866,-29.58332 31.17843,-29.58353 31.17825,-29.58371 31.17803,-29.58391 31.17789,-29.58405 31.17777,-29.58418 31.17751,-29.58442 31.17729,-29.58458 31.17722,-29.58462 31.17711,-29.58468 31.17708,-29.5847 31.17703,-29.58473 31.17695,-29.58478 31.17683,-29.58492 31.17679,-29.58499 31.1767,-29.58513 31.17652,-29.5854 31.17649,-29.58544 31.17636,-29.58559 31.17627,-29.5857 31.1762,-29.58579 31.17609,-29.58595 31.17597,-29.58609 31.1758,-29.58635 31.1757,-29.58648 31.17557,-29.58671</coordinates></LinearRing></outerBoundaryIs></Polygon></MultiGeometry></Placemark></Document></kml>