<?xml version="1.0" encoding="UTF-8"?><kml xmlns="http://www.opengis.net/kml/2.2"><Document><Placemark><name>Ntuzuma</name><description>Main Place 599056</description><ExtendedData><Data name="code"><value>599056</value></Data><Data name="name"><value>Ntuzuma</value></Data><Data name="description"><value>Main Place 599056</value></Data></ExtendedData><MultiGeometry><Polygon><outerBoundaryIs><LinearRing><coordinates>30.95334,-29.71298 30.95401,-29.71301 30.95407,-29.71301 30.95412,-29.71301 30.95428,-29.71303 30.95432,-29.71305 30.95446,-29.71311 30.9546,-29.71297 30.95463,-29.71291 30.9548,-29.71293 30.95486,-29.71294 30.95496,-29.71298 30.95527,-29.71299 30.95555,-29.71298 30.95556,-29.71323 30.95557,-29.7135 30.95558,-29.71367 30.95558,-29.71373 30.95527,-29.71386 30.95517,-29.7139 30.95508,-29.71395 30.95502,-29.71398 30.95497,-29.71403 30.95493,-29.71411 30.95491,-29.71414 30.9549,-29.7142 30.9549,-29.71424 30.9549,-29.71427 30.95491,-29.71432 30.95497,-29.71454 30.95502,-29.7147 30.95504,-29.71479 30.95505,-29.71487 30.95505,-29.71489 30.95505,-29.71495 30.95505,-29.71502 30.95504,-29.71513 30.95503,-29.71531 30.95501,-29.71552 30.955,-29.71558 30.955,-29.71562 30.95501,-29.71565 30.95503,-29.71571 30.95508,-29.71578 30.95512,-29.71582 30.95519,-29.71587 30.95527,-29.71591 30.9554,-29.71595 30.95554,-29.71599 30.95564,-29.71603 30.9557,-29.71605 30.95576,-29.71608 30.95581,-29.71612 30.95585,-29.71617 30.95588,-29.71621 30.95591,-29.71628 30.95599,-29.7165 30.95603,-29.71661 30.95606,-29.71667 30.9561,-29.71672 30.95613,-29.71676 30.95617,-29.7168 30.95621,-29.71683 30.95629,-29.71688 30.95628,-29.7169 30.95615,-29.71709 30.95612,-29.71714 30.95603,-29.71708 30.95582,-29.71728 30.95583,-29.7173 30.9559,-29.71733 30.95597,-29.71736 30.95589,-29.71752 30.9557,-29.71792 30.95553,-29.71824 30.95555,-29.71827 30.95564,-29.71828 30.95569,-29.7183 30.95572,-29.7183 30.95577,-29.71828 30.9558,-29.7183 30.95584,-29.71831 30.95587,-29.71832 30.9559,-29.71831 30.95594,-29.71834 30.95597,-29.71834 30.95602,-29.71832 30.95608,-29.71837 30.95611,-29.71836 30.95615,-29.71837 30.95616,-29.71839 30.95619,-29.71841 30.95624,-29.71842 30.95627,-29.71842 30.9563,-29.71846 30.95633,-29.71846 30.95637,-29.71846 30.95642,-29.71849 30.95649,-29.71854 30.95656,-29.71858 30.95662,-29.71862 30.95664,-29.71866 30.95666,-29.7187 30.9567,-29.71873 30.95673,-29.7188 30.95678,-29.71884 30.95683,-29.71888 30.95685,-29.7189 30.95689,-29.71892 30.95691,-29.71896 30.95695,-29.71897 30.95698,-29.719 30.95701,-29.71905 30.95704,-29.71907 30.95707,-29.71909 30.95711,-29.7191 30.95715,-29.71913 30.95717,-29.71915 30.95722,-29.71916 30.95723,-29.71918 30.95727,-29.71919 30.9573,-29.7192 30.95733,-29.71919 30.95737,-29.71919 30.95743,-29.71917 30.95746,-29.71919 30.9575,-29.71918 30.95754,-29.71919 30.9576,-29.7192 30.95769,-29.71923 30.95774,-29.71925 30.95778,-29.71927 30.95784,-29.71928 30.95787,-29.71931 30.9579,-29.71934 30.95795,-29.71938 30.958,-29.71943 30.95805,-29.71946 30.95807,-29.71948 30.95812,-29.7195 30.95816,-29.71955 30.95821,-29.71957 30.95827,-29.71961 30.95836,-29.71965 30.95842,-29.71966 30.95848,-29.71969 30.95851,-29.71973 30.95861,-29.7198 30.95864,-29.71984 30.95868,-29.71986 30.95873,-29.7199 30.95877,-29.71993 30.95881,-29.71994 30.95882,-29.71996 30.95882,-29.71996 30.95884,-29.71996 30.95887,-29.71999 30.95888,-29.72003 30.95895,-29.72008 30.95902,-29.72015 30.95908,-29.7202 30.95917,-29.72025 30.95925,-29.72031 30.95928,-29.72033 30.95935,-29.72038 30.95942,-29.72044 30.95947,-29.72048 30.95952,-29.72052 30.95957,-29.72058 30.95964,-29.72063 30.95971,-29.72068 30.95979,-29.7207 30.95985,-29.72074 30.9599,-29.72078 30.95999,-29.72079 30.96029,-29.72061 30.96047,-29.72052 30.96066,-29.72037 30.96074,-29.72034 30.9608,-29.72034 30.96088,-29.72026 30.96091,-29.72013 30.96091,-29.71996 30.96092,-29.71986 30.961,-29.71974 30.96116,-29.71955 30.96129,-29.71938 30.96139,-29.7193 30.9615,-29.71928 30.96165,-29.71918 30.96174,-29.71907 30.96178,-29.719 30.96184,-29.71894 30.96188,-29.71877 30.96188,-29.7186 30.96188,-29.71849 30.9619,-29.71833 30.96191,-29.71823 30.96191,-29.71811 30.96189,-29.71802 30.96189,-29.71796 30.96189,-29.71783 30.96192,-29.71772 30.9619,-29.71758 30.9619,-29.71743 30.96189,-29.71732 30.96185,-29.7172 30.96185,-29.71713 30.96195,-29.71713 30.96206,-29.71714 30.96217,-29.71714 30.96235,-29.71719 30.9629,-29.71747 30.96305,-29.71756 30.9633,-29.71769 30.96438,-29.71826 30.96483,-29.7185 30.96491,-29.71834 30.96515,-29.71837 30.96526,-29.71838 30.96547,-29.7184 30.96563,-29.71839 30.96581,-29.7184 30.96598,-29.71838 30.96615,-29.71843 30.96634,-29.71843 30.96648,-29.71845 30.96662,-29.71854 30.96669,-29.71856 30.96684,-29.7186 30.96693,-29.71868 30.96699,-29.71875 30.96718,-29.71888 30.96729,-29.7189 30.96734,-29.71897 30.96746,-29.71902 30.96757,-29.71903 30.96768,-29.71907 30.96782,-29.71913 30.96793,-29.71919 30.96801,-29.71924 30.96807,-29.71933 30.96819,-29.71936 30.9683,-29.71939 30.96836,-29.71943 30.96844,-29.7195 30.96851,-29.71958 30.96857,-29.71961 30.96864,-29.71962 30.9687,-29.71963 30.9687,-29.71963 30.96869,-29.71973 30.96869,-29.71983 30.96867,-29.71998 30.96863,-29.72019 30.96855,-29.72052 30.96846,-29.72086 30.96841,-29.72106 30.96834,-29.72133 30.96829,-29.72155 30.96816,-29.72208 30.96812,-29.72227 30.96812,-29.72235 30.96815,-29.72245 30.96818,-29.72252 30.96823,-29.72258 30.96829,-29.72265 30.96841,-29.72273 30.96853,-29.72277 30.96854,-29.72278 30.96867,-29.7228 30.96904,-29.72288 30.96916,-29.72291 30.96938,-29.72295 30.96958,-29.7228 30.96989,-29.72258 30.97011,-29.72243 30.97038,-29.72227 30.97056,-29.72219 30.97071,-29.72215 30.97087,-29.72213 30.97105,-29.72213 30.9712,-29.72215 30.97135,-29.7222 30.97154,-29.72228 30.97163,-29.72232 30.97176,-29.7224 30.97188,-29.72246 30.9722,-29.72261 30.97228,-29.72266 30.97236,-29.72273 30.97241,-29.72278 30.97248,-29.72288 30.9725,-29.72291 30.97255,-29.72302 30.9726,-29.72318 30.97261,-29.72334 30.9726,-29.72346 30.97259,-29.72354 30.97257,-29.72362 30.97255,-29.72367 30.9725,-29.72377 30.97242,-29.72389 30.97225,-29.72412 30.97215,-29.72425 30.97195,-29.7245 30.97212,-29.72458 30.97245,-29.72475 30.97239,-29.72484 30.97232,-29.72496 30.97229,-29.72505 30.97222,-29.72522 30.97218,-29.72531 30.97213,-29.72538 30.97211,-29.72546 30.97176,-29.72536 30.9711,-29.72625 30.97076,-29.72605 30.97072,-29.72611 30.9707,-29.72615 30.97068,-29.72618 30.97067,-29.72621 30.97063,-29.72628 30.9706,-29.72636 30.97059,-29.72642 30.97058,-29.72651 30.97057,-29.72656 30.97057,-29.72665 30.97058,-29.72673 30.97059,-29.7268 30.97061,-29.72687 30.97064,-29.72696 30.97068,-29.72708 30.97075,-29.72726 30.97081,-29.72741 30.9709,-29.72765 30.97091,-29.72768 30.97092,-29.7277 30.971,-29.7279 30.9711,-29.72813 30.97103,-29.72816 30.97099,-29.72819 30.97097,-29.72822 30.97095,-29.72826 30.97095,-29.72831 30.97098,-29.72852 30.97099,-29.72865 30.97099,-29.72873 30.97097,-29.72886 30.97091,-29.7291 30.97084,-29.72937 30.97081,-29.72952 30.9708,-29.72964 30.97079,-29.72984 30.97058,-29.72985 30.97047,-29.72985 30.97042,-29.72984 30.97037,-29.72982 30.97032,-29.72979 30.97026,-29.72972 30.96996,-29.72928 30.96981,-29.72907 30.96971,-29.72895 30.96964,-29.72886 30.96959,-29.72881 30.96948,-29.72871 30.96936,-29.72863 30.9692,-29.72854 30.96911,-29.72849 30.96886,-29.72839 30.96857,-29.72826 30.96847,-29.72822 30.96792,-29.72798 30.96782,-29.72795 30.96774,-29.72793 30.96761,-29.72792 30.96751,-29.72791 30.9674,-29.72791 30.96729,-29.72792 30.96721,-29.72794 30.96709,-29.72799 30.96708,-29.72799 30.96705,-29.72801 30.9669,-29.72811 30.96679,-29.72821 30.96673,-29.72827 30.96668,-29.72835 30.96664,-29.72843 30.9666,-29.72855 30.96637,-29.72941 30.96633,-29.72963 30.96626,-29.72964 30.96612,-29.72967 30.96604,-29.72966 30.96598,-29.72965 30.96579,-29.73035 30.9658,-29.73052 30.96584,-29.73069 30.96593,-29.73092 30.96562,-29.73105 30.96554,-29.73141 30.96554,-29.73141 30.96537,-29.73141 30.96518,-29.73142 30.96501,-29.7315 30.96488,-29.73165 30.96476,-29.73157 30.96461,-29.73145 30.9644,-29.73134 30.96428,-29.73128 30.9642,-29.73122 30.96404,-29.73123 30.96396,-29.73114 30.96383,-29.73103 30.96365,-29.73092 30.96343,-29.73076 30.96323,-29.73068 30.96307,-29.73062 30.96296,-29.73057 30.96284,-29.73061 30.96273,-29.73063 30.96267,-29.7307 30.96259,-29.73088 30.96253,-29.73102 30.96232,-29.73132 30.96221,-29.73144 30.962,-29.7316 30.96185,-29.73176 30.96174,-29.73193 30.96169,-29.73213 30.96162,-29.7323 30.96152,-29.73234 30.96152,-29.73234 30.96152,-29.73235 30.96155,-29.73254 30.96161,-29.7327 30.96185,-29.73322 30.96238,-29.73314 30.96271,-29.73311 30.96291,-29.73312 30.96314,-29.73315 30.96329,-29.73318 30.96348,-29.73326 30.9639,-29.73346 30.96423,-29.73363 30.9645,-29.73379 30.96472,-29.73394 30.96486,-29.73407 30.96451,-29.73425 30.9643,-29.73439 30.96438,-29.73452 30.96414,-29.7347 30.96399,-29.73481 30.96359,-29.73509 30.96347,-29.73497 30.96328,-29.73512 30.96338,-29.73524 30.96315,-29.73537 30.96288,-29.73555 30.96266,-29.73571 30.96216,-29.73606 30.9617,-29.73633 30.96138,-29.73643 30.96106,-29.73649 30.96093,-29.73652 30.96078,-29.73653 30.96065,-29.7366 30.96042,-29.73664 30.96027,-29.73663 30.96002,-29.73668 30.95971,-29.73676 30.95947,-29.73679 30.95942,-29.73704 30.95942,-29.73708 30.95911,-29.73713 30.9591,-29.73721 30.9591,-29.73735 30.95895,-29.73846 30.95883,-29.73935 30.95882,-29.73943 30.95897,-29.73961 30.95892,-29.73964 30.95846,-29.73986 30.9588,-29.7405 30.95903,-29.74092 30.95889,-29.74102 30.95864,-29.74105 30.95863,-29.74126 30.95857,-29.74162 30.95845,-29.74176 30.95843,-29.74179 30.95845,-29.74208 30.95841,-29.74243 30.95828,-29.74309 30.95828,-29.74309 30.95823,-29.74328 30.95815,-29.74363 30.95794,-29.74468 30.95783,-29.7449 30.95787,-29.74496 30.95793,-29.74508 30.95828,-29.74637 30.95819,-29.74649 30.95816,-29.74668 30.95816,-29.74668 30.95812,-29.74672 30.95803,-29.74678 30.95793,-29.74682 30.95792,-29.74682 30.95776,-29.74691 30.95773,-29.74695 30.95764,-29.74701 30.95751,-29.74711 30.95737,-29.74716 30.95737,-29.74719 30.95737,-29.74726 30.95741,-29.74735 30.95747,-29.74751 30.95754,-29.74766 30.95766,-29.748 30.95775,-29.74822 30.95784,-29.74842 30.95785,-29.74844 30.95785,-29.74844 30.95783,-29.7485 30.95779,-29.7486 30.95776,-29.74865 30.95771,-29.74863 30.95766,-29.74875 30.95756,-29.74903 30.95753,-29.74925 30.95747,-29.74929 30.95746,-29.74934 30.95745,-29.7494 30.95746,-29.7495 30.95749,-29.74956 30.95747,-29.74988 30.95747,-29.74989 30.95742,-29.75034 30.95744,-29.75041 30.95751,-29.75075 30.95758,-29.75084 30.95763,-29.75099 30.95763,-29.75099 30.95763,-29.75099 30.9576,-29.751 30.95735,-29.75113 30.95706,-29.75127 30.9568,-29.75142 30.9567,-29.75147 30.95658,-29.75153 30.95665,-29.75165 30.95667,-29.75168 30.95663,-29.75172 30.95645,-29.7519 30.95636,-29.75199 30.95633,-29.75201 30.95628,-29.75203 30.95622,-29.75206 30.9562,-29.75207 30.95617,-29.7521 30.95614,-29.75212 30.95609,-29.75215 30.95593,-29.75225 30.95586,-29.7523 30.95583,-29.75232 30.9558,-29.75233 30.95572,-29.75235 30.95565,-29.75237 30.95561,-29.75239 30.95555,-29.75239 30.95553,-29.75241 30.95549,-29.75242 30.95545,-29.75243 30.9553,-29.75246 30.95524,-29.75247 30.95522,-29.75247 30.95521,-29.7525 30.95517,-29.75251 30.95493,-29.75254 30.95471,-29.75256 30.95467,-29.75255 30.9546,-29.75253 30.95454,-29.75254 30.95449,-29.75254 30.95445,-29.75256 30.95443,-29.75256 30.95421,-29.75257 30.95402,-29.75257 30.95394,-29.75265 30.95403,-29.75276 30.95407,-29.75282 30.9541,-29.75285 30.95414,-29.75295 30.9542,-29.75306 30.95433,-29.75334 30.95449,-29.75368 30.95451,-29.75372 30.95454,-29.75396 30.95454,-29.754 30.95454,-29.75401 30.95458,-29.75427 30.9546,-29.75432 30.95475,-29.7543 30.95477,-29.7543 30.95491,-29.75432 30.95499,-29.75433 30.95501,-29.75431 30.95504,-29.7543 30.95507,-29.75431 30.95514,-29.75434 30.95514,-29.75436 30.95526,-29.75442 30.95548,-29.75452 30.95549,-29.75452 30.95549,-29.75452 30.95536,-29.75471 30.95535,-29.75472 30.95534,-29.75476 30.95533,-29.75478 30.95526,-29.75492 30.95524,-29.75495 30.95517,-29.75507 30.95513,-29.75508 30.95508,-29.75511 30.95504,-29.75513 30.95501,-29.75515 30.955,-29.75518 30.95497,-29.7552 30.95489,-29.75525 30.9548,-29.7553 30.95474,-29.75533 30.95467,-29.75538 30.95463,-29.75539 30.95458,-29.75539 30.95456,-29.75543 30.95452,-29.75546 30.95449,-29.7555 30.95449,-29.75554 30.95438,-29.75563 30.95437,-29.75564 30.95424,-29.75574 30.95415,-29.75579 30.95414,-29.75585 30.95411,-29.75586 30.95404,-29.75587 30.95403,-29.75587 30.954,-29.75594 30.95399,-29.75597 30.95397,-29.75599 30.95392,-29.7561 30.95381,-29.75614 30.95372,-29.75605 30.95369,-29.75604 30.95348,-29.75618 30.95327,-29.75629 30.95311,-29.75638 30.95312,-29.75642 30.95331,-29.75669 30.9532,-29.75674 30.95316,-29.75676 30.9531,-29.7568 30.95291,-29.75696 30.95281,-29.75701 30.95264,-29.75701 30.95247,-29.75701 30.95243,-29.7573 30.95223,-29.75732 30.95195,-29.75734 30.95156,-29.75739 30.95146,-29.75741 30.9514,-29.75745 30.95135,-29.75748 30.9513,-29.75754 30.95088,-29.75743 30.95079,-29.75738 30.95076,-29.75737 30.9507,-29.75735 30.95067,-29.75734 30.95064,-29.75734 30.95061,-29.75734 30.95057,-29.75733 30.95055,-29.75732 30.95051,-29.75732 30.95048,-29.75732 30.95044,-29.75731 30.95037,-29.75745 30.95018,-29.75786 30.95012,-29.7579 30.95011,-29.75796 30.95006,-29.75799 30.95003,-29.75804 30.95008,-29.75811 30.95015,-29.75824 30.95015,-29.75828 30.95023,-29.75844 30.95023,-29.75864 30.95024,-29.75868 30.95023,-29.75894 30.95022,-29.7593 30.95018,-29.75947 30.95013,-29.75958 30.95011,-29.7597 30.95005,-29.75989 30.95,-29.76004 30.94998,-29.7601 30.94999,-29.76013 30.94995,-29.76026 30.94986,-29.76054 30.94989,-29.76055 30.94994,-29.76057 30.94997,-29.76058 30.94999,-29.76059 30.95002,-29.76059 30.95006,-29.76056 30.95009,-29.76056 30.95013,-29.76056 30.95015,-29.76057 30.95016,-29.76059 30.95036,-29.76062 30.95092,-29.76071 30.95092,-29.76074 30.95115,-29.76078 30.952,-29.7609 30.95287,-29.76103 30.95354,-29.76113 30.95358,-29.76113 30.95391,-29.76118 30.95397,-29.76119 30.95399,-29.76121 30.95402,-29.76121 30.9541,-29.76122 30.95427,-29.76123 30.95458,-29.76128 30.95467,-29.76129 30.95492,-29.76132 30.95525,-29.76138 30.95555,-29.76142 30.95577,-29.76143 30.95602,-29.76144 30.95653,-29.76147 30.95653,-29.76149 30.9565,-29.76155 30.9565,-29.76158 30.95645,-29.76166 30.95637,-29.76181 30.95636,-29.76181 30.95608,-29.76182 30.95584,-29.76182 30.95552,-29.76183 30.95546,-29.76262 30.95543,-29.76265 30.95543,-29.76265 30.95536,-29.76295 30.95533,-29.76311 30.95523,-29.76349 30.95528,-29.7635 30.95539,-29.76351 30.95545,-29.76351 30.95551,-29.76352 30.95558,-29.76352 30.95566,-29.76353 30.95583,-29.76358 30.95594,-29.7636 30.95599,-29.76363 30.95606,-29.76363 30.95611,-29.76363 30.95627,-29.76364 30.95627,-29.76365 30.9563,-29.76382 30.95638,-29.76398 30.95651,-29.76422 30.95644,-29.76424 30.95632,-29.76428 30.95614,-29.76435 30.95614,-29.76435 30.95575,-29.76458 30.95567,-29.76463 30.95539,-29.76479 30.95525,-29.76487 30.95517,-29.76495 30.95513,-29.76509 30.95508,-29.76538 30.95479,-29.76536 30.95433,-29.76532 30.95378,-29.76526 30.95324,-29.76521 30.95284,-29.76517 30.95233,-29.76511 30.95231,-29.7651 30.95225,-29.76505 30.95178,-29.765 30.95163,-29.76499 30.9515,-29.76498 30.95147,-29.76498 30.95144,-29.76499 30.9513,-29.765 30.9507,-29.76495 30.9504,-29.76491 30.95028,-29.76491 30.9502,-29.76496 30.95019,-29.76496 30.95018,-29.76496 30.95015,-29.76495 30.95009,-29.76489 30.94997,-29.76486 30.94984,-29.76484 30.94984,-29.76484 30.94984,-29.76466 30.94983,-29.76459 30.9498,-29.76436 30.94968,-29.76378 30.94928,-29.76279 30.94928,-29.76279 30.94841,-29.76296 30.94689,-29.76329 30.94531,-29.76384 30.94455,-29.76413 30.94441,-29.76418 30.94408,-29.7643 30.94388,-29.76438 30.94388,-29.76438 30.94327,-29.76461 30.94313,-29.76467 30.94247,-29.76495 30.94179,-29.76519 30.94094,-29.76543 30.94022,-29.76554 30.94018,-29.76554 30.93953,-29.76551 30.93935,-29.76549 30.93859,-29.7654 30.93849,-29.76575 30.93842,-29.76597 30.93832,-29.76631 30.93804,-29.76684 30.93783,-29.76703 30.93762,-29.76726 30.93734,-29.76736 30.93703,-29.76742 30.93665,-29.76743 30.93613,-29.76731 30.93583,-29.7674 30.93556,-29.76739 30.93517,-29.76721 30.93473,-29.76711 30.93436,-29.7671 30.93365,-29.76717 30.93313,-29.7672 30.9327,-29.76722 30.93198,-29.76699 30.93148,-29.76701 30.93094,-29.76673 30.93094,-29.76673 30.93099,-29.76668 30.93151,-29.76634 30.9316,-29.76628 30.93171,-29.76621 30.93184,-29.76613 30.93206,-29.76598 30.93219,-29.76587 30.93226,-29.76578 30.93235,-29.76566 30.93244,-29.76555 30.93252,-29.76544 30.93258,-29.76535 30.93266,-29.76526 30.93271,-29.7652 30.93279,-29.76512 30.93292,-29.76497 30.93313,-29.76475 30.93341,-29.76445 30.93361,-29.76421 30.93371,-29.76409 30.93376,-29.76403 30.9339,-29.76384 30.93399,-29.76367 30.93402,-29.76355 30.93406,-29.76308 30.93407,-29.76299 30.93409,-29.7627 30.93409,-29.76261 30.93406,-29.76252 30.93404,-29.76247 30.93399,-29.76236 30.93394,-29.76222 30.93407,-29.76192 30.93405,-29.7619 30.93404,-29.76185 30.93409,-29.76171 30.93415,-29.76153 30.93418,-29.76142 30.93419,-29.76119 30.9342,-29.76094 30.93421,-29.76083 30.93421,-29.76074 30.93421,-29.76074 30.9342,-29.76059 30.93417,-29.75993 30.93415,-29.75981 30.93415,-29.75972 30.93415,-29.75972 30.93413,-29.75968 30.93412,-29.75963 30.93412,-29.75959 30.93408,-29.75931 30.93397,-29.75883 30.93388,-29.75855 30.93384,-29.75846 30.93381,-29.75842 30.93378,-29.75836 30.93354,-29.75793 30.93328,-29.7575 30.9332,-29.75736 30.93305,-29.75713 30.93291,-29.75694 30.93259,-29.75663 30.93227,-29.75629 30.93217,-29.75618 30.932,-29.75601 30.93194,-29.75596 30.93188,-29.75591 30.93181,-29.75586 30.93153,-29.75562 30.93134,-29.75547 30.93129,-29.75543 30.93115,-29.75535 30.93092,-29.7552 30.93081,-29.75512 30.93058,-29.75501 30.93022,-29.75486 30.93006,-29.75481 30.92991,-29.75476 30.92968,-29.7547 30.92962,-29.75469 30.9295,-29.75467 30.92942,-29.75465 30.92936,-29.75465 30.92929,-29.75466 30.92914,-29.75465 30.9291,-29.75465 30.92905,-29.75466 30.92898,-29.75465 30.9289,-29.75465 30.92884,-29.75465 30.92902,-29.75365 30.92893,-29.75289 30.92871,-29.75244 30.92825,-29.75221 30.92797,-29.75197 30.92763,-29.75173 30.92763,-29.75135 30.9277,-29.75089 30.92737,-29.75091 30.92704,-29.7508 30.92662,-29.7505 30.92626,-29.75018 30.926,-29.7498 30.92573,-29.7496 30.92537,-29.74941 30.92518,-29.74916 30.92518,-29.74891 30.92518,-29.74873 30.92519,-29.74865 30.9252,-29.74853 30.92513,-29.74836 30.92503,-29.74823 30.92502,-29.74824 30.92502,-29.74828 30.92498,-29.74834 30.92467,-29.74815 30.92444,-29.748 30.92427,-29.74781 30.92413,-29.74761 30.92394,-29.74722 30.92376,-29.74692 30.92346,-29.74666 30.92335,-29.74625 30.92321,-29.74611 30.92321,-29.74611 30.92293,-29.74642 30.92264,-29.7463 30.92248,-29.74596 30.92248,-29.74569 30.92212,-29.74557 30.92181,-29.74547 30.92158,-29.74521 30.9215,-29.74498 30.92125,-29.74487 30.92099,-29.74469 30.92069,-29.74455 30.92064,-29.74429 30.92058,-29.74418 30.92054,-29.74415 30.92045,-29.74416 30.92029,-29.74431 30.92006,-29.74463 30.91992,-29.74471 30.9199,-29.74468 30.91987,-29.74449 30.91977,-29.74414 30.91961,-29.7434 30.91934,-29.7421 30.91934,-29.74197 30.91944,-29.74152 30.91949,-29.74118 30.9195,-29.74111 30.91957,-29.74087 30.91961,-29.74064 30.91962,-29.7404 30.91962,-29.74029 30.91973,-29.73977 30.91983,-29.73939 30.92003,-29.73908 30.92017,-29.73887 30.9202,-29.73882 30.92021,-29.7388 30.92027,-29.73868 30.92033,-29.73863 30.92065,-29.73852 30.92069,-29.73843 30.92095,-29.73837 30.92116,-29.73833 30.92132,-29.73831 30.92142,-29.73828 30.92149,-29.73823 30.92169,-29.73823 30.92202,-29.73802 30.9218,-29.73783 30.92165,-29.73769 30.92158,-29.73763 30.92149,-29.73755 30.92135,-29.73745 30.92122,-29.73737 30.9211,-29.73729 30.92081,-29.73716 30.92047,-29.737 30.92027,-29.73691 30.92017,-29.73687 30.92009,-29.73684 30.92005,-29.73682 30.92014,-29.73635 30.92048,-29.73462 30.92008,-29.7344 30.91999,-29.73423 30.91999,-29.73369 30.91974,-29.7333 30.91976,-29.73325 30.91982,-29.73302 30.91993,-29.73282 30.91991,-29.73266 30.91992,-29.73261 30.92027,-29.7322 30.92031,-29.7322 30.92041,-29.7322 30.92058,-29.7322 30.92098,-29.7322 30.92098,-29.73212 30.92096,-29.73211 30.92088,-29.73208 30.92084,-29.73206 30.92067,-29.73193 30.92045,-29.73176 30.92056,-29.73164 30.92064,-29.7315 30.92069,-29.73146 30.92074,-29.73143 30.92079,-29.73141 30.92082,-29.73138 30.92082,-29.73132 30.92085,-29.73126 30.92081,-29.73123 30.92081,-29.73121 30.92082,-29.73117 30.92083,-29.73109 30.92091,-29.73081 30.92096,-29.73078 30.92096,-29.73077 30.92102,-29.73073 30.92106,-29.73071 30.92111,-29.73067 30.9211,-29.73065 30.92112,-29.73063 30.92126,-29.73055 30.92124,-29.73048 30.92124,-29.73044 30.92125,-29.73018 30.92126,-29.73015 30.92126,-29.73002 30.92126,-29.73 30.92123,-29.72999 30.92119,-29.73001 30.92114,-29.72999 30.92111,-29.72995 30.92111,-29.72991 30.92111,-29.72988 30.92114,-29.72985 30.92113,-29.72981 30.92108,-29.72977 30.92105,-29.72975 30.921,-29.72974 30.92098,-29.7297 30.92095,-29.72967 30.92092,-29.72966 30.92091,-29.72963 30.92087,-29.7296 30.92083,-29.72958 30.92081,-29.72956 30.92077,-29.72955 30.92071,-29.72955 30.92066,-29.72954 30.92064,-29.72953 30.92058,-29.7295 30.92053,-29.72948 30.92047,-29.72946 30.92042,-29.72943 30.92036,-29.72941 30.92033,-29.72937 30.92027,-29.72935 30.92023,-29.72937 30.92017,-29.72934 30.92011,-29.72931 30.92003,-29.7293 30.92001,-29.72927 30.91996,-29.72923 30.91989,-29.72919 30.91985,-29.72917 30.9198,-29.72911 30.91974,-29.7291 30.9197,-29.7291 30.9197,-29.72907 30.91968,-29.72903 30.91965,-29.72903 30.9196,-29.72906 30.91952,-29.72907 30.91948,-29.72905 30.91943,-29.72901 30.91939,-29.729 30.91934,-29.72896 30.91932,-29.72892 30.91931,-29.72886 30.91931,-29.72885 30.9193,-29.72881 30.9193,-29.72876 30.91931,-29.72871 30.91929,-29.72867 30.91926,-29.72862 30.91926,-29.72856 30.91925,-29.72852 30.91922,-29.72847 30.9192,-29.72841 30.91918,-29.72838 30.91914,-29.72833 30.91913,-29.72827 30.91913,-29.72822 30.9191,-29.72814 30.9191,-29.72811 30.91911,-29.72808 30.91912,-29.72805 30.91912,-29.72799 30.91909,-29.72794 30.91905,-29.72788 30.91906,-29.72784 30.91908,-29.72781 30.91908,-29.72775 30.91908,-29.72771 30.91911,-29.72767 30.91913,-29.72763 30.91914,-29.72758 30.91914,-29.72752 30.91914,-29.72745 30.91915,-29.72739 30.91918,-29.72733 30.91918,-29.72722 30.91922,-29.72719 30.91925,-29.72717 30.91927,-29.72712 30.9193,-29.72708 30.91934,-29.72708 30.91938,-29.72705 30.9194,-29.72706 30.91945,-29.7271 30.91947,-29.72715 30.91955,-29.72716 30.91957,-29.72713 30.91958,-29.72709 30.91957,-29.72705 30.91955,-29.72703 30.91953,-29.727 30.91953,-29.72695 30.91955,-29.72691 30.91959,-29.72691 30.91963,-29.72691 30.91968,-29.72691 30.91975,-29.72687 30.9198,-29.72683 30.91981,-29.72683 30.91983,-29.7268 30.91984,-29.72675 30.91987,-29.72672 30.91989,-29.72667 30.91989,-29.72662 30.91986,-29.72658 30.91983,-29.72657 30.91983,-29.72651 30.91985,-29.72648 30.91983,-29.72644 30.91981,-29.72641 30.91984,-29.72635 30.91988,-29.72631 30.91991,-29.72627 30.91994,-29.7262 30.91997,-29.72615 30.91999,-29.72611 30.92001,-29.72605 30.92001,-29.72599 30.92004,-29.72595 30.92007,-29.72589 30.92005,-29.72582 30.91999,-29.72579 30.91995,-29.72576 30.91994,-29.72572 30.91997,-29.72568 30.92,-29.72565 30.92003,-29.72562 30.9201,-29.72559 30.92011,-29.72555 30.92011,-29.72552 30.92011,-29.72549 30.92014,-29.72545 30.92014,-29.72542 30.92011,-29.72537 30.92007,-29.72534 30.92004,-29.72529 30.92001,-29.72524 30.92002,-29.72522 30.92002,-29.72517 30.92002,-29.72513 30.92002,-29.72511 30.91998,-29.72508 30.91992,-29.72504 30.9199,-29.72499 30.91991,-29.72496 30.91991,-29.72494 30.91989,-29.72491 30.91985,-29.72489 30.91983,-29.72486 30.91982,-29.72482 30.91986,-29.72482 30.91992,-29.72477 30.91999,-29.72474 30.92005,-29.72473 30.9202,-29.72466 30.92032,-29.72462 30.92038,-29.72458 30.92043,-29.72454 30.92047,-29.72452 30.92051,-29.72451 30.92058,-29.7245 30.92064,-29.7245 30.92071,-29.72448 30.92074,-29.7245 30.92077,-29.7245 30.92082,-29.72449 30.92086,-29.72446 30.9209,-29.72443 30.92094,-29.72442 30.92098,-29.72442 30.92102,-29.72443 30.92106,-29.72443 30.9211,-29.72443 30.92114,-29.72442 30.92117,-29.72441 30.92121,-29.72443 30.92125,-29.72446 30.9213,-29.72446 30.92139,-29.72446 30.92156,-29.72451 30.92183,-29.72459 30.92188,-29.72459 30.92216,-29.72459 30.92231,-29.72459 30.92279,-29.72419 30.92283,-29.72417 30.92285,-29.72413 30.92282,-29.724 30.92281,-29.72395 30.92288,-29.72393 30.92294,-29.72387 30.92296,-29.72383 30.923,-29.72381 30.92305,-29.72381 30.92309,-29.72379 30.92315,-29.72373 30.92358,-29.72348 30.92371,-29.72339 30.92402,-29.72323 30.92391,-29.72304 30.92353,-29.72242 30.92336,-29.72214 30.92328,-29.72199 30.92322,-29.72188 30.92307,-29.72158 30.92293,-29.72127 30.923,-29.72124 30.92339,-29.72105 30.92373,-29.72089 30.9238,-29.72087 30.92407,-29.72077 30.92406,-29.72063 30.92409,-29.72051 30.92413,-29.72045 30.92447,-29.72045 30.92497,-29.72043 30.92557,-29.72039 30.92562,-29.72039 30.92649,-29.72035 30.92705,-29.72032 30.92739,-29.72029 30.92799,-29.72026 30.92799,-29.72022 30.92834,-29.72019 30.92877,-29.72017 30.92914,-29.72015 30.92936,-29.72013 30.92965,-29.72012 30.92982,-29.72012 30.93019,-29.72009 30.93036,-29.72009 30.93044,-29.72008 30.9305,-29.72006 30.93064,-29.72008 30.93083,-29.72006 30.93119,-29.72006 30.93124,-29.72006 30.93126,-29.72004 30.93129,-29.72002 30.9317,-29.71999 30.9322,-29.71996 30.93293,-29.71992 30.93313,-29.71991 30.93338,-29.7199 30.93375,-29.71988 30.93404,-29.71986 30.93471,-29.71982 30.93475,-29.71982 30.93491,-29.71981 30.93498,-29.71983 30.93507,-29.71985 30.9351,-29.71985 30.93517,-29.71985 30.93524,-29.71984 30.93531,-29.71984 30.93539,-29.71983 30.93547,-29.71996 30.93556,-29.72009 30.93562,-29.72005 30.93574,-29.72001 30.93592,-29.71997 30.93603,-29.71995 30.9362,-29.71993 30.93642,-29.71993 30.93667,-29.71995 30.93673,-29.71996 30.93727,-29.72001 30.93853,-29.72012 30.93895,-29.72016 30.93908,-29.72017 30.9394,-29.72022 30.93956,-29.72029 30.9396,-29.72022 30.93967,-29.7201 30.93972,-29.72002 30.93976,-29.71995 30.93978,-29.7199 30.93979,-29.71984 30.9398,-29.71981 30.93982,-29.71966 30.93983,-29.7196 30.93983,-29.71956 30.93983,-29.71951 30.93982,-29.71943 30.93981,-29.71937 30.93981,-29.71932 30.93979,-29.71925 30.93978,-29.71922 30.93986,-29.71918 30.93994,-29.7193 30.94007,-29.71946 30.94006,-29.71948 30.94007,-29.71948 30.94011,-29.71952 30.94014,-29.71955 30.94051,-29.71988 30.94061,-29.71996 30.94067,-29.72003 30.94074,-29.7201 30.94078,-29.72015 30.9408,-29.72019 30.94083,-29.72026 30.94087,-29.72037 30.94089,-29.72041 30.94091,-29.72046 30.94093,-29.72049 30.94095,-29.72053 30.94097,-29.72055 30.94099,-29.72058 30.94112,-29.7204 30.94114,-29.72036 30.94125,-29.72025 30.94134,-29.72015 30.94137,-29.72009 30.94143,-29.72002 30.94163,-29.71984 30.94163,-29.71979 30.94155,-29.71947 30.94161,-29.71944 30.94168,-29.71942 30.94174,-29.7194 30.94176,-29.71939 30.94179,-29.71938 30.94181,-29.71937 30.94194,-29.71933 30.94211,-29.71928 30.94226,-29.71924 30.94236,-29.71921 30.94249,-29.71917 30.94253,-29.71917 30.94284,-29.71907 30.94292,-29.71905 30.94306,-29.71901 30.94328,-29.71894 30.94332,-29.71893 30.94332,-29.71892 30.94333,-29.7189 30.94336,-29.7189 30.94341,-29.7189 30.94366,-29.71882 30.9437,-29.71881 30.94375,-29.71879 30.94379,-29.71878 30.94381,-29.71878 30.94407,-29.71871 30.94426,-29.71865 30.94428,-29.71862 30.94431,-29.71861 30.94434,-29.7186 30.94435,-29.7186 30.94438,-29.7186 30.9444,-29.7186 30.94441,-29.7186 30.94456,-29.71856 30.94463,-29.71854 30.9448,-29.71849 30.94501,-29.71842 30.9452,-29.71836 30.94539,-29.7183 30.94543,-29.71833 30.94549,-29.71831 30.94555,-29.71828 30.9456,-29.71832 30.94563,-29.71831 30.94567,-29.7183 30.94571,-29.71826 30.94573,-29.71821 30.94573,-29.7182 30.94579,-29.71819 30.9459,-29.71816 30.946,-29.71814 30.94606,-29.71813 30.94608,-29.71813 30.94613,-29.71813 30.94612,-29.71809 30.94612,-29.71808 30.94616,-29.71808 30.94621,-29.71808 30.94629,-29.71805 30.94644,-29.71801 30.94662,-29.71795 30.94676,-29.71791 30.94688,-29.71788 30.94698,-29.71785 30.947,-29.71785 30.94702,-29.71784 30.94717,-29.71779 30.94722,-29.71778 30.94724,-29.71775 30.94727,-29.71774 30.94729,-29.71774 30.94742,-29.71775 30.94745,-29.71774 30.9475,-29.71769 30.94753,-29.71767 30.94758,-29.71764 30.94761,-29.71763 30.94767,-29.71763 30.94772,-29.71763 30.94775,-29.71762 30.94777,-29.7176 30.94779,-29.71758 30.94785,-29.71756 30.94786,-29.71756 30.94799,-29.71752 30.94804,-29.71751 30.94804,-29.71754 30.94813,-29.71754 30.94812,-29.71749 30.94837,-29.71741 30.94856,-29.71735 30.94891,-29.71724 30.94911,-29.71718 30.94923,-29.71714 30.94945,-29.71708 30.94952,-29.71706 30.94968,-29.71701 30.94978,-29.71698 30.95009,-29.71689 30.95048,-29.71677 30.95087,-29.71665 30.95121,-29.71655 30.95162,-29.71642 30.95196,-29.71632 30.95221,-29.71625 30.9524,-29.71619 30.95228,-29.71497 30.95228,-29.71496 30.95224,-29.7147 30.9522,-29.71435 30.95219,-29.71427 30.95218,-29.71422 30.95216,-29.71403 30.95212,-29.71391 30.95205,-29.71366 30.95203,-29.71361 30.95208,-29.7136 30.95212,-29.7136 30.95214,-29.7136 30.95219,-29.71361 30.95224,-29.71363 30.95234,-29.71366 30.95243,-29.71369 30.95249,-29.71369 30.95263,-29.71371 30.9527,-29.71372 30.95276,-29.71371 30.95283,-29.71369 30.95287,-29.71366 30.9529,-29.71363 30.95293,-29.71358 30.95295,-29.71353 30.95296,-29.71347 30.95296,-29.71338 30.95295,-29.7133 30.95295,-29.71326 30.95295,-29.71317 30.95293,-29.71296 30.95292,-29.71288 30.95308,-29.71281 30.95329,-29.71297 30.95334,-29.71298</coordinates></LinearRing></outerBoundaryIs></Polygon></MultiGeometry></Placemark></Document></kml>