<?xml version="1.0" encoding="UTF-8"?><kml xmlns="http://www.opengis.net/kml/2.2"><Document><Placemark><name>Nhlungwane</name><description>Sub Place 599037018</description><ExtendedData><Data name="code"><value>599037018</value></Data><Data name="name"><value>Nhlungwane</value></Data><Data name="description"><value>Sub Place 599037018</value></Data></ExtendedData><MultiGeometry><Polygon><outerBoundaryIs><LinearRing><coordinates>30.96973,-29.71757 30.96985,-29.71758 30.96993,-29.71757 30.97001,-29.71754 30.97009,-29.71748 30.97017,-29.71741 30.97024,-29.71737 30.97028,-29.71738 30.97031,-29.71731 30.97035,-29.71724 30.97042,-29.71717 30.97049,-29.71714 30.97057,-29.71713 30.97066,-29.71714 30.97064,-29.71698 30.97073,-29.717 30.97101,-29.71708 30.97109,-29.71709 30.97117,-29.71709 30.97129,-29.7171 30.97124,-29.71724 30.9713,-29.71725 30.97208,-29.71743 30.97217,-29.71712 30.97222,-29.71716 30.97236,-29.71728 30.97256,-29.71742 30.9727,-29.71749 30.97279,-29.7175 30.97284,-29.71749 30.97291,-29.71744 30.97309,-29.71729 30.97322,-29.71716 30.97343,-29.71737 30.97357,-29.71756 30.9736,-29.71762 30.97369,-29.71778 30.97379,-29.7181 30.97387,-29.71835 30.97396,-29.71864 30.974,-29.71876 30.97409,-29.71893 30.97413,-29.71902 30.97427,-29.71921 30.97441,-29.71935 30.97455,-29.71948 30.97466,-29.71955 30.97481,-29.71966 30.97487,-29.71969 30.97503,-29.71978 30.97517,-29.71985 30.97532,-29.71993 30.97538,-29.71999 30.97543,-29.72005 30.97548,-29.72008 30.97553,-29.72009 30.97565,-29.72008 30.97575,-29.72011 30.97594,-29.72017 30.9761,-29.72022 30.97618,-29.72025 30.97623,-29.72025 30.97629,-29.72024 30.97635,-29.72026 30.97639,-29.72029 30.97641,-29.72031 30.9765,-29.72034 30.97656,-29.72039 30.97676,-29.72056 30.97698,-29.72068 30.97712,-29.72076 30.97712,-29.72076 30.97712,-29.72076 30.97709,-29.7208 30.977,-29.72088 30.97685,-29.72096 30.97656,-29.7211 30.9764,-29.72119 30.97625,-29.72133 30.97615,-29.72146 30.9761,-29.72163 30.97613,-29.72198 30.97616,-29.7223 30.97615,-29.72233 30.97612,-29.72236 30.97606,-29.72244 30.976,-29.72247 30.97592,-29.7225 30.97586,-29.72254 30.97576,-29.72258 30.97568,-29.7226 30.97567,-29.72261 30.97555,-29.72268 30.97548,-29.72271 30.97544,-29.72272 30.97539,-29.72272 30.97535,-29.72273 30.9753,-29.72272 30.97529,-29.72278 30.97527,-29.72286 30.97522,-29.72295 30.97518,-29.72298 30.9751,-29.72302 30.97505,-29.72304 30.97499,-29.72306 30.97495,-29.72306 30.9749,-29.72305 30.97486,-29.72304 30.97481,-29.72303 30.97476,-29.72302 30.9747,-29.72302 30.97462,-29.72305 30.97456,-29.72308 30.97448,-29.72307 30.97441,-29.72304 30.97435,-29.72302 30.97429,-29.72299 30.9743,-29.72289 30.97432,-29.72282 30.97432,-29.72277 30.97427,-29.72273 30.97422,-29.72269 30.97416,-29.72268 30.9741,-29.72266 30.97403,-29.72266 30.97398,-29.72263 30.97392,-29.72261 30.97385,-29.72264 30.97378,-29.72262 30.97368,-29.72258 30.97359,-29.72255 30.97349,-29.72254 30.97337,-29.72249 30.97327,-29.72244 30.97317,-29.72243 30.9731,-29.72242 30.97308,-29.72242 30.97301,-29.72242 30.97292,-29.7224 30.97282,-29.72237 30.97276,-29.72234 30.97268,-29.72228 30.97259,-29.72224 30.97254,-29.72219 30.97241,-29.72214 30.97225,-29.72207 30.97191,-29.72189 30.97169,-29.72225 30.97163,-29.72232 30.97163,-29.72232 30.97154,-29.72228 30.97135,-29.7222 30.9712,-29.72215 30.97105,-29.72213 30.97087,-29.72213 30.97071,-29.72215 30.97056,-29.72219 30.97038,-29.72227 30.97011,-29.72243 30.96989,-29.72258 30.96958,-29.7228 30.96938,-29.72295 30.96916,-29.72291 30.96904,-29.72288 30.96867,-29.7228 30.96854,-29.72278 30.96853,-29.72277 30.96841,-29.72273 30.96829,-29.72265 30.96823,-29.72258 30.96818,-29.72252 30.96815,-29.72245 30.96812,-29.72235 30.96812,-29.72227 30.96816,-29.72208 30.96829,-29.72155 30.96834,-29.72133 30.96841,-29.72106 30.96846,-29.72086 30.96855,-29.72052 30.96863,-29.72019 30.96867,-29.71998 30.96869,-29.71983 30.96869,-29.71973 30.9687,-29.71963 30.96873,-29.7192 30.96874,-29.71897 30.96876,-29.71853 30.96877,-29.71836 30.96879,-29.71795 30.96881,-29.71768 30.96882,-29.71729 30.96883,-29.71697 30.96883,-29.71697 30.96888,-29.71698 30.96893,-29.717 30.96898,-29.71704 30.96908,-29.71716 30.96919,-29.71732 30.96927,-29.71747 30.9693,-29.71747 30.96943,-29.71749 30.96962,-29.71754 30.96973,-29.71757</coordinates></LinearRing></outerBoundaryIs></Polygon></MultiGeometry></Placemark></Document></kml>