<?xml version="1.0" encoding="UTF-8"?><kml xmlns="http://www.opengis.net/kml/2.2"><Document><Placemark><name>Waterways</name><description>Sub Place 599002014</description><ExtendedData><Data name="code"><value>599002014</value></Data><Data name="name"><value>Waterways</value></Data><Data name="description"><value>Sub Place 599002014</value></Data></ExtendedData><MultiGeometry><Polygon><outerBoundaryIs><LinearRing><coordinates>31.11751,-29.56671 31.11754,-29.56679 31.11771,-29.56718 31.11747,-29.56726 31.11737,-29.5673 31.11737,-29.5673 31.11723,-29.56736 31.11718,-29.56738 31.11707,-29.56743 31.11696,-29.5675 31.11685,-29.56756 31.11676,-29.56761 31.11669,-29.56766 31.11652,-29.56778 31.11638,-29.5679 31.11637,-29.56791 31.11627,-29.568 31.11617,-29.56811 31.11607,-29.56822 31.11598,-29.56833 31.11591,-29.56843 31.11584,-29.56855 31.11575,-29.56869 31.11567,-29.56883 31.11548,-29.56917 31.11536,-29.56939 31.11524,-29.56959 31.11514,-29.56977 31.11509,-29.56987 31.11498,-29.57008 31.11471,-29.57055 31.11464,-29.57068 31.11456,-29.57083 31.11449,-29.57097 31.11418,-29.57151 31.11418,-29.57152 31.11389,-29.57205 31.11381,-29.57217 31.11374,-29.5723 31.11369,-29.5724 31.11367,-29.57244 31.11363,-29.5725 31.11362,-29.57254 31.11356,-29.57265 31.11351,-29.57274 31.11344,-29.57288 31.11343,-29.57291 31.11338,-29.573 31.11336,-29.57304 31.11318,-29.57334 31.11299,-29.57369 31.11295,-29.57376 31.11292,-29.57382 31.11289,-29.57388 31.11286,-29.57393 31.11276,-29.57411 31.11249,-29.5746 31.11221,-29.5751 31.11205,-29.5754 31.11197,-29.57554 31.11192,-29.57563 31.11187,-29.5757 31.11182,-29.57578 31.11179,-29.57582 31.11176,-29.57587 31.1117,-29.57594 31.11166,-29.57599 31.11158,-29.57608 31.11154,-29.57613 31.11149,-29.57618 31.11145,-29.57622 31.11141,-29.57626 31.11136,-29.5763 31.11132,-29.57634 31.11129,-29.57636 31.11128,-29.57637 31.11128,-29.57637 31.11123,-29.57641 31.11119,-29.57644 31.11114,-29.57648 31.11106,-29.57653 31.11098,-29.57659 31.11091,-29.57663 31.11083,-29.57668 31.11073,-29.57673 31.11063,-29.57678 31.11056,-29.57681 31.11049,-29.57685 31.11037,-29.57689 31.11029,-29.57693 31.11026,-29.57694 31.11023,-29.57695 31.11016,-29.57697 31.11009,-29.57699 31.11004,-29.577 31.10995,-29.57703 31.10986,-29.57705 31.10977,-29.57706 31.10969,-29.57708 31.10963,-29.57709 31.10953,-29.5771 31.10943,-29.57711 31.10935,-29.57711 31.10929,-29.57712 31.10918,-29.57712 31.10897,-29.57711 31.10889,-29.57711 31.10879,-29.5771 31.1087,-29.57709 31.10861,-29.57708 31.10856,-29.57707 31.10846,-29.57705 31.10836,-29.57703 31.10823,-29.577 31.10812,-29.57698 31.10758,-29.57684 31.10682,-29.57665 31.10622,-29.5765 31.10609,-29.57647 31.10609,-29.57647 31.10611,-29.57641 31.10612,-29.57638 31.10613,-29.57636 31.10619,-29.57625 31.10622,-29.57621 31.10623,-29.57618 31.10625,-29.57614 31.10629,-29.57604 31.10632,-29.57594 31.10658,-29.57516 31.10662,-29.57504 31.1069,-29.57424 31.10722,-29.57336 31.10723,-29.57333 31.1073,-29.57335 31.10741,-29.5732 31.10743,-29.57317 31.10744,-29.57315 31.10746,-29.57312 31.10746,-29.57308 31.10747,-29.57303 31.10748,-29.57296 31.10747,-29.57293 31.10747,-29.57291 31.10746,-29.57288 31.10745,-29.57285 31.10743,-29.57282 31.10742,-29.5728 31.1074,-29.57278 31.10738,-29.57276 31.10735,-29.57274 31.10729,-29.57271 31.10721,-29.57267 31.10716,-29.57264 31.10713,-29.57262 31.10712,-29.5726 31.1071,-29.57258 31.1071,-29.57255 31.1071,-29.57253 31.1071,-29.57251 31.10711,-29.5725 31.10712,-29.57247 31.10714,-29.57245 31.10721,-29.57236 31.10732,-29.57221 31.10734,-29.5722 31.10735,-29.57219 31.10736,-29.57219 31.10738,-29.57219 31.10739,-29.5722 31.10748,-29.57224 31.10752,-29.57226 31.10755,-29.57227 31.10759,-29.57228 31.10761,-29.57228 31.10766,-29.57229 31.10774,-29.57229 31.10778,-29.57229 31.10782,-29.57229 31.10784,-29.57229 31.10787,-29.57228 31.108,-29.57224 31.10806,-29.57221 31.10813,-29.57218 31.10822,-29.57214 31.10833,-29.57208 31.10879,-29.57181 31.10884,-29.57178 31.10898,-29.57167 31.10904,-29.57163 31.1091,-29.57159 31.10919,-29.57152 31.10938,-29.57137 31.10947,-29.57131 31.10953,-29.57126 31.10964,-29.57119 31.10975,-29.57112 31.10988,-29.57105 31.10998,-29.571 31.11011,-29.57094 31.11018,-29.5709 31.11076,-29.57063 31.11093,-29.57055 31.11098,-29.57052 31.11106,-29.57048 31.11116,-29.57042 31.11124,-29.57037 31.11133,-29.57031 31.11144,-29.57024 31.11151,-29.57019 31.11163,-29.5701 31.11168,-29.57006 31.11178,-29.56998 31.11188,-29.5699 31.11203,-29.56977 31.11218,-29.56963 31.11229,-29.56952 31.11237,-29.56944 31.11244,-29.56936 31.11254,-29.56924 31.11257,-29.56918 31.1126,-29.56912 31.11263,-29.56906 31.11265,-29.56899 31.11268,-29.56893 31.11272,-29.56879 31.11278,-29.56864 31.11283,-29.56845 31.11289,-29.56816 31.11293,-29.56796 31.11295,-29.56787 31.11296,-29.56775 31.11295,-29.56768 31.11295,-29.56762 31.11293,-29.56754 31.11292,-29.56744 31.11289,-29.56728 31.11288,-29.5672 31.11288,-29.56713 31.11289,-29.56704 31.1129,-29.56699 31.11293,-29.56693 31.11296,-29.56688 31.113,-29.56685 31.11313,-29.56676 31.11317,-29.56674 31.11323,-29.56672 31.11329,-29.56671 31.11332,-29.56671 31.11336,-29.56671 31.1134,-29.56671 31.11343,-29.56671 31.11346,-29.56671 31.11349,-29.56671 31.11353,-29.56672 31.1136,-29.56674 31.11373,-29.56677 31.11376,-29.56678 31.11378,-29.56678 31.11381,-29.56679 31.11381,-29.56679 31.11385,-29.56679 31.11387,-29.56679 31.11391,-29.56678 31.11394,-29.56678 31.11396,-29.56677 31.11399,-29.56677 31.11404,-29.56675 31.11411,-29.56671 31.11416,-29.56667 31.11421,-29.56664 31.11425,-29.5666 31.11427,-29.56658 31.11429,-29.56655 31.11431,-29.56651 31.11434,-29.56645 31.11437,-29.56637 31.11439,-29.56626 31.11442,-29.56615 31.11446,-29.56604 31.11455,-29.56578 31.11463,-29.56559 31.11467,-29.56549 31.11472,-29.5654 31.11481,-29.56526 31.11496,-29.56506 31.11504,-29.56496 31.11512,-29.56489 31.11518,-29.56485 31.11525,-29.56481 31.11533,-29.56478 31.11542,-29.56477 31.1155,-29.56476 31.11558,-29.56476 31.11565,-29.56478 31.11571,-29.5648 31.11578,-29.56483 31.11585,-29.56487 31.11591,-29.56491 31.11596,-29.56496 31.11642,-29.56544 31.11661,-29.56563 31.11666,-29.56568 31.11674,-29.56574 31.11688,-29.56588 31.11702,-29.56601 31.11709,-29.56606 31.11715,-29.56611 31.1172,-29.56616 31.11727,-29.56624 31.11735,-29.56639 31.11751,-29.56671</coordinates></LinearRing></outerBoundaryIs></Polygon></MultiGeometry></Placemark></Document></kml>