<?xml version="1.0" encoding="UTF-8"?><kml xmlns="http://www.opengis.net/kml/2.2"><Document><Placemark><name>Westcliff</name><description>Sub Place 599161004</description><ExtendedData><Data name="code"><value>599161004</value></Data><Data name="name"><value>Westcliff</value></Data><Data name="description"><value>Sub Place 599161004</value></Data></ExtendedData><MultiGeometry><Polygon><outerBoundaryIs><LinearRing><coordinates>30.89771,-29.90689 30.89818,-29.90719 30.89868,-29.90751 30.8992,-29.90786 30.8992,-29.90786 30.8993,-29.90792 30.89953,-29.90806 30.90051,-29.90862 30.90128,-29.9089 30.9013,-29.90891 30.90132,-29.90891 30.90219,-29.90916 30.90276,-29.90933 30.90319,-29.90946 30.90399,-29.9097 30.90477,-29.90987 30.90491,-29.90991 30.90604,-29.91013 30.90688,-29.91029 30.90774,-29.91045 30.90795,-29.91049 30.90893,-29.91067 30.90961,-29.9108 30.91017,-29.9109 30.91064,-29.91102 30.91083,-29.91108 30.91105,-29.91115 30.91137,-29.91126 30.91146,-29.9113 30.91197,-29.91155 30.91243,-29.9118 30.91269,-29.91199 30.91299,-29.9122 30.91329,-29.91241 30.91413,-29.91301 30.91414,-29.91301 30.91414,-29.91301 30.91418,-29.91304 30.91362,-29.91387 30.91392,-29.9143 30.91375,-29.91446 30.91359,-29.91476 30.91343,-29.91507 30.91316,-29.91557 30.91295,-29.91595 30.91284,-29.91607 30.91269,-29.91622 30.91243,-29.91642 30.91232,-29.91649 30.91231,-29.91649 30.91235,-29.91653 30.91246,-29.91665 30.91254,-29.91678 30.91259,-29.91688 30.91265,-29.91701 30.91268,-29.9171 30.91269,-29.91719 30.91271,-29.91731 30.9127,-29.91752 30.91268,-29.91779 30.91265,-29.91848 30.91264,-29.91859 30.91261,-29.9192 30.91257,-29.91952 30.91224,-29.91948 30.91191,-29.91928 30.91152,-29.91904 30.91132,-29.91895 30.91132,-29.91894 30.91042,-29.91859 30.91024,-29.91851 30.90873,-29.91779 30.90767,-29.91738 30.90749,-29.9173 30.90748,-29.9173 30.90708,-29.91712 30.90586,-29.91661 30.90505,-29.91624 30.90511,-29.9161 30.90451,-29.91585 30.90444,-29.91585 30.90429,-29.91589 30.90381,-29.9157 30.90368,-29.91565 30.90368,-29.91565 30.90291,-29.91532 30.90233,-29.9151 30.9014,-29.91469 30.90081,-29.91444 30.90018,-29.91417 30.8996,-29.91394 30.89939,-29.91387 30.89918,-29.91387 30.89893,-29.91376 30.89851,-29.91358 30.89844,-29.91357 30.89844,-29.91357 30.89843,-29.91359 30.89838,-29.9137 30.89825,-29.9139 30.89816,-29.914 30.89807,-29.91405 30.89807,-29.91405 30.89809,-29.91412 30.89814,-29.91425 30.89808,-29.91437 30.89789,-29.91444 30.89786,-29.91452 30.89815,-29.91475 30.89814,-29.91485 30.89845,-29.91493 30.89831,-29.91544 30.89816,-29.91606 30.89795,-29.91696 30.89795,-29.91696 30.89786,-29.91719 30.89775,-29.91775 30.89767,-29.91803 30.89759,-29.91837 30.89751,-29.91878 30.89746,-29.91897 30.89727,-29.9197 30.89663,-29.91967 30.89637,-29.91969 30.89616,-29.91953 30.89607,-29.91945 30.89596,-29.91914 30.89576,-29.91883 30.89561,-29.91859 30.89552,-29.91836 30.89521,-29.91809 30.89464,-29.91755 30.89437,-29.91731 30.89432,-29.91728 30.89412,-29.91725 30.89392,-29.9172 30.89383,-29.91716 30.89369,-29.9171 30.89335,-29.91703 30.893,-29.91703 30.89287,-29.91699 30.89274,-29.91693 30.89269,-29.91692 30.89261,-29.9169 30.89255,-29.91685 30.8925,-29.91678 30.89247,-29.91671 30.89217,-29.91658 30.89178,-29.91636 30.89048,-29.91534 30.89013,-29.91513 30.88997,-29.91503 30.88979,-29.91493 30.88965,-29.91489 30.88954,-29.91486 30.88916,-29.91484 30.88822,-29.91489 30.88796,-29.91556 30.88798,-29.9169 30.88773,-29.91733 30.88741,-29.91785 30.88737,-29.91791 30.88704,-29.9182 30.88698,-29.91825 30.8867,-29.91851 30.88664,-29.91856 30.88652,-29.91867 30.88631,-29.9185 30.88623,-29.91844 30.88622,-29.91844 30.88613,-29.91837 30.88603,-29.91829 30.88572,-29.91803 30.88581,-29.91793 30.8859,-29.91778 30.88596,-29.9176 30.88598,-29.91743 30.88599,-29.91732 30.88599,-29.91718 30.88586,-29.91639 30.88586,-29.91636 30.88584,-29.91619 30.88584,-29.91616 30.88577,-29.91616 30.88562,-29.91617 30.88537,-29.91619 30.88524,-29.91618 30.88517,-29.91615 30.88508,-29.91645 30.88497,-29.91664 30.8849,-29.91671 30.88483,-29.91675 30.88476,-29.91679 30.88467,-29.91682 30.88443,-29.91686 30.88358,-29.91688 30.88306,-29.91686 30.88259,-29.91682 30.8821,-29.91674 30.88153,-29.91662 30.88103,-29.91648 30.88066,-29.91636 30.88035,-29.91622 30.87997,-29.91599 30.87974,-29.91581 30.87941,-29.91549 30.87929,-29.91536 30.87912,-29.91516 30.87857,-29.91456 30.87835,-29.91431 30.87822,-29.91414 30.87812,-29.91398 30.87794,-29.91362 30.87782,-29.9133 30.87777,-29.91315 30.87771,-29.91283 30.87765,-29.91261 30.87759,-29.91246 30.87751,-29.91235 30.87739,-29.91222 30.87739,-29.91223 30.87715,-29.91236 30.87688,-29.91245 30.87684,-29.91247 30.87655,-29.91254 30.8763,-29.91255 30.87586,-29.91258 30.87554,-29.9126 30.87517,-29.91261 30.87516,-29.91261 30.87514,-29.91214 30.87513,-29.91174 30.87509,-29.9109 30.87508,-29.91072 30.87507,-29.91053 30.87506,-29.91024 30.87505,-29.91006 30.87503,-29.90993 30.87495,-29.90974 30.87482,-29.90949 30.87475,-29.90941 30.87464,-29.90927 30.87447,-29.90911 30.87416,-29.90886 30.87384,-29.90864 30.87342,-29.90833 30.87332,-29.90825 30.87313,-29.90815 30.87302,-29.90812 30.87291,-29.90809 30.87282,-29.90807 30.8726,-29.90807 30.87236,-29.90812 30.87234,-29.90813 30.87187,-29.90718 30.87229,-29.90711 30.8724,-29.90709 30.87305,-29.90697 30.87393,-29.90685 30.87438,-29.90681 30.87481,-29.90682 30.87545,-29.90683 30.87621,-29.90686 30.8772,-29.90685 30.87799,-29.90682 30.87811,-29.90682 30.87854,-29.90682 30.8788,-29.90678 30.8792,-29.9067 30.87959,-29.90662 30.87997,-29.90654 30.88035,-29.90647 30.88085,-29.90642 30.88099,-29.90651 30.88118,-29.9066 30.88148,-29.90672 30.88168,-29.90679 30.88204,-29.90688 30.88243,-29.90695 30.88256,-29.90696 30.88263,-29.90697 30.88296,-29.90701 30.88337,-29.90701 30.88355,-29.90698 30.88487,-29.90702 30.88645,-29.90702 30.88712,-29.90705 30.88793,-29.9071 30.88881,-29.90713 30.88912,-29.90713 30.88946,-29.90712 30.89025,-29.90707 30.89084,-29.90701 30.89169,-29.90686 30.89251,-29.90668 30.89323,-29.90648 30.89349,-29.9064 30.8937,-29.90634 30.89403,-29.90627 30.89434,-29.90622 30.89457,-29.90619 30.89476,-29.90618 30.89495,-29.90618 30.89527,-29.90619 30.89547,-29.9062 30.89563,-29.90621 30.89565,-29.90621 30.89611,-29.90628 30.89671,-29.90646 30.89701,-29.90656 30.89704,-29.90656 30.89734,-29.9067 30.89771,-29.90689</coordinates></LinearRing></outerBoundaryIs></Polygon></MultiGeometry></Placemark></Document></kml>