<?xml version="1.0" encoding="UTF-8"?><kml xmlns="http://www.opengis.net/kml/2.2"><Document><Placemark><name>New Germany</name><description>Sub Place 599116011</description><ExtendedData><Data name="code"><value>599116011</value></Data><Data name="name"><value>New Germany</value></Data><Data name="description"><value>Sub Place 599116011</value></Data></ExtendedData><MultiGeometry><Polygon><outerBoundaryIs><LinearRing><coordinates>30.86367,-29.80968 30.86405,-29.8098 30.86407,-29.80973 30.86435,-29.80982 30.86474,-29.80994 30.86538,-29.81013 30.86571,-29.81025 30.8659,-29.81031 30.86592,-29.81042 30.86592,-29.81045 30.86592,-29.81046 30.86591,-29.8105 30.86586,-29.81063 30.86567,-29.8111 30.86552,-29.81142 30.86542,-29.81166 30.86541,-29.81168 30.8654,-29.81171 30.8654,-29.81173 30.86539,-29.81175 30.86523,-29.8121 30.86519,-29.8122 30.86517,-29.81225 30.86516,-29.81229 30.86509,-29.81245 30.86507,-29.81249 30.86502,-29.81261 30.86557,-29.81277 30.86582,-29.81284 30.86594,-29.81288 30.86622,-29.81298 30.86652,-29.81306 30.86661,-29.81308 30.86668,-29.8131 30.86675,-29.81322 30.86686,-29.81335 30.86686,-29.81336 30.86686,-29.81347 30.86692,-29.81352 30.86703,-29.81361 30.86723,-29.81344 30.86725,-29.81343 30.86737,-29.81379 30.86738,-29.81383 30.86743,-29.81397 30.86745,-29.814 30.86748,-29.81411 30.86736,-29.81422 30.8674,-29.81426 30.8676,-29.81445 30.86767,-29.81451 30.86799,-29.81481 30.86822,-29.81504 30.86824,-29.81506 30.86796,-29.81527 30.86772,-29.81544 30.8675,-29.81565 30.86736,-29.81581 30.86725,-29.81599 30.86715,-29.81618 30.86705,-29.81642 30.86671,-29.81728 30.86642,-29.81794 30.86675,-29.81805 30.8671,-29.81817 30.8675,-29.8183 30.8678,-29.81839 30.86811,-29.81849 30.86844,-29.8186 30.8685,-29.81862 30.8687,-29.81868 30.86898,-29.81877 30.86934,-29.81888 30.86953,-29.81895 30.86975,-29.81902 30.86977,-29.81902 30.86996,-29.81856 30.87014,-29.81808 30.87053,-29.81822 30.87103,-29.81841 30.87139,-29.81853 30.87185,-29.81867 30.87191,-29.81869 30.87226,-29.81881 30.87289,-29.81901 30.87311,-29.81908 30.87389,-29.81933 30.8741,-29.8194 30.87458,-29.81956 30.8746,-29.81956 30.8749,-29.81966 30.87508,-29.81971 30.8757,-29.81991 30.876,-29.82001 30.87601,-29.82001 30.87651,-29.82017 30.87652,-29.82017 30.87665,-29.82021 30.87724,-29.8204 30.87818,-29.82069 30.87856,-29.82081 30.87913,-29.82099 30.87968,-29.8212 30.88033,-29.82142 30.88016,-29.82171 30.87998,-29.82204 30.8796,-29.82286 30.87959,-29.82288 30.87948,-29.82312 30.87903,-29.82385 30.87886,-29.82408 30.8786,-29.82443 30.87832,-29.82483 30.87816,-29.82506 30.87809,-29.82521 30.87804,-29.8254 30.878,-29.82558 30.87798,-29.82576 30.87803,-29.82616 30.8781,-29.8267 30.87816,-29.82717 30.8776,-29.82702 30.87692,-29.82682 30.87671,-29.82676 30.87591,-29.82653 30.87501,-29.82629 30.87475,-29.82621 30.87443,-29.82612 30.87381,-29.82595 30.87299,-29.82573 30.87234,-29.82556 30.87178,-29.8254 30.87169,-29.82537 30.87136,-29.82526 30.87133,-29.82525 30.87126,-29.82522 30.87093,-29.8251 30.87081,-29.82506 30.87021,-29.82483 30.86963,-29.82461 30.86907,-29.82441 30.86866,-29.82425 30.86796,-29.82398 30.86706,-29.82358 30.86626,-29.82319 30.86587,-29.82299 30.86541,-29.82276 30.86482,-29.82247 30.86454,-29.82233 30.86405,-29.82208 30.86357,-29.82185 30.8632,-29.82168 30.86301,-29.8216 30.86268,-29.82144 30.86225,-29.82126 30.86176,-29.82106 30.86132,-29.82089 30.86079,-29.82071 30.86031,-29.82054 30.85982,-29.82039 30.85955,-29.82031 30.85954,-29.82031 30.85927,-29.82022 30.85898,-29.82014 30.85855,-29.82 30.8584,-29.81996 30.85828,-29.81992 30.85789,-29.81977 30.85748,-29.81958 30.85721,-29.81944 30.85694,-29.81928 30.85668,-29.81911 30.85643,-29.81892 30.85635,-29.81887 30.85598,-29.81859 30.85552,-29.81822 30.85501,-29.81783 30.8545,-29.81835 30.85409,-29.81877 30.85396,-29.81891 30.85394,-29.81893 30.85371,-29.81917 30.85298,-29.81995 30.85258,-29.82037 30.85226,-29.8207 30.85204,-29.82087 30.85187,-29.82091 30.85161,-29.82091 30.85133,-29.82089 30.85087,-29.82085 30.85062,-29.82082 30.85059,-29.82082 30.8505,-29.8208 30.8502,-29.82076 30.8503,-29.82028 30.85,-29.82024 30.84983,-29.82024 30.84969,-29.82025 30.84953,-29.82026 30.8494,-29.82028 30.84934,-29.82028 30.84924,-29.82027 30.84909,-29.82024 30.84897,-29.82019 30.84889,-29.82014 30.84884,-29.82003 30.84884,-29.81993 30.84877,-29.81984 30.84869,-29.8198 30.84852,-29.81976 30.84835,-29.81968 30.84824,-29.81962 30.84808,-29.81952 30.84797,-29.81943 30.84787,-29.81934 30.84772,-29.81916 30.84762,-29.8191 30.84749,-29.819 30.84737,-29.81887 30.84732,-29.81876 30.84721,-29.81866 30.84712,-29.81859 30.84699,-29.81855 30.84682,-29.81852 30.84668,-29.81849 30.84658,-29.81847 30.84648,-29.81844 30.84639,-29.81837 30.84632,-29.81823 30.84629,-29.81811 30.84623,-29.81802 30.84616,-29.81795 30.84612,-29.8179 30.84611,-29.8179 30.84607,-29.81783 30.84606,-29.81778 30.84603,-29.81766 30.84593,-29.81757 30.84582,-29.81752 30.84569,-29.81747 30.84555,-29.81735 30.84544,-29.81727 30.84535,-29.81719 30.84526,-29.81713 30.84516,-29.81703 30.84506,-29.81691 30.84496,-29.81681 30.84485,-29.81676 30.8447,-29.81673 30.84455,-29.81674 30.84437,-29.81675 30.84416,-29.81677 30.84403,-29.81678 30.84389,-29.81679 30.84369,-29.81679 30.84355,-29.81678 30.84346,-29.81677 30.84335,-29.81674 30.84325,-29.81675 30.84315,-29.81678 30.84304,-29.81683 30.8429,-29.81688 30.84277,-29.81691 30.84265,-29.8169 30.84245,-29.81687 30.84247,-29.81685 30.84308,-29.8161 30.84387,-29.81525 30.84439,-29.81474 30.84487,-29.81433 30.84558,-29.81372 30.84601,-29.81334 30.84662,-29.81283 30.84694,-29.81255 30.84732,-29.8122 30.84783,-29.81175 30.8481,-29.81153 30.84832,-29.81138 30.84848,-29.81132 30.84872,-29.81124 30.84915,-29.81126 30.84941,-29.81127 30.85013,-29.81139 30.85051,-29.8115 30.85083,-29.81165 30.85133,-29.81193 30.85146,-29.81199 30.85169,-29.81211 30.85225,-29.8123 30.85273,-29.81247 30.85294,-29.81253 30.85305,-29.81257 30.85318,-29.81261 30.85357,-29.81274 30.85372,-29.81279 30.85399,-29.81287 30.85401,-29.81288 30.85413,-29.81292 30.85465,-29.81308 30.85494,-29.81316 30.85551,-29.81333 30.85623,-29.81356 30.85671,-29.81374 30.85718,-29.81392 30.85775,-29.8141 30.85827,-29.81426 30.85844,-29.81384 30.85887,-29.81284 30.85899,-29.81256 30.85939,-29.8116 30.8596,-29.81117 30.85966,-29.81102 30.85986,-29.8106 30.85999,-29.81028 30.86001,-29.81024 30.86002,-29.81023 30.86005,-29.81024 30.86053,-29.81037 30.8606,-29.8104 30.8606,-29.8104 30.8606,-29.8104 30.86056,-29.81055 30.86063,-29.81057 30.8608,-29.81063 30.86098,-29.81069 30.86101,-29.81062 30.86102,-29.81059 30.86119,-29.81064 30.86191,-29.81087 30.86218,-29.81016 30.86205,-29.81012 30.86213,-29.80991 30.86224,-29.80965 30.86255,-29.80976 30.86279,-29.80983 30.863,-29.8099 30.86317,-29.80951 30.86332,-29.80956 30.86367,-29.80968</coordinates></LinearRing></outerBoundaryIs></Polygon></MultiGeometry></Placemark></Document></kml>