<?xml version="1.0" encoding="UTF-8"?><kml xmlns="http://www.opengis.net/kml/2.2"><Document><Placemark><name>Lamontville</name><description>Sub Place 599161017</description><ExtendedData><Data name="code"><value>599161017</value></Data><Data name="name"><value>Lamontville</value></Data><Data name="description"><value>Sub Place 599161017</value></Data></ExtendedData><MultiGeometry><Polygon><outerBoundaryIs><LinearRing><coordinates>30.93375,-29.93408 30.9341,-29.93414 30.9343,-29.93413 30.93498,-29.93397 30.93568,-29.93388 30.93588,-29.93385 30.93662,-29.93366 30.93746,-29.93347 30.93822,-29.93332 30.93833,-29.93329 30.93842,-29.93328 30.93846,-29.93327 30.93849,-29.93327 30.93852,-29.93327 30.93854,-29.93328 30.93858,-29.9333 30.93866,-29.9334 30.93869,-29.93349 30.9387,-29.93352 30.93872,-29.93353 30.93876,-29.93352 30.93893,-29.93348 30.93899,-29.93359 30.93906,-29.93375 30.93924,-29.93395 30.93937,-29.93411 30.93957,-29.93434 30.9397,-29.93447 30.93975,-29.93451 30.93982,-29.93454 30.93986,-29.93455 30.93993,-29.93457 30.94004,-29.9346 30.94014,-29.93461 30.9404,-29.93466 30.94071,-29.93471 30.94085,-29.93473 30.94117,-29.93478 30.94134,-29.93481 30.94163,-29.93485 30.94176,-29.93486 30.94205,-29.93488 30.94217,-29.93489 30.94221,-29.93492 30.94247,-29.93503 30.94255,-29.93506 30.94288,-29.93518 30.94317,-29.93528 30.94332,-29.93535 30.94345,-29.9354 30.94356,-29.93542 30.94365,-29.93545 30.94374,-29.9355 30.94386,-29.93555 30.9439,-29.93557 30.94417,-29.93564 30.94435,-29.9357 30.94442,-29.93575 30.94454,-29.93582 30.94459,-29.93582 30.94463,-29.93581 30.94479,-29.93576 30.94485,-29.93575 30.9449,-29.93574 30.94492,-29.93574 30.94492,-29.93576 30.94491,-29.9358 30.9449,-29.93583 30.94487,-29.93589 30.94488,-29.93591 30.94542,-29.93611 30.94578,-29.93624 30.94587,-29.93647 30.94598,-29.93671 30.94622,-29.93728 30.94705,-29.93819 30.94758,-29.93877 30.94785,-29.93908 30.94789,-29.93912 30.94813,-29.93938 30.94921,-29.93998 30.9498,-29.9403 30.95104,-29.94098 30.95128,-29.94103 30.95134,-29.94106 30.95125,-29.94155 30.9512,-29.94183 30.95095,-29.94258 30.95067,-29.94322 30.95043,-29.94355 30.95042,-29.94355 30.94911,-29.94575 30.94807,-29.94735 30.94772,-29.94798 30.94745,-29.94864 30.94719,-29.94969 30.94719,-29.95084 30.9464,-29.95079 30.94609,-29.95066 30.94601,-29.95061 30.94579,-29.95047 30.94574,-29.95033 30.94572,-29.95002 30.94576,-29.9494 30.94572,-29.94927 30.9457,-29.94915 30.94553,-29.94842 30.9455,-29.94841 30.94547,-29.94838 30.94544,-29.94837 30.94537,-29.94835 30.94532,-29.94834 30.94528,-29.94833 30.94522,-29.94832 30.94517,-29.94829 30.94506,-29.94823 30.94504,-29.94827 30.94486,-29.94861 30.94469,-29.94898 30.94448,-29.94942 30.9443,-29.94987 30.94415,-29.95023 30.94409,-29.95038 30.94374,-29.95114 30.94354,-29.95155 30.94332,-29.95203 30.94293,-29.95284 30.94269,-29.9527 30.94243,-29.95246 30.94217,-29.95219 30.94197,-29.95193 30.94195,-29.95178 30.94161,-29.95136 30.94127,-29.95103 30.94108,-29.95084 30.9407,-29.95035 30.94036,-29.95003 30.94026,-29.94994 30.93995,-29.94968 30.93939,-29.94957 30.939,-29.94957 30.93867,-29.94957 30.9385,-29.94958 30.93829,-29.94958 30.93804,-29.9496 30.93784,-29.94962 30.93769,-29.94972 30.93741,-29.94979 30.93721,-29.94985 30.93699,-29.94992 30.93682,-29.94997 30.93664,-29.95012 30.93642,-29.95031 30.93615,-29.95066 30.93559,-29.95117 30.93491,-29.95171 30.93404,-29.95227 30.93351,-29.95248 30.93333,-29.95255 30.93315,-29.95261 30.93269,-29.95272 30.93249,-29.95276 30.93217,-29.95282 30.93146,-29.95277 30.93121,-29.95276 30.93085,-29.95279 30.9301,-29.95283 30.92923,-29.95276 30.92826,-29.95275 30.92782,-29.95275 30.9275,-29.95271 30.92723,-29.95266 30.92676,-29.95259 30.92586,-29.95227 30.92571,-29.95213 30.92553,-29.95184 30.92549,-29.95178 30.92535,-29.95142 30.92532,-29.951 30.92533,-29.95081 30.92545,-29.95053 30.92575,-29.95024 30.92602,-29.94991 30.9261,-29.94982 30.92613,-29.94974 30.9261,-29.94967 30.92602,-29.94957 30.92595,-29.94947 30.92585,-29.94934 30.92568,-29.9491 30.92562,-29.9489 30.9255,-29.94865 30.92552,-29.94854 30.92559,-29.94845 30.92569,-29.94835 30.92572,-29.94831 30.92582,-29.94824 30.92589,-29.94816 30.92596,-29.94803 30.92604,-29.94792 30.92623,-29.94768 30.92665,-29.94675 30.92689,-29.94623 30.9271,-29.9458 30.92725,-29.94544 30.92747,-29.94492 30.92754,-29.94479 30.92774,-29.94418 30.92772,-29.94391 30.92772,-29.94357 30.9277,-29.94318 30.92766,-29.94304 30.92758,-29.94284 30.92738,-29.94233 30.92734,-29.94222 30.92721,-29.94194 30.92707,-29.94169 30.92692,-29.94149 30.92689,-29.9414 30.92688,-29.94132 30.92688,-29.94126 30.92688,-29.94119 30.92686,-29.94112 30.92681,-29.94107 30.92678,-29.94104 30.92672,-29.94102 30.92667,-29.941 30.9266,-29.94099 30.92654,-29.941 30.92642,-29.94102 30.92625,-29.94103 30.92607,-29.94098 30.92595,-29.94093 30.9258,-29.94085 30.92547,-29.9407 30.92529,-29.94057 30.92527,-29.94053 30.92565,-29.94005 30.9258,-29.93992 30.92589,-29.93984 30.926,-29.93978 30.9267,-29.9394 30.92722,-29.93913 30.92754,-29.93884 30.92781,-29.93861 30.92793,-29.93847 30.92801,-29.93828 30.92816,-29.93812 30.92821,-29.93805 30.92824,-29.93803 30.92825,-29.93801 30.92825,-29.93799 30.92826,-29.93794 30.92827,-29.93793 30.92828,-29.93791 30.92829,-29.9379 30.92833,-29.93789 30.92837,-29.93788 30.92838,-29.93787 30.9284,-29.93785 30.92854,-29.9377 30.92853,-29.93769 30.92856,-29.93767 30.92882,-29.93741 30.92897,-29.93722 30.92902,-29.93714 30.92921,-29.93687 30.92937,-29.93673 30.92944,-29.93671 30.92946,-29.93669 30.9297,-29.93635 30.92971,-29.93634 30.9301,-29.93582 30.93011,-29.93581 30.93059,-29.93537 30.93089,-29.93529 30.93113,-29.93522 30.93163,-29.93496 30.93227,-29.93413 30.93322,-29.93269 30.93348,-29.93214 30.93356,-29.93316 30.93361,-29.93343 30.93352,-29.93391 30.93355,-29.93402 30.93375,-29.93408</coordinates></LinearRing></outerBoundaryIs></Polygon></MultiGeometry></Placemark></Document></kml>