<?xml version="1.0" encoding="UTF-8"?><kml xmlns="http://www.opengis.net/kml/2.2"><Document><Placemark><name>Clermont</name><description>Main Place 599114</description><ExtendedData><Data name="code"><value>599114</value></Data><Data name="name"><value>Clermont</value></Data><Data name="description"><value>Main Place 599114</value></Data></ExtendedData><MultiGeometry><Polygon><outerBoundaryIs><LinearRing><coordinates>30.89206,-29.77888 30.89207,-29.77892 30.89213,-29.77892 30.89218,-29.77893 30.89222,-29.77896 30.89222,-29.77899 30.89226,-29.77903 30.8923,-29.77907 30.89237,-29.77911 30.89241,-29.77915 30.89244,-29.77919 30.89252,-29.77925 30.89258,-29.77925 30.89267,-29.77928 30.89271,-29.7793 30.89274,-29.77932 30.89281,-29.77934 30.89286,-29.77934 30.89292,-29.77935 30.89299,-29.77938 30.89304,-29.77942 30.89307,-29.77943 30.89322,-29.77946 30.89335,-29.77966 30.89345,-29.7798 30.89354,-29.77988 30.89358,-29.77995 30.89361,-29.78002 30.89366,-29.78009 30.89372,-29.78012 30.89374,-29.78013 30.89379,-29.78015 30.89387,-29.78014 30.89395,-29.78014 30.89402,-29.78014 30.89414,-29.78015 30.89426,-29.78019 30.89437,-29.78024 30.89454,-29.7803 30.89463,-29.78035 30.89475,-29.78037 30.89491,-29.7804 30.89503,-29.78039 30.89512,-29.78041 30.89524,-29.78045 30.89533,-29.78053 30.89541,-29.78061 30.89552,-29.78067 30.89564,-29.78073 30.89578,-29.78077 30.8959,-29.78084 30.89604,-29.78092 30.89618,-29.78102 30.89619,-29.78103 30.89623,-29.78108 30.89624,-29.78116 30.89622,-29.78122 30.89619,-29.78129 30.89612,-29.78136 30.89603,-29.7814 30.89595,-29.78144 30.89589,-29.78154 30.89583,-29.78164 30.89578,-29.78169 30.89568,-29.78175 30.89562,-29.78185 30.89556,-29.78194 30.89551,-29.78209 30.8955,-29.78226 30.89548,-29.78241 30.89551,-29.78256 30.89557,-29.78268 30.89562,-29.78279 30.89571,-29.78286 30.89575,-29.7829 30.89583,-29.78295 30.89596,-29.78302 30.89599,-29.78303 30.8961,-29.78307 30.89622,-29.78311 30.89634,-29.78313 30.89646,-29.78321 30.89656,-29.78326 30.89669,-29.78337 30.89681,-29.78347 30.89687,-29.78358 30.89692,-29.78366 30.89699,-29.78376 30.89704,-29.78382 30.89711,-29.78388 30.89717,-29.78396 30.89721,-29.78402 30.89726,-29.78412 30.89732,-29.78421 30.89739,-29.78435 30.89745,-29.78452 30.89745,-29.78465 30.8974,-29.78475 30.89732,-29.78479 30.89718,-29.78485 30.89697,-29.78487 30.89686,-29.78487 30.8967,-29.78486 30.89654,-29.78485 30.8964,-29.78492 30.89628,-29.78499 30.89617,-29.78506 30.89608,-29.7851 30.89598,-29.78518 30.89591,-29.78528 30.89591,-29.78541 30.89593,-29.78549 30.896,-29.78564 30.89608,-29.78579 30.89618,-29.7859 30.89626,-29.78599 30.89634,-29.78602 30.89638,-29.78611 30.89647,-29.78625 30.89651,-29.78633 30.89655,-29.7864 30.89666,-29.78659 30.8968,-29.78675 30.8969,-29.78688 30.89705,-29.78705 30.8972,-29.78719 30.89733,-29.78731 30.89746,-29.78738 30.89762,-29.78743 30.89776,-29.78745 30.89788,-29.78745 30.89799,-29.78746 30.8981,-29.78741 30.89818,-29.78736 30.89828,-29.78728 30.89842,-29.78719 30.89855,-29.78711 30.89865,-29.78705 30.89867,-29.78704 30.8988,-29.78698 30.89898,-29.7869 30.89917,-29.78684 30.89929,-29.7868 30.89937,-29.78677 30.89951,-29.78674 30.89958,-29.78672 30.89962,-29.78671 30.89976,-29.78666 30.89986,-29.78663 30.89988,-29.78662 30.89997,-29.78659 30.90009,-29.78655 30.9002,-29.7865 30.90027,-29.78642 30.90029,-29.78633 30.90028,-29.78627 30.90026,-29.78621 30.90022,-29.78615 30.90011,-29.78605 30.89997,-29.78596 30.89984,-29.78591 30.89978,-29.78585 30.89971,-29.78574 30.89969,-29.78564 30.89969,-29.78555 30.89972,-29.78545 30.89975,-29.78535 30.8998,-29.78527 30.89986,-29.78523 30.89992,-29.78519 30.90005,-29.78519 30.90019,-29.78519 30.90032,-29.78518 30.90036,-29.78517 30.90048,-29.78514 30.90061,-29.78509 30.90074,-29.78505 30.9009,-29.78501 30.90103,-29.785 30.90115,-29.78499 30.90124,-29.78497 30.9013,-29.78493 30.90137,-29.78486 30.90143,-29.7847 30.90149,-29.78455 30.9015,-29.7844 30.90151,-29.78427 30.90145,-29.7841 30.90136,-29.78399 30.90124,-29.78388 30.90119,-29.7838 30.90115,-29.7837 30.90117,-29.78359 30.90125,-29.78351 30.90133,-29.78344 30.90143,-29.78336 30.90143,-29.78336 30.90153,-29.78338 30.90169,-29.78348 30.90201,-29.78366 30.90221,-29.78374 30.90245,-29.78382 30.9026,-29.7838 30.90268,-29.78373 30.90278,-29.78358 30.90287,-29.78349 30.90299,-29.78338 30.90307,-29.78334 30.90319,-29.78334 30.90336,-29.78337 30.90348,-29.78342 30.90365,-29.78354 30.90381,-29.78364 30.90396,-29.7837 30.90415,-29.78372 30.90438,-29.78365 30.90456,-29.78356 30.90478,-29.78355 30.90492,-29.78358 30.90515,-29.78373 30.90534,-29.78387 30.90548,-29.78404 30.90551,-29.78419 30.9056,-29.78435 30.90572,-29.7845 30.90588,-29.78464 30.90599,-29.78467 30.90612,-29.78476 30.90617,-29.78481 30.9062,-29.78485 30.90633,-29.78487 30.90647,-29.78487 30.90654,-29.78484 30.90665,-29.78478 30.90678,-29.78475 30.90692,-29.78477 30.90717,-29.78479 30.90743,-29.78485 30.90762,-29.78488 30.90782,-29.78497 30.90798,-29.78509 30.90824,-29.78525 30.90844,-29.78535 30.90866,-29.78542 30.90884,-29.78537 30.90899,-29.78533 30.90918,-29.78531 30.90931,-29.78529 30.90954,-29.78525 30.90975,-29.78526 30.90993,-29.78528 30.91009,-29.78537 30.91027,-29.78553 30.91042,-29.78573 30.91055,-29.78594 30.91078,-29.78604 30.91097,-29.78608 30.91115,-29.78607 30.91128,-29.78605 30.91145,-29.78613 30.91163,-29.78617 30.91172,-29.78614 30.91179,-29.78604 30.9118,-29.78602 30.91187,-29.78571 30.91191,-29.7853 30.91237,-29.78487 30.91282,-29.78453 30.91313,-29.78416 30.91311,-29.784 30.9146,-29.78435 30.91479,-29.78448 30.91532,-29.78484 30.9154,-29.78487 30.91574,-29.78504 30.91601,-29.785 30.91605,-29.78499 30.91637,-29.78503 30.91682,-29.78506 30.91722,-29.785 30.91862,-29.78489 30.9192,-29.78491 30.91963,-29.78494 30.91975,-29.78495 30.92024,-29.78485 30.92057,-29.78468 30.92109,-29.78434 30.92108,-29.78453 30.92106,-29.78468 30.92104,-29.7848 30.92095,-29.78493 30.92082,-29.78505 30.92073,-29.78514 30.92067,-29.78522 30.92198,-29.78529 30.92427,-29.78542 30.92625,-29.78554 30.92713,-29.78559 30.92713,-29.78559 30.92681,-29.78645 30.92694,-29.78683 30.92698,-29.78695 30.92693,-29.78721 30.92684,-29.78777 30.92671,-29.78859 30.92664,-29.78905 30.92648,-29.79002 30.92631,-29.79107 30.92618,-29.79189 30.9261,-29.79243 30.92592,-29.79351 30.92587,-29.79385 30.92436,-29.79344 30.92263,-29.79297 30.92259,-29.79319 30.92249,-29.79337 30.92236,-29.79356 30.92214,-29.79374 30.92195,-29.79393 30.92172,-29.79418 30.92151,-29.79446 30.92133,-29.79469 30.92129,-29.79482 30.9213,-29.79493 30.92134,-29.79506 30.92145,-29.79515 30.92157,-29.7952 30.92168,-29.7953 30.92179,-29.79544 30.92184,-29.79559 30.92184,-29.79574 30.92177,-29.796 30.92163,-29.79623 30.92151,-29.79639 30.92143,-29.79645 30.9213,-29.79649 30.92114,-29.79652 30.92094,-29.79655 30.92077,-29.79666 30.92056,-29.79682 30.92036,-29.79696 30.92014,-29.79715 30.92004,-29.79728 30.91985,-29.79742 30.91976,-29.79756 30.9197,-29.79771 30.91965,-29.79788 30.91964,-29.79805 30.91959,-29.79829 30.9195,-29.79851 30.91949,-29.79882 30.91951,-29.79899 30.91957,-29.79913 30.91965,-29.79921 30.91968,-29.79926 30.91969,-29.79935 30.91964,-29.79941 30.91962,-29.7995 30.91967,-29.79962 30.91978,-29.79971 30.91988,-29.79981 30.91994,-29.79992 30.91993,-29.80005 30.91981,-29.80014 30.91963,-29.80019 30.91932,-29.8002 30.91915,-29.80023 30.91883,-29.80023 30.91857,-29.80026 30.91828,-29.8003 30.91795,-29.80032 30.91774,-29.80033 30.91741,-29.80042 30.91717,-29.80042 30.91698,-29.80043 30.91687,-29.80039 30.91674,-29.80029 30.91665,-29.80013 30.91654,-29.79998 30.91645,-29.79979 30.91633,-29.79956 30.91626,-29.79942 30.91615,-29.79925 30.91597,-29.79905 30.91583,-29.79893 30.91569,-29.79885 30.91558,-29.79885 30.91543,-29.79886 30.91529,-29.7989 30.91512,-29.799 30.915,-29.79905 30.91493,-29.79914 30.91485,-29.79925 30.91481,-29.79941 30.91483,-29.79955 30.91486,-29.79968 30.91498,-29.79987 30.91504,-29.79997 30.91507,-29.80013 30.91513,-29.8003 30.91515,-29.8004 30.91515,-29.80059 30.91514,-29.80077 30.91513,-29.80091 30.91504,-29.80107 30.91495,-29.80119 30.91479,-29.80126 30.91464,-29.80123 30.9144,-29.80116 30.91414,-29.80114 30.91388,-29.8011 30.91356,-29.80102 30.91329,-29.80096 30.91299,-29.80091 30.91279,-29.8009 30.91265,-29.80092 30.9125,-29.80098 30.9124,-29.8011 30.91235,-29.80119 30.91228,-29.8013 30.91228,-29.80142 30.91228,-29.80156 30.91232,-29.80167 30.91236,-29.80178 30.91245,-29.80187 30.91259,-29.80199 30.91278,-29.80212 30.91297,-29.80226 30.91312,-29.80239 30.91335,-29.80253 30.9135,-29.80259 30.91359,-29.80263 30.91366,-29.80273 30.91369,-29.80285 30.91369,-29.80299 30.91366,-29.80314 30.91359,-29.8033 30.9135,-29.80349 30.91338,-29.80366 30.91326,-29.80378 30.91309,-29.80392 30.91289,-29.80409 30.91265,-29.80425 30.91245,-29.80435 30.91226,-29.80446 30.91209,-29.80446 30.91199,-29.80444 30.91189,-29.80442 30.91175,-29.80432 30.9116,-29.80419 30.91148,-29.80405 30.91132,-29.80386 30.9111,-29.80368 30.91086,-29.80354 30.91077,-29.80348 30.91057,-29.80342 30.91032,-29.80339 30.91004,-29.80334 30.90984,-29.80326 30.90968,-29.8031 30.90946,-29.80298 30.90928,-29.8029 30.90906,-29.8029 30.90881,-29.80294 30.90861,-29.80303 30.90844,-29.80316 30.90837,-29.80334 30.90841,-29.80348 30.90851,-29.80372 30.90856,-29.80383 30.90862,-29.804 30.90862,-29.80403 30.90864,-29.8041 30.90878,-29.80422 30.90895,-29.8043 30.90909,-29.80441 30.90914,-29.8045 30.90913,-29.80464 30.90906,-29.80475 30.90895,-29.80482 30.90877,-29.80486 30.90855,-29.80489 30.90832,-29.80483 30.90815,-29.8048 30.90795,-29.80479 30.90773,-29.80482 30.90754,-29.80479 30.90733,-29.80481 30.90711,-29.80476 30.907,-29.80473 30.9068,-29.80467 30.90666,-29.80464 30.90656,-29.80463 30.90644,-29.80454 30.90638,-29.80445 30.9063,-29.80434 30.90622,-29.80432 30.90613,-29.80432 30.906,-29.80436 30.90592,-29.80446 30.90582,-29.80454 30.9057,-29.80463 30.90556,-29.80473 30.90543,-29.80482 30.90536,-29.80491 30.90532,-29.80501 30.90524,-29.80514 30.90515,-29.80536 30.90507,-29.8055 30.90507,-29.8056 30.90507,-29.80564 30.90508,-29.80572 30.90512,-29.80585 30.90517,-29.80594 30.9052,-29.80606 30.90521,-29.80617 30.90518,-29.80627 30.90507,-29.80641 30.90494,-29.80648 30.90483,-29.8066 30.90474,-29.8067 30.90466,-29.80679 30.90461,-29.80689 30.90458,-29.80698 30.90451,-29.80711 30.90444,-29.80716 30.90433,-29.80718 30.9042,-29.80716 30.90405,-29.80709 30.90394,-29.80702 30.90378,-29.80691 30.9036,-29.80675 30.90349,-29.80665 30.90336,-29.80655 30.90328,-29.8064 30.90323,-29.80625 30.90317,-29.80611 30.90313,-29.80595 30.90303,-29.8058 30.90284,-29.80563 30.90263,-29.80551 30.90247,-29.80549 30.90233,-29.80546 30.9022,-29.80546 30.90203,-29.80549 30.90188,-29.80553 30.90165,-29.80563 30.9015,-29.80566 30.90134,-29.80568 30.90112,-29.80567 30.90087,-29.8056 30.90067,-29.80547 30.90053,-29.80537 30.9005,-29.80535 30.90032,-29.80527 30.90012,-29.80518 30.89993,-29.80516 30.89968,-29.80513 30.89949,-29.80513 30.89928,-29.80514 30.89914,-29.80519 30.89899,-29.80523 30.89894,-29.80525 30.89871,-29.80535 30.89855,-29.80546 30.89838,-29.8056 30.89823,-29.8057 30.89813,-29.80575 30.89798,-29.80575 30.89784,-29.80573 30.89771,-29.80573 30.89761,-29.80574 30.89746,-29.80575 30.89723,-29.80573 30.89697,-29.80569 30.89679,-29.80564 30.89645,-29.80552 30.89628,-29.80549 30.89614,-29.80542 30.89594,-29.80535 30.89574,-29.80526 30.89552,-29.80524 30.89532,-29.80518 30.89511,-29.80514 30.89491,-29.80505 30.89469,-29.80494 30.89446,-29.80481 30.89415,-29.80464 30.89391,-29.80443 30.89369,-29.80427 30.89356,-29.80418 30.8934,-29.80407 30.8933,-29.80391 30.89325,-29.80377 30.8932,-29.8037 30.89314,-29.8036 30.89308,-29.80345 30.89303,-29.8033 30.89304,-29.80308 30.89304,-29.8029 30.89301,-29.80276 30.89298,-29.80261 30.89297,-29.80253 30.89302,-29.80242 30.89307,-29.80224 30.89308,-29.80206 30.89309,-29.80194 30.89308,-29.80181 30.89309,-29.80176 30.89311,-29.80168 30.89312,-29.80156 30.89315,-29.80148 30.8932,-29.80137 30.89325,-29.80127 30.8933,-29.80115 30.89329,-29.80102 30.89324,-29.80083 30.8932,-29.8007 30.89313,-29.80055 30.89307,-29.80034 30.89299,-29.80025 30.89291,-29.80015 30.89278,-29.79998 30.89269,-29.79983 30.89261,-29.79969 30.89255,-29.79953 30.89253,-29.79936 30.89258,-29.79925 30.8927,-29.79909 30.8928,-29.79891 30.89288,-29.79873 30.89293,-29.79858 30.89294,-29.7984 30.89297,-29.79824 30.89299,-29.79814 30.89293,-29.79803 30.89283,-29.7979 30.8927,-29.79776 30.89259,-29.79762 30.89249,-29.79747 30.89242,-29.79737 30.89236,-29.79729 30.8923,-29.79722 30.89222,-29.79712 30.89212,-29.79697 30.8921,-29.79685 30.89206,-29.79674 30.89201,-29.79665 30.892,-29.79652 30.89199,-29.7964 30.89193,-29.79623 30.89191,-29.79606 30.89189,-29.79591 30.89185,-29.79579 30.89177,-29.79565 30.89169,-29.79553 30.89161,-29.79542 30.89151,-29.79533 30.89135,-29.79525 30.89118,-29.7952 30.89112,-29.79518 30.891,-29.79514 30.89084,-29.79507 30.89065,-29.79504 30.89053,-29.79504 30.89029,-29.79504 30.89007,-29.79502 30.88995,-29.79502 30.88983,-29.79504 30.88972,-29.79508 30.88947,-29.79521 30.88935,-29.79524 30.88925,-29.79524 30.88915,-29.79524 30.88902,-29.79525 30.88889,-29.79526 30.88878,-29.79525 30.88866,-29.79523 30.88857,-29.79522 30.88843,-29.79523 30.88821,-29.79517 30.88806,-29.79515 30.88792,-29.79516 30.8876,-29.79519 30.88741,-29.7952 30.88717,-29.79519 30.88719,-29.79508 30.88735,-29.79493 30.88794,-29.79445 30.88837,-29.7941 30.88871,-29.79383 30.88881,-29.79367 30.88947,-29.79309 30.88984,-29.79278 30.89037,-29.79233 30.89045,-29.79235 30.89051,-29.79238 30.89075,-29.79216 30.89113,-29.79177 30.89173,-29.79138 30.89162,-29.79131 30.89141,-29.79129 30.89125,-29.79127 30.89074,-29.79126 30.88968,-29.79125 30.88931,-29.79123 30.8886,-29.79117 30.8873,-29.79114 30.88748,-29.79051 30.88769,-29.78973 30.88775,-29.78913 30.88775,-29.78871 30.88787,-29.78866 30.888,-29.78863 30.88827,-29.78858 30.88848,-29.78853 30.88844,-29.78813 30.88858,-29.78767 30.88847,-29.78753 30.88861,-29.78741 30.88869,-29.78724 30.88885,-29.78695 30.88906,-29.78661 30.8893,-29.78568 30.88963,-29.78422 30.88969,-29.78388 30.88974,-29.78372 30.88976,-29.78353 30.88978,-29.78327 30.8898,-29.78314 30.88981,-29.78308 30.88986,-29.783 30.88974,-29.78286 30.88977,-29.7825 30.88981,-29.78222 30.88986,-29.78135 30.88988,-29.78117 30.8899,-29.78089 30.88991,-29.78067 30.88992,-29.78028 30.88968,-29.78031 30.88948,-29.78035 30.88936,-29.7804 30.88913,-29.78052 30.88865,-29.78072 30.88852,-29.78073 30.88863,-29.78058 30.88865,-29.78055 30.88885,-29.78029 30.88908,-29.78002 30.88941,-29.77957 30.88956,-29.77932 30.88971,-29.77895 30.88974,-29.7787 30.88975,-29.77836 30.88977,-29.77798 30.88981,-29.77781 30.89022,-29.77743 30.89017,-29.77719 30.89014,-29.77693 30.89017,-29.77684 30.89019,-29.77675 30.89023,-29.7767 30.89023,-29.77662 30.89027,-29.77657 30.89022,-29.77648 30.89023,-29.7764 30.89022,-29.77624 30.89024,-29.77613 30.89025,-29.77611 30.89048,-29.77648 30.89063,-29.77673 30.89087,-29.77697 30.89113,-29.77725 30.89116,-29.77728 30.89148,-29.77747 30.89157,-29.77753 30.89159,-29.77755 30.89161,-29.77756 30.89162,-29.77759 30.89163,-29.77764 30.89166,-29.77767 30.89167,-29.7777 30.89168,-29.77772 30.89166,-29.77775 30.89167,-29.77779 30.89169,-29.77782 30.8917,-29.77785 30.89171,-29.77788 30.89171,-29.77792 30.89171,-29.77797 30.89171,-29.77801 30.89168,-29.77806 30.89168,-29.77811 30.89168,-29.77816 30.8917,-29.77819 30.89173,-29.77823 30.89175,-29.77826 30.89179,-29.77829 30.8918,-29.77831 30.89182,-29.77836 30.89184,-29.7784 30.89185,-29.77844 30.89185,-29.77848 30.89186,-29.77851 30.8919,-29.77852 30.89196,-29.77852 30.892,-29.77855 30.89203,-29.77858 30.89204,-29.77859 30.89205,-29.77862 30.89205,-29.77863 30.89205,-29.77865 30.89204,-29.77868 30.89206,-29.77872 30.89205,-29.77875 30.89205,-29.77879 30.89206,-29.77884 30.89206,-29.77888</coordinates></LinearRing></outerBoundaryIs></Polygon></MultiGeometry></Placemark></Document></kml>