<?xml version="1.0" encoding="UTF-8"?><kml xmlns="http://www.opengis.net/kml/2.2"><Document><Placemark><name>Lower Molweni</name><description>Main Place 599106</description><ExtendedData><Data name="code"><value>599106</value></Data><Data name="name"><value>Lower Molweni</value></Data><Data name="description"><value>Main Place 599106</value></Data></ExtendedData><MultiGeometry><Polygon><outerBoundaryIs><LinearRing><coordinates>30.87174,-29.74529 30.87189,-29.7453 30.87201,-29.74529 30.8721,-29.74528 30.87232,-29.74529 30.87243,-29.74528 30.8725,-29.7453 30.87255,-29.74534 30.8726,-29.7454 30.87266,-29.74549 30.8727,-29.74555 30.87275,-29.74558 30.87281,-29.74562 30.8729,-29.74562 30.87298,-29.7456 30.87305,-29.74559 30.87314,-29.74559 30.87325,-29.7456 30.87332,-29.74563 30.8734,-29.74567 30.87348,-29.74571 30.87354,-29.74577 30.87358,-29.7458 30.87364,-29.74587 30.8737,-29.74595 30.87377,-29.74602 30.87379,-29.74607 30.87379,-29.74611 30.87377,-29.7462 30.87374,-29.74629 30.87372,-29.74638 30.87372,-29.74646 30.87372,-29.74651 30.87374,-29.74657 30.87378,-29.74662 30.87383,-29.74667 30.8739,-29.74674 30.87394,-29.7468 30.87398,-29.74688 30.87402,-29.74692 30.87407,-29.74699 30.87411,-29.74703 30.87413,-29.7471 30.8741,-29.7472 30.87408,-29.74728 30.87403,-29.74745 30.87397,-29.74761 30.87394,-29.74771 30.87388,-29.74781 30.87383,-29.74793 30.87375,-29.74811 30.87367,-29.74824 30.87356,-29.7484 30.87346,-29.74857 30.87342,-29.74867 30.87337,-29.74879 30.87332,-29.74891 30.87329,-29.74903 30.87326,-29.74915 30.87323,-29.74927 30.87322,-29.74939 30.87321,-29.74953 30.8732,-29.7497 30.87321,-29.74986 30.87323,-29.75 30.87328,-29.75018 30.87331,-29.7503 30.87334,-29.75041 30.87339,-29.75049 30.87347,-29.75055 30.87353,-29.75055 30.87362,-29.75053 30.87376,-29.7505 30.8739,-29.75049 30.87404,-29.7505 30.87415,-29.75049 30.87421,-29.75053 30.87424,-29.75057 30.87429,-29.75057 30.87435,-29.75053 30.87439,-29.75049 30.87437,-29.75041 30.87434,-29.75034 30.87432,-29.75022 30.8743,-29.75016 30.8742,-29.75004 30.87412,-29.74996 30.87408,-29.74986 30.87406,-29.74974 30.87408,-29.74962 30.87413,-29.74953 30.87425,-29.7494 30.87436,-29.74932 30.87447,-29.74922 30.87461,-29.74912 30.87472,-29.74909 30.87482,-29.74907 30.87488,-29.74906 30.87498,-29.74908 30.87503,-29.74909 30.87511,-29.74907 30.87516,-29.74901 30.87521,-29.74894 30.87527,-29.74886 30.87534,-29.74878 30.87542,-29.74868 30.87548,-29.74862 30.87554,-29.74858 30.8756,-29.74854 30.87564,-29.74848 30.87565,-29.74843 30.87565,-29.74836 30.87561,-29.74827 30.87557,-29.74822 30.87551,-29.74819 30.87547,-29.74815 30.87547,-29.7481 30.87553,-29.74804 30.87558,-29.74798 30.87566,-29.74787 30.87574,-29.74779 30.87578,-29.74772 30.8758,-29.74763 30.87579,-29.74756 30.87579,-29.74747 30.8758,-29.74734 30.87581,-29.74719 30.87581,-29.74707 30.87579,-29.74697 30.87575,-29.74686 30.87572,-29.74679 30.87569,-29.74673 30.87571,-29.74668 30.87576,-29.74665 30.87581,-29.74665 30.87588,-29.74665 30.87597,-29.74666 30.87613,-29.74673 30.87623,-29.74677 30.8763,-29.74682 30.87637,-29.74687 30.87648,-29.74692 30.87657,-29.74695 30.87663,-29.74697 30.87668,-29.74694 30.87674,-29.74689 30.87679,-29.74684 30.87686,-29.7468 30.87695,-29.74681 30.87706,-29.74684 30.87717,-29.74689 30.87726,-29.74695 30.87732,-29.74702 30.87742,-29.74708 30.87753,-29.74708 30.87758,-29.74707 30.87766,-29.74708 30.87771,-29.74711 30.87773,-29.74718 30.87772,-29.74724 30.87771,-29.74733 30.8777,-29.74739 30.87771,-29.74745 30.87773,-29.74746 30.87777,-29.74746 30.87781,-29.74744 30.87784,-29.74739 30.87787,-29.74735 30.87794,-29.74731 30.87802,-29.74727 30.8781,-29.74725 30.8782,-29.74728 30.87831,-29.74727 30.8784,-29.74724 30.87849,-29.7472 30.87856,-29.74714 30.87865,-29.74702 30.8787,-29.74692 30.87879,-29.74685 30.87886,-29.74678 30.87897,-29.74674 30.87907,-29.74671 30.87919,-29.74666 30.87925,-29.74668 30.87933,-29.74669 30.87938,-29.74668 30.87945,-29.74665 30.8795,-29.74662 30.87955,-29.74656 30.8796,-29.74648 30.87962,-29.74641 30.87965,-29.74636 30.87972,-29.74635 30.87979,-29.74635 30.87984,-29.74633 30.8799,-29.74628 30.87995,-29.74622 30.87998,-29.74616 30.88004,-29.74611 30.88009,-29.74603 30.88013,-29.74598 30.88018,-29.7459 30.88021,-29.74582 30.88027,-29.74573 30.88032,-29.74567 30.88037,-29.74561 30.88039,-29.74557 30.88042,-29.74549 30.88044,-29.74544 30.88054,-29.74533 30.88061,-29.74526 30.8809,-29.74566 30.88121,-29.74609 30.88149,-29.7464 30.8819,-29.74659 30.88235,-29.74674 30.88258,-29.7468 30.88281,-29.74693 30.88306,-29.74714 30.88321,-29.7473 30.8834,-29.74751 30.88353,-29.74779 30.88378,-29.74801 30.88396,-29.7481 30.88423,-29.74815 30.88454,-29.7482 30.88482,-29.74828 30.88524,-29.74841 30.88564,-29.7486 30.88586,-29.74879 30.88596,-29.74894 30.88606,-29.74912 30.88612,-29.74919 30.88627,-29.74926 30.88644,-29.7493 30.88664,-29.74934 30.88677,-29.74936 30.8869,-29.74943 30.88706,-29.74953 30.88699,-29.74962 30.88688,-29.74974 30.88673,-29.7499 30.88661,-29.75 30.88647,-29.75009 30.88629,-29.75019 30.88613,-29.75026 30.88594,-29.75033 30.88575,-29.75039 30.88554,-29.75046 30.88543,-29.7505 30.88532,-29.75051 30.88518,-29.75051 30.88503,-29.7505 30.88493,-29.7505 30.88485,-29.75052 30.8848,-29.75056 30.88476,-29.75063 30.88473,-29.75074 30.88471,-29.75096 30.88468,-29.75111 30.88462,-29.75127 30.88457,-29.75136 30.88451,-29.75145 30.88434,-29.75164 30.88416,-29.75186 30.88403,-29.752 30.88388,-29.75215 30.88374,-29.75228 30.88364,-29.75241 30.88356,-29.75256 30.8835,-29.75268 30.88343,-29.75291 30.88336,-29.75306 30.88326,-29.75328 30.88319,-29.7534 30.88311,-29.7535 30.88297,-29.75366 30.88272,-29.75389 30.88254,-29.75404 30.88233,-29.75416 30.88208,-29.7543 30.88178,-29.75445 30.88159,-29.75458 30.88149,-29.75466 30.88141,-29.75475 30.88133,-29.75491 30.88122,-29.7551 30.88115,-29.75525 30.88108,-29.75536 30.88101,-29.75543 30.88096,-29.75549 30.88087,-29.75555 30.88079,-29.75559 30.88073,-29.75561 30.88062,-29.75562 30.88054,-29.7556 30.88047,-29.75557 30.88037,-29.7555 30.88029,-29.75544 30.88018,-29.75536 30.8801,-29.75531 30.88003,-29.75528 30.87994,-29.75529 30.87984,-29.75533 30.8797,-29.75539 30.87955,-29.75548 30.87937,-29.75557 30.8792,-29.7557 30.87902,-29.75584 30.87879,-29.75602 30.87884,-29.75607 30.87892,-29.7561 30.879,-29.75614 30.87911,-29.75619 30.87921,-29.75626 30.8793,-29.75632 30.87942,-29.75641 30.87954,-29.75651 30.87965,-29.75658 30.87979,-29.75665 30.87989,-29.7567 30.88001,-29.75676 30.8801,-29.75683 30.88018,-29.75689 30.88022,-29.75694 30.88022,-29.757 30.88021,-29.75707 30.88018,-29.75716 30.8801,-29.75726 30.88001,-29.75735 30.87986,-29.75741 30.87972,-29.75745 30.87963,-29.75741 30.87956,-29.7574 30.8795,-29.75742 30.8794,-29.75743 30.87931,-29.75747 30.87921,-29.7575 30.87905,-29.75753 30.87892,-29.75757 30.87882,-29.75761 30.87876,-29.75765 30.87871,-29.75769 30.87864,-29.75773 30.87855,-29.75774 30.8784,-29.75776 30.87832,-29.75776 30.87823,-29.75779 30.87814,-29.75784 30.87803,-29.7579 30.87794,-29.75795 30.87786,-29.758 30.87778,-29.75806 30.87769,-29.75816 30.87764,-29.75823 30.87755,-29.75833 30.87747,-29.75838 30.87738,-29.75844 30.87726,-29.75857 30.87719,-29.75868 30.87715,-29.75877 30.8771,-29.75895 30.87708,-29.75907 30.87703,-29.7592 30.87701,-29.75934 30.87701,-29.75942 30.87701,-29.75945 30.87701,-29.75949 30.87705,-29.75962 30.87709,-29.75974 30.87714,-29.75985 30.87717,-29.75991 30.87719,-29.75997 30.87724,-29.76008 30.87717,-29.76018 30.87707,-29.76032 30.877,-29.76048 30.87683,-29.7607 30.87673,-29.76083 30.87664,-29.76097 30.87656,-29.76108 30.87649,-29.76116 30.87639,-29.76132 30.87629,-29.76142 30.87615,-29.76155 30.87598,-29.76171 30.87581,-29.76184 30.87553,-29.76203 30.87504,-29.76185 30.87496,-29.76205 30.87489,-29.76227 30.87484,-29.76239 30.87472,-29.76252 30.87454,-29.7627 30.87432,-29.76291 30.87401,-29.76311 30.87373,-29.76329 30.8734,-29.76351 30.87337,-29.76351 30.87329,-29.76338 30.873,-29.76352 30.87231,-29.7638 30.87169,-29.76416 30.87115,-29.76497 30.87107,-29.76508 30.87043,-29.76572 30.86979,-29.76678 30.86997,-29.76709 30.87017,-29.76741 30.87041,-29.76778 30.87076,-29.76807 30.87101,-29.76831 30.87095,-29.76851 30.87095,-29.76888 30.87093,-29.76911 30.87097,-29.76931 30.87105,-29.76944 30.87104,-29.76954 30.87103,-29.7697 30.87095,-29.76976 30.87082,-29.76979 30.87071,-29.76976 30.8705,-29.76967 30.87023,-29.76951 30.87001,-29.76937 30.86969,-29.76909 30.86939,-29.76889 30.86919,-29.76871 30.86883,-29.76827 30.8686,-29.76814 30.86837,-29.76797 30.86812,-29.76795 30.86796,-29.76798 30.86773,-29.76807 30.8676,-29.76822 30.8675,-29.76844 30.86737,-29.76875 30.8673,-29.76914 30.86715,-29.76955 30.86688,-29.76999 30.86652,-29.7703 30.86621,-29.77049 30.86594,-29.77069 30.86572,-29.7703 30.8656,-29.76997 30.86564,-29.76948 30.86555,-29.76895 30.8655,-29.76848 30.86549,-29.76815 30.86567,-29.76785 30.8661,-29.76748 30.86639,-29.76713 30.86652,-29.76667 30.86652,-29.76632 30.86652,-29.76631 30.86652,-29.76618 30.86652,-29.76578 30.86653,-29.76572 30.86647,-29.76563 30.86787,-29.76492 30.86447,-29.76121 30.86436,-29.76108 30.86416,-29.76087 30.86422,-29.76076 30.86434,-29.76062 30.86449,-29.76058 30.86453,-29.76057 30.86476,-29.76054 30.86507,-29.76053 30.86538,-29.76049 30.86565,-29.76042 30.86587,-29.76032 30.86605,-29.76018 30.86627,-29.75999 30.8665,-29.75979 30.86669,-29.75962 30.8669,-29.7595 30.86718,-29.75932 30.86741,-29.75911 30.86759,-29.75887 30.8677,-29.75857 30.86788,-29.75815 30.86791,-29.75788 30.86793,-29.75752 30.86797,-29.75723 30.86797,-29.75695 30.86792,-29.75672 30.86787,-29.75649 30.86779,-29.75626 30.86766,-29.75605 30.86745,-29.75585 30.86735,-29.75567 30.86731,-29.75542 30.86726,-29.75515 30.86711,-29.75486 30.86695,-29.75467 30.86684,-29.75442 30.86665,-29.75418 30.86651,-29.75393 30.86642,-29.75371 30.86627,-29.7533 30.86612,-29.75293 30.86591,-29.75238 30.86568,-29.75187 30.86557,-29.75157 30.86539,-29.75095 30.86509,-29.74993 30.8651,-29.74964 30.86515,-29.74937 30.86522,-29.74916 30.86542,-29.74903 30.86568,-29.74898 30.86597,-29.74889 30.86612,-29.74874 30.86621,-29.74852 30.86628,-29.74834 30.86638,-29.74803 30.86644,-29.74785 30.86669,-29.74751 30.86689,-29.74736 30.86705,-29.74723 30.86724,-29.74707 30.86745,-29.74692 30.86769,-29.74676 30.86797,-29.74668 30.86819,-29.74665 30.86843,-29.74661 30.86868,-29.74648 30.86898,-29.74624 30.86921,-29.746 30.86943,-29.74576 30.86965,-29.74557 30.86977,-29.74559 30.86991,-29.74559 30.87002,-29.74557 30.87013,-29.74559 30.87024,-29.7456 30.87037,-29.74564 30.87045,-29.74564 30.87052,-29.74563 30.87059,-29.74559 30.87068,-29.74559 30.87078,-29.74562 30.87087,-29.74562 30.87096,-29.74561 30.87108,-29.74553 30.87113,-29.74547 30.87118,-29.7454 30.87121,-29.74533 30.87122,-29.74525 30.8713,-29.74521 30.87137,-29.74519 30.87146,-29.7452 30.87156,-29.74521 30.87163,-29.74525 30.87174,-29.74529</coordinates></LinearRing></outerBoundaryIs></Polygon></MultiGeometry></Placemark></Document></kml>