<?xml version="1.0" encoding="UTF-8"?><kml xmlns="http://www.opengis.net/kml/2.2"><Document><Placemark><name>Malvern</name><description>Sub Place 599160009</description><ExtendedData><Data name="code"><value>599160009</value></Data><Data name="name"><value>Malvern</value></Data><Data name="description"><value>Sub Place 599160009</value></Data></ExtendedData><MultiGeometry><Polygon><outerBoundaryIs><LinearRing><coordinates>30.92412,-29.86544 30.92425,-29.86547 30.92447,-29.86554 30.92482,-29.8656 30.92503,-29.86563 30.92519,-29.86571 30.92535,-29.86583 30.92552,-29.86603 30.92561,-29.86618 30.92571,-29.86636 30.92586,-29.86647 30.92595,-29.86665 30.92603,-29.86677 30.92617,-29.86688 30.9263,-29.86697 30.92642,-29.86702 30.92656,-29.8671 30.92667,-29.8672 30.92673,-29.86726 30.92687,-29.86741 30.92702,-29.86759 30.92726,-29.86772 30.92763,-29.8679 30.92801,-29.86808 30.92824,-29.86818 30.92844,-29.86829 30.92858,-29.86844 30.92876,-29.86861 30.92891,-29.86875 30.92901,-29.86898 30.9291,-29.86912 30.92925,-29.86926 30.92934,-29.8693 30.92934,-29.86931 30.92947,-29.86938 30.92966,-29.86947 30.92991,-29.8696 30.93015,-29.86967 30.93036,-29.8696 30.93063,-29.86946 30.93091,-29.86928 30.93116,-29.86922 30.93158,-29.86915 30.93194,-29.86913 30.93241,-29.86917 30.93295,-29.86922 30.93357,-29.86926 30.93393,-29.86929 30.93406,-29.86931 30.93417,-29.86938 30.93423,-29.86952 30.9343,-29.86971 30.93441,-29.86985 30.93459,-29.86993 30.93475,-29.87 30.93481,-29.87008 30.93482,-29.87018 30.935,-29.87041 30.93517,-29.87066 30.93533,-29.87091 30.93552,-29.87122 30.93558,-29.87135 30.93562,-29.87153 30.93583,-29.87196 30.936,-29.87216 30.93624,-29.8725 30.93623,-29.87279 30.93499,-29.87376 30.9347,-29.87409 30.93426,-29.87457 30.93398,-29.87485 30.93363,-29.87525 30.93306,-29.87591 30.93241,-29.87654 30.93214,-29.87687 30.93187,-29.87684 30.93171,-29.87684 30.93142,-29.87685 30.93109,-29.8769 30.93093,-29.87694 30.9307,-29.877 30.93048,-29.87709 30.93019,-29.87723 30.93,-29.87734 30.92978,-29.87749 30.9295,-29.87768 30.92931,-29.87781 30.92914,-29.87793 30.92892,-29.87806 30.92937,-29.87877 30.92953,-29.87889 30.92983,-29.87891 30.9301,-29.87896 30.93025,-29.87899 30.93076,-29.87916 30.93129,-29.87935 30.93198,-29.8796 30.9325,-29.87979 30.93312,-29.88002 30.9335,-29.88016 30.93395,-29.88031 30.93429,-29.88048 30.9345,-29.88063 30.93437,-29.88069 30.93426,-29.881 30.93423,-29.88112 30.93416,-29.8813 30.93405,-29.8817 30.93398,-29.88191 30.9339,-29.88213 30.93376,-29.88258 30.93352,-29.88333 30.93334,-29.88389 30.9333,-29.88401 30.93308,-29.88473 30.93239,-29.88446 30.9322,-29.88437 30.93203,-29.88431 30.93205,-29.88426 30.93149,-29.88405 30.93146,-29.88409 30.93124,-29.88433 30.93116,-29.88442 30.93108,-29.88449 30.93073,-29.88486 30.93065,-29.88495 30.93043,-29.88518 30.92969,-29.88594 30.92881,-29.88574 30.92844,-29.88566 30.92823,-29.88563 30.92812,-29.88576 30.92799,-29.88592 30.9279,-29.88601 30.92774,-29.88618 30.92765,-29.88625 30.92754,-29.88632 30.92745,-29.88638 30.92738,-29.88644 30.9273,-29.88653 30.92718,-29.88667 30.92711,-29.88675 30.92704,-29.88682 30.92694,-29.88689 30.9268,-29.88709 30.92616,-29.88788 30.9257,-29.88847 30.92558,-29.88861 30.92568,-29.88872 30.92585,-29.88887 30.92605,-29.88903 30.92623,-29.88915 30.92644,-29.8893 30.92611,-29.88966 30.92564,-29.89015 30.92512,-29.89068 30.92457,-29.89128 30.92423,-29.89162 30.92414,-29.89172 30.92408,-29.89179 30.92396,-29.89191 30.92384,-29.89204 30.92372,-29.89216 30.9236,-29.89228 30.92348,-29.89241 30.92343,-29.89246 30.92322,-29.89268 30.92216,-29.89377 30.92193,-29.89401 30.92176,-29.89392 30.92137,-29.89376 30.9209,-29.89357 30.9202,-29.89382 30.92012,-29.89401 30.9199,-29.89414 30.91963,-29.89435 30.91957,-29.89441 30.91936,-29.89463 30.91899,-29.89503 30.91874,-29.89526 30.91848,-29.89543 30.91803,-29.8956 30.91717,-29.89578 30.91503,-29.89613 30.91499,-29.89614 30.91267,-29.89653 30.91227,-29.89659 30.91153,-29.89671 30.91115,-29.89674 30.90997,-29.89681 30.9101,-29.89666 30.91011,-29.89665 30.9101,-29.89665 30.90953,-29.89573 30.90931,-29.89539 30.90911,-29.89506 30.90899,-29.89488 30.90883,-29.89462 30.90879,-29.89456 30.90877,-29.89452 30.90871,-29.89443 30.90866,-29.89434 30.90594,-29.89411 30.90593,-29.89404 30.90585,-29.89347 30.9058,-29.89317 30.90576,-29.89288 30.90571,-29.89252 30.90567,-29.89223 30.90564,-29.892 30.90706,-29.8918 30.90663,-29.89112 30.90629,-29.89059 30.90622,-29.89048 30.90617,-29.89039 30.90578,-29.88977 30.90539,-29.88915 30.90533,-29.88905 30.90536,-29.889 30.90542,-29.88887 30.90553,-29.88857 30.90572,-29.88807 30.90587,-29.88769 30.90601,-29.8873 30.90613,-29.88696 30.90622,-29.88676 30.90632,-29.88664 30.9064,-29.88657 30.90653,-29.88646 30.90623,-29.88622 30.90599,-29.88604 30.90579,-29.88588 30.90538,-29.88557 30.90506,-29.88532 30.90475,-29.88508 30.90526,-29.88456 30.90553,-29.88426 30.90612,-29.88366 30.90632,-29.88345 30.90664,-29.88312 30.90692,-29.88284 30.90746,-29.88226 30.90776,-29.88196 30.90805,-29.88164 30.90857,-29.8811 30.9092,-29.88045 30.909,-29.8803 30.90877,-29.88014 30.90861,-29.88004 30.90853,-29.88001 30.90827,-29.87999 30.90798,-29.87996 30.90808,-29.87977 30.90832,-29.87935 30.90858,-29.87888 30.9087,-29.87866 30.90888,-29.87835 30.90929,-29.87761 30.90954,-29.87717 30.90986,-29.8766 30.91008,-29.87622 30.91031,-29.87581 30.91055,-29.87538 30.91063,-29.8752 30.91051,-29.87518 30.91059,-29.87497 30.91068,-29.87481 30.91082,-29.87457 30.91093,-29.87438 30.91097,-29.87425 30.91098,-29.87411 30.91097,-29.874 30.91092,-29.87379 30.91112,-29.87374 30.91144,-29.87367 30.91173,-29.87362 30.91198,-29.87359 30.91222,-29.87358 30.9124,-29.87359 30.91265,-29.87361 30.91291,-29.87365 30.91313,-29.87371 30.91339,-29.8738 30.91362,-29.8739 30.91386,-29.87404 30.91409,-29.87419 30.91422,-29.87429 30.91441,-29.87447 30.91462,-29.87473 30.91494,-29.87442 30.91539,-29.87399 30.91604,-29.87331 30.91718,-29.87211 30.91811,-29.87114 30.91903,-29.87017 30.91918,-29.87001 30.92086,-29.86825 30.92166,-29.86741 30.92251,-29.86653 30.92357,-29.86544 30.92376,-29.86546 30.92392,-29.86545 30.92412,-29.86544</coordinates></LinearRing></outerBoundaryIs></Polygon></MultiGeometry></Placemark></Document></kml>