<?xml version="1.0" encoding="UTF-8"?><kml xmlns="http://www.opengis.net/kml/2.2"><Document><Placemark><name>Manors</name><description>Sub Place 599116003</description><ExtendedData><Data name="code"><value>599116003</value></Data><Data name="name"><value>Manors</value></Data><Data name="description"><value>Sub Place 599116003</value></Data></ExtendedData><MultiGeometry><Polygon><outerBoundaryIs><LinearRing><coordinates>30.86693,-29.78525 30.86689,-29.78556 30.86696,-29.78555 30.86692,-29.78579 30.86683,-29.78606 30.86676,-29.78634 30.86669,-29.7866 30.86665,-29.78685 30.86655,-29.78737 30.8665,-29.78752 30.86648,-29.78756 30.86643,-29.78763 30.8663,-29.78824 30.86628,-29.7883 30.86623,-29.78844 30.86622,-29.78852 30.86612,-29.78907 30.86605,-29.78936 30.86591,-29.79002 30.86589,-29.79013 30.86584,-29.79039 30.86579,-29.79069 30.86571,-29.79106 30.86563,-29.79146 30.8656,-29.79159 30.86553,-29.79195 30.86548,-29.79215 30.86547,-29.79225 30.86535,-29.79231 30.86529,-29.79293 30.86522,-29.79325 30.86518,-29.79343 30.86508,-29.79389 30.86498,-29.79436 30.86476,-29.79482 30.86466,-29.79495 30.86457,-29.79504 30.86451,-29.79513 30.86446,-29.79521 30.86443,-29.79533 30.86445,-29.79548 30.86447,-29.79563 30.86451,-29.7958 30.86461,-29.796 30.86448,-29.79663 30.86423,-29.79774 30.864,-29.79793 30.86352,-29.79836 30.86344,-29.79843 30.86287,-29.79893 30.86229,-29.79943 30.86166,-29.79998 30.86167,-29.79989 30.86165,-29.79982 30.86155,-29.79976 30.86137,-29.79971 30.86127,-29.79966 30.8611,-29.79955 30.86106,-29.79945 30.86095,-29.79935 30.86087,-29.79934 30.86072,-29.79933 30.86057,-29.79933 30.86051,-29.79933 30.86045,-29.79935 30.86032,-29.79947 30.86024,-29.7994 30.86018,-29.79934 30.86005,-29.7993 30.85996,-29.79926 30.85987,-29.79927 30.8595,-29.79934 30.85921,-29.7995 30.85901,-29.79954 30.85889,-29.79957 30.85884,-29.79956 30.85874,-29.79954 30.85864,-29.79957 30.85843,-29.79957 30.85837,-29.79958 30.85823,-29.79964 30.85808,-29.79966 30.85804,-29.79967 30.85799,-29.7997 30.8579,-29.79973 30.85778,-29.79974 30.85773,-29.79976 30.8576,-29.79987 30.85752,-29.79991 30.85741,-29.80052 30.85728,-29.80127 30.85676,-29.80135 30.85677,-29.80145 30.85683,-29.80159 30.85704,-29.80197 30.85718,-29.80222 30.85753,-29.80281 30.85771,-29.80309 30.85781,-29.80326 30.85789,-29.80332 30.85848,-29.80369 30.8587,-29.80381 30.85855,-29.80396 30.85835,-29.80413 30.85791,-29.8045 30.85758,-29.80476 30.85739,-29.80493 30.85696,-29.80448 30.85689,-29.8044 30.85681,-29.80436 30.85674,-29.80436 30.85668,-29.80438 30.85654,-29.80449 30.85653,-29.8045 30.85621,-29.80476 30.8552,-29.80563 30.8542,-29.80651 30.85394,-29.80671 30.85355,-29.80692 30.85258,-29.80745 30.8524,-29.80766 30.85223,-29.80781 30.85203,-29.80793 30.85179,-29.80804 30.85137,-29.80822 30.85092,-29.80842 30.85066,-29.80854 30.85044,-29.80867 30.85011,-29.80893 30.8498,-29.80925 30.84963,-29.8091 30.84933,-29.80876 30.84911,-29.80871 30.84886,-29.80877 30.84864,-29.80883 30.8484,-29.80898 30.84813,-29.80914 30.84795,-29.80925 30.84775,-29.80935 30.84746,-29.80951 30.84721,-29.80963 30.84702,-29.80966 30.84687,-29.80965 30.84673,-29.80962 30.84655,-29.80978 30.84648,-29.80983 30.84642,-29.80986 30.84637,-29.80988 30.84631,-29.8099 30.84624,-29.8099 30.84619,-29.80991 30.84612,-29.80991 30.84605,-29.8099 30.84598,-29.80988 30.84591,-29.80985 30.84586,-29.80981 30.8458,-29.80976 30.84578,-29.80973 30.84583,-29.80965 30.84602,-29.80942 30.84639,-29.80894 30.84647,-29.80884 30.84685,-29.80826 30.84791,-29.80718 30.84841,-29.8065 30.8486,-29.80562 30.84879,-29.8047 30.84893,-29.80402 30.84867,-29.80375 30.84907,-29.80337 30.84963,-29.80394 30.85037,-29.80468 30.85151,-29.80423 30.85173,-29.80414 30.85173,-29.80413 30.8516,-29.80386 30.85146,-29.80356 30.85129,-29.80322 30.85191,-29.80319 30.8521,-29.80319 30.85237,-29.80318 30.85253,-29.80317 30.85245,-29.80309 30.85232,-29.80298 30.85208,-29.80277 30.85192,-29.80261 30.85183,-29.80246 30.85179,-29.80235 30.85176,-29.80221 30.85176,-29.80208 30.85179,-29.80189 30.85186,-29.80166 30.85195,-29.80133 30.85205,-29.80101 30.85214,-29.8007 30.85221,-29.80043 30.85224,-29.80023 30.85224,-29.80004 30.8522,-29.79989 30.85213,-29.7997 30.85196,-29.79949 30.85178,-29.79933 30.8516,-29.79924 30.85141,-29.79916 30.85119,-29.79911 30.85086,-29.79906 30.85069,-29.79903 30.85052,-29.79899 30.85037,-29.79892 30.85015,-29.79876 30.85001,-29.79858 30.84993,-29.79835 30.84997,-29.79818 30.85,-29.79802 30.8501,-29.79783 30.85017,-29.79773 30.85033,-29.79761 30.85049,-29.79751 30.85077,-29.79737 30.85101,-29.79732 30.85135,-29.79726 30.85163,-29.79716 30.85181,-29.79708 30.85209,-29.79693 30.85232,-29.7968 30.85238,-29.79675 30.85251,-29.79665 30.85264,-29.79653 30.8527,-29.7964 30.85276,-29.79625 30.85277,-29.79607 30.85274,-29.79587 30.85274,-29.79587 30.85268,-29.79574 30.85259,-29.7956 30.85246,-29.79548 30.8523,-29.79536 30.85341,-29.79449 30.85434,-29.79376 30.85509,-29.7931 30.85518,-29.79303 30.85533,-29.79292 30.85552,-29.79277 30.85573,-29.7926 30.85586,-29.79256 30.85665,-29.79193 30.85707,-29.7916 30.85788,-29.79096 30.85856,-29.79043 30.85865,-29.79035 30.85937,-29.78978 30.86044,-29.78894 30.8611,-29.78842 30.86138,-29.78819 30.86169,-29.78796 30.86201,-29.78768 30.86237,-29.78739 30.86286,-29.78702 30.86314,-29.78681 30.86284,-29.78652 30.86228,-29.78615 30.86347,-29.78478 30.86355,-29.78468 30.86492,-29.7854 30.86593,-29.78461 30.86629,-29.78432 30.86659,-29.78409 30.86733,-29.7835 30.86708,-29.78462 30.86693,-29.78525</coordinates></LinearRing></outerBoundaryIs></Polygon></MultiGeometry></Placemark></Document></kml>