<?xml version="1.0" encoding="UTF-8"?><kml xmlns="http://www.opengis.net/kml/2.2"><Document><Placemark><name>Westville</name><description>Main Place 599115</description><ExtendedData><Data name="code"><value>599115</value></Data><Data name="name"><value>Westville</value></Data><Data name="description"><value>Main Place 599115</value></Data></ExtendedData><MultiGeometry><Polygon><outerBoundaryIs><LinearRing><coordinates>30.92623,-29.8004 30.92598,-29.80064 30.92599,-29.80116 30.926,-29.80155 30.92599,-29.8019 30.926,-29.80203 30.92594,-29.80232 30.92583,-29.80276 30.92573,-29.80324 30.92566,-29.80351 30.92562,-29.80363 30.92579,-29.8038 30.9261,-29.80403 30.9264,-29.80425 30.92676,-29.80446 30.92708,-29.80456 30.92727,-29.80458 30.92755,-29.80459 30.92795,-29.80458 30.92834,-29.80457 30.92839,-29.8048 30.92838,-29.80492 30.9284,-29.80538 30.92845,-29.80578 30.92841,-29.80594 30.92833,-29.80621 30.92823,-29.80659 30.92815,-29.80684 30.92806,-29.80735 30.92818,-29.80733 30.9284,-29.80731 30.92861,-29.80727 30.92879,-29.80721 30.92915,-29.80708 30.92954,-29.80695 30.9299,-29.80682 30.93027,-29.8067 30.93049,-29.80662 30.93078,-29.80652 30.93081,-29.80664 30.93081,-29.80675 30.93074,-29.80691 30.93053,-29.80727 30.93043,-29.80747 30.93041,-29.8075 30.93029,-29.80773 30.9302,-29.80791 30.93015,-29.80808 30.92999,-29.80809 30.92976,-29.80812 30.92948,-29.80814 30.92923,-29.80816 30.92911,-29.80818 30.92921,-29.80865 30.92928,-29.80898 30.92934,-29.80929 30.9294,-29.80945 30.92944,-29.80965 30.9295,-29.80995 30.92955,-29.81016 30.92957,-29.81027 30.92962,-29.81047 30.92953,-29.81051 30.92948,-29.81053 30.9294,-29.81053 30.92938,-29.81061 30.92938,-29.81076 30.92939,-29.81094 30.92939,-29.81118 30.92894,-29.81107 30.92873,-29.81093 30.92831,-29.81069 30.92846,-29.81163 30.929,-29.81154 30.92969,-29.81143 30.92998,-29.81173 30.93032,-29.81206 30.93104,-29.81276 30.93088,-29.81359 30.9312,-29.81354 30.93197,-29.81338 30.93264,-29.81322 30.9331,-29.81313 30.93359,-29.81311 30.93405,-29.81313 30.93456,-29.81322 30.93499,-29.81334 30.93547,-29.81353 30.936,-29.81376 30.93632,-29.81389 30.93672,-29.814 30.93716,-29.81408 30.93757,-29.81411 30.93808,-29.8141 30.93841,-29.81405 30.93877,-29.81398 30.93911,-29.81387 30.93947,-29.81374 30.93999,-29.81353 30.9407,-29.81324 30.94129,-29.81301 30.94185,-29.81277 30.94255,-29.8125 30.94323,-29.81226 30.94412,-29.81196 30.94442,-29.81186 30.94494,-29.81246 30.94533,-29.81281 30.94575,-29.81327 30.94615,-29.81369 30.94648,-29.814 30.94691,-29.81441 30.94733,-29.81473 30.9483,-29.81562 30.94855,-29.8153 30.94866,-29.81523 30.949,-29.81507 30.94948,-29.81483 30.95008,-29.81452 30.95044,-29.81434 30.95092,-29.81408 30.9512,-29.81393 30.95145,-29.81379 30.95171,-29.81367 30.95205,-29.81353 30.95235,-29.81342 30.95246,-29.81337 30.95308,-29.81365 30.95415,-29.81419 30.95422,-29.81437 30.95428,-29.81448 30.95427,-29.81453 30.95425,-29.81461 30.95419,-29.81468 30.95488,-29.81506 30.95489,-29.81506 30.95539,-29.81533 30.95545,-29.81536 30.95546,-29.81537 30.95572,-29.81553 30.95633,-29.81579 30.95644,-29.81584 30.95763,-29.81629 30.95769,-29.81638 30.95761,-29.81661 30.9575,-29.81666 30.95736,-29.81671 30.95711,-29.817 30.95678,-29.81732 30.95676,-29.81758 30.95617,-29.81807 30.9569,-29.81818 30.95552,-29.81881 30.95456,-29.81924 30.95554,-29.81939 30.95581,-29.82089 30.95689,-29.8206 30.95722,-29.8205 30.95752,-29.8205 30.95777,-29.82056 30.95804,-29.82058 30.95849,-29.82052 30.95885,-29.82043 30.95912,-29.82036 30.9593,-29.82028 30.95966,-29.82022 30.96002,-29.82011 30.96029,-29.82007 30.96097,-29.82032 30.96185,-29.82085 30.96199,-29.82116 30.96225,-29.82139 30.96252,-29.82159 30.96271,-29.82178 30.96295,-29.82206 30.96289,-29.8222 30.96275,-29.82249 30.96263,-29.82273 30.96244,-29.82292 30.96235,-29.82316 30.96228,-29.82338 30.96217,-29.82362 30.96211,-29.82376 30.96201,-29.82393 30.96196,-29.82407 30.96188,-29.82422 30.96178,-29.82442 30.96167,-29.8246 30.96163,-29.82473 30.96157,-29.82483 30.96146,-29.82507 30.96142,-29.82517 30.96134,-29.82529 30.9613,-29.82536 30.96117,-29.82565 30.96082,-29.82631 30.96056,-29.82683 30.96045,-29.82715 30.96034,-29.82751 30.95995,-29.8281 30.95981,-29.82839 30.95956,-29.82883 30.95917,-29.82959 30.9591,-29.82971 30.95937,-29.82992 30.95955,-29.83003 30.95975,-29.83013 30.95988,-29.83019 30.96005,-29.83025 30.96025,-29.83029 30.96057,-29.83036 30.96085,-29.8304 30.96106,-29.83043 30.96133,-29.83047 30.96148,-29.83048 30.96119,-29.8309 30.96097,-29.83121 30.96073,-29.83164 30.96065,-29.83185 30.96039,-29.83248 30.95995,-29.83361 30.95947,-29.83485 30.95926,-29.8354 30.95904,-29.83597 30.95878,-29.83663 30.95855,-29.83723 30.95829,-29.83789 30.958,-29.83865 30.95794,-29.83881 30.95772,-29.83935 30.9574,-29.84018 30.95721,-29.84072 30.95697,-29.84132 30.95677,-29.84182 30.9566,-29.84227 30.95644,-29.84273 30.95634,-29.84311 30.95626,-29.84347 30.95621,-29.8439 30.9562,-29.84431 30.95616,-29.84481 30.95613,-29.84526 30.95608,-29.84569 30.95601,-29.84599 30.95466,-29.84602 30.95431,-29.84602 30.95406,-29.84599 30.95395,-29.84594 30.95262,-29.84592 30.95212,-29.84587 30.95171,-29.84585 30.95142,-29.84584 30.95088,-29.84582 30.95014,-29.84585 30.94943,-29.84583 30.94847,-29.84581 30.9481,-29.8458 30.94757,-29.84579 30.94687,-29.84577 30.94634,-29.84576 30.94612,-29.84575 30.9454,-29.84573 30.94537,-29.84541 30.94499,-29.84541 30.94462,-29.84541 30.94436,-29.84541 30.9444,-29.84564 30.94417,-29.84564 30.94313,-29.8456 30.9427,-29.84561 30.94157,-29.84564 30.94114,-29.84564 30.94078,-29.84564 30.94057,-29.84589 30.94052,-29.84624 30.9402,-29.8469 30.94008,-29.84714 30.94,-29.84731 30.93934,-29.84833 30.93913,-29.84867 30.9384,-29.85028 30.93802,-29.85107 30.93753,-29.85217 30.93749,-29.85229 30.93739,-29.85242 30.93748,-29.85248 30.93743,-29.8526 30.9373,-29.85269 30.9371,-29.8529 30.93699,-29.85328 30.93696,-29.8536 30.93667,-29.85419 30.93658,-29.85436 30.93612,-29.85531 30.93588,-29.85582 30.93518,-29.85631 30.93508,-29.85638 30.93519,-29.85647 30.93534,-29.85656 30.93543,-29.8566 30.93549,-29.85663 30.93495,-29.85773 30.93484,-29.85795 30.93439,-29.8589 30.93374,-29.86023 30.93333,-29.86106 30.93301,-29.86174 30.93262,-29.86254 30.93219,-29.86342 30.93172,-29.86439 30.93119,-29.86549 30.93069,-29.86652 30.93029,-29.86734 30.92988,-29.86819 30.92934,-29.8693 30.92925,-29.86926 30.9291,-29.86912 30.92901,-29.86898 30.92891,-29.86875 30.92876,-29.86861 30.92858,-29.86844 30.92844,-29.86829 30.92824,-29.86818 30.92801,-29.86808 30.92763,-29.8679 30.92726,-29.86772 30.92702,-29.86759 30.92687,-29.86741 30.92673,-29.86726 30.92667,-29.8672 30.92656,-29.8671 30.92642,-29.86702 30.9263,-29.86697 30.92617,-29.86688 30.92603,-29.86677 30.92595,-29.86665 30.92586,-29.86647 30.92571,-29.86636 30.92561,-29.86618 30.92552,-29.86603 30.92535,-29.86583 30.92519,-29.86571 30.92503,-29.86563 30.92482,-29.8656 30.92447,-29.86554 30.92425,-29.86547 30.92412,-29.86544 30.92392,-29.86545 30.92376,-29.86546 30.92357,-29.86544 30.92317,-29.86533 30.92284,-29.86524 30.92239,-29.86524 30.92209,-29.8652 30.92181,-29.86513 30.92149,-29.8651 30.921,-29.86501 30.92043,-29.86485 30.9198,-29.86466 30.91935,-29.86456 30.91891,-29.86437 30.91852,-29.86416 30.91828,-29.86398 30.91815,-29.86376 30.91809,-29.86347 30.91807,-29.8632 30.91815,-29.86302 30.91823,-29.86288 30.91824,-29.86276 30.91818,-29.8626 30.91803,-29.86241 30.91784,-29.86214 30.91766,-29.86199 30.91746,-29.86189 30.91722,-29.86189 30.917,-29.86196 30.91687,-29.86201 30.91662,-29.86234 30.91644,-29.86258 30.91623,-29.86289 30.91604,-29.86306 30.9159,-29.86315 30.91569,-29.86341 30.91547,-29.86362 30.91528,-29.86394 30.91522,-29.86428 30.91507,-29.86459 30.91491,-29.86483 30.91482,-29.86491 30.91472,-29.86498 30.9146,-29.86496 30.91441,-29.86489 30.91419,-29.86484 30.91388,-29.86477 30.91349,-29.86475 30.91316,-29.86479 30.91277,-29.86482 30.91238,-29.86495 30.91207,-29.86506 30.91184,-29.86513 30.91147,-29.86529 30.9112,-29.8654 30.91081,-29.86549 30.91049,-29.86554 30.91041,-29.86555 30.91022,-29.86558 30.90997,-29.8657 30.90972,-29.86585 30.90958,-29.866 30.90942,-29.86619 30.90931,-29.86634 30.90906,-29.8665 30.90887,-29.86663 30.9086,-29.86678 30.90836,-29.86694 30.90822,-29.86703 30.90812,-29.86709 30.90807,-29.86705 30.90803,-29.86703 30.90797,-29.86687 30.9079,-29.86668 30.90784,-29.86655 30.90765,-29.86634 30.9075,-29.86619 30.90731,-29.86602 30.90708,-29.86585 30.90692,-29.86572 30.9068,-29.86559 30.90674,-29.86543 30.90669,-29.86525 30.90671,-29.86507 30.90682,-29.86489 30.90696,-29.86474 30.90712,-29.86464 30.9073,-29.86451 30.90744,-29.8643 30.90753,-29.86408 30.90754,-29.86382 30.90753,-29.86355 30.90746,-29.86329 30.90741,-29.86312 30.90736,-29.8629 30.90734,-29.86264 30.90733,-29.8624 30.90727,-29.86217 30.90727,-29.86202 30.90731,-29.86178 30.90736,-29.86148 30.90739,-29.8612 30.90737,-29.86095 30.9073,-29.86073 30.90715,-29.86049 30.90699,-29.86032 30.90681,-29.86019 30.9066,-29.8601 30.90626,-29.86006 30.90602,-29.8601 30.90581,-29.86016 30.90556,-29.86027 30.9055,-29.8603 30.90522,-29.86044 30.90498,-29.86062 30.90479,-29.86078 30.90456,-29.86105 30.9045,-29.86117 30.9044,-29.86135 30.90436,-29.86149 30.90438,-29.8616 30.9045,-29.86171 30.90454,-29.86176 30.90452,-29.86189 30.90449,-29.86204 30.90452,-29.8622 30.90459,-29.86229 30.90474,-29.86246 30.90498,-29.8626 30.90508,-29.86263 30.9052,-29.8627 30.90532,-29.86274 30.90547,-29.86286 30.90547,-29.86286 30.90535,-29.86303 30.90519,-29.86321 30.90501,-29.86334 30.90475,-29.8634 30.90445,-29.86338 30.90418,-29.8633 30.90384,-29.86321 30.90359,-29.86314 30.90322,-29.86304 30.90299,-29.86299 30.90272,-29.86294 30.90245,-29.86289 30.90217,-29.86284 30.90185,-29.86277 30.90153,-29.86265 30.9014,-29.86257 30.90129,-29.86239 30.90125,-29.86228 30.90125,-29.86205 30.90125,-29.86185 30.90121,-29.86159 30.9012,-29.86142 30.90112,-29.86119 30.90102,-29.86103 30.90089,-29.86087 30.90079,-29.86078 30.90061,-29.86073 30.90038,-29.86067 30.90016,-29.8606 30.89991,-29.86056 30.8997,-29.86052 30.89951,-29.86043 30.89944,-29.8604 30.89922,-29.8603 30.89894,-29.86019 30.89869,-29.86013 30.89846,-29.86009 30.89827,-29.86009 30.89808,-29.86005 30.89778,-29.85999 30.89749,-29.85991 30.89737,-29.85987 30.89721,-29.85982 30.89704,-29.85973 30.89689,-29.85957 30.89679,-29.8594 30.89674,-29.85922 30.8967,-29.85904 30.8967,-29.85898 30.89672,-29.85884 30.89684,-29.85864 30.89692,-29.85858 30.89698,-29.85853 30.89712,-29.85844 30.89731,-29.85834 30.89747,-29.85825 30.89757,-29.85818 30.89772,-29.8581 30.89783,-29.85806 30.89803,-29.85799 30.89827,-29.85797 30.89856,-29.85794 30.8989,-29.85791 30.89917,-29.85781 30.89941,-29.85769 30.89953,-29.8576 30.89959,-29.85752 30.8997,-29.85732 30.89981,-29.85705 30.89989,-29.85678 30.89996,-29.85659 30.89999,-29.85646 30.89992,-29.8563 30.89978,-29.85606 30.89963,-29.85583 30.89943,-29.85555 30.89918,-29.85525 30.89897,-29.85502 30.89877,-29.85482 30.89853,-29.85463 30.8983,-29.85443 30.8981,-29.85425 30.89791,-29.85412 30.89788,-29.8541 30.89762,-29.85392 30.89735,-29.85377 30.89704,-29.85363 30.89674,-29.85354 30.89645,-29.85348 30.89615,-29.85345 30.89589,-29.85344 30.89563,-29.8534 30.89532,-29.85336 30.89513,-29.85334 30.89532,-29.85296 30.89559,-29.85241 30.89588,-29.85182 30.89614,-29.85129 30.89638,-29.8508 30.89658,-29.85038 30.89681,-29.84992 30.897,-29.84953 30.89727,-29.84899 30.89755,-29.84842 30.89791,-29.84768 30.89801,-29.84748 30.89814,-29.84722 30.89819,-29.84707 30.89828,-29.84674 30.89836,-29.84672 30.89865,-29.8461 30.89903,-29.84529 30.89953,-29.84424 30.89983,-29.84363 30.89996,-29.84337 30.90037,-29.84252 30.90073,-29.84177 30.90106,-29.84108 30.90141,-29.84032 30.90188,-29.83933 30.9021,-29.83886 30.90249,-29.83803 30.9027,-29.83768 30.90304,-29.83697 30.90318,-29.83666 30.90345,-29.83606 30.90369,-29.83554 30.90383,-29.83525 30.90411,-29.83468 30.90431,-29.83425 30.90466,-29.83352 30.90482,-29.83318 30.90516,-29.83245 30.90551,-29.83175 30.9058,-29.83109 30.90584,-29.831 30.90593,-29.83081 30.90616,-29.83044 30.90638,-29.82998 30.9066,-29.82952 30.90688,-29.82894 30.90717,-29.82831 30.9074,-29.82783 30.90758,-29.82746 30.90794,-29.8267 30.90823,-29.82609 30.90852,-29.82548 30.90872,-29.82506 30.90882,-29.82486 30.90922,-29.82402 30.90947,-29.82349 30.90948,-29.82346 30.90962,-29.82316 30.9097,-29.82302 30.90976,-29.82272 30.90993,-29.82234 30.9101,-29.82193 30.91027,-29.82162 30.91047,-29.82125 30.91084,-29.82061 30.91119,-29.81988 30.9114,-29.81943 30.91162,-29.81909 30.9106,-29.81892 30.91027,-29.81887 30.91009,-29.81884 30.90968,-29.81879 30.9093,-29.81871 30.90872,-29.81859 30.90814,-29.81848 30.90778,-29.81842 30.90736,-29.81833 30.90694,-29.81826 30.90502,-29.81786 30.9024,-29.81732 30.90176,-29.81749 30.90089,-29.81772 30.89995,-29.81796 30.8991,-29.81818 30.897,-29.81871 30.89677,-29.81877 30.89575,-29.81903 30.89369,-29.81955 30.89288,-29.81976 30.89276,-29.81975 30.89242,-29.81978 30.89193,-29.81913 30.89106,-29.81797 30.89075,-29.81757 30.89049,-29.81722 30.89033,-29.81702 30.88987,-29.8164 30.89006,-29.816 30.89032,-29.81543 30.89068,-29.81469 30.89099,-29.81401 30.89129,-29.81336 30.89168,-29.81251 30.89186,-29.81213 30.89198,-29.81186 30.89208,-29.81168 30.89239,-29.81169 30.89344,-29.81163 30.89435,-29.81158 30.8952,-29.81153 30.89558,-29.81151 30.89627,-29.81146 30.89657,-29.81145 30.89739,-29.8114 30.89807,-29.81136 30.89849,-29.81135 30.89887,-29.81132 30.89923,-29.8113 30.90029,-29.81124 30.90055,-29.81122 30.90042,-29.81077 30.90034,-29.81042 30.90024,-29.81005 30.90015,-29.80974 30.90009,-29.80952 30.90002,-29.80924 30.89996,-29.80899 30.89964,-29.80776 30.89913,-29.80576 30.89899,-29.80523 30.89914,-29.80519 30.89928,-29.80514 30.89949,-29.80513 30.89968,-29.80513 30.89993,-29.80516 30.90012,-29.80518 30.90032,-29.80527 30.9005,-29.80535 30.90053,-29.80537 30.90067,-29.80547 30.90087,-29.8056 30.90112,-29.80567 30.90134,-29.80568 30.9015,-29.80566 30.90165,-29.80563 30.90188,-29.80553 30.90203,-29.80549 30.9022,-29.80546 30.90233,-29.80546 30.90247,-29.80549 30.90263,-29.80551 30.90284,-29.80563 30.90303,-29.8058 30.90313,-29.80595 30.90317,-29.80611 30.90323,-29.80625 30.90328,-29.8064 30.90336,-29.80655 30.90349,-29.80665 30.9036,-29.80675 30.90378,-29.80691 30.90394,-29.80702 30.90405,-29.80709 30.9042,-29.80716 30.90433,-29.80718 30.90444,-29.80716 30.90451,-29.80711 30.90458,-29.80698 30.90461,-29.80689 30.90466,-29.80679 30.90474,-29.8067 30.90483,-29.8066 30.90494,-29.80648 30.90507,-29.80641 30.90518,-29.80627 30.90521,-29.80617 30.9052,-29.80606 30.90517,-29.80594 30.90512,-29.80585 30.90508,-29.80572 30.90507,-29.80564 30.90507,-29.8056 30.90507,-29.8055 30.90515,-29.80536 30.90524,-29.80514 30.90532,-29.80501 30.90536,-29.80491 30.90543,-29.80482 30.90556,-29.80473 30.9057,-29.80463 30.90582,-29.80454 30.90592,-29.80446 30.906,-29.80436 30.90613,-29.80432 30.90622,-29.80432 30.9063,-29.80434 30.90638,-29.80445 30.90644,-29.80454 30.90656,-29.80463 30.90666,-29.80464 30.9068,-29.80467 30.907,-29.80473 30.90711,-29.80476 30.90733,-29.80481 30.90754,-29.80479 30.90773,-29.80482 30.90795,-29.80479 30.90815,-29.8048 30.90832,-29.80483 30.90855,-29.80489 30.90877,-29.80486 30.90895,-29.80482 30.90906,-29.80475 30.90913,-29.80464 30.90914,-29.8045 30.90909,-29.80441 30.90895,-29.8043 30.90878,-29.80422 30.90864,-29.8041 30.90862,-29.80403 30.90862,-29.804 30.90856,-29.80383 30.90851,-29.80372 30.90841,-29.80348 30.90837,-29.80334 30.90844,-29.80316 30.90861,-29.80303 30.90881,-29.80294 30.90906,-29.8029 30.90928,-29.8029 30.90946,-29.80298 30.90968,-29.8031 30.90984,-29.80326 30.91004,-29.80334 30.91032,-29.80339 30.91057,-29.80342 30.91077,-29.80348 30.91086,-29.80354 30.9111,-29.80368 30.91132,-29.80386 30.91148,-29.80405 30.9116,-29.80419 30.91175,-29.80432 30.91189,-29.80442 30.91199,-29.80444 30.91209,-29.80446 30.91226,-29.80446 30.91245,-29.80435 30.91265,-29.80425 30.91289,-29.80409 30.91309,-29.80392 30.91326,-29.80378 30.91338,-29.80366 30.9135,-29.80349 30.91359,-29.8033 30.91366,-29.80314 30.91369,-29.80299 30.91369,-29.80285 30.91366,-29.80273 30.91359,-29.80263 30.9135,-29.80259 30.91335,-29.80253 30.91312,-29.80239 30.91297,-29.80226 30.91278,-29.80212 30.91259,-29.80199 30.91245,-29.80187 30.91236,-29.80178 30.91232,-29.80167 30.91228,-29.80156 30.91228,-29.80142 30.91228,-29.8013 30.91235,-29.80119 30.9124,-29.8011 30.9125,-29.80098 30.91265,-29.80092 30.91279,-29.8009 30.91299,-29.80091 30.91329,-29.80096 30.91356,-29.80102 30.91388,-29.8011 30.91414,-29.80114 30.9144,-29.80116 30.91464,-29.80123 30.91479,-29.80126 30.91495,-29.80119 30.91504,-29.80107 30.91513,-29.80091 30.91514,-29.80077 30.91515,-29.80059 30.91515,-29.8004 30.91513,-29.8003 30.91507,-29.80013 30.91504,-29.79997 30.91498,-29.79987 30.91486,-29.79968 30.91483,-29.79955 30.91481,-29.79941 30.91485,-29.79925 30.91493,-29.79914 30.915,-29.79905 30.91512,-29.799 30.91529,-29.7989 30.91543,-29.79886 30.91558,-29.79885 30.91569,-29.79885 30.91583,-29.79893 30.91597,-29.79905 30.91615,-29.79925 30.91626,-29.79942 30.91633,-29.79956 30.91645,-29.79979 30.91654,-29.79998 30.91665,-29.80013 30.91674,-29.80029 30.91687,-29.80039 30.91698,-29.80043 30.91717,-29.80042 30.91741,-29.80042 30.91774,-29.80033 30.91795,-29.80032 30.91828,-29.8003 30.91857,-29.80026 30.91883,-29.80023 30.91915,-29.80023 30.91932,-29.8002 30.91963,-29.80019 30.91981,-29.80014 30.91993,-29.80005 30.91994,-29.79992 30.91988,-29.79981 30.91978,-29.79971 30.91967,-29.79962 30.91962,-29.7995 30.91964,-29.79941 30.91969,-29.79935 30.91968,-29.79926 30.91965,-29.79921 30.91957,-29.79913 30.91951,-29.79899 30.91949,-29.79882 30.9195,-29.79851 30.91959,-29.79829 30.91964,-29.79805 30.91965,-29.79788 30.9197,-29.79771 30.91976,-29.79756 30.91985,-29.79742 30.92004,-29.79728 30.92014,-29.79715 30.92036,-29.79696 30.92056,-29.79682 30.92077,-29.79666 30.92094,-29.79655 30.92114,-29.79652 30.9213,-29.79649 30.92143,-29.79645 30.92151,-29.79639 30.92163,-29.79623 30.92177,-29.796 30.92184,-29.79574 30.92184,-29.79559 30.92179,-29.79544 30.92168,-29.7953 30.92157,-29.7952 30.92145,-29.79515 30.92134,-29.79506 30.9213,-29.79493 30.92129,-29.79482 30.92133,-29.79469 30.92151,-29.79446 30.92172,-29.79418 30.92195,-29.79393 30.92214,-29.79374 30.92236,-29.79356 30.92249,-29.79337 30.92259,-29.79319 30.92263,-29.79297 30.92436,-29.79344 30.92587,-29.79385 30.92567,-29.79496 30.92548,-29.79553 30.92542,-29.79566 30.92528,-29.79633 30.92521,-29.79664 30.92533,-29.79723 30.92512,-29.79855 30.92487,-29.8001 30.92511,-29.80011 30.92527,-29.80016 30.9254,-29.80023 30.92561,-29.80027 30.92592,-29.80031 30.92623,-29.8004</coordinates></LinearRing></outerBoundaryIs></Polygon></MultiGeometry></Placemark></Document></kml>