<?xml version="1.0" encoding="UTF-8"?><kml xmlns="http://www.opengis.net/kml/2.2"><Document><Placemark><name>KwaNdengezi</name><description>Main Place 599139</description><ExtendedData><Data name="code"><value>599139</value></Data><Data name="name"><value>KwaNdengezi</value></Data><Data name="description"><value>Main Place 599139</value></Data></ExtendedData><MultiGeometry><Polygon><outerBoundaryIs><LinearRing><coordinates>30.77643,-29.83314 30.77657,-29.83315 30.7769,-29.83314 30.77711,-29.83316 30.77731,-29.83317 30.77755,-29.83321 30.7778,-29.83326 30.77822,-29.83336 30.77861,-29.83346 30.779,-29.83356 30.7793,-29.83363 30.77971,-29.83371 30.77993,-29.83374 30.78014,-29.83376 30.78038,-29.83377 30.78058,-29.83378 30.78066,-29.83378 30.78066,-29.83378 30.78066,-29.83378 30.78068,-29.83378 30.78068,-29.83378 30.78119,-29.83375 30.78208,-29.83371 30.7825,-29.83371 30.78274,-29.83372 30.7829,-29.83373 30.78307,-29.83376 30.78327,-29.83383 30.7834,-29.83392 30.78365,-29.83418 30.78372,-29.83426 30.78396,-29.83457 30.78411,-29.83476 30.78432,-29.83508 30.78458,-29.83549 30.78469,-29.83563 30.78482,-29.83577 30.78498,-29.8359 30.78516,-29.83605 30.78547,-29.83628 30.78585,-29.83653 30.78592,-29.83658 30.78631,-29.83683 30.7867,-29.83709 30.78695,-29.83727 30.78731,-29.83756 30.78759,-29.83777 30.78806,-29.83806 30.78842,-29.83828 30.78919,-29.83871 30.78967,-29.83897 30.79017,-29.83926 30.79059,-29.83948 30.79096,-29.83969 30.79141,-29.83995 30.79167,-29.84011 30.79174,-29.84015 30.79182,-29.8402 30.79199,-29.8403 30.79213,-29.84041 30.79229,-29.84053 30.79266,-29.84088 30.79307,-29.84127 30.7934,-29.84159 30.79392,-29.84206 30.7942,-29.84231 30.79436,-29.84246 30.79488,-29.84292 30.79541,-29.84341 30.79575,-29.84371 30.79608,-29.84401 30.79644,-29.84435 30.79649,-29.84439 30.79677,-29.84462 30.79704,-29.84486 30.79728,-29.84511 30.79755,-29.84541 30.79771,-29.84562 30.79788,-29.84594 30.79809,-29.84642 30.79827,-29.84688 30.79844,-29.84739 30.79857,-29.84784 30.79875,-29.84847 30.79876,-29.84849 30.79877,-29.84854 30.7989,-29.84899 30.79905,-29.84951 30.7993,-29.85035 30.7994,-29.85069 30.7995,-29.85099 30.79964,-29.85132 30.79978,-29.85149 30.79991,-29.85159 30.80006,-29.85168 30.80021,-29.85174 30.80049,-29.85183 30.8005,-29.85183 30.80085,-29.85194 30.80127,-29.85208 30.80158,-29.85221 30.80181,-29.85235 30.80206,-29.85255 30.80222,-29.8527 30.80253,-29.85298 30.80278,-29.8532 30.80301,-29.85339 30.80319,-29.85349 30.8034,-29.85357 30.80336,-29.85363 30.8033,-29.8537 30.80322,-29.85375 30.80313,-29.85378 30.803,-29.8538 30.80284,-29.85383 30.80274,-29.85387 30.80265,-29.85391 30.80259,-29.85398 30.80257,-29.85407 30.80259,-29.85414 30.80267,-29.85427 30.80275,-29.85439 30.80282,-29.85448 30.80286,-29.85455 30.80287,-29.85461 30.80286,-29.85468 30.80283,-29.85476 30.80278,-29.85486 30.80274,-29.85496 30.80272,-29.85505 30.80272,-29.85511 30.80272,-29.85512 30.80272,-29.85513 30.80273,-29.8552 30.80276,-29.85531 30.80281,-29.85542 30.8029,-29.85559 30.803,-29.85575 30.80309,-29.85588 30.80319,-29.85601 30.80324,-29.85608 30.80326,-29.85611 30.80334,-29.85622 30.80341,-29.85632 30.80348,-29.85642 30.80364,-29.85669 30.80388,-29.85712 30.80389,-29.85715 30.80404,-29.85745 30.80418,-29.85772 30.80431,-29.85791 30.80436,-29.85806 30.80437,-29.85809 30.80439,-29.85819 30.80431,-29.85834 30.8043,-29.85845 30.8043,-29.8585 30.8043,-29.85892 30.80425,-29.85936 30.80423,-29.85952 30.8042,-29.8598 30.80417,-29.86017 30.80417,-29.86025 30.80419,-29.86038 30.80419,-29.86063 30.80419,-29.86086 30.80419,-29.86092 30.8042,-29.86113 30.80428,-29.86119 30.80443,-29.86127 30.80473,-29.8614 30.80468,-29.86162 30.80454,-29.86248 30.80452,-29.86264 30.80452,-29.86284 30.80451,-29.86301 30.80446,-29.8632 30.80446,-29.8632 30.80446,-29.86322 30.80445,-29.86334 30.80442,-29.86363 30.80435,-29.86366 30.80432,-29.86367 30.80428,-29.86372 30.80426,-29.86373 30.80424,-29.86374 30.80417,-29.86374 30.80399,-29.86371 30.80395,-29.8637 30.80391,-29.86371 30.80389,-29.86373 30.80386,-29.86376 30.80374,-29.86398 30.8037,-29.86406 30.80368,-29.8641 30.80365,-29.86408 30.80364,-29.86407 30.80345,-29.86394 30.80333,-29.86383 30.80324,-29.86375 30.80318,-29.86368 30.80301,-29.86348 30.80288,-29.86329 30.80277,-29.86302 30.80271,-29.86277 30.80269,-29.86258 30.80267,-29.86239 30.80268,-29.86216 30.80266,-29.86184 30.80265,-29.86153 30.80261,-29.86133 30.80253,-29.86112 30.80242,-29.86093 30.80225,-29.86075 30.80223,-29.86073 30.80204,-29.86057 30.80174,-29.86043 30.80157,-29.86038 30.8015,-29.86036 30.80129,-29.86032 30.80108,-29.86031 30.80091,-29.86031 30.80087,-29.86032 30.80064,-29.86036 30.80041,-29.86045 30.80022,-29.86056 30.80008,-29.86063 30.79982,-29.86081 30.79951,-29.86105 30.79924,-29.86125 30.79905,-29.86139 30.79887,-29.86152 30.79877,-29.8616 30.7985,-29.86182 30.79833,-29.86195 30.7982,-29.86204 30.79788,-29.86228 30.79765,-29.86246 30.79752,-29.86255 30.79741,-29.86263 30.7972,-29.86277 30.79701,-29.86288 30.79676,-29.86297 30.79656,-29.86302 30.7963,-29.86304 30.79615,-29.86304 30.79603,-29.86303 30.79577,-29.863 30.79542,-29.86295 30.79522,-29.86293 30.79491,-29.86291 30.7949,-29.86291 30.79488,-29.86291 30.7946,-29.86291 30.79438,-29.86293 30.79414,-29.86296 30.7939,-29.863 30.79381,-29.86302 30.79363,-29.86305 30.79332,-29.86311 30.79317,-29.86313 30.79289,-29.86313 30.79264,-29.86308 30.79243,-29.86301 30.79241,-29.86301 30.79237,-29.863 30.79216,-29.86289 30.792,-29.86279 30.79195,-29.86275 30.79163,-29.86293 30.79131,-29.86296 30.79109,-29.86306 30.79111,-29.8632 30.79111,-29.86328 30.7911,-29.86336 30.79103,-29.86343 30.79086,-29.86362 30.7908,-29.86369 30.79078,-29.86374 30.79078,-29.86383 30.79082,-29.86394 30.79049,-29.86404 30.79034,-29.86411 30.7902,-29.86422 30.79001,-29.86444 30.78985,-29.86462 30.78974,-29.86476 30.78968,-29.86486 30.78966,-29.86494 30.78961,-29.86518 30.78954,-29.86553 30.78947,-29.86587 30.78913,-29.86587 30.78851,-29.86592 30.78795,-29.8669 30.78785,-29.86702 30.7877,-29.86712 30.78765,-29.8672 30.78755,-29.86742 30.78744,-29.8678 30.7874,-29.86793 30.78725,-29.868 30.78711,-29.86806 30.787,-29.86815 30.78685,-29.8683 30.78668,-29.86843 30.78653,-29.86856 30.78648,-29.86866 30.78639,-29.86877 30.78628,-29.86883 30.7862,-29.86893 30.78595,-29.86919 30.78581,-29.86943 30.78572,-29.86968 30.78556,-29.87009 30.78552,-29.87029 30.78545,-29.87041 30.78533,-29.87064 30.78522,-29.87081 30.78507,-29.87098 30.78491,-29.87109 30.78468,-29.87125 30.78443,-29.87115 30.78411,-29.87083 30.78389,-29.87054 30.78383,-29.87043 30.78367,-29.87023 30.78364,-29.87019 30.7836,-29.87015 30.78355,-29.8701 30.78343,-29.86998 30.78337,-29.86991 30.78324,-29.86979 30.78318,-29.86973 30.78312,-29.86969 30.78307,-29.86964 30.78302,-29.8696 30.78293,-29.86954 30.78291,-29.86953 30.78285,-29.86949 30.7828,-29.86945 30.78273,-29.86942 30.78267,-29.86938 30.78261,-29.86934 30.7825,-29.86928 30.78247,-29.86926 30.78242,-29.86922 30.78237,-29.86919 30.78231,-29.86915 30.78214,-29.86903 30.78208,-29.86899 30.78202,-29.86895 30.78196,-29.86891 30.7819,-29.86887 30.78184,-29.86883 30.78172,-29.86875 30.78169,-29.86872 30.78163,-29.86867 30.78158,-29.86863 30.78147,-29.86852 30.78136,-29.86842 30.78135,-29.8684 30.7813,-29.86834 30.78119,-29.86823 30.78107,-29.86813 30.78094,-29.86803 30.78088,-29.86798 30.78081,-29.86794 30.78067,-29.86786 30.7806,-29.86782 30.78053,-29.86778 30.78039,-29.86769 30.78032,-29.86766 30.78026,-29.86761 30.78019,-29.86757 30.78013,-29.86753 30.78006,-29.86748 30.78,-29.86743 30.77995,-29.86737 30.77989,-29.86731 30.77987,-29.86729 30.77983,-29.86727 30.77979,-29.86723 30.77974,-29.86719 30.77968,-29.86715 30.77962,-29.8671 30.77958,-29.86707 30.77956,-29.86705 30.7795,-29.867 30.77943,-29.86695 30.77938,-29.86691 30.77934,-29.86687 30.77929,-29.86683 30.77921,-29.86675 30.77918,-29.86671 30.77915,-29.86667 30.77911,-29.86663 30.77908,-29.86659 30.77907,-29.86657 30.77905,-29.86654 30.77902,-29.8665 30.77898,-29.86645 30.77891,-29.86639 30.77888,-29.86636 30.77884,-29.86633 30.77879,-29.8663 30.77876,-29.86627 30.77871,-29.86625 30.77862,-29.86621 30.77858,-29.86619 30.77854,-29.86618 30.7785,-29.86616 30.77845,-29.86615 30.77841,-29.86613 30.77837,-29.86612 30.77831,-29.86609 30.77826,-29.86607 30.77822,-29.86605 30.77818,-29.86602 30.77814,-29.86599 30.77808,-29.86593 30.77806,-29.86589 30.77804,-29.86585 30.77803,-29.86581 30.77801,-29.86577 30.77799,-29.86568 30.77797,-29.86564 30.77796,-29.8656 30.77795,-29.86556 30.77794,-29.86552 30.77791,-29.86543 30.77789,-29.86539 30.77787,-29.86535 30.77785,-29.8653 30.77784,-29.86526 30.77782,-29.86521 30.7778,-29.86517 30.77778,-29.86513 30.77775,-29.86509 30.77771,-29.86507 30.7777,-29.86505 30.77766,-29.86503 30.77761,-29.86502 30.77755,-29.86501 30.77743,-29.86499 30.77734,-29.86498 30.77732,-29.86498 30.77727,-29.86497 30.77722,-29.86496 30.77716,-29.86494 30.77712,-29.86492 30.77703,-29.86489 30.777,-29.86487 30.77695,-29.86485 30.7769,-29.86483 30.77686,-29.8648 30.77681,-29.86478 30.77676,-29.86475 30.77671,-29.86472 30.77662,-29.86467 30.77656,-29.86464 30.77647,-29.86459 30.77642,-29.86455 30.77638,-29.86453 30.77633,-29.8645 30.77628,-29.86447 30.77621,-29.86443 30.77616,-29.8644 30.77607,-29.86435 30.77601,-29.86433 30.77594,-29.8643 30.77589,-29.86428 30.77584,-29.86426 30.77578,-29.86425 30.77573,-29.86424 30.77563,-29.86422 30.77561,-29.86422 30.77555,-29.86422 30.77549,-29.86421 30.77543,-29.86421 30.7753,-29.86422 30.77523,-29.86423 30.7752,-29.86424 30.77513,-29.86426 30.77506,-29.86429 30.77499,-29.86432 30.77492,-29.86435 30.77481,-29.86443 30.77476,-29.86448 30.77471,-29.86454 30.77465,-29.8646 30.77461,-29.86466 30.77456,-29.86473 30.77449,-29.86483 30.77445,-29.8649 30.77441,-29.86497 30.77437,-29.86504 30.77433,-29.86511 30.77428,-29.86519 30.77424,-29.86526 30.77415,-29.86541 30.77409,-29.86552 30.77407,-29.86558 30.77403,-29.86565 30.774,-29.86573 30.77393,-29.86588 30.77389,-29.86597 30.77383,-29.86611 30.77381,-29.86614 30.77377,-29.86622 30.77374,-29.86629 30.7737,-29.86636 30.77362,-29.86651 30.77356,-29.86661 30.77354,-29.86664 30.77351,-29.86671 30.77347,-29.86677 30.77344,-29.86684 30.7734,-29.8669 30.77336,-29.86703 30.77335,-29.86708 30.77334,-29.86714 30.77333,-29.86721 30.77333,-29.86729 30.77332,-29.86743 30.77333,-29.86745 30.77333,-29.86751 30.77334,-29.86758 30.77334,-29.86765 30.77335,-29.86771 30.77335,-29.86778 30.77337,-29.8679 30.77338,-29.86795 30.77339,-29.86801 30.77341,-29.86808 30.77343,-29.86823 30.77345,-29.86829 30.77345,-29.86837 30.77346,-29.86848 30.77345,-29.86858 30.77344,-29.86865 30.77342,-29.86873 30.77341,-29.86881 30.77338,-29.86892 30.77335,-29.86899 30.77334,-29.86902 30.77333,-29.86906 30.77331,-29.86914 30.77328,-29.86921 30.77326,-29.86929 30.77324,-29.86937 30.77321,-29.86948 30.77319,-29.86953 30.77318,-29.8696 30.77316,-29.86968 30.77314,-29.86976 30.77312,-29.86984 30.7731,-29.86991 30.77307,-29.86999 30.77302,-29.87008 30.77298,-29.87013 30.77293,-29.87019 30.77286,-29.87024 30.7728,-29.8703 30.77272,-29.87035 30.77258,-29.87044 30.77255,-29.87046 30.77247,-29.8705 30.7724,-29.87055 30.77232,-29.87059 30.77224,-29.87063 30.77217,-29.87067 30.77207,-29.87073 30.77202,-29.87075 30.77195,-29.87079 30.77187,-29.87083 30.7718,-29.87087 30.77172,-29.87092 30.77158,-29.87101 30.77151,-29.87105 30.77138,-29.87116 30.77132,-29.87122 30.77125,-29.87127 30.77118,-29.87133 30.77109,-29.8714 30.77104,-29.87144 30.77098,-29.87148 30.77092,-29.87153 30.77085,-29.87159 30.77071,-29.87169 30.77065,-29.87174 30.77055,-29.87181 30.77043,-29.87192 30.77037,-29.87197 30.7703,-29.87202 30.77023,-29.87207 30.77016,-29.87212 30.77008,-29.87217 30.77001,-29.8722 30.76994,-29.87222 30.76986,-29.87225 30.76971,-29.8723 30.7696,-29.87234 30.76955,-29.87236 30.76949,-29.87239 30.76937,-29.87246 30.76932,-29.87249 30.76926,-29.87252 30.76916,-29.87256 30.76913,-29.87258 30.76907,-29.8726 30.76901,-29.87261 30.76894,-29.87262 30.76887,-29.87263 30.76876,-29.87264 30.76866,-29.87264 30.7686,-29.87264 30.76846,-29.87262 30.7684,-29.87262 30.76833,-29.87261 30.76824,-29.8726 30.76815,-29.87259 30.76805,-29.87257 30.76798,-29.87256 30.76791,-29.87253 30.76785,-29.87251 30.76779,-29.87248 30.76773,-29.87246 30.76768,-29.87243 30.76757,-29.87237 30.76752,-29.87234 30.76746,-29.87231 30.7674,-29.87228 30.76734,-29.87225 30.76728,-29.87222 30.76722,-29.87219 30.76716,-29.87216 30.76708,-29.87212 30.76706,-29.8721 30.767,-29.87207 30.76695,-29.87203 30.76689,-29.87199 30.76683,-29.87196 30.76676,-29.87191 30.7667,-29.87189 30.76665,-29.87186 30.76658,-29.87183 30.76645,-29.87178 30.76635,-29.87173 30.76632,-29.87173 30.76621,-29.87168 30.7661,-29.87163 30.76604,-29.8716 30.76598,-29.87158 30.76588,-29.87154 30.76583,-29.87152 30.76577,-29.8715 30.76572,-29.87148 30.76555,-29.87141 30.76549,-29.87139 30.76543,-29.87137 30.76537,-29.87135 30.76532,-29.87134 30.76526,-29.87132 30.76521,-29.8713 30.76515,-29.87129 30.7651,-29.87127 30.76507,-29.87126 30.76502,-29.87125 30.76498,-29.87124 30.76489,-29.87121 30.7648,-29.87118 30.76471,-29.87117 30.76466,-29.87116 30.76462,-29.87115 30.76458,-29.87114 30.76449,-29.87112 30.76445,-29.87111 30.76441,-29.8711 30.76436,-29.87109 30.76427,-29.87106 30.76422,-29.87105 30.76418,-29.87104 30.76408,-29.87102 30.764,-29.87101 30.76397,-29.871 30.76392,-29.871 30.76389,-29.87099 30.76386,-29.87098 30.76375,-29.87097 30.7637,-29.87096 30.76369,-29.87096 30.76368,-29.87096 30.76364,-29.87095 30.76357,-29.87094 30.76351,-29.87094 30.76345,-29.87093 30.76338,-29.87093 30.76325,-29.87093 30.76318,-29.87093 30.76309,-29.87094 30.76303,-29.87094 30.76288,-29.87095 30.76281,-29.87096 30.76273,-29.87097 30.7626,-29.871 30.76254,-29.87102 30.76247,-29.87105 30.76241,-29.87108 30.76235,-29.87111 30.76228,-29.87115 30.76221,-29.87118 30.76214,-29.87121 30.76207,-29.87124 30.76202,-29.87126 30.76195,-29.87128 30.76188,-29.87129 30.76181,-29.87131 30.76174,-29.87132 30.76167,-29.87133 30.76159,-29.87134 30.76147,-29.87135 30.76141,-29.87136 30.76135,-29.87137 30.76128,-29.87137 30.7612,-29.87138 30.76113,-29.87139 30.76104,-29.87139 30.76093,-29.87139 30.76086,-29.87139 30.76079,-29.87138 30.76073,-29.87138 30.76065,-29.87137 30.7606,-29.87136 30.76054,-29.87136 30.76043,-29.87134 30.76037,-29.87133 30.76031,-29.87132 30.76023,-29.8713 30.76019,-29.8713 30.76014,-29.87129 30.76009,-29.87128 30.76003,-29.87127 30.75998,-29.87126 30.75992,-29.87125 30.75984,-29.87123 30.75982,-29.87123 30.75977,-29.87122 30.75972,-29.87121 30.75958,-29.87116 30.75953,-29.87114 30.75946,-29.87112 30.75942,-29.8711 30.75934,-29.87106 30.75921,-29.87101 30.75913,-29.87098 30.75904,-29.87095 30.75898,-29.87093 30.75896,-29.87093 30.75891,-29.87093 30.75887,-29.87093 30.75878,-29.87091 30.75874,-29.87091 30.75866,-29.8709 30.75863,-29.87089 30.75859,-29.87087 30.75855,-29.87086 30.75851,-29.87084 30.75848,-29.87082 30.75844,-29.8708 30.75836,-29.87076 30.75832,-29.87074 30.75831,-29.87073 30.75817,-29.87066 30.7581,-29.87062 30.75806,-29.8706 30.75803,-29.87057 30.758,-29.87055 30.75797,-29.87052 30.75795,-29.87048 30.75793,-29.87045 30.7579,-29.8704 30.75788,-29.87039 30.75786,-29.87036 30.75783,-29.87032 30.7578,-29.87027 30.75776,-29.87023 30.75773,-29.87018 30.75771,-29.87014 30.75768,-29.87011 30.75767,-29.87007 30.75766,-29.87003 30.75764,-29.87 30.75763,-29.86994 30.75761,-29.86989 30.7576,-29.86985 30.75759,-29.86981 30.75758,-29.86978 30.75757,-29.86974 30.75754,-29.86969 30.75753,-29.86966 30.75751,-29.86962 30.75749,-29.86959 30.75747,-29.86955 30.75744,-29.86952 30.75742,-29.86948 30.75737,-29.86941 30.75736,-29.86938 30.75733,-29.86935 30.75732,-29.86931 30.7573,-29.86927 30.75728,-29.86923 30.75725,-29.86918 30.75723,-29.86915 30.75721,-29.86912 30.75719,-29.86908 30.75716,-29.86904 30.75714,-29.86901 30.75712,-29.86897 30.75711,-29.86894 30.75709,-29.86891 30.75708,-29.86888 30.75707,-29.86884 30.75707,-29.8688 30.75705,-29.86868 30.75704,-29.86862 30.75704,-29.86859 30.75703,-29.86855 30.75702,-29.86851 30.75701,-29.86847 30.75701,-29.86843 30.757,-29.86837 30.75701,-29.86835 30.75701,-29.86831 30.75702,-29.86827 30.75703,-29.86824 30.75706,-29.86817 30.75707,-29.86809 30.75708,-29.86805 30.75709,-29.86802 30.75709,-29.86798 30.75709,-29.86794 30.7571,-29.8679 30.7571,-29.86782 30.75709,-29.86778 30.75709,-29.86767 30.75709,-29.8676 30.7571,-29.86756 30.7571,-29.86752 30.75711,-29.86743 30.75712,-29.86739 30.75713,-29.86735 30.75715,-29.86729 30.75717,-29.86726 30.75722,-29.86717 30.75726,-29.8671 30.75728,-29.86708 30.75731,-29.86704 30.75733,-29.86699 30.75736,-29.86695 30.75738,-29.8669 30.75743,-29.86681 30.75747,-29.86672 30.7575,-29.86666 30.75752,-29.86662 30.75754,-29.86657 30.7576,-29.86643 30.75762,-29.86638 30.75765,-29.86632 30.75767,-29.86629 30.7577,-29.86624 30.75773,-29.8662 30.75775,-29.86615 30.75779,-29.8661 30.75782,-29.86606 30.75787,-29.86599 30.75788,-29.86597 30.75791,-29.86594 30.75794,-29.8659 30.75797,-29.86586 30.75801,-29.86582 30.75808,-29.86574 30.7581,-29.86573 30.75814,-29.8657 30.75817,-29.86567 30.75829,-29.86558 30.75834,-29.86555 30.75837,-29.86552 30.7584,-29.86549 30.75843,-29.86545 30.75846,-29.86541 30.75849,-29.86538 30.75853,-29.86532 30.75855,-29.86528 30.7586,-29.86519 30.75862,-29.86514 30.75867,-29.86506 30.75868,-29.86503 30.75873,-29.86494 30.75881,-29.8648 30.75884,-29.86475 30.75887,-29.86471 30.75889,-29.86467 30.75892,-29.86463 30.75896,-29.86459 30.75906,-29.86445 30.75909,-29.86441 30.75918,-29.8643 30.75921,-29.86426 30.75925,-29.86421 30.75928,-29.86416 30.75932,-29.86412 30.75938,-29.86404 30.75939,-29.86402 30.75943,-29.86398 30.75946,-29.86393 30.75949,-29.86389 30.75953,-29.86384 30.7596,-29.86375 30.75964,-29.86371 30.75967,-29.86366 30.7597,-29.86362 30.75974,-29.86357 30.75977,-29.86352 30.75984,-29.86342 30.75999,-29.86315 30.76011,-29.863 30.76038,-29.86274 30.76052,-29.86259 30.76069,-29.86239 30.76085,-29.8622 30.76096,-29.86195 30.76111,-29.86166 30.76113,-29.86159 30.7612,-29.86146 30.76122,-29.86139 30.76124,-29.86134 30.76126,-29.86121 30.7613,-29.86111 30.76131,-29.86104 30.76131,-29.86091 30.76131,-29.86079 30.76133,-29.86068 30.76133,-29.86068 30.76133,-29.86064 30.76134,-29.86058 30.76135,-29.86053 30.76136,-29.86033 30.76137,-29.8601 30.76126,-29.85978 30.76115,-29.85946 30.76095,-29.85918 30.76094,-29.85916 30.76092,-29.85915 30.76088,-29.85913 30.76086,-29.85911 30.76082,-29.85907 30.76079,-29.85905 30.76075,-29.85902 30.76073,-29.859 30.76071,-29.85898 30.76068,-29.85896 30.76067,-29.85894 30.76062,-29.8589 30.76059,-29.85888 30.76056,-29.85886 30.76054,-29.85884 30.76051,-29.85882 30.76049,-29.85879 30.76047,-29.85876 30.76044,-29.85873 30.76042,-29.85872 30.7604,-29.8587 30.76038,-29.85867 30.76036,-29.85864 30.76033,-29.85861 30.76028,-29.85857 30.76024,-29.85852 30.76022,-29.8585 30.76019,-29.85849 30.76015,-29.85846 30.76008,-29.85843 30.76001,-29.85841 30.75994,-29.85839 30.75988,-29.85839 30.75984,-29.85839 30.7598,-29.85839 30.75976,-29.85839 30.75973,-29.85839 30.75966,-29.85839 30.75956,-29.85841 30.75942,-29.85843 30.75934,-29.85845 30.75932,-29.85846 30.75927,-29.85847 30.75923,-29.85848 30.75918,-29.8585 30.75913,-29.85851 30.75909,-29.85853 30.75902,-29.85856 30.75897,-29.85857 30.75893,-29.85859 30.75888,-29.85862 30.75883,-29.85864 30.75878,-29.85866 30.75871,-29.85871 30.75869,-29.85873 30.75865,-29.85876 30.75862,-29.85879 30.75858,-29.85883 30.75855,-29.85888 30.75851,-29.85892 30.75846,-29.85899 30.75843,-29.85903 30.75837,-29.85912 30.75834,-29.85916 30.75824,-29.8593 30.75819,-29.85936 30.75818,-29.85938 30.75814,-29.85942 30.7581,-29.85947 30.75806,-29.85951 30.75802,-29.85955 30.75797,-29.8596 30.75794,-29.85963 30.75789,-29.85966 30.75784,-29.85969 30.75779,-29.85973 30.75773,-29.85976 30.75768,-29.8598 30.75768,-29.85966 30.75767,-29.85951 30.75764,-29.85935 30.75762,-29.85928 30.75756,-29.85923 30.75747,-29.85923 30.75731,-29.85927 30.75719,-29.85926 30.75705,-29.85918 30.75691,-29.85912 30.75675,-29.859 30.75661,-29.85896 30.75645,-29.85896 30.75625,-29.85899 30.75604,-29.859 30.75581,-29.85902 30.75562,-29.85904 30.75535,-29.85906 30.75514,-29.8591 30.7549,-29.85917 30.75456,-29.8592 30.75428,-29.8592 30.75393,-29.85916 30.7536,-29.85909 30.75319,-29.85895 30.75294,-29.85884 30.75257,-29.85878 30.75223,-29.85866 30.75179,-29.85855 30.75153,-29.8585 30.7513,-29.85843 30.751,-29.85834 30.75074,-29.85828 30.75045,-29.85809 30.75034,-29.8579 30.75029,-29.85773 30.75031,-29.85758 30.75036,-29.8573 30.75037,-29.85713 30.75047,-29.85701 30.75065,-29.85689 30.75091,-29.85688 30.75105,-29.8569 30.75115,-29.85696 30.75129,-29.857 30.75141,-29.85703 30.75156,-29.85709 30.75177,-29.85711 30.75197,-29.85714 30.75215,-29.85716 30.7524,-29.8571 30.75263,-29.85701 30.75279,-29.85695 30.75289,-29.85686 30.75301,-29.85677 30.75305,-29.85671 30.75309,-29.85666 30.75321,-29.85665 30.75332,-29.85666 30.75347,-29.8567 30.75364,-29.85674 30.75386,-29.85677 30.75408,-29.85674 30.75443,-29.85675 30.75483,-29.85676 30.75507,-29.85675 30.75528,-29.8568 30.75542,-29.85681 30.75552,-29.8568 30.75566,-29.85675 30.7557,-29.85665 30.75572,-29.85655 30.75573,-29.85639 30.75574,-29.8562 30.75575,-29.85603 30.75575,-29.85583 30.75578,-29.85561 30.75581,-29.85533 30.75583,-29.85513 30.75584,-29.85495 30.75582,-29.8548 30.7558,-29.85462 30.75577,-29.85447 30.75572,-29.85424 30.75569,-29.854 30.7557,-29.8537 30.75574,-29.85347 30.75579,-29.85332 30.75581,-29.85318 30.7558,-29.85312 30.75579,-29.85303 30.75583,-29.85282 30.75584,-29.85254 30.75584,-29.85237 30.75591,-29.85224 30.75601,-29.85214 30.75607,-29.85211 30.75623,-29.85203 30.75638,-29.85192 30.7565,-29.85176 30.75666,-29.85153 30.75677,-29.85138 30.7569,-29.85126 30.75704,-29.85107 30.75713,-29.8509 30.75727,-29.85073 30.75737,-29.85054 30.75743,-29.8504 30.75744,-29.85025 30.75747,-29.85004 30.75749,-29.84989 30.75752,-29.84974 30.7576,-29.84957 30.75767,-29.84938 30.75773,-29.84922 30.75775,-29.849 30.75776,-29.84883 30.75773,-29.84872 30.75771,-29.84865 30.75768,-29.84859 30.75763,-29.84854 30.75754,-29.84854 30.75742,-29.84855 30.75748,-29.8485 30.75754,-29.84844 30.75759,-29.84844 30.75766,-29.84846 30.75769,-29.84843 30.7577,-29.8484 30.75774,-29.8484 30.75782,-29.8484 30.75791,-29.84837 30.75796,-29.84836 30.758,-29.84832 30.75804,-29.8483 30.75807,-29.8483 30.75808,-29.84828 30.75808,-29.84823 30.7581,-29.84816 30.75813,-29.8481 30.75815,-29.84804 30.75819,-29.84803 30.75821,-29.84801 30.75821,-29.84796 30.75822,-29.84794 30.75826,-29.84792 30.75831,-29.84788 30.75833,-29.84785 30.75837,-29.84781 30.7584,-29.84775 30.75841,-29.84772 30.75847,-29.84763 30.75856,-29.8475 30.75881,-29.84742 30.75895,-29.84736 30.75915,-29.84735 30.75935,-29.84735 30.75955,-29.84735 30.7597,-29.84735 30.75985,-29.84729 30.76003,-29.84715 30.76016,-29.84684 30.76033,-29.84659 30.76048,-29.84642 30.7605,-29.84615 30.76048,-29.84586 30.76031,-29.84557 30.76,-29.84535 30.75979,-29.84527 30.75946,-29.84519 30.75919,-29.84514 30.75879,-29.84492 30.75851,-29.84467 30.75831,-29.84439 30.75817,-29.84412 30.75804,-29.8439 30.75804,-29.84371 30.75805,-29.84344 30.75806,-29.84321 30.7582,-29.84305 30.7584,-29.84296 30.75866,-29.84295 30.75898,-29.84294 30.75924,-29.84294 30.75962,-29.84294 30.75993,-29.84294 30.7602,-29.84293 30.7605,-29.843 30.7607,-29.84307 30.76086,-29.84307 30.76094,-29.84301 30.76103,-29.84293 30.7611,-29.84283 30.76116,-29.8427 30.76121,-29.84254 30.76119,-29.84216 30.76117,-29.84199 30.76108,-29.84184 30.76102,-29.84163 30.76097,-29.84143 30.76098,-29.84132 30.761,-29.84119 30.76106,-29.84108 30.76122,-29.84095 30.76145,-29.84086 30.76166,-29.8408 30.76179,-29.84075 30.76189,-29.8407 30.76194,-29.84061 30.76196,-29.84056 30.76202,-29.84052 30.76215,-29.84049 30.76227,-29.8405 30.76239,-29.84053 30.76262,-29.84052 30.76279,-29.84046 30.76291,-29.8404 30.76304,-29.84029 30.76321,-29.84018 30.76338,-29.84 30.76353,-29.83978 30.76362,-29.83959 30.76371,-29.83935 30.76378,-29.83917 30.7639,-29.83907 30.76406,-29.83902 30.76428,-29.83896 30.76451,-29.83887 30.76474,-29.83885 30.76496,-29.83883 30.7651,-29.83878 30.76521,-29.8387 30.76533,-29.83856 30.76542,-29.83838 30.76543,-29.83818 30.76541,-29.838 30.7654,-29.83784 30.76541,-29.83769 30.7655,-29.83756 30.76568,-29.83744 30.76588,-29.83736 30.76596,-29.83728 30.76606,-29.83719 30.76608,-29.83702 30.76607,-29.83685 30.76607,-29.83671 30.76604,-29.83657 30.76604,-29.83646 30.76611,-29.83633 30.76622,-29.8362 30.76632,-29.83609 30.7664,-29.83594 30.7665,-29.83583 30.76664,-29.83574 30.76683,-29.83565 30.76691,-29.83559 30.76703,-29.83552 30.7671,-29.83548 30.76718,-29.83543 30.76732,-29.83533 30.76748,-29.83524 30.76761,-29.83514 30.76769,-29.83503 30.76796,-29.83494 30.76813,-29.83488 30.76823,-29.83481 30.76835,-29.83465 30.76841,-29.83448 30.76844,-29.83434 30.76853,-29.8342 30.76867,-29.83411 30.76885,-29.83405 30.76903,-29.83395 30.76916,-29.83384 30.76924,-29.83376 30.76938,-29.83359 30.76951,-29.83342 30.76959,-29.83317 30.76959,-29.83283 30.76956,-29.83257 30.76951,-29.83227 30.76943,-29.83208 30.76929,-29.83187 30.76919,-29.83173 30.76916,-29.83159 30.76921,-29.83145 30.76936,-29.83136 30.76955,-29.83121 30.76967,-29.83109 30.76981,-29.83097 30.76999,-29.83078 30.77011,-29.83065 30.77014,-29.83057 30.77014,-29.83049 30.77017,-29.83041 30.77022,-29.8303 30.77025,-29.83013 30.77027,-29.83002 30.77031,-29.82998 30.7704,-29.82994 30.77052,-29.82993 30.77063,-29.82988 30.77076,-29.82986 30.77089,-29.82985 30.77103,-29.82983 30.77119,-29.82984 30.77133,-29.82989 30.77139,-29.82998 30.77148,-29.8301 30.77161,-29.83026 30.77187,-29.83052 30.77221,-29.83082 30.77263,-29.83119 30.77287,-29.83139 30.77332,-29.8317 30.77377,-29.83198 30.77414,-29.8322 30.77446,-29.8324 30.77481,-29.83263 30.77511,-29.83283 30.77531,-29.83295 30.7755,-29.83303 30.7757,-29.83308 30.77592,-29.83311 30.7763,-29.83313 30.77643,-29.83314</coordinates></LinearRing></outerBoundaryIs></Polygon></MultiGeometry></Placemark></Document></kml>