<?xml version="1.0" encoding="UTF-8"?><kml xmlns="http://www.opengis.net/kml/2.2"><Document><Placemark><name>Chatsworth</name><description>Main Place 599161</description><ExtendedData><Data name="code"><value>599161</value></Data><Data name="name"><value>Chatsworth</value></Data><Data name="description"><value>Main Place 599161</value></Data></ExtendedData><MultiGeometry><Polygon><outerBoundaryIs><LinearRing><coordinates>30.86179,-29.88839 30.86229,-29.88843 30.86235,-29.88843 30.86238,-29.88843 30.8624,-29.88843 30.8624,-29.88843 30.86241,-29.88844 30.86243,-29.88845 30.86247,-29.88842 30.86255,-29.88837 30.86273,-29.8883 30.86286,-29.88827 30.86298,-29.88826 30.86304,-29.88826 30.86309,-29.88826 30.86314,-29.88827 30.8632,-29.88828 30.86333,-29.88829 30.86333,-29.88829 30.86345,-29.8882 30.86374,-29.88791 30.86444,-29.88719 30.86444,-29.88719 30.86461,-29.88718 30.86466,-29.88719 30.86467,-29.88719 30.86474,-29.88719 30.86497,-29.88721 30.86502,-29.88722 30.86515,-29.88723 30.86527,-29.88725 30.8653,-29.88725 30.86535,-29.88727 30.86542,-29.8873 30.86553,-29.88737 30.86571,-29.88748 30.86571,-29.88748 30.86582,-29.88755 30.86594,-29.88762 30.86595,-29.8878 30.86618,-29.88863 30.86629,-29.88903 30.86641,-29.8892 30.8665,-29.88925 30.86667,-29.88929 30.86733,-29.88938 30.86744,-29.88955 30.86754,-29.88955 30.86758,-29.88959 30.86766,-29.88971 30.86778,-29.88988 30.86787,-29.89002 30.86821,-29.89056 30.86831,-29.8907 30.86835,-29.89077 30.86838,-29.89085 30.86854,-29.89126 30.86865,-29.89152 30.86872,-29.8917 30.86886,-29.89206 30.86894,-29.89228 30.86894,-29.8925 30.86909,-29.8929 30.86967,-29.89456 30.86991,-29.89486 30.86998,-29.8949 30.87006,-29.89497 30.87028,-29.89505 30.87051,-29.89521 30.87083,-29.89546 30.87087,-29.89549 30.87121,-29.89571 30.87155,-29.89594 30.87192,-29.89616 30.87246,-29.8965 30.87252,-29.89654 30.87298,-29.89685 30.87302,-29.89688 30.87319,-29.89698 30.87335,-29.8971 30.87337,-29.89711 30.87341,-29.89711 30.87345,-29.89711 30.87348,-29.89711 30.87349,-29.89712 30.87348,-29.89714 30.87349,-29.89717 30.87354,-29.89722 30.87356,-29.89725 30.87396,-29.8975 30.87428,-29.89773 30.8743,-29.89774 30.87434,-29.89772 30.87444,-29.89768 30.87455,-29.89764 30.87462,-29.89761 30.87469,-29.89757 30.87472,-29.89757 30.87474,-29.89758 30.87478,-29.89762 30.8748,-29.89764 30.87484,-29.89769 30.87486,-29.89771 30.87488,-29.89775 30.87491,-29.89783 30.87493,-29.8979 30.87496,-29.89799 30.87499,-29.89805 30.87502,-29.89809 30.87503,-29.89813 30.87502,-29.89818 30.875,-29.89821 30.875,-29.89822 30.875,-29.89822 30.875,-29.89822 30.87536,-29.89846 30.8763,-29.8991 30.87652,-29.89925 30.87815,-29.90035 30.87829,-29.90045 30.87862,-29.90067 30.87864,-29.90068 30.87881,-29.90069 30.87883,-29.90073 30.87905,-29.90095 30.87911,-29.90101 30.87913,-29.90103 30.87942,-29.90125 30.8797,-29.90141 30.88007,-29.90159 30.88017,-29.90163 30.88039,-29.9017 30.88071,-29.90176 30.88089,-29.90178 30.88137,-29.90182 30.88167,-29.90184 30.88182,-29.90185 30.88215,-29.90188 30.88229,-29.9019 30.88242,-29.90193 30.88261,-29.90199 30.88273,-29.90204 30.88292,-29.90214 30.88312,-29.90228 30.88333,-29.90251 30.88347,-29.90271 30.88351,-29.90281 30.88352,-29.90281 30.8839,-29.9027 30.8841,-29.90264 30.88421,-29.90256 30.88429,-29.90254 30.88436,-29.90253 30.8845,-29.90253 30.88461,-29.90251 30.8847,-29.90251 30.88476,-29.9025 30.88482,-29.90248 30.88487,-29.90245 30.88492,-29.90243 30.88495,-29.90236 30.88499,-29.9023 30.88501,-29.90221 30.88499,-29.90212 30.88494,-29.90206 30.88483,-29.90196 30.88476,-29.90188 30.88466,-29.90183 30.88452,-29.9018 30.88444,-29.9018 30.88434,-29.90177 30.88425,-29.90177 30.88407,-29.90172 30.88401,-29.9017 30.8839,-29.90166 30.88384,-29.90163 30.88377,-29.90159 30.8837,-29.90154 30.88359,-29.90144 30.88344,-29.90129 30.88329,-29.90117 30.88321,-29.90108 30.88313,-29.901 30.88306,-29.90093 30.88303,-29.90088 30.88302,-29.9008 30.88303,-29.90071 30.88304,-29.90055 30.88306,-29.90042 30.88312,-29.9003 30.88315,-29.90019 30.88323,-29.90012 30.88334,-29.90004 30.8834,-29.90001 30.88346,-29.9 30.88354,-29.9 30.88368,-29.90002 30.88374,-29.90003 30.88384,-29.90005 30.88399,-29.90008 30.88411,-29.90011 30.8842,-29.90014 30.88432,-29.90018 30.88444,-29.90022 30.88452,-29.90024 30.88454,-29.90025 30.88491,-29.90034 30.88497,-29.90037 30.88505,-29.9004 30.88516,-29.90045 30.88524,-29.90049 30.88536,-29.90054 30.88545,-29.90057 30.88553,-29.90059 30.88562,-29.90059 30.88568,-29.90056 30.88577,-29.90052 30.88585,-29.90045 30.88595,-29.90038 30.88603,-29.90033 30.88611,-29.90032 30.88618,-29.90033 30.88627,-29.90029 30.88634,-29.90027 30.8864,-29.90024 30.8865,-29.90023 30.88655,-29.90023 30.8866,-29.90023 30.88663,-29.90024 30.88669,-29.90032 30.88674,-29.90038 30.88679,-29.90044 30.88684,-29.90047 30.88691,-29.90054 30.88696,-29.90057 30.88701,-29.90063 30.88706,-29.90066 30.88713,-29.90067 30.8872,-29.90067 30.88729,-29.90067 30.8874,-29.90068 30.88744,-29.9007 30.8875,-29.90074 30.88759,-29.9008 30.88765,-29.90083 30.88769,-29.90087 30.88775,-29.90087 30.88784,-29.90087 30.88801,-29.90078 30.88813,-29.90069 30.88824,-29.90062 30.88834,-29.90057 30.88839,-29.90053 30.88842,-29.90051 30.88852,-29.90045 30.88865,-29.90041 30.88877,-29.90038 30.88885,-29.9004 30.88895,-29.90049 30.88901,-29.90055 30.88906,-29.90066 30.88906,-29.90078 30.88911,-29.90094 30.88911,-29.90107 30.88913,-29.9011 30.88916,-29.9012 30.88916,-29.90126 30.88917,-29.90134 30.88917,-29.90142 30.88918,-29.9015 30.88918,-29.90154 30.88919,-29.90156 30.88924,-29.9016 30.88933,-29.90167 30.88953,-29.90173 30.88957,-29.90175 30.88965,-29.90178 30.88973,-29.90184 30.88978,-29.90189 30.88986,-29.90197 30.88991,-29.90203 30.88998,-29.9021 30.89003,-29.90216 30.89007,-29.9022 30.89009,-29.90226 30.89014,-29.90234 30.89022,-29.90247 30.89029,-29.90253 30.89039,-29.9026 30.89046,-29.90266 30.89055,-29.90271 30.89064,-29.90276 30.89072,-29.90283 30.8908,-29.90288 30.89086,-29.90294 30.89094,-29.90301 30.89102,-29.90308 30.89111,-29.90314 30.89117,-29.90318 30.89124,-29.90322 30.89131,-29.90325 30.89145,-29.90327 30.8916,-29.90329 30.89181,-29.9033 30.8926,-29.90197 30.89286,-29.90163 30.89326,-29.90107 30.89469,-29.89904 30.89569,-29.89762 30.89601,-29.89723 30.89633,-29.89679 30.89601,-29.89642 30.89556,-29.89614 30.89507,-29.89617 30.89471,-29.89635 30.89466,-29.89637 30.89518,-29.89587 30.89584,-29.89511 30.89606,-29.89482 30.89717,-29.89547 30.8975,-29.89585 30.89826,-29.89647 30.89913,-29.897 30.90014,-29.89735 30.90021,-29.89737 30.90043,-29.89744 30.90056,-29.89748 30.90066,-29.8975 30.90102,-29.89754 30.90117,-29.89756 30.90127,-29.89759 30.90135,-29.89764 30.90157,-29.8977 30.90191,-29.89774 30.9021,-29.89776 30.90223,-29.89778 30.90238,-29.8978 30.90239,-29.8978 30.90253,-29.89784 30.90264,-29.89786 30.90275,-29.89787 30.90284,-29.89787 30.90296,-29.8979 30.90306,-29.89792 30.90314,-29.89796 30.90326,-29.898 30.90349,-29.89806 30.90367,-29.89809 30.90375,-29.89811 30.90396,-29.89815 30.90413,-29.89818 30.90421,-29.89822 30.90425,-29.89826 30.90429,-29.89831 30.90432,-29.89833 30.90436,-29.89833 30.90439,-29.89833 30.90444,-29.89831 30.90448,-29.89829 30.90455,-29.89826 30.9046,-29.89826 30.90465,-29.89824 30.9047,-29.89821 30.9048,-29.89817 30.90488,-29.89814 30.90493,-29.89814 30.90498,-29.89814 30.90502,-29.89813 30.90512,-29.89803 30.90524,-29.89793 30.90528,-29.89792 30.90533,-29.89792 30.90543,-29.8979 30.90551,-29.89785 30.90561,-29.89779 30.9057,-29.89774 30.90584,-29.89767 30.90596,-29.89765 30.90603,-29.89765 30.90611,-29.89764 30.90625,-29.8976 30.90636,-29.89752 30.90651,-29.89747 30.90658,-29.89746 30.90663,-29.89746 30.9067,-29.89746 30.90677,-29.89745 30.90684,-29.89745 30.90688,-29.89745 30.90694,-29.89748 30.90701,-29.89751 30.90707,-29.89755 30.90712,-29.89759 30.90722,-29.89763 30.90735,-29.89765 30.90744,-29.89769 30.90755,-29.89772 30.90767,-29.89776 30.90775,-29.89777 30.9078,-29.89779 30.90785,-29.89782 30.90793,-29.89784 30.90801,-29.89783 30.90821,-29.89784 30.90835,-29.89781 30.90848,-29.89777 30.90855,-29.89777 30.90862,-29.89777 30.90871,-29.8978 30.90876,-29.89781 30.90891,-29.89784 30.90898,-29.89786 30.90906,-29.89786 30.90925,-29.89786 30.90939,-29.89786 30.90949,-29.89786 30.90971,-29.89788 30.90984,-29.89787 30.9099,-29.89787 30.90999,-29.89788 30.9101,-29.89788 30.91027,-29.8979 30.91043,-29.89792 30.91078,-29.89794 30.91092,-29.89795 30.91098,-29.89795 30.91117,-29.89794 30.91144,-29.89788 30.91165,-29.89787 30.91176,-29.89786 30.91195,-29.89784 30.91218,-29.89782 30.91251,-29.89783 30.91265,-29.89783 30.91285,-29.89784 30.91303,-29.89786 30.91314,-29.89787 30.91319,-29.89789 30.91332,-29.89792 30.91342,-29.89793 30.91369,-29.89794 30.91402,-29.89792 30.9142,-29.8979 30.91435,-29.89787 30.91459,-29.89781 30.9148,-29.89775 30.915,-29.8977 30.91514,-29.8977 30.91524,-29.89775 30.91531,-29.89781 30.9155,-29.89793 30.91561,-29.89797 30.91584,-29.89808 30.91612,-29.89817 30.9162,-29.89818 30.91632,-29.89821 30.91643,-29.89826 30.91664,-29.89835 30.91677,-29.8984 30.91691,-29.89851 30.91697,-29.89856 30.91702,-29.8986 30.91708,-29.89866 30.91712,-29.8987 30.91716,-29.89871 30.91725,-29.89873 30.91729,-29.89873 30.91733,-29.89874 30.91736,-29.89875 30.9174,-29.89878 30.9174,-29.89879 30.91745,-29.89882 30.91746,-29.89882 30.9175,-29.89885 30.91757,-29.8989 30.91764,-29.89893 30.91777,-29.89902 30.91788,-29.8991 30.91798,-29.89915 30.91803,-29.8992 30.91822,-29.89932 30.91828,-29.89935 30.91836,-29.89939 30.91839,-29.89943 30.91843,-29.8995 30.9185,-29.89953 30.91855,-29.89954 30.91864,-29.89954 30.91874,-29.89952 30.91884,-29.89947 30.9189,-29.89938 30.91896,-29.89927 30.919,-29.89912 30.91903,-29.89898 30.91911,-29.89885 30.91913,-29.89878 30.91913,-29.89866 30.91906,-29.89851 30.919,-29.89842 30.91899,-29.89833 30.91899,-29.89826 30.91902,-29.89814 30.91906,-29.89795 30.91909,-29.89785 30.9191,-29.89778 30.91914,-29.89768 30.91915,-29.89756 30.91915,-29.89727 30.91915,-29.89721 30.91918,-29.89705 30.91919,-29.89695 30.91921,-29.89679 30.91921,-29.89674 30.91919,-29.89663 30.91919,-29.89652 30.91922,-29.89642 30.91925,-29.89636 30.9193,-29.89627 30.91934,-29.89616 30.91934,-29.89603 30.91936,-29.89589 30.91938,-29.89578 30.91942,-29.89568 30.91952,-29.89556 30.91961,-29.89542 30.91967,-29.89529 30.91972,-29.89515 30.91978,-29.89498 30.91981,-29.89481 30.92012,-29.89401 30.9202,-29.89382 30.9209,-29.89357 30.92137,-29.89376 30.92176,-29.89392 30.92193,-29.89401 30.92196,-29.89418 30.92224,-29.89442 30.92261,-29.89492 30.9229,-29.8952 30.92321,-29.89543 30.92382,-29.89593 30.92435,-29.89644 30.92451,-29.89659 30.9249,-29.89702 30.92498,-29.89711 30.9253,-29.89744 30.92548,-29.89756 30.92595,-29.89788 30.92641,-29.8982 30.92666,-29.89838 30.92697,-29.89859 30.92711,-29.89868 30.92723,-29.89877 30.92787,-29.89922 30.92807,-29.89936 30.92855,-29.89971 30.92857,-29.89972 30.9292,-29.90019 30.92974,-29.90051 30.93015,-29.90073 30.93038,-29.90084 30.93089,-29.90099 30.93159,-29.9011 30.93161,-29.9011 30.93221,-29.90111 30.93343,-29.90104 30.93378,-29.90102 30.9344,-29.90099 30.93537,-29.90093 30.93569,-29.90091 30.93698,-29.90086 30.93705,-29.90085 30.93754,-29.90083 30.93794,-29.90078 30.93801,-29.90077 30.93874,-29.90073 30.93913,-29.90072 30.93968,-29.9007 30.93991,-29.90069 30.94014,-29.90069 30.94098,-29.90069 30.94154,-29.90069 30.94136,-29.90124 30.94053,-29.90162 30.94006,-29.90182 30.93947,-29.90213 30.9385,-29.90229 30.93816,-29.90228 30.93552,-29.90225 30.93223,-29.90608 30.9319,-29.90646 30.93156,-29.90676 30.93112,-29.90699 30.93105,-29.90703 30.93028,-29.90791 30.92914,-29.90912 30.92828,-29.91014 30.92714,-29.91138 30.92682,-29.91173 30.92657,-29.91199 30.92564,-29.91303 30.92498,-29.91373 30.92431,-29.9145 30.9237,-29.91514 30.92263,-29.9163 30.92253,-29.91641 30.9225,-29.91645 30.92229,-29.91673 30.92311,-29.91737 30.92344,-29.91772 30.92404,-29.91839 30.92457,-29.91898 30.92518,-29.91975 30.9252,-29.91978 30.92592,-29.92063 30.92605,-29.92078 30.9266,-29.92138 30.92688,-29.92171 30.92709,-29.92196 30.9276,-29.92237 30.92807,-29.92271 30.92863,-29.92305 30.92878,-29.92314 30.92892,-29.92322 30.92915,-29.92336 30.92946,-29.92354 30.9301,-29.9239 30.93039,-29.92408 30.93045,-29.92411 30.93117,-29.92452 30.93176,-29.92489 30.93212,-29.9251 30.93255,-29.92533 30.93291,-29.92549 30.93314,-29.92557 30.93344,-29.92569 30.93385,-29.92581 30.93429,-29.92592 30.9348,-29.92603 30.93587,-29.92629 30.93592,-29.9263 30.93726,-29.92662 30.93811,-29.92681 30.93762,-29.92736 30.93745,-29.92755 30.93744,-29.92756 30.93737,-29.92756 30.93719,-29.92775 30.93719,-29.92777 30.93719,-29.92778 30.93719,-29.92779 30.93718,-29.92779 30.93718,-29.9278 30.93716,-29.9278 30.93715,-29.9278 30.93704,-29.92792 30.9367,-29.92829 30.93668,-29.92831 30.93659,-29.92841 30.93664,-29.92843 30.93663,-29.92843 30.93648,-29.92865 30.93636,-29.92877 30.93608,-29.92905 30.93574,-29.92941 30.93467,-29.9305 30.93427,-29.93095 30.93378,-29.9315 30.93369,-29.93169 30.93363,-29.93181 30.93359,-29.93191 30.93348,-29.93214 30.93356,-29.93316 30.93361,-29.93343 30.93352,-29.93391 30.93355,-29.93402 30.93375,-29.93408 30.9341,-29.93414 30.9343,-29.93413 30.93498,-29.93397 30.93568,-29.93388 30.93588,-29.93385 30.93662,-29.93366 30.93746,-29.93347 30.93822,-29.93332 30.93833,-29.93329 30.93842,-29.93328 30.93846,-29.93327 30.93849,-29.93327 30.93852,-29.93327 30.93854,-29.93328 30.93858,-29.9333 30.93866,-29.9334 30.93869,-29.93349 30.9387,-29.93352 30.93872,-29.93353 30.93876,-29.93352 30.93893,-29.93348 30.93899,-29.93359 30.93906,-29.93375 30.93924,-29.93395 30.93937,-29.93411 30.93957,-29.93434 30.9397,-29.93447 30.93975,-29.93451 30.93982,-29.93454 30.93986,-29.93455 30.93993,-29.93457 30.94004,-29.9346 30.94014,-29.93461 30.9404,-29.93466 30.94071,-29.93471 30.94085,-29.93473 30.94117,-29.93478 30.94134,-29.93481 30.94163,-29.93485 30.94176,-29.93486 30.94205,-29.93488 30.94217,-29.93489 30.94221,-29.93492 30.94247,-29.93503 30.94255,-29.93506 30.94288,-29.93518 30.94317,-29.93528 30.94332,-29.93535 30.94345,-29.9354 30.94356,-29.93542 30.94365,-29.93545 30.94374,-29.9355 30.94386,-29.93555 30.9439,-29.93557 30.94417,-29.93564 30.94435,-29.9357 30.94442,-29.93575 30.94454,-29.93582 30.94459,-29.93582 30.94463,-29.93581 30.94479,-29.93576 30.94485,-29.93575 30.9449,-29.93574 30.94492,-29.93574 30.94492,-29.93576 30.94491,-29.9358 30.9449,-29.93583 30.94487,-29.93589 30.94488,-29.93591 30.94542,-29.93611 30.94578,-29.93624 30.94587,-29.93647 30.94598,-29.93671 30.94622,-29.93728 30.94705,-29.93819 30.94758,-29.93877 30.94785,-29.93908 30.94789,-29.93912 30.94813,-29.93938 30.94921,-29.93998 30.9498,-29.9403 30.95104,-29.94098 30.95128,-29.94103 30.95134,-29.94106 30.95125,-29.94155 30.9512,-29.94183 30.95095,-29.94258 30.95067,-29.94322 30.95043,-29.94355 30.95042,-29.94355 30.94911,-29.94575 30.94807,-29.94735 30.94772,-29.94798 30.94745,-29.94864 30.94719,-29.94969 30.94719,-29.95084 30.9464,-29.95079 30.94609,-29.95066 30.94601,-29.95061 30.94579,-29.95047 30.94574,-29.95033 30.94572,-29.95002 30.94576,-29.9494 30.94572,-29.94927 30.9457,-29.94915 30.94553,-29.94842 30.9455,-29.94841 30.94547,-29.94838 30.94544,-29.94837 30.94537,-29.94835 30.94532,-29.94834 30.94528,-29.94833 30.94522,-29.94832 30.94517,-29.94829 30.94506,-29.94823 30.94504,-29.94827 30.94486,-29.94861 30.94469,-29.94898 30.94448,-29.94942 30.9443,-29.94987 30.94415,-29.95023 30.94409,-29.95038 30.94374,-29.95114 30.94354,-29.95155 30.94332,-29.95203 30.94293,-29.95284 30.94269,-29.9527 30.94243,-29.95246 30.94217,-29.95219 30.94197,-29.95193 30.94195,-29.95178 30.94161,-29.95136 30.94127,-29.95103 30.94108,-29.95084 30.9407,-29.95035 30.94036,-29.95003 30.94026,-29.94994 30.93995,-29.94968 30.93939,-29.94957 30.939,-29.94957 30.93867,-29.94957 30.9385,-29.94958 30.93829,-29.94958 30.93804,-29.9496 30.93784,-29.94962 30.93769,-29.94972 30.93741,-29.94979 30.93721,-29.94985 30.93699,-29.94992 30.93682,-29.94997 30.93664,-29.95012 30.93642,-29.95031 30.93615,-29.95066 30.93559,-29.95117 30.93491,-29.95171 30.93404,-29.95227 30.93351,-29.95248 30.93333,-29.95255 30.93315,-29.95261 30.93269,-29.95272 30.93249,-29.95276 30.93217,-29.95282 30.93146,-29.95277 30.93121,-29.95276 30.93085,-29.95279 30.9301,-29.95283 30.92923,-29.95276 30.92826,-29.95275 30.92782,-29.95275 30.9275,-29.95271 30.92723,-29.95266 30.92676,-29.95259 30.92586,-29.95227 30.92571,-29.95213 30.92553,-29.95184 30.92549,-29.95178 30.92535,-29.95142 30.92532,-29.951 30.92533,-29.95081 30.92545,-29.95053 30.92575,-29.95024 30.92602,-29.94991 30.9261,-29.94982 30.92613,-29.94974 30.9261,-29.94967 30.92602,-29.94957 30.92595,-29.94947 30.92585,-29.94934 30.92568,-29.9491 30.92562,-29.9489 30.9255,-29.94865 30.92552,-29.94854 30.92559,-29.94845 30.92569,-29.94835 30.92572,-29.94831 30.92582,-29.94824 30.92589,-29.94816 30.92596,-29.94803 30.92604,-29.94792 30.92623,-29.94768 30.92665,-29.94675 30.92689,-29.94623 30.9271,-29.9458 30.92725,-29.94544 30.92747,-29.94492 30.92754,-29.94479 30.92774,-29.94418 30.92772,-29.94391 30.92772,-29.94357 30.9277,-29.94318 30.92766,-29.94304 30.92758,-29.94284 30.92738,-29.94233 30.92734,-29.94222 30.92721,-29.94194 30.92707,-29.94169 30.92692,-29.94149 30.92689,-29.9414 30.92688,-29.94132 30.92688,-29.94126 30.92688,-29.94119 30.92686,-29.94112 30.92681,-29.94107 30.92678,-29.94104 30.92672,-29.94102 30.92667,-29.941 30.9266,-29.94099 30.92654,-29.941 30.92642,-29.94102 30.92625,-29.94103 30.92607,-29.94098 30.92595,-29.94093 30.9258,-29.94085 30.92547,-29.9407 30.92529,-29.94057 30.92527,-29.94053 30.92517,-29.94051 30.92504,-29.94046 30.92483,-29.94038 30.92475,-29.94032 30.92464,-29.94025 30.92457,-29.94018 30.92452,-29.94013 30.92443,-29.94005 30.92416,-29.9399 30.92399,-29.93986 30.92381,-29.9398 30.92368,-29.93973 30.9236,-29.93969 30.92353,-29.93967 30.92334,-29.93965 30.92333,-29.93965 30.92324,-29.93962 30.92314,-29.93959 30.92308,-29.93957 30.92295,-29.93947 30.9229,-29.93941 30.92284,-29.93933 30.92276,-29.93923 30.92269,-29.93917 30.92258,-29.9391 30.92246,-29.93904 30.92234,-29.939 30.92219,-29.93894 30.9221,-29.9389 30.92198,-29.93886 30.92191,-29.93884 30.92185,-29.93883 30.92182,-29.93883 30.92172,-29.93883 30.92162,-29.93881 30.92155,-29.9388 30.92143,-29.93875 30.92138,-29.93869 30.92125,-29.93857 30.92108,-29.93839 30.92096,-29.93828 30.92092,-29.93824 30.92081,-29.93818 30.92074,-29.93818 30.92067,-29.93816 30.92062,-29.93812 30.92057,-29.93809 30.92055,-29.93804 30.9205,-29.93797 30.92049,-29.93797 30.92041,-29.93787 30.92038,-29.93779 30.92034,-29.93765 30.92029,-29.93742 30.92024,-29.93707 30.92017,-29.93695 30.92013,-29.93689 30.91988,-29.93665 30.91959,-29.93642 30.9193,-29.93612 30.91913,-29.93597 30.91899,-29.93592 30.91863,-29.93584 30.91852,-29.93585 30.91815,-29.93592 30.91806,-29.93598 30.91799,-29.93602 30.91744,-29.93647 30.91692,-29.93707 30.91661,-29.93742 30.9164,-29.93763 30.91612,-29.93779 30.91609,-29.93782 30.91602,-29.93792 30.9159,-29.93805 30.91577,-29.93813 30.91572,-29.93821 30.91563,-29.93836 30.91562,-29.93844 30.91557,-29.93859 30.91555,-29.93877 30.91553,-29.93886 30.91551,-29.93896 30.91549,-29.93903 30.91544,-29.93909 30.91536,-29.93917 30.91531,-29.93919 30.91525,-29.93923 30.91516,-29.93929 30.91512,-29.93934 30.91506,-29.93941 30.91501,-29.93954 30.91499,-29.93961 30.91499,-29.93968 30.91499,-29.93974 30.91501,-29.93982 30.91499,-29.93986 30.91493,-29.93995 30.91488,-29.94002 30.91485,-29.94009 30.91482,-29.94022 30.9148,-29.94028 30.91475,-29.9404 30.91467,-29.94051 30.91459,-29.94055 30.91452,-29.9406 30.91444,-29.9407 30.91434,-29.94086 30.91433,-29.94087 30.9141,-29.94112 30.91387,-29.94134 30.91357,-29.94164 30.91329,-29.94197 30.91306,-29.94217 30.91285,-29.94233 30.91269,-29.94249 30.91246,-29.94273 30.91191,-29.94336 30.91145,-29.94392 30.91135,-29.94405 30.9113,-29.94419 30.91124,-29.9443 30.91121,-29.94433 30.91115,-29.94437 30.91109,-29.9444 30.91103,-29.94445 30.91094,-29.94453 30.91074,-29.94475 30.9107,-29.94483 30.91068,-29.94497 30.91067,-29.94512 30.91067,-29.94519 30.91066,-29.94527 30.91065,-29.94531 30.9106,-29.94538 30.91055,-29.94543 30.91044,-29.94554 30.9104,-29.94558 30.91036,-29.94561 30.91029,-29.94562 30.91025,-29.94561 30.91021,-29.94561 30.91016,-29.94562 30.91011,-29.94563 30.90985,-29.94581 30.90972,-29.9459 30.90953,-29.94603 30.90925,-29.94622 30.90898,-29.94638 30.90888,-29.94644 30.90853,-29.9465 30.90821,-29.94655 30.90793,-29.94657 30.90778,-29.94654 30.90765,-29.94654 30.90749,-29.94652 30.90735,-29.94648 30.90726,-29.94643 30.90722,-29.94637 30.9072,-29.9463 30.90717,-29.94624 30.90712,-29.94619 30.90701,-29.94606 30.90687,-29.94597 30.90652,-29.94581 30.90636,-29.94565 30.90622,-29.94557 30.90616,-29.94556 30.90607,-29.94556 30.90602,-29.94558 30.90592,-29.94563 30.90576,-29.94571 30.90564,-29.9457 30.90556,-29.94568 30.90552,-29.94566 30.90538,-29.94559 30.90525,-29.94552 30.90516,-29.94548 30.9051,-29.94545 30.90503,-29.94543 30.90494,-29.94537 30.90486,-29.94528 30.90482,-29.94521 30.90481,-29.94512 30.90479,-29.94505 30.90476,-29.9449 30.90474,-29.94477 30.90463,-29.94465 30.90443,-29.94451 30.90419,-29.94434 30.90405,-29.94424 30.90397,-29.94419 30.90379,-29.94403 30.90371,-29.94392 30.90363,-29.94379 30.90359,-29.9437 30.90359,-29.94363 30.90358,-29.94353 30.90356,-29.94346 30.90352,-29.94341 30.90348,-29.94333 30.90343,-29.9433 30.90332,-29.94315 30.90322,-29.94297 30.9032,-29.94294 30.90313,-29.94288 30.9031,-29.94286 30.90302,-29.9428 30.90292,-29.94266 30.90267,-29.94235 30.90246,-29.94206 30.9023,-29.94169 30.9021,-29.94116 30.90197,-29.94076 30.90173,-29.93998 30.9017,-29.9398 30.90167,-29.93958 30.90156,-29.93928 30.9015,-29.93917 30.90147,-29.93911 30.90139,-29.93906 30.90129,-29.939 30.90121,-29.93899 30.90115,-29.93898 30.90104,-29.93894 30.901,-29.93891 30.90094,-29.9388 30.90074,-29.93851 30.9005,-29.93806 30.90034,-29.93779 30.90032,-29.93768 30.90034,-29.93753 30.90039,-29.93747 30.9005,-29.9374 30.90068,-29.93727 30.90112,-29.93699 30.90126,-29.9369 30.90137,-29.93681 30.90139,-29.93676 30.90149,-29.93663 30.90174,-29.93633 30.90193,-29.93591 30.902,-29.9358 30.90206,-29.93572 30.90217,-29.93561 30.90239,-29.93549 30.90249,-29.93539 30.90257,-29.93536 30.90264,-29.93534 30.90252,-29.93523 30.90236,-29.93501 30.90228,-29.93491 30.90223,-29.93487 30.90213,-29.93479 30.90201,-29.93472 30.90186,-29.93458 30.90163,-29.93436 30.90151,-29.9343 30.90135,-29.93416 30.90134,-29.93416 30.90116,-29.9344 30.90112,-29.93442 30.90106,-29.93446 30.90098,-29.9345 30.90087,-29.93452 30.90068,-29.93454 30.9006,-29.93454 30.90053,-29.93457 30.90042,-29.93462 30.90027,-29.93472 30.90011,-29.93484 30.89991,-29.93501 30.89953,-29.9352 30.89937,-29.9353 30.8993,-29.93534 30.89926,-29.93543 30.89922,-29.9355 30.89918,-29.93558 30.89916,-29.93569 30.89917,-29.9358 30.89916,-29.93585 30.89912,-29.93591 30.89908,-29.93595 30.89906,-29.93598 30.899,-29.93608 30.89897,-29.93616 30.89891,-29.93631 30.89883,-29.93649 30.89879,-29.93657 30.89875,-29.93666 30.8987,-29.93677 30.89863,-29.9369 30.8986,-29.93697 30.89857,-29.93716 30.89858,-29.9372 30.89857,-29.93731 30.8985,-29.93751 30.89847,-29.93756 30.89846,-29.93763 30.89844,-29.93773 30.89838,-29.938 30.89835,-29.93812 30.89829,-29.93828 30.89826,-29.9384 30.89824,-29.93846 30.89821,-29.93852 30.89816,-29.93862 30.89802,-29.93888 30.89798,-29.93892 30.89791,-29.93896 30.89777,-29.93907 30.89766,-29.9392 30.89754,-29.93934 30.89735,-29.93954 30.89722,-29.93968 30.89716,-29.93971 30.89712,-29.93974 30.89708,-29.93981 30.89705,-29.93987 30.89705,-29.93987 30.89702,-29.93996 30.89699,-29.94004 30.89694,-29.94008 30.89684,-29.94015 30.89676,-29.9402 30.89654,-29.94031 30.89625,-29.9405 30.89586,-29.94075 30.89536,-29.94102 30.89522,-29.9411 30.89505,-29.94114 30.89494,-29.94113 30.89493,-29.94113 30.8949,-29.94112 30.89482,-29.9411 30.89472,-29.94108 30.89455,-29.94105 30.8943,-29.94101 30.89416,-29.94098 30.8941,-29.94097 30.89396,-29.94093 30.89383,-29.94089 30.8937,-29.94085 30.89362,-29.94085 30.89357,-29.94085 30.89351,-29.94086 30.89336,-29.94084 30.89316,-29.94079 30.89302,-29.94076 30.89291,-29.94071 30.89285,-29.94069 30.89276,-29.94068 30.89271,-29.94068 30.89265,-29.94068 30.8926,-29.94069 30.89254,-29.94069 30.89248,-29.94068 30.89238,-29.94066 30.89229,-29.94065 30.89223,-29.94063 30.89218,-29.94059 30.89214,-29.94057 30.89203,-29.94052 30.892,-29.94051 30.89191,-29.94047 30.89185,-29.94046 30.89182,-29.94047 30.89177,-29.94047 30.89173,-29.94047 30.89165,-29.94046 30.8916,-29.94043 30.89158,-29.94039 30.8916,-29.94033 30.89161,-29.9403 30.8916,-29.94027 30.89158,-29.94024 30.89155,-29.94021 30.89151,-29.94019 30.89144,-29.94018 30.89138,-29.94018 30.8913,-29.94017 30.89118,-29.94016 30.89108,-29.94015 30.89095,-29.94015 30.89084,-29.94012 30.89074,-29.94008 30.89066,-29.94002 30.89051,-29.93995 30.89044,-29.93991 30.89032,-29.93988 30.8902,-29.93985 30.89009,-29.93979 30.89005,-29.93972 30.88997,-29.93965 30.88988,-29.93963 30.88981,-29.93962 30.88977,-29.93962 30.88966,-29.93963 30.88954,-29.93962 30.88939,-29.93962 30.88932,-29.93961 30.88929,-29.9396 30.88924,-29.93959 30.8892,-29.9396 30.88915,-29.93962 30.88911,-29.93964 30.88908,-29.93968 30.88904,-29.93973 30.88896,-29.93977 30.88888,-29.9398 30.88877,-29.93984 30.88871,-29.93986 30.8886,-29.93993 30.8886,-29.93993 30.88844,-29.94 30.88832,-29.94004 30.88825,-29.94006 30.88811,-29.9401 30.88807,-29.94011 30.8879,-29.94018 30.88768,-29.94024 30.88739,-29.94034 30.88709,-29.94044 30.88686,-29.94049 30.88673,-29.94054 30.88665,-29.94056 30.88656,-29.94059 30.88653,-29.9406 30.88648,-29.94063 30.88646,-29.94065 30.88637,-29.94067 30.88626,-29.94069 30.88621,-29.9407 30.88617,-29.9407 30.88615,-29.94071 30.88614,-29.94074 30.88613,-29.94078 30.88608,-29.94081 30.88593,-29.94089 30.8858,-29.94093 30.88572,-29.94098 30.88565,-29.94101 30.88561,-29.94103 30.88556,-29.94105 30.88549,-29.94107 30.88539,-29.94108 30.88532,-29.94109 30.8852,-29.94111 30.88513,-29.94112 30.88508,-29.94113 30.88502,-29.94114 30.88481,-29.94119 30.88467,-29.94121 30.88459,-29.94121 30.88454,-29.94119 30.88449,-29.94119 30.88444,-29.9412 30.88439,-29.94122 30.88427,-29.94125 30.88415,-29.94126 30.88405,-29.94127 30.8839,-29.94128 30.88382,-29.94129 30.88381,-29.94129 30.88376,-29.94128 30.88368,-29.94125 30.88359,-29.94122 30.88351,-29.94119 30.88345,-29.94118 30.88337,-29.94117 30.88331,-29.94117 30.88317,-29.94116 30.88294,-29.94115 30.88277,-29.94115 30.88275,-29.94115 30.88271,-29.94115 30.88266,-29.94116 30.88257,-29.94117 30.88254,-29.94117 30.88251,-29.94119 30.88247,-29.94121 30.88241,-29.94123 30.88236,-29.94124 30.8823,-29.94125 30.88224,-29.94126 30.88219,-29.94127 30.88217,-29.94129 30.88213,-29.94131 30.8821,-29.94131 30.88204,-29.94132 30.88197,-29.94132 30.88191,-29.94132 30.88187,-29.94132 30.88187,-29.94132 30.88174,-29.94135 30.88171,-29.94136 30.8816,-29.94138 30.88151,-29.94138 30.88112,-29.9414 30.88081,-29.94142 30.8805,-29.94143 30.88033,-29.94142 30.88031,-29.94142 30.88011,-29.94143 30.8799,-29.94144 30.87972,-29.94147 30.87961,-29.94148 30.8793,-29.94149 30.87895,-29.94147 30.87879,-29.94147 30.87862,-29.94148 30.87852,-29.94149 30.87844,-29.94149 30.87839,-29.94149 30.87833,-29.94149 30.87827,-29.94148 30.87822,-29.94147 30.8781,-29.94141 30.87789,-29.94132 30.87772,-29.94123 30.87757,-29.94118 30.87725,-29.94113 30.87715,-29.9411 30.87704,-29.94109 30.8769,-29.94106 30.87675,-29.94103 30.87655,-29.941 30.87649,-29.94099 30.87638,-29.94097 30.87631,-29.94097 30.87622,-29.94097 30.87611,-29.94101 30.87597,-29.94102 30.87581,-29.941 30.87566,-29.94097 30.87546,-29.94095 30.87533,-29.94095 30.8752,-29.94095 30.8751,-29.94094 30.875,-29.94092 30.87485,-29.94087 30.87476,-29.94087 30.87471,-29.94088 30.87465,-29.9409 30.87461,-29.94092 30.87456,-29.94092 30.87446,-29.94094 30.87435,-29.94094 30.87428,-29.94094 30.8742,-29.94093 30.87413,-29.94092 30.87407,-29.94091 30.87395,-29.94087 30.87386,-29.94084 30.87374,-29.94082 30.87349,-29.94083 30.87334,-29.94084 30.87324,-29.94087 30.87317,-29.94089 30.87309,-29.94091 30.87298,-29.94095 30.87294,-29.94098 30.87291,-29.94103 30.87287,-29.94109 30.87281,-29.94118 30.87275,-29.94127 30.87272,-29.94129 30.87264,-29.94133 30.87254,-29.94137 30.87249,-29.94137 30.87243,-29.94139 30.87226,-29.94146 30.87222,-29.94147 30.87218,-29.94147 30.87218,-29.94147 30.87207,-29.94148 30.87203,-29.94147 30.87195,-29.94146 30.87189,-29.94145 30.87184,-29.94146 30.87178,-29.94149 30.87171,-29.94153 30.87157,-29.94156 30.87136,-29.94161 30.87109,-29.9417 30.8709,-29.94175 30.87077,-29.94178 30.87065,-29.94179 30.87053,-29.9418 30.87042,-29.94178 30.8703,-29.9417 30.8701,-29.94148 30.87002,-29.94135 30.86987,-29.94121 30.86987,-29.94121 30.86984,-29.94117 30.86979,-29.94109 30.86975,-29.94105 30.86967,-29.94097 30.86964,-29.94093 30.86958,-29.94088 30.86954,-29.94083 30.86951,-29.94075 30.86951,-29.94069 30.8695,-29.94063 30.86951,-29.94058 30.86952,-29.94051 30.86951,-29.94041 30.86949,-29.94034 30.86945,-29.94023 30.86938,-29.93997 30.86937,-29.93989 30.86936,-29.93978 30.86935,-29.93976 30.86932,-29.93962 30.86929,-29.93936 30.86928,-29.93931 30.86928,-29.93928 30.86928,-29.93926 30.86928,-29.93917 30.86929,-29.93908 30.86928,-29.93893 30.86926,-29.93871 30.86926,-29.93862 30.86926,-29.93855 30.86925,-29.93843 30.86922,-29.93821 30.86922,-29.93816 30.86922,-29.93809 30.86916,-29.938 30.86912,-29.93798 30.8691,-29.93795 30.86906,-29.93791 30.86905,-29.93784 30.86902,-29.93769 30.869,-29.93757 30.86899,-29.93751 30.86899,-29.93751 30.86902,-29.9374 30.86906,-29.93723 30.86905,-29.93713 30.86904,-29.93705 30.86904,-29.93695 30.86903,-29.93691 30.86901,-29.93689 30.86897,-29.93686 30.86894,-29.93684 30.8689,-29.93683 30.86885,-29.93682 30.86882,-29.93678 30.8688,-29.93674 30.86877,-29.9367 30.86876,-29.93665 30.86875,-29.93659 30.86875,-29.93654 30.86875,-29.93645 30.86876,-29.93641 30.86878,-29.93634 30.86878,-29.93629 30.86878,-29.93625 30.86876,-29.93622 30.86874,-29.9362 30.86874,-29.93619 30.86875,-29.93617 30.86875,-29.93613 30.86876,-29.93608 30.86877,-29.93602 30.86878,-29.9359 30.8688,-29.93575 30.8688,-29.93564 30.8688,-29.93552 30.8688,-29.93547 30.86881,-29.93543 30.86883,-29.93539 30.86883,-29.93535 30.86882,-29.93531 30.86879,-29.93514 30.86877,-29.93501 30.86876,-29.93486 30.86877,-29.93477 30.86878,-29.9347 30.86881,-29.93461 30.86881,-29.93458 30.86881,-29.93455 30.86882,-29.93447 30.86882,-29.93433 30.8688,-29.93425 30.86878,-29.93421 30.86876,-29.93413 30.86874,-29.93402 30.86875,-29.93395 30.86878,-29.9339 30.86884,-29.93386 30.86887,-29.93386 30.8689,-29.93386 30.86892,-29.93385 30.86895,-29.93378 30.86893,-29.93372 30.8689,-29.93359 30.86887,-29.93346 30.86886,-29.93337 30.86886,-29.93324 30.86885,-29.93302 30.86882,-29.93288 30.86881,-29.93282 30.8688,-29.93275 30.86877,-29.93269 30.86877,-29.93261 30.86877,-29.93245 30.86879,-29.93235 30.8688,-29.93226 30.8688,-29.93214 30.86877,-29.93203 30.8687,-29.93184 30.86858,-29.93174 30.86852,-29.93165 30.86847,-29.93157 30.86844,-29.93148 30.86843,-29.93117 30.86838,-29.93077 30.86821,-29.93067 30.86803,-29.93064 30.86787,-29.93048 30.86778,-29.93046 30.86774,-29.93046 30.86767,-29.93046 30.8676,-29.93049 30.86749,-29.93051 30.86739,-29.93052 30.86723,-29.93059 30.86696,-29.93074 30.86693,-29.93083 30.86694,-29.93092 30.86695,-29.931 30.86695,-29.93105 30.86691,-29.93108 30.86689,-29.93111 30.86685,-29.93114 30.86683,-29.93118 30.86682,-29.93121 30.86678,-29.93127 30.8667,-29.93134 30.86663,-29.93145 30.8666,-29.93148 30.86654,-29.93151 30.86647,-29.93154 30.86638,-29.93161 30.86632,-29.93167 30.8663,-29.93171 30.86627,-29.93175 30.86623,-29.93178 30.86622,-29.93179 30.86619,-29.93181 30.86616,-29.93181 30.86615,-29.93181 30.86612,-29.93181 30.86609,-29.93179 30.86608,-29.93178 30.86605,-29.93177 30.86604,-29.93176 30.866,-29.93176 30.86598,-29.93176 30.86596,-29.93178 30.86594,-29.9318 30.86594,-29.93181 30.86591,-29.93187 30.86591,-29.93193 30.86591,-29.93198 30.86592,-29.93201 30.86595,-29.93203 30.86595,-29.93207 30.86594,-29.93212 30.86593,-29.93217 30.86592,-29.93224 30.86591,-29.93232 30.86588,-29.93255 30.86587,-29.93266 30.86587,-29.9327 30.86588,-29.93273 30.8659,-29.93278 30.8659,-29.93287 30.86591,-29.93293 30.86592,-29.93306 30.86593,-29.93332 30.86591,-29.93342 30.86592,-29.93344 30.86594,-29.93348 30.86598,-29.93355 30.86601,-29.93361 30.86604,-29.93367 30.86605,-29.93373 30.86606,-29.93377 30.86607,-29.93379 30.86607,-29.9338 30.86608,-29.93384 30.86609,-29.93387 30.86612,-29.93391 30.86614,-29.93394 30.86634,-29.93426 30.86637,-29.93431 30.86643,-29.93441 30.86655,-29.93458 30.86666,-29.93472 30.86674,-29.93495 30.86681,-29.93507 30.86693,-29.9354 30.86693,-29.93542 30.8669,-29.93553 30.86688,-29.93559 30.86679,-29.93579 30.86659,-29.93611 30.86644,-29.9365 30.86641,-29.93658 30.86636,-29.93663 30.8663,-29.93668 30.86623,-29.9367 30.86618,-29.93671 30.86609,-29.93675 30.86603,-29.93676 30.86598,-29.93676 30.86597,-29.93676 30.86589,-29.93678 30.86583,-29.9368 30.86577,-29.93684 30.86576,-29.93684 30.86571,-29.93685 30.86566,-29.93688 30.86562,-29.93695 30.86559,-29.93698 30.86555,-29.93702 30.86551,-29.93706 30.86546,-29.93712 30.86536,-29.9372 30.86524,-29.93726 30.86515,-29.93734 30.8651,-29.93739 30.86501,-29.93741 30.86496,-29.93741 30.86486,-29.9374 30.86478,-29.93739 30.86473,-29.9374 30.86465,-29.93742 30.86452,-29.93752 30.86438,-29.93771 30.86436,-29.93773 30.86435,-29.93778 30.86438,-29.93785 30.86441,-29.93787 30.86443,-29.93788 30.86445,-29.93791 30.86443,-29.93797 30.8644,-29.93803 30.86436,-29.93809 30.86433,-29.93816 30.86429,-29.93822 30.86422,-29.93828 30.86415,-29.93835 30.86411,-29.93843 30.86403,-29.9385 30.86395,-29.93856 30.86386,-29.93863 30.86386,-29.93863 30.8638,-29.93867 30.8637,-29.93872 30.86363,-29.93877 30.86354,-29.93886 30.86344,-29.93895 30.86335,-29.939 30.86324,-29.93904 30.86316,-29.93906 30.86294,-29.93911 30.86278,-29.93912 30.8626,-29.9391 30.86259,-29.9391 30.86248,-29.93906 30.86211,-29.93891 30.86187,-29.93879 30.86172,-29.93871 30.8616,-29.93863 30.86148,-29.93849 30.86139,-29.93841 30.86124,-29.93826 30.86119,-29.9382 30.86112,-29.93813 30.86108,-29.93807 30.86106,-29.93796 30.86102,-29.93787 30.86091,-29.93779 30.86081,-29.93774 30.86071,-29.93769 30.86058,-29.93766 30.86039,-29.93764 30.86017,-29.93763 30.86007,-29.93763 30.86003,-29.93763 30.8599,-29.93765 30.85978,-29.93772 30.85959,-29.93791 30.85947,-29.93806 30.85939,-29.93812 30.85928,-29.93819 30.85922,-29.93822 30.8592,-29.93822 30.85916,-29.93823 30.85912,-29.93827 30.85909,-29.93831 30.85904,-29.93839 30.85898,-29.93848 30.85891,-29.93858 30.8588,-29.93877 30.85871,-29.93899 30.85869,-29.93907 30.85861,-29.93928 30.8586,-29.93943 30.85861,-29.93954 30.85859,-29.93963 30.85856,-29.93969 30.85848,-29.93982 30.85845,-29.93992 30.8584,-29.93999 30.85835,-29.94011 30.8583,-29.9403 30.85827,-29.94043 30.85822,-29.9405 30.85821,-29.94051 30.85821,-29.94052 30.85818,-29.94057 30.85807,-29.94072 30.858,-29.94088 30.85787,-29.94123 30.85775,-29.94154 30.85769,-29.94167 30.85758,-29.94181 30.85747,-29.94199 30.85743,-29.9421 30.85743,-29.94218 30.85743,-29.9422 30.85743,-29.94229 30.85742,-29.94234 30.85738,-29.94241 30.85733,-29.94248 30.85729,-29.94263 30.85723,-29.94274 30.85671,-29.94407 30.85667,-29.94431 30.85665,-29.94443 30.85663,-29.94459 30.85662,-29.94496 30.8567,-29.94513 30.8568,-29.94546 30.8568,-29.94546 30.85681,-29.94594 30.85676,-29.94647 30.85676,-29.94652 30.85639,-29.94675 30.85603,-29.94685 30.85598,-29.94685 30.85594,-29.94685 30.85572,-29.94681 30.85565,-29.94681 30.8555,-29.94682 30.85529,-29.94682 30.85509,-29.94675 30.85496,-29.94668 30.85459,-29.94655 30.85431,-29.9465 30.85425,-29.94648 30.85408,-29.94647 30.85398,-29.94645 30.8539,-29.9464 30.85376,-29.94624 30.85362,-29.9462 30.85348,-29.9462 30.8531,-29.94606 30.85287,-29.94601 30.85275,-29.94602 30.85267,-29.94604 30.85253,-29.94609 30.85243,-29.94609 30.85228,-29.94605 30.85218,-29.94598 30.85205,-29.94589 30.85184,-29.94579 30.85157,-29.94566 30.85123,-29.94556 30.85085,-29.94538 30.85048,-29.94531 30.8503,-29.94527 30.85015,-29.94526 30.84983,-29.94522 30.84982,-29.94522 30.84965,-29.94517 30.84948,-29.94511 30.84935,-29.94506 30.8492,-29.94499 30.84902,-29.94489 30.84863,-29.94477 30.84851,-29.94473 30.84837,-29.9447 30.84832,-29.9447 30.84827,-29.94472 30.84821,-29.94471 30.84814,-29.94469 30.84802,-29.94465 30.84792,-29.94462 30.84782,-29.94462 30.84768,-29.94463 30.84737,-29.94462 30.84728,-29.94462 30.84715,-29.94462 30.84705,-29.94463 30.84697,-29.94466 30.84687,-29.94467 30.84673,-29.94469 30.8466,-29.94473 30.84648,-29.94474 30.84629,-29.9447 30.84597,-29.94463 30.84591,-29.94462 30.84571,-29.94459 30.84552,-29.94452 30.84534,-29.94447 30.84519,-29.94446 30.84503,-29.94447 30.8449,-29.94445 30.8448,-29.94445 30.84473,-29.94442 30.84455,-29.94439 30.84414,-29.94431 30.84409,-29.94431 30.84402,-29.94431 30.84385,-29.94426 30.84367,-29.94422 30.84348,-29.94416 30.84336,-29.9441 30.84332,-29.94404 30.84328,-29.94398 30.84315,-29.94392 30.84303,-29.94385 30.84264,-29.94362 30.84233,-29.94345 30.84218,-29.94336 30.84213,-29.94332 30.8421,-29.9433 30.842,-29.94317 30.84192,-29.94304 30.84185,-29.94295 30.8418,-29.94291 30.84173,-29.94289 30.84167,-29.94284 30.84166,-29.94279 30.84167,-29.9427 30.84158,-29.94252 30.84148,-29.94238 30.84142,-29.94221 30.84133,-29.94191 30.84122,-29.94167 30.84097,-29.94151 30.84093,-29.94148 30.84065,-29.94121 30.84044,-29.94094 30.84035,-29.94085 30.84011,-29.94058 30.84004,-29.94047 30.83983,-29.94029 30.83922,-29.93975 30.83876,-29.93931 30.83853,-29.93905 30.83838,-29.93885 30.83828,-29.93866 30.83816,-29.93852 30.83803,-29.93826 30.83772,-29.93779 30.83759,-29.9375 30.83754,-29.93711 30.83756,-29.93683 30.83758,-29.93677 30.83763,-29.93653 30.83774,-29.93645 30.83788,-29.93629 30.83803,-29.93613 30.8382,-29.93595 30.83854,-29.93571 30.83909,-29.93541 30.83986,-29.935 30.8413,-29.93451 30.84254,-29.93406 30.84276,-29.93405 30.84297,-29.93407 30.84322,-29.93414 30.8433,-29.93418 30.84352,-29.93428 30.84364,-29.93438 30.84376,-29.93448 30.84389,-29.93456 30.84402,-29.93461 30.84404,-29.93462 30.84427,-29.93463 30.8445,-29.93465 30.84469,-29.93471 30.84538,-29.93492 30.84549,-29.93496 30.84571,-29.93506 30.84612,-29.9351 30.84635,-29.93509 30.84685,-29.935 30.84758,-29.93471 30.84793,-29.93454 30.84848,-29.93425 30.84851,-29.93421 30.84862,-29.93411 30.84886,-29.93391 30.84896,-29.93383 30.84911,-29.93362 30.84921,-29.9335 30.84936,-29.93335 30.84938,-29.93325 30.84938,-29.9332 30.84938,-29.93318 30.84936,-29.93297 30.8494,-29.93283 30.84971,-29.93235 30.85003,-29.93177 30.85013,-29.93144 30.85029,-29.93076 30.85034,-29.93064 30.85038,-29.93052 30.85037,-29.93035 30.85025,-29.93008 30.85012,-29.92983 30.85001,-29.92936 30.84999,-29.9293 30.84976,-29.92856 30.84976,-29.92836 30.8499,-29.92794 30.85015,-29.92737 30.85019,-29.92728 30.8503,-29.92704 30.85038,-29.92685 30.85041,-29.92678 30.8505,-29.92662 30.85053,-29.92645 30.85056,-29.92624 30.85075,-29.92517 30.85077,-29.92473 30.85069,-29.92447 30.8505,-29.92416 30.85027,-29.92396 30.85017,-29.92388 30.85006,-29.92369 30.84987,-29.92344 30.8498,-29.92336 30.84975,-29.92335 30.84973,-29.92334 30.84964,-29.92335 30.84958,-29.92336 30.84951,-29.92336 30.84948,-29.92337 30.84941,-29.92336 30.84929,-29.92331 30.84923,-29.92331 30.84887,-29.92326 30.84868,-29.92325 30.84857,-29.92325 30.84846,-29.92325 30.84831,-29.92325 30.84824,-29.92324 30.84818,-29.92324 30.84815,-29.92328 30.84815,-29.92332 30.84812,-29.92336 30.84808,-29.92339 30.84798,-29.92339 30.84787,-29.92339 30.84776,-29.92339 30.84755,-29.92337 30.84742,-29.92332 30.84732,-29.92329 30.84726,-29.92329 30.84718,-29.9233 30.8471,-29.92335 30.84697,-29.92341 30.8469,-29.92337 30.84675,-29.92332 30.84659,-29.92317 30.84653,-29.92312 30.84647,-29.92307 30.8464,-29.92297 30.84632,-29.92282 30.84627,-29.9226 30.8462,-29.9224 30.84615,-29.92231 30.84611,-29.92217 30.84606,-29.92209 30.84596,-29.92189 30.84586,-29.92165 30.84581,-29.92149 30.84579,-29.92138 30.84577,-29.92119 30.84572,-29.92099 30.84566,-29.92086 30.8456,-29.92072 30.84555,-29.92054 30.84553,-29.92032 30.84549,-29.92021 30.84546,-29.9201 30.8454,-29.92007 30.84535,-29.92006 30.84525,-29.92006 30.84513,-29.92008 30.84499,-29.92009 30.84492,-29.92008 30.84488,-29.92006 30.84481,-29.92001 30.84475,-29.91996 30.84474,-29.9199 30.84474,-29.9199 30.84474,-29.91982 30.84474,-29.91977 30.84476,-29.9197 30.8448,-29.91964 30.84487,-29.91956 30.84494,-29.91951 30.84503,-29.91943 30.8451,-29.91938 30.84517,-29.91931 30.84524,-29.91926 30.8454,-29.91916 30.84566,-29.91897 30.84576,-29.91891 30.84583,-29.91887 30.84592,-29.91884 30.84606,-29.91878 30.84618,-29.9187 30.84636,-29.91857 30.84652,-29.91848 30.84659,-29.91846 30.84669,-29.91846 30.84676,-29.91843 30.8468,-29.91838 30.84683,-29.91832 30.84688,-29.91819 30.8469,-29.91803 30.84691,-29.91788 30.84692,-29.91783 30.84697,-29.91773 30.84702,-29.91766 30.84711,-29.91759 30.84723,-29.9175 30.8474,-29.91737 30.84743,-29.91735 30.84758,-29.91723 30.84764,-29.91718 30.84766,-29.91715 30.84764,-29.91708 30.84764,-29.91703 30.8476,-29.91696 30.84758,-29.91691 30.84757,-29.91685 30.84758,-29.91679 30.84763,-29.91674 30.84763,-29.91674 30.84772,-29.91667 30.84778,-29.91665 30.84786,-29.91663 30.84801,-29.91657 30.84821,-29.91649 30.84838,-29.91645 30.84865,-29.91642 30.84877,-29.91641 30.8488,-29.91637 30.84885,-29.91633 30.84893,-29.91625 30.84903,-29.91615 30.84905,-29.9161 30.84909,-29.91603 30.84914,-29.91596 30.84922,-29.91579 30.84925,-29.91568 30.84924,-29.9156 30.84923,-29.91557 30.8498,-29.91546 30.8498,-29.91546 30.85036,-29.9127 30.85038,-29.91263 30.85089,-29.91012 30.85104,-29.90936 30.85147,-29.90741 30.85249,-29.90242 30.85282,-29.90088 30.85283,-29.90087 30.8529,-29.90079 30.85296,-29.90071 30.853,-29.90074 30.85305,-29.90073 30.85312,-29.90073 30.85316,-29.90067 30.85323,-29.90058 30.85329,-29.90047 30.85339,-29.90043 30.85344,-29.90043 30.85353,-29.90046 30.8536,-29.90046 30.85367,-29.90043 30.85385,-29.90037 30.85408,-29.90032 30.85421,-29.90033 30.85436,-29.90032 30.85445,-29.90027 30.85446,-29.90016 30.8545,-29.89998 30.85496,-29.89939 30.85488,-29.89922 30.85479,-29.89902 30.85466,-29.89875 30.85451,-29.89841 30.85433,-29.89788 30.85426,-29.89762 30.85423,-29.89752 30.85415,-29.89724 30.85408,-29.89691 30.85406,-29.8968 30.85401,-29.89641 30.85395,-29.89609 30.85394,-29.8957 30.85394,-29.89527 30.85394,-29.89507 30.85396,-29.89458 30.85404,-29.89396 30.85416,-29.89337 30.85455,-29.89197 30.85461,-29.89174 30.85471,-29.8914 30.85474,-29.89128 30.85493,-29.89061 30.85502,-29.89029 30.85507,-29.89008 30.85528,-29.88935 30.85553,-29.88849 30.85555,-29.88843 30.8556,-29.88827 30.8556,-29.88825 30.85572,-29.88781 30.85578,-29.88747 30.85583,-29.88711 30.85582,-29.8868 30.85583,-29.88657 30.85632,-29.88612 30.85624,-29.88565 30.85616,-29.88516 30.85692,-29.88495 30.85702,-29.88508 30.85721,-29.88534 30.8579,-29.88629 30.8583,-29.88688 30.85849,-29.88718 30.85876,-29.88744 30.85876,-29.88744 30.85878,-29.88745 30.85901,-29.88752 30.85974,-29.88781 30.8601,-29.88796 30.86091,-29.88829 30.86175,-29.88838 30.86175,-29.88838 30.86179,-29.88839</coordinates></LinearRing></outerBoundaryIs></Polygon></MultiGeometry></Placemark></Document></kml>