<?xml version="1.0" encoding="UTF-8"?><kml xmlns="http://www.opengis.net/kml/2.2"><Document><Placemark><name>Folweni</name><description>Main Place 599178</description><ExtendedData><Data name="code"><value>599178</value></Data><Data name="name"><value>Folweni</value></Data><Data name="description"><value>Main Place 599178</value></Data></ExtendedData><MultiGeometry><Polygon><outerBoundaryIs><LinearRing><coordinates>30.82893,-29.98649 30.82876,-29.98678 30.82861,-29.98688 30.82852,-29.98694 30.82828,-29.98715 30.82768,-29.98769 30.82764,-29.98779 30.82753,-29.98788 30.82744,-29.9879 30.82714,-29.98819 30.82709,-29.98825 30.827,-29.98829 30.82679,-29.98852 30.82677,-29.98854 30.82654,-29.98875 30.82627,-29.989 30.82619,-29.9891 30.82621,-29.98915 30.82622,-29.98928 30.82622,-29.98933 30.82618,-29.98935 30.82614,-29.98937 30.8261,-29.98939 30.82605,-29.9894 30.82599,-29.98942 30.82595,-29.98945 30.82592,-29.98947 30.82586,-29.98949 30.82583,-29.98949 30.8258,-29.98951 30.82575,-29.98953 30.82572,-29.98955 30.82567,-29.98955 30.82564,-29.98956 30.8256,-29.98959 30.82556,-29.98961 30.82551,-29.98962 30.82561,-29.98971 30.8257,-29.98977 30.82576,-29.9898 30.82583,-29.9899 30.82607,-29.98999 30.82656,-29.99023 30.8267,-29.99026 30.82684,-29.9903 30.82704,-29.99035 30.82709,-29.99037 30.82717,-29.99045 30.82725,-29.99052 30.82741,-29.9906 30.82771,-29.99072 30.828,-29.99085 30.82814,-29.99092 30.8283,-29.99098 30.82838,-29.99102 30.82838,-29.99107 30.82832,-29.99122 30.82829,-29.99134 30.82825,-29.99149 30.82888,-29.99172 30.829,-29.99176 30.82907,-29.99179 30.82911,-29.99179 30.82972,-29.99178 30.82994,-29.99176 30.83013,-29.99179 30.83025,-29.992 30.83037,-29.99214 30.83048,-29.99239 30.83078,-29.99217 30.83096,-29.99224 30.83105,-29.99228 30.83117,-29.99225 30.83123,-29.99237 30.8313,-29.99241 30.83139,-29.99239 30.83149,-29.99251 30.83177,-29.9926 30.83198,-29.99274 30.83213,-29.99289 30.83232,-29.993 30.83249,-29.99297 30.83307,-29.99319 30.83334,-29.9933 30.83332,-29.99336 30.83352,-29.9934 30.83363,-29.9934 30.83382,-29.99352 30.834,-29.99344 30.83407,-29.99343 30.83448,-29.99379 30.83449,-29.9938 30.83462,-29.99387 30.83468,-29.99393 30.83468,-29.99393 30.83498,-29.99394 30.83515,-29.99399 30.83525,-29.99412 30.83535,-29.99416 30.83561,-29.99419 30.83557,-29.9943 30.83551,-29.99455 30.83545,-29.99487 30.83539,-29.99496 30.83593,-29.99525 30.83602,-29.99526 30.83625,-29.99536 30.83598,-29.9957 30.83529,-29.99622 30.83534,-29.99624 30.8354,-29.99625 30.83544,-29.99622 30.83549,-29.99618 30.83555,-29.99618 30.83558,-29.99618 30.83564,-29.9962 30.83571,-29.99622 30.83575,-29.99626 30.83577,-29.99631 30.83573,-29.99634 30.83569,-29.99635 30.83569,-29.99638 30.83574,-29.99641 30.83582,-29.99645 30.83583,-29.9965 30.83591,-29.99652 30.83599,-29.99651 30.8361,-29.99655 30.83616,-29.99656 30.83622,-29.99659 30.83626,-29.9966 30.83631,-29.9966 30.8364,-29.99657 30.83644,-29.99658 30.83649,-29.99659 30.83655,-29.99657 30.83659,-29.99657 30.83663,-29.99661 30.83667,-29.99662 30.83675,-29.99661 30.83683,-29.99657 30.83686,-29.99654 30.8369,-29.99656 30.83692,-29.99661 30.83696,-29.99664 30.837,-29.99668 30.83705,-29.99668 30.8371,-29.99668 30.83717,-29.99669 30.8372,-29.99673 30.83724,-29.99677 30.83731,-29.9968 30.83736,-29.99681 30.83741,-29.99684 30.83744,-29.9969 30.8375,-29.99693 30.83753,-29.99697 30.83757,-29.99701 30.83763,-29.99705 30.8377,-29.99707 30.83776,-29.99707 30.83783,-29.99708 30.8379,-29.99712 30.83795,-29.99713 30.83801,-29.99711 30.83805,-29.99707 30.8381,-29.99705 30.83818,-29.99702 30.83824,-29.99698 30.83826,-29.99699 30.83832,-29.99701 30.83836,-29.99701 30.8384,-29.99699 30.83847,-29.99695 30.83853,-29.99692 30.83859,-29.99691 30.83865,-29.9969 30.8387,-29.9969 30.83875,-29.9969 30.83876,-29.99689 30.83882,-29.99688 30.83889,-29.9969 30.83892,-29.99687 30.83895,-29.99684 30.83897,-29.99682 30.839,-29.99678 30.83906,-29.99677 30.83907,-29.99678 30.83913,-29.99682 30.83913,-29.99685 30.83917,-29.9969 30.83927,-29.99695 30.83925,-29.997 30.83919,-29.99733 30.83915,-29.9975 30.83913,-29.9976 30.83908,-29.99773 30.83902,-29.99785 30.83896,-29.99795 30.83881,-29.99814 30.83864,-29.9983 30.83849,-29.9984 30.83831,-29.99849 30.83812,-29.99856 30.83795,-29.99862 30.83757,-29.99873 30.83718,-29.99884 30.83661,-29.99903 30.83612,-29.99916 30.83599,-29.99921 30.83585,-29.99931 30.83574,-29.99942 30.83567,-29.99954 30.83561,-29.99968 30.8356,-29.99979 30.83563,-30.00002 30.83565,-30.00008 30.83565,-30.00012 30.83598,-30.00009 30.83626,-30.00006 30.83642,-30.00007 30.83656,-30.00007 30.83677,-30.00011 30.83695,-30.00017 30.83718,-30.0003 30.83731,-30.00042 30.83743,-30.00056 30.83751,-30.00072 30.83754,-30.00078 30.83755,-30.00081 30.83757,-30.00095 30.83757,-30.00115 30.83753,-30.00132 30.83744,-30.0015 30.83735,-30.00163 30.83707,-30.0019 30.8369,-30.00207 30.8368,-30.00221 30.83673,-30.00238 30.83691,-30.00244 30.83715,-30.00248 30.83738,-30.00254 30.8376,-30.00261 30.8378,-30.00263 30.83809,-30.00272 30.83834,-30.00309 30.83853,-30.00375 30.83845,-30.00404 30.83845,-30.00447 30.83874,-30.00561 30.83892,-30.0061 30.8391,-30.00646 30.83928,-30.00685 30.83924,-30.00687 30.83914,-30.00687 30.83907,-30.00688 30.83901,-30.00687 30.83899,-30.00686 30.83897,-30.00686 30.83892,-30.00684 30.83889,-30.00684 30.83886,-30.00686 30.83883,-30.00687 30.83881,-30.00687 30.83878,-30.00686 30.83871,-30.00682 30.83864,-30.0068 30.8386,-30.00678 30.83853,-30.00673 30.83847,-30.00668 30.83838,-30.00662 30.83826,-30.00658 30.83813,-30.00652 30.83805,-30.00651 30.83797,-30.00651 30.8379,-30.00649 30.83781,-30.00647 30.83779,-30.00647 30.83771,-30.00647 30.83763,-30.00647 30.83758,-30.00647 30.83753,-30.00649 30.83746,-30.0065 30.8374,-30.00652 30.8373,-30.00653 30.83724,-30.00655 30.8372,-30.00657 30.83712,-30.00661 30.83686,-30.00668 30.83686,-30.00669 30.83681,-30.0067 30.83675,-30.00672 30.83672,-30.00674 30.83665,-30.00678 30.83661,-30.00681 30.83654,-30.00685 30.83649,-30.00689 30.83643,-30.00693 30.83634,-30.00696 30.83625,-30.00699 30.83619,-30.00701 30.83609,-30.00704 30.83599,-30.00706 30.83589,-30.00709 30.83581,-30.00713 30.83573,-30.00716 30.83563,-30.00719 30.83559,-30.00719 30.83552,-30.00723 30.83544,-30.00727 30.83539,-30.0073 30.83531,-30.00732 30.83523,-30.00734 30.8351,-30.00737 30.83501,-30.0074 30.83494,-30.00744 30.83489,-30.00747 30.83481,-30.0075 30.83475,-30.00751 30.83467,-30.0075 30.83459,-30.0075 30.8345,-30.00749 30.83448,-30.00747 30.83436,-30.00742 30.83428,-30.00739 30.83424,-30.00738 30.83421,-30.00738 30.83418,-30.00737 30.83416,-30.00737 30.83413,-30.00737 30.8341,-30.00734 30.83406,-30.00729 30.83403,-30.00727 30.834,-30.00728 30.83398,-30.00728 30.83393,-30.00727 30.83386,-30.00723 30.83376,-30.00721 30.83363,-30.00715 30.83353,-30.00706 30.83351,-30.00698 30.83349,-30.00687 30.83337,-30.00669 30.83323,-30.00644 30.83317,-30.00635 30.83313,-30.00629 30.8331,-30.00621 30.83307,-30.00611 30.83302,-30.0061 30.83295,-30.00605 30.83291,-30.00595 30.8329,-30.00588 30.83287,-30.00582 30.83284,-30.00575 30.83281,-30.00569 30.83277,-30.00563 30.83273,-30.00557 30.8327,-30.00551 30.83264,-30.00547 30.8326,-30.00544 30.83254,-30.00538 30.8325,-30.00531 30.83245,-30.00515 30.8324,-30.0051 30.83236,-30.00508 30.83232,-30.00506 30.8323,-30.00503 30.83228,-30.00499 30.83225,-30.00496 30.83223,-30.00491 30.83221,-30.00489 30.83219,-30.00485 30.83216,-30.00481 30.83214,-30.00476 30.83211,-30.00472 30.83207,-30.00468 30.83204,-30.00465 30.83203,-30.00462 30.83201,-30.00458 30.83199,-30.00456 30.83196,-30.0045 30.83193,-30.00443 30.83189,-30.0044 30.83185,-30.00432 30.8318,-30.00423 30.83177,-30.00417 30.83174,-30.00412 30.83168,-30.00409 30.83161,-30.00407 30.83158,-30.00406 30.83151,-30.00401 30.83147,-30.00399 30.83136,-30.00395 30.83133,-30.00394 30.83122,-30.00389 30.83117,-30.00386 30.83112,-30.00383 30.83109,-30.00379 30.83104,-30.00374 30.83101,-30.0037 30.83095,-30.00363 30.83089,-30.00357 30.83087,-30.00354 30.83084,-30.00347 30.83081,-30.00346 30.83077,-30.00337 30.83074,-30.00331 30.83068,-30.00324 30.83066,-30.00321 30.83065,-30.00318 30.83065,-30.00316 30.83064,-30.00314 30.83061,-30.00312 30.83058,-30.00307 30.83055,-30.003 30.83053,-30.00295 30.83051,-30.00293 30.8305,-30.00291 30.83048,-30.00287 30.83046,-30.00283 30.83044,-30.00278 30.83043,-30.00275 30.83041,-30.00273 30.8304,-30.00271 30.83026,-30.00248 30.83014,-30.0024 30.83005,-30.00224 30.82999,-30.00202 30.82986,-30.00171 30.8296,-30.00162 30.82937,-30.00161 30.82929,-30.00158 30.82839,-30.0017 30.82731,-30.00187 30.82646,-30.00234 30.82566,-30.00283 30.82532,-30.00301 30.82419,-30.00302 30.82251,-30.00304 30.82172,-30.00217 30.82113,-30.00146 30.82095,-30.0015 30.82074,-30.00127 30.82066,-30.00093 30.8206,-30.00067 30.82061,-30.00063 30.82068,-30.00008 30.82072,-29.99838 30.82004,-29.99806 30.81959,-29.99783 30.81906,-29.99755 30.81818,-29.99711 30.81788,-29.99686 30.81751,-29.99661 30.81728,-29.99639 30.81712,-29.99611 30.81687,-29.99592 30.81626,-29.99618 30.81564,-29.99593 30.81532,-29.99574 30.81518,-29.99553 30.81473,-29.99529 30.81457,-29.9952 30.81447,-29.99519 30.81422,-29.99526 30.8141,-29.99533 30.81399,-29.99535 30.81391,-29.99532 30.81376,-29.99529 30.8136,-29.99526 30.81347,-29.99525 30.81338,-29.99523 30.81329,-29.99518 30.81321,-29.99514 30.81309,-29.99509 30.81299,-29.99507 30.81287,-29.99503 30.81272,-29.99498 30.81264,-29.99493 30.81256,-29.99489 30.81248,-29.99485 30.81239,-29.99476 30.81233,-29.99467 30.81221,-29.99458 30.81212,-29.99452 30.81197,-29.9945 30.81177,-29.99447 30.81157,-29.99446 30.81142,-29.9945 30.81131,-29.99456 30.81123,-29.9946 30.81116,-29.99465 30.81108,-29.9947 30.81101,-29.9947 30.8109,-29.99471 30.81079,-29.99471 30.81074,-29.99471 30.81071,-29.99472 30.81069,-29.99473 30.81068,-29.99475 30.81065,-29.99476 30.81062,-29.99476 30.81059,-29.99475 30.81056,-29.99474 30.81052,-29.99474 30.8105,-29.99472 30.81047,-29.99471 30.81043,-29.99469 30.81039,-29.99468 30.81037,-29.99466 30.81032,-29.99463 30.81027,-29.99459 30.81022,-29.99455 30.81018,-29.99452 30.81016,-29.99447 30.81013,-29.99444 30.81012,-29.99441 30.81009,-29.99437 30.81008,-29.99435 30.81006,-29.99428 30.81006,-29.99424 30.81007,-29.99419 30.8101,-29.99412 30.81012,-29.994 30.81018,-29.99389 30.81024,-29.9938 30.81041,-29.99357 30.81042,-29.99343 30.81034,-29.99334 30.81024,-29.99325 30.8101,-29.99315 30.80994,-29.99305 30.8098,-29.99294 30.80973,-29.99287 30.80959,-29.9928 30.80949,-29.99269 30.80943,-29.99263 30.80938,-29.99253 30.80947,-29.99238 30.80956,-29.99225 30.8097,-29.99206 30.80975,-29.99199 30.81049,-29.99194 30.81092,-29.99192 30.81121,-29.9919 30.81144,-29.99185 30.81163,-29.99178 30.8118,-29.9917 30.81188,-29.99166 30.81195,-29.99162 30.81215,-29.99145 30.8123,-29.9913 30.81237,-29.99118 30.81272,-29.99061 30.81317,-29.98989 30.81353,-29.98929 30.81376,-29.98892 30.81406,-29.98842 30.81421,-29.98818 30.8145,-29.9877 30.81456,-29.98762 30.81459,-29.98757 30.81479,-29.98736 30.81494,-29.98723 30.8151,-29.98711 30.81535,-29.98696 30.8156,-29.98684 30.81592,-29.98673 30.81613,-29.98668 30.81637,-29.98665 30.81668,-29.98663 30.81712,-29.98663 30.81736,-29.98663 30.81756,-29.98662 30.81773,-29.98662 30.81804,-29.98656 30.81824,-29.98653 30.81905,-29.98635 30.81976,-29.9862 30.82055,-29.98606 30.82095,-29.98596 30.82097,-29.98596 30.82124,-29.9859 30.82231,-29.98568 30.82284,-29.98556 30.82329,-29.98547 30.82371,-29.98536 30.824,-29.98526 30.82437,-29.98512 30.82483,-29.98494 30.8249,-29.98491 30.82509,-29.98483 30.82532,-29.98474 30.82559,-29.9847 30.82586,-29.98469 30.82607,-29.9847 30.82635,-29.98476 30.82658,-29.98486 30.82676,-29.98496 30.82692,-29.98506 30.82748,-29.98548 30.82817,-29.98598 30.82852,-29.98621 30.82873,-29.98636 30.82893,-29.98649</coordinates></LinearRing></outerBoundaryIs></Polygon></MultiGeometry></Placemark></Document></kml>