<?xml version="1.0" encoding="UTF-8"?><kml xmlns="http://www.opengis.net/kml/2.2"><Document><Placemark><name>Tshelimnyama</name><description>Main Place 599137</description><ExtendedData><Data name="code"><value>599137</value></Data><Data name="name"><value>Tshelimnyama</value></Data><Data name="description"><value>Main Place 599137</value></Data></ExtendedData><MultiGeometry><Polygon><outerBoundaryIs><LinearRing><coordinates>30.80577,-29.82505 30.80583,-29.82507 30.80591,-29.82507 30.806,-29.8251 30.80612,-29.82514 30.80625,-29.82519 30.80635,-29.82524 30.80642,-29.82531 30.8065,-29.82538 30.80663,-29.82552 30.80696,-29.82569 30.80731,-29.82586 30.80753,-29.82604 30.8078,-29.82624 30.80789,-29.82631 30.80791,-29.82644 30.8079,-29.82659 30.8079,-29.82674 30.80784,-29.82691 30.80778,-29.82706 30.80778,-29.82707 30.80781,-29.82718 30.80789,-29.82727 30.80804,-29.82741 30.80818,-29.82758 30.80831,-29.8278 30.80845,-29.82801 30.80875,-29.82832 30.809,-29.82862 30.80927,-29.82886 30.80948,-29.8291 30.80974,-29.82929 30.80998,-29.8295 30.81022,-29.82968 30.81047,-29.82989 30.81067,-29.83 30.81088,-29.83015 30.81103,-29.83025 30.81108,-29.83029 30.81117,-29.8304 30.81125,-29.8305 30.81134,-29.83056 30.81145,-29.83069 30.81154,-29.83081 30.81159,-29.8309 30.81173,-29.83094 30.81184,-29.831 30.81191,-29.83111 30.81199,-29.83125 30.81203,-29.83141 30.8121,-29.83162 30.81211,-29.83179 30.81209,-29.832 30.81205,-29.83222 30.81201,-29.83238 30.81192,-29.83258 30.81175,-29.8328 30.8117,-29.83285 30.81157,-29.83298 30.8115,-29.83306 30.81141,-29.83309 30.81131,-29.8331 30.81127,-29.83315 30.8112,-29.83329 30.81119,-29.83336 30.81109,-29.83348 30.81099,-29.83354 30.81088,-29.83361 30.81071,-29.83367 30.81061,-29.83378 30.81052,-29.83391 30.81042,-29.83408 30.81037,-29.83429 30.81036,-29.83445 30.81039,-29.8346 30.8104,-29.83472 30.81045,-29.83489 30.81051,-29.83497 30.81058,-29.8351 30.81058,-29.8352 30.8106,-29.83526 30.81061,-29.83532 30.81065,-29.83543 30.81072,-29.83553 30.81083,-29.83568 30.8109,-29.83582 30.81096,-29.83595 30.81109,-29.83611 30.81119,-29.83622 30.81131,-29.8363 30.81138,-29.83636 30.81148,-29.83642 30.81163,-29.83649 30.81176,-29.83655 30.8119,-29.83668 30.81206,-29.83682 30.81226,-29.83693 30.81248,-29.83702 30.8127,-29.83705 30.81294,-29.83706 30.81314,-29.83702 30.81325,-29.83697 30.81343,-29.83695 30.81349,-29.83695 30.81365,-29.83696 30.81375,-29.83696 30.81384,-29.83692 30.81394,-29.83688 30.81406,-29.83684 30.8142,-29.83684 30.81434,-29.83685 30.81452,-29.83686 30.81462,-29.83689 30.81472,-29.83693 30.81486,-29.83694 30.81496,-29.83692 30.8151,-29.83692 30.81527,-29.83695 30.81542,-29.83698 30.8156,-29.837 30.81572,-29.83699 30.81589,-29.83701 30.816,-29.83706 30.81611,-29.83712 30.81626,-29.83723 30.81639,-29.83732 30.81647,-29.83736 30.81651,-29.83736 30.81656,-29.83739 30.81657,-29.83744 30.81661,-29.83748 30.81669,-29.8375 30.81681,-29.83754 30.817,-29.83757 30.81721,-29.83753 30.81738,-29.83753 30.81747,-29.83749 30.81754,-29.83747 30.81763,-29.83741 30.81772,-29.83736 30.81782,-29.83733 30.81797,-29.83733 30.81814,-29.83728 30.81832,-29.83727 30.81852,-29.83726 30.81875,-29.83725 30.81889,-29.83726 30.81912,-29.83726 30.81929,-29.83726 30.81941,-29.83726 30.81958,-29.83729 30.81972,-29.83733 30.81986,-29.83738 30.81997,-29.83748 30.82011,-29.83759 30.82016,-29.83766 30.82021,-29.83773 30.82021,-29.83779 30.82018,-29.83789 30.82012,-29.83794 30.82005,-29.83796 30.81994,-29.83802 30.81978,-29.83811 30.81958,-29.83823 30.81936,-29.83832 30.81922,-29.83838 30.81908,-29.83845 30.81894,-29.83856 30.81878,-29.83867 30.8186,-29.83881 30.81844,-29.83898 30.81825,-29.83916 30.81809,-29.83931 30.81801,-29.83937 30.81792,-29.83942 30.81782,-29.83948 30.81764,-29.83957 30.81753,-29.83968 30.81738,-29.83979 30.81729,-29.83993 30.81712,-29.84007 30.81702,-29.84016 30.81689,-29.8403 30.81674,-29.84043 30.81664,-29.84057 30.81655,-29.8407 30.81648,-29.84083 30.81642,-29.84098 30.81639,-29.84111 30.81638,-29.84127 30.81645,-29.8415 30.81653,-29.84169 30.81667,-29.84184 30.81673,-29.84195 30.81682,-29.84201 30.81692,-29.84208 30.81698,-29.84216 30.81704,-29.84226 30.81708,-29.84241 30.81715,-29.84253 30.81722,-29.84264 30.81732,-29.84269 30.81739,-29.84276 30.81744,-29.84284 30.81751,-29.8429 30.81758,-29.84296 30.81763,-29.84307 30.8176,-29.84312 30.81751,-29.84318 30.81739,-29.84328 30.81723,-29.84343 30.81695,-29.84362 30.81665,-29.8438 30.81647,-29.84394 30.81636,-29.84405 30.81622,-29.84415 30.81609,-29.84427 30.81598,-29.84442 30.81586,-29.84457 30.81575,-29.84473 30.81565,-29.84485 30.81552,-29.84492 30.81535,-29.84505 30.81523,-29.8451 30.81512,-29.84519 30.81502,-29.8453 30.81502,-29.8454 30.81503,-29.84551 30.81501,-29.84564 30.81501,-29.84578 30.81498,-29.84594 30.81496,-29.84605 30.81495,-29.84617 30.81494,-29.84627 30.81485,-29.8464 30.81476,-29.84649 30.81465,-29.84657 30.81446,-29.84662 30.81423,-29.8466 30.81399,-29.84661 30.81367,-29.84656 30.81353,-29.84653 30.81352,-29.84653 30.81348,-29.84652 30.81335,-29.84651 30.81319,-29.8465 30.81306,-29.84655 30.81287,-29.84661 30.81264,-29.84668 30.81248,-29.84672 30.81232,-29.84672 30.81218,-29.84671 30.81203,-29.84665 30.8118,-29.84656 30.81163,-29.84647 30.81141,-29.84638 30.81117,-29.84629 30.8109,-29.84623 30.81057,-29.84615 30.81029,-29.84605 30.81016,-29.84602 30.81,-29.84599 30.80979,-29.84588 30.80962,-29.84579 30.8094,-29.84573 30.80918,-29.84573 30.80902,-29.84579 30.80881,-29.84588 30.80861,-29.846 30.80841,-29.84614 30.80822,-29.84626 30.80802,-29.84633 30.80788,-29.84639 30.80774,-29.84645 30.80758,-29.84651 30.8074,-29.84662 30.80732,-29.84671 30.80713,-29.84681 30.80696,-29.84684 30.80681,-29.84689 30.80669,-29.84693 30.80665,-29.84694 30.80646,-29.84696 30.80635,-29.84698 30.80626,-29.847 30.80608,-29.84699 30.80599,-29.84699 30.80586,-29.847 30.80576,-29.84704 30.80567,-29.84708 30.80558,-29.84707 30.80552,-29.84705 30.80546,-29.84705 30.80539,-29.84709 30.80531,-29.84716 30.80516,-29.84723 30.80502,-29.84729 30.80485,-29.84734 30.80467,-29.8474 30.8045,-29.8474 30.80434,-29.8474 30.8042,-29.84738 30.80411,-29.84738 30.80397,-29.84743 30.80386,-29.84747 30.8037,-29.84751 30.80346,-29.84763 30.80334,-29.84773 30.80333,-29.84774 30.80326,-29.84775 30.80315,-29.84777 30.80305,-29.84775 30.80298,-29.84775 30.80292,-29.84773 30.80283,-29.84772 30.80274,-29.84773 30.8026,-29.84775 30.80247,-29.84778 30.80238,-29.84779 30.80231,-29.84779 30.80223,-29.84777 30.80215,-29.84774 30.80203,-29.84771 30.80192,-29.84769 30.80178,-29.8477 30.80165,-29.84771 30.80158,-29.84772 30.80154,-29.84772 30.80142,-29.84771 30.80134,-29.84769 30.80126,-29.84765 30.80121,-29.84759 30.80117,-29.84753 30.80111,-29.84747 30.80105,-29.84742 30.80097,-29.84739 30.80089,-29.84738 30.80079,-29.84739 30.8007,-29.84738 30.80069,-29.84738 30.80061,-29.84735 30.80054,-29.84732 30.80049,-29.8473 30.8004,-29.84728 30.80032,-29.84726 30.80029,-29.84733 30.80025,-29.84737 30.80019,-29.84741 30.80015,-29.84745 30.80005,-29.84753 30.80001,-29.84757 30.79997,-29.84764 30.79996,-29.84771 30.79993,-29.84775 30.79988,-29.84783 30.79982,-29.84791 30.7998,-29.84796 30.79978,-29.84802 30.79973,-29.84806 30.79966,-29.84809 30.79959,-29.84808 30.79951,-29.84811 30.79949,-29.84814 30.79938,-29.84818 30.79933,-29.84821 30.7993,-29.84824 30.79929,-29.84827 30.79924,-29.84829 30.79915,-29.84829 30.79907,-29.84829 30.79899,-29.84831 30.79893,-29.84834 30.79886,-29.84839 30.79881,-29.84848 30.79877,-29.84854 30.79876,-29.84849 30.79875,-29.84847 30.79857,-29.84784 30.79844,-29.84739 30.79827,-29.84688 30.79809,-29.84642 30.79788,-29.84594 30.79771,-29.84562 30.79755,-29.84541 30.79728,-29.84511 30.79704,-29.84486 30.79677,-29.84462 30.79649,-29.84439 30.79644,-29.84435 30.79608,-29.84401 30.79575,-29.84371 30.79541,-29.84341 30.79488,-29.84292 30.79436,-29.84246 30.7942,-29.84231 30.79392,-29.84206 30.7934,-29.84159 30.79307,-29.84127 30.79266,-29.84088 30.79229,-29.84053 30.79213,-29.84041 30.79199,-29.8403 30.79182,-29.8402 30.79174,-29.84015 30.79167,-29.84011 30.79141,-29.83995 30.79096,-29.83969 30.79059,-29.83948 30.79017,-29.83926 30.78967,-29.83897 30.78919,-29.83871 30.78842,-29.83828 30.78806,-29.83806 30.78759,-29.83777 30.78731,-29.83756 30.78695,-29.83727 30.7867,-29.83709 30.78631,-29.83683 30.78592,-29.83658 30.78585,-29.83653 30.78597,-29.8364 30.78603,-29.83629 30.7861,-29.83608 30.78615,-29.83589 30.78619,-29.83571 30.78621,-29.8355 30.78623,-29.83535 30.7863,-29.83523 30.78641,-29.83514 30.78656,-29.83504 30.78669,-29.83502 30.78683,-29.83503 30.78694,-29.83509 30.78699,-29.83521 30.78701,-29.83533 30.78698,-29.83549 30.78697,-29.83564 30.78721,-29.83581 30.78748,-29.83604 30.78766,-29.83616 30.7878,-29.83622 30.78808,-29.83627 30.78828,-29.83632 30.78855,-29.83641 30.78886,-29.83651 30.7891,-29.83658 30.7895,-29.83669 30.78997,-29.8367 30.79029,-29.83668 30.79052,-29.83668 30.79113,-29.83656 30.7916,-29.83685 30.79181,-29.83661 30.79189,-29.83652 30.79229,-29.83606 30.79271,-29.83556 30.79402,-29.83453 30.79461,-29.83402 30.79581,-29.83296 30.79669,-29.83168 30.79699,-29.83125 30.79812,-29.82963 30.79858,-29.82897 30.79886,-29.82856 30.7989,-29.82856 30.79894,-29.82852 30.79898,-29.82847 30.79903,-29.82845 30.79908,-29.82843 30.79915,-29.82838 30.79924,-29.82831 30.79928,-29.8283 30.79934,-29.82826 30.79938,-29.82822 30.79942,-29.82818 30.79943,-29.82814 30.79943,-29.82809 30.79943,-29.82807 30.79945,-29.82804 30.79949,-29.828 30.79954,-29.828 30.79957,-29.82801 30.79962,-29.82801 30.79967,-29.82799 30.79972,-29.82796 30.79975,-29.82794 30.79982,-29.8279 30.79989,-29.82788 30.79994,-29.82785 30.79996,-29.82782 30.79999,-29.8278 30.80004,-29.82777 30.8001,-29.82775 30.80017,-29.8277 30.80022,-29.82766 30.80026,-29.82763 30.80031,-29.8276 30.80034,-29.82759 30.80039,-29.82757 30.80043,-29.82754 30.80046,-29.82752 30.80051,-29.8275 30.80059,-29.82747 30.80068,-29.82743 30.80074,-29.82738 30.80078,-29.82733 30.80084,-29.82729 30.80089,-29.82726 30.80094,-29.82724 30.801,-29.82721 30.80107,-29.82718 30.80112,-29.82716 30.80112,-29.82716 30.80119,-29.82713 30.80126,-29.82712 30.80133,-29.82709 30.80139,-29.82706 30.80147,-29.82705 30.80155,-29.82706 30.8016,-29.82708 30.80165,-29.82712 30.8017,-29.82713 30.80175,-29.82712 30.80179,-29.82712 30.80182,-29.82717 30.80187,-29.8272 30.80191,-29.82722 30.80196,-29.82719 30.802,-29.82715 30.80205,-29.82711 30.80208,-29.82711 30.8021,-29.82711 30.80213,-29.82711 30.8022,-29.82708 30.80222,-29.82706 30.80224,-29.82704 30.80226,-29.827 30.80229,-29.82698 30.80232,-29.82697 30.80235,-29.82698 30.80238,-29.82699 30.80241,-29.82702 30.80243,-29.82704 30.80245,-29.82705 30.80247,-29.82709 30.80249,-29.82712 30.80252,-29.82715 30.80256,-29.82716 30.8026,-29.82717 30.80262,-29.82717 30.80266,-29.82716 30.8027,-29.82716 30.80275,-29.82718 30.80282,-29.82719 30.80288,-29.82719 30.80296,-29.82719 30.80304,-29.82717 30.8031,-29.82717 30.80315,-29.82718 30.80319,-29.8272 30.80326,-29.82721 30.80331,-29.82721 30.80339,-29.82723 30.80345,-29.82723 30.80353,-29.82724 30.80363,-29.82723 30.80368,-29.82719 30.80373,-29.82715 30.80379,-29.82715 30.80384,-29.82715 30.8039,-29.82715 30.80398,-29.82712 30.80406,-29.82709 30.8041,-29.82705 30.80414,-29.827 30.80417,-29.82694 30.8042,-29.82685 30.80426,-29.82678 30.80432,-29.82673 30.80439,-29.82666 30.80448,-29.82663 30.80456,-29.82659 30.80463,-29.82654 30.80468,-29.82649 30.80471,-29.82644 30.80475,-29.82639 30.80479,-29.82635 30.8048,-29.82631 30.80484,-29.82626 30.80491,-29.82622 30.80496,-29.82617 30.80503,-29.82612 30.80507,-29.82608 30.80508,-29.82607 30.80509,-29.82603 30.80508,-29.82577 30.80516,-29.82546 30.80532,-29.8252 30.8056,-29.82494 30.80567,-29.82499 30.80577,-29.82505</coordinates></LinearRing></outerBoundaryIs></Polygon></MultiGeometry></Placemark></Document></kml>