<?xml version="1.0" encoding="UTF-8"?><kml xmlns="http://www.opengis.net/kml/2.2"><Document><Placemark><name>KwaMakhutha</name><description>Sub Place 599174006</description><ExtendedData><Data name="code"><value>599174006</value></Data><Data name="name"><value>KwaMakhutha</value></Data><Data name="description"><value>Sub Place 599174006</value></Data></ExtendedData><MultiGeometry><Polygon><outerBoundaryIs><LinearRing><coordinates>30.87631,-30.02044 30.87549,-30.02164 30.87546,-30.02168 30.87491,-30.02246 30.87456,-30.02299 30.87442,-30.02321 30.87429,-30.02336 30.87419,-30.02345 30.87407,-30.02355 30.87396,-30.02362 30.87386,-30.02366 30.87347,-30.0238 30.87303,-30.02393 30.8726,-30.02406 30.87242,-30.02413 30.87229,-30.02422 30.87219,-30.0243 30.87201,-30.02448 30.87191,-30.02465 30.87184,-30.02481 30.87178,-30.02502 30.87177,-30.02512 30.87221,-30.02522 30.87246,-30.02527 30.87255,-30.02529 30.87251,-30.0254 30.87245,-30.02574 30.8725,-30.02617 30.87251,-30.02785 30.87232,-30.02917 30.87234,-30.02929 30.87235,-30.0295 30.87234,-30.02953 30.87233,-30.02955 30.87232,-30.02959 30.87228,-30.02972 30.87224,-30.02981 30.87221,-30.02986 30.87215,-30.02993 30.87208,-30.03 30.87206,-30.03003 30.87207,-30.03006 30.87209,-30.0301 30.87212,-30.03014 30.87214,-30.0302 30.87212,-30.03025 30.87205,-30.03037 30.87198,-30.03048 30.87189,-30.03062 30.87188,-30.03068 30.87189,-30.03075 30.87191,-30.03088 30.87193,-30.03103 30.87195,-30.03116 30.87198,-30.03127 30.87196,-30.03132 30.87194,-30.03136 30.87191,-30.03139 30.87183,-30.03144 30.87177,-30.03146 30.87166,-30.03154 30.8716,-30.03161 30.87153,-30.03166 30.87146,-30.03174 30.87143,-30.03185 30.87142,-30.03205 30.87133,-30.03216 30.87128,-30.03224 30.87125,-30.03227 30.87123,-30.03227 30.87119,-30.03229 30.87117,-30.03232 30.87117,-30.03237 30.87117,-30.03242 30.87115,-30.03265 30.87113,-30.03272 30.8711,-30.03277 30.87106,-30.03281 30.87102,-30.03287 30.871,-30.03289 30.87097,-30.03291 30.87093,-30.03291 30.87089,-30.03293 30.87087,-30.03295 30.87087,-30.03298 30.87088,-30.033 30.87092,-30.03302 30.87094,-30.03304 30.87093,-30.03306 30.87089,-30.03306 30.87086,-30.03306 30.87084,-30.03305 30.87081,-30.03305 30.8708,-30.03306 30.87078,-30.03308 30.87079,-30.03309 30.8708,-30.03311 30.8708,-30.03313 30.8708,-30.03315 30.87079,-30.03316 30.87077,-30.03318 30.87075,-30.0332 30.87074,-30.03321 30.87072,-30.03322 30.87068,-30.03324 30.87068,-30.03326 30.87069,-30.03328 30.8707,-30.0333 30.8707,-30.03331 30.87069,-30.03334 30.87069,-30.03336 30.87067,-30.03337 30.87065,-30.03337 30.87062,-30.03337 30.87061,-30.03335 30.87059,-30.03334 30.87058,-30.03333 30.87057,-30.03333 30.87055,-30.03333 30.87053,-30.03333 30.87051,-30.03335 30.87049,-30.03337 30.87047,-30.03338 30.87045,-30.03338 30.87043,-30.03338 30.87042,-30.03339 30.87042,-30.03342 30.87041,-30.03344 30.8704,-30.03346 30.87038,-30.03347 30.87037,-30.03348 30.87036,-30.03351 30.87038,-30.03352 30.87041,-30.03352 30.87043,-30.0335 30.87046,-30.03349 30.87048,-30.03349 30.87049,-30.0335 30.87049,-30.03352 30.87049,-30.03354 30.87049,-30.03356 30.87049,-30.03358 30.87049,-30.03362 30.87049,-30.03365 30.87051,-30.0337 30.87052,-30.03375 30.87055,-30.03384 30.87056,-30.03397 30.87058,-30.03407 30.87055,-30.03419 30.87053,-30.03426 30.87051,-30.03431 30.87047,-30.03439 30.87049,-30.03441 30.87055,-30.03444 30.87061,-30.03447 30.87063,-30.03449 30.87062,-30.03453 30.87059,-30.03454 30.87055,-30.03456 30.87053,-30.03459 30.87054,-30.03463 30.87057,-30.03467 30.87059,-30.03469 30.87063,-30.03472 30.87065,-30.03474 30.87063,-30.03478 30.8706,-30.0348 30.87055,-30.03484 30.8705,-30.03486 30.87046,-30.03489 30.87041,-30.0349 30.87034,-30.0349 30.87032,-30.0349 30.87029,-30.0349 30.87027,-30.03491 30.87023,-30.03492 30.87022,-30.03491 30.8702,-30.03491 30.87018,-30.03491 30.87017,-30.03491 30.87016,-30.03492 30.87013,-30.03493 30.8701,-30.03493 30.87007,-30.03495 30.87005,-30.03497 30.87001,-30.035 30.86999,-30.035 30.86996,-30.03501 30.86993,-30.03502 30.8699,-30.03502 30.86988,-30.03502 30.86986,-30.03504 30.86982,-30.0351 30.86978,-30.03517 30.86971,-30.03532 30.86954,-30.03559 30.86951,-30.03564 30.86947,-30.03567 30.86945,-30.0357 30.86941,-30.03574 30.86929,-30.03613 30.86929,-30.03613 30.86789,-30.03616 30.86763,-30.03616 30.86718,-30.03618 30.86681,-30.03618 30.86607,-30.0362 30.8655,-30.03622 30.86515,-30.03623 30.86477,-30.03624 30.86458,-30.03625 30.86437,-30.03625 30.86287,-30.03627 30.86243,-30.03627 30.86112,-30.03621 30.86029,-30.03617 30.86008,-30.03616 30.85951,-30.03613 30.85911,-30.03612 30.85874,-30.0361 30.85852,-30.03608 30.85815,-30.03607 30.85776,-30.03607 30.85756,-30.03608 30.85735,-30.0361 30.85716,-30.03614 30.85702,-30.03618 30.85684,-30.03625 30.8566,-30.03635 30.85614,-30.03655 30.85577,-30.03672 30.85526,-30.03695 30.85497,-30.03706 30.85477,-30.03713 30.85449,-30.03719 30.8544,-30.0372 30.85419,-30.03722 30.85405,-30.03721 30.85376,-30.03718 30.85346,-30.03712 30.85292,-30.03695 30.85278,-30.03691 30.85237,-30.03678 30.8519,-30.03663 30.8507,-30.03626 30.85012,-30.03608 30.84817,-30.03547 30.84761,-30.0353 30.84655,-30.03496 30.8456,-30.03465 30.84578,-30.03438 30.84593,-30.03417 30.84605,-30.03406 30.84657,-30.03372 30.84689,-30.0335 30.84723,-30.03326 30.84781,-30.03286 30.84891,-30.0321 30.85024,-30.03121 30.85078,-30.03084 30.85119,-30.03057 30.85152,-30.03035 30.85148,-30.03029 30.85136,-30.03013 30.85128,-30.03004 30.85122,-30.02998 30.85118,-30.02993 30.85117,-30.02991 30.85131,-30.02984 30.85169,-30.02967 30.85171,-30.02963 30.85231,-30.02938 30.85285,-30.02914 30.85333,-30.0289 30.85385,-30.02862 30.85412,-30.02845 30.85447,-30.02823 30.8547,-30.02807 30.85498,-30.02788 30.85501,-30.02786 30.85502,-30.02786 30.85539,-30.02762 30.85562,-30.02746 30.85633,-30.02699 30.85702,-30.02653 30.85773,-30.02607 30.85783,-30.02601 30.85801,-30.02591 30.85847,-30.02562 30.85935,-30.02501 30.85984,-30.02466 30.85985,-30.02465 30.86003,-30.02454 30.86037,-30.0243 30.86065,-30.02412 30.86097,-30.0239 30.86109,-30.02385 30.86113,-30.02382 30.8614,-30.02363 30.86199,-30.02324 30.86203,-30.02321 30.86205,-30.02319 30.86225,-30.02306 30.86248,-30.02287 30.86258,-30.02281 30.86277,-30.02267 30.86287,-30.02259 30.86296,-30.02251 30.86309,-30.02236 30.8632,-30.0222 30.86328,-30.0221 30.86337,-30.022 30.8635,-30.02188 30.86363,-30.02177 30.8638,-30.02166 30.86403,-30.02155 30.86424,-30.02141 30.86446,-30.02125 30.86464,-30.02113 30.86481,-30.02102 30.86496,-30.02092 30.86508,-30.02082 30.86528,-30.02068 30.8654,-30.0206 30.86547,-30.02055 30.86596,-30.02035 30.86605,-30.02029 30.86616,-30.02026 30.86619,-30.02024 30.86623,-30.0202 30.86631,-30.02013 30.86642,-30.02006 30.86659,-30.01994 30.8666,-30.01993 30.86665,-30.01993 30.86673,-30.01994 30.8668,-30.01996 30.86693,-30.02016 30.86721,-30.02065 30.86745,-30.02106 30.86749,-30.02114 30.86778,-30.02101 30.86789,-30.02096 30.86823,-30.0208 30.86886,-30.0205 30.86957,-30.02014 30.86981,-30.02002 30.87055,-30.01965 30.87069,-30.01956 30.87069,-30.01953 30.87066,-30.01946 30.87059,-30.01933 30.87054,-30.01926 30.87051,-30.0192 30.87051,-30.01916 30.8705,-30.01912 30.87053,-30.01908 30.87059,-30.01903 30.8707,-30.01899 30.87108,-30.01886 30.87132,-30.01877 30.8716,-30.01866 30.87197,-30.01854 30.8723,-30.01842 30.87248,-30.01835 30.87271,-30.01827 30.87296,-30.01819 30.8731,-30.01815 30.87334,-30.01805 30.87358,-30.01797 30.87374,-30.01791 30.87393,-30.01785 30.87417,-30.01777 30.87423,-30.01776 30.87431,-30.01775 30.87442,-30.01743 30.87446,-30.01733 30.87458,-30.01731 30.87507,-30.01728 30.87525,-30.01728 30.87545,-30.01735 30.87577,-30.01747 30.87596,-30.01755 30.87617,-30.01767 30.87633,-30.01778 30.87647,-30.0179 30.87653,-30.01797 30.8766,-30.0181 30.87662,-30.01815 30.87664,-30.0182 30.87665,-30.01822 30.87674,-30.01851 30.87677,-30.01881 30.8768,-30.01921 30.8768,-30.01931 30.8768,-30.01947 30.87675,-30.01977 30.87673,-30.0198 30.87661,-30.02002 30.87631,-30.02044</coordinates></LinearRing></outerBoundaryIs></Polygon></MultiGeometry></Placemark></Document></kml>