<?xml version="1.0" encoding="UTF-8"?><kml xmlns="http://www.opengis.net/kml/2.2"><Document><Placemark><name>Amanzimtoti</name><description>Main Place 599173</description><ExtendedData><Data name="code"><value>599173</value></Data><Data name="name"><value>Amanzimtoti</value></Data><Data name="description"><value>Main Place 599173</value></Data></ExtendedData><MultiGeometry><Polygon><outerBoundaryIs><LinearRing><coordinates>30.8827,-30.02851 30.88272,-30.02852 30.88293,-30.0285 30.88314,-30.02849 30.88333,-30.0285 30.88372,-30.02853 30.88383,-30.02855 30.88399,-30.02859 30.8843,-30.02867 30.88463,-30.02878 30.88496,-30.02893 30.88523,-30.02912 30.8856,-30.02939 30.88585,-30.02964 30.88596,-30.02973 30.88613,-30.02988 30.88664,-30.03036 30.88674,-30.03046 30.88724,-30.03091 30.88768,-30.03128 30.88809,-30.0316 30.88841,-30.03184 30.88895,-30.03221 30.88941,-30.0325 30.88985,-30.0328 30.89009,-30.03294 30.89009,-30.03295 30.89047,-30.03319 30.89107,-30.03356 30.89146,-30.03381 30.89165,-30.03394 30.89216,-30.03426 30.89246,-30.03445 30.89273,-30.03463 30.89288,-30.03472 30.89321,-30.03492 30.89334,-30.035 30.89348,-30.03509 30.89361,-30.03515 30.89371,-30.0352 30.89386,-30.03527 30.89399,-30.03532 30.89412,-30.03536 30.89417,-30.03538 30.89442,-30.03545 30.89471,-30.0355 30.89497,-30.03554 30.89525,-30.03558 30.89563,-30.03563 30.89597,-30.03568 30.89616,-30.03572 30.89636,-30.03576 30.8967,-30.03585 30.89738,-30.03616 30.89797,-30.03644 30.89813,-30.03653 30.89823,-30.03657 30.89781,-30.037 30.89723,-30.03756 30.89678,-30.03804 30.89635,-30.03854 30.8959,-30.03905 30.89586,-30.0391 30.89584,-30.03913 30.8957,-30.03927 30.89538,-30.03967 30.89497,-30.04015 30.89422,-30.041 30.8939,-30.04135 30.89349,-30.04182 30.89346,-30.04185 30.89377,-30.04202 30.89382,-30.04206 30.89418,-30.04231 30.8939,-30.0426 30.8939,-30.04264 30.89396,-30.04267 30.89404,-30.04268 30.89415,-30.04275 30.89428,-30.04285 30.8946,-30.0431 30.89468,-30.04316 30.89471,-30.04314 30.89473,-30.04313 30.89476,-30.04312 30.89478,-30.04311 30.8948,-30.04311 30.89481,-30.04313 30.8948,-30.04318 30.89478,-30.04322 30.89491,-30.04333 30.89515,-30.04349 30.89521,-30.04354 30.89581,-30.04399 30.89622,-30.04431 30.8962,-30.04432 30.89618,-30.04435 30.89616,-30.0444 30.89609,-30.04448 30.89606,-30.0445 30.89603,-30.04454 30.89599,-30.04457 30.89594,-30.0446 30.89591,-30.04462 30.89584,-30.04466 30.8958,-30.04469 30.89572,-30.04478 30.89569,-30.0448 30.89566,-30.04483 30.89564,-30.04485 30.89558,-30.04492 30.89555,-30.04497 30.89553,-30.04501 30.89551,-30.04503 30.89549,-30.04508 30.89547,-30.04511 30.89543,-30.04515 30.89539,-30.04517 30.89534,-30.04522 30.89532,-30.04523 30.89529,-30.04525 30.89526,-30.04528 30.89525,-30.04531 30.89523,-30.04533 30.89516,-30.04539 30.89511,-30.04543 30.89504,-30.04548 30.895,-30.04551 30.89495,-30.04555 30.89491,-30.04557 30.8949,-30.0456 30.89487,-30.04565 30.89488,-30.04568 30.8949,-30.04573 30.89494,-30.04579 30.89493,-30.04582 30.8949,-30.04585 30.89486,-30.04586 30.89481,-30.0459 30.89478,-30.04592 30.89477,-30.04594 30.89473,-30.046 30.89471,-30.04603 30.8947,-30.04606 30.89466,-30.04613 30.89463,-30.04617 30.89461,-30.04621 30.89458,-30.04625 30.89454,-30.04629 30.89451,-30.04634 30.89449,-30.04637 30.89449,-30.04639 30.89444,-30.04646 30.89441,-30.04649 30.89437,-30.04654 30.89433,-30.04659 30.89427,-30.04664 30.89425,-30.04667 30.89424,-30.0467 30.89414,-30.0468 30.89412,-30.04683 30.89412,-30.04685 30.8941,-30.04688 30.89407,-30.04692 30.89404,-30.04697 30.89401,-30.047 30.89397,-30.04705 30.89396,-30.04708 30.89395,-30.04716 30.89393,-30.04719 30.89392,-30.04721 30.89384,-30.0473 30.89381,-30.04733 30.89379,-30.04735 30.89376,-30.04738 30.89372,-30.0474 30.8937,-30.04743 30.89369,-30.04746 30.89367,-30.04747 30.89363,-30.04749 30.89358,-30.04753 30.89358,-30.04755 30.89355,-30.04758 30.89354,-30.04761 30.89351,-30.04762 30.89349,-30.04763 30.89346,-30.04764 30.89343,-30.04771 30.89339,-30.04778 30.89337,-30.04783 30.89328,-30.04793 30.89325,-30.04798 30.89324,-30.04802 30.89322,-30.04805 30.89319,-30.04808 30.89317,-30.04814 30.89316,-30.04817 30.89314,-30.04819 30.89311,-30.04821 30.89308,-30.04822 30.89305,-30.04825 30.89301,-30.04827 30.89293,-30.04832 30.8929,-30.04834 30.89288,-30.04838 30.89286,-30.04841 30.89284,-30.04847 30.89279,-30.04852 30.89277,-30.04854 30.89275,-30.04857 30.89272,-30.0486 30.89269,-30.04864 30.89262,-30.04867 30.89258,-30.0487 30.89255,-30.04873 30.89253,-30.04876 30.89251,-30.04878 30.89248,-30.04879 30.89236,-30.04885 30.89233,-30.04888 30.8923,-30.0489 30.89224,-30.04895 30.89221,-30.04896 30.89218,-30.04898 30.89213,-30.049 30.89208,-30.04905 30.89208,-30.04909 30.89205,-30.04914 30.89198,-30.0492 30.89171,-30.04955 30.89163,-30.04984 30.89161,-30.05001 30.89158,-30.05027 30.8916,-30.05057 30.8916,-30.05072 30.8916,-30.05092 30.89162,-30.05114 30.89164,-30.0513 30.89161,-30.05149 30.89148,-30.05169 30.89131,-30.05182 30.89114,-30.05192 30.89089,-30.05206 30.8908,-30.05209 30.89058,-30.05235 30.89055,-30.05238 30.89052,-30.0524 30.89049,-30.05241 30.89035,-30.05255 30.89033,-30.05256 30.89031,-30.05259 30.89027,-30.05263 30.89023,-30.05268 30.8902,-30.05272 30.89014,-30.05276 30.89009,-30.0528 30.89006,-30.05283 30.89002,-30.05286 30.88998,-30.0529 30.88996,-30.05294 30.88993,-30.05296 30.88991,-30.05298 30.88988,-30.053 30.88985,-30.05302 30.88983,-30.05304 30.8898,-30.05305 30.88978,-30.05309 30.88979,-30.05313 30.88977,-30.05317 30.88976,-30.05319 30.88973,-30.05322 30.88971,-30.05326 30.88968,-30.05329 30.88965,-30.05331 30.8896,-30.05334 30.88957,-30.05336 30.88952,-30.0534 30.88946,-30.05342 30.88943,-30.05343 30.88941,-30.05345 30.88939,-30.05347 30.88936,-30.05349 30.88932,-30.05351 30.88925,-30.05354 30.8892,-30.05356 30.88916,-30.05359 30.88913,-30.05361 30.88911,-30.05365 30.88907,-30.05367 30.88905,-30.05375 30.88901,-30.05378 30.88898,-30.05381 30.88896,-30.05385 30.88895,-30.05388 30.88892,-30.05392 30.88888,-30.05395 30.88885,-30.05398 30.88879,-30.05401 30.88876,-30.05402 30.88872,-30.05405 30.88866,-30.0541 30.88859,-30.05411 30.88847,-30.05412 30.88844,-30.05414 30.8884,-30.05417 30.88838,-30.05421 30.88836,-30.05424 30.88826,-30.05434 30.88821,-30.05437 30.88818,-30.05442 30.88815,-30.05444 30.88813,-30.05447 30.8881,-30.05449 30.88808,-30.05451 30.88806,-30.05454 30.88803,-30.05461 30.88799,-30.05465 30.88798,-30.05473 30.88795,-30.05474 30.88788,-30.05477 30.88784,-30.05479 30.88782,-30.05485 30.88781,-30.05488 30.88775,-30.0549 30.88772,-30.05494 30.88767,-30.05499 30.88764,-30.05502 30.8876,-30.05507 30.88758,-30.0551 30.88756,-30.05517 30.88753,-30.0552 30.8875,-30.05523 30.88746,-30.05527 30.88743,-30.05531 30.88742,-30.05535 30.88739,-30.05544 30.88736,-30.0555 30.88735,-30.05556 30.88732,-30.05559 30.88728,-30.05564 30.88726,-30.05567 30.88725,-30.0557 30.8872,-30.05576 30.88716,-30.0558 30.88713,-30.05581 30.8871,-30.05583 30.88708,-30.05585 30.88705,-30.05588 30.88705,-30.05591 30.88701,-30.05595 30.887,-30.05598 30.88695,-30.05601 30.88692,-30.05603 30.88686,-30.05606 30.88683,-30.05608 30.88682,-30.05612 30.8868,-30.05614 30.88677,-30.05618 30.88675,-30.05623 30.88671,-30.05627 30.88671,-30.05632 30.88668,-30.05635 30.88659,-30.05645 30.88656,-30.05649 30.88655,-30.05653 30.88654,-30.05657 30.88652,-30.05663 30.88649,-30.05666 30.88646,-30.05668 30.88639,-30.05672 30.88636,-30.05677 30.88632,-30.0568 30.8863,-30.05683 30.88628,-30.05688 30.88624,-30.05692 30.88619,-30.05698 30.88615,-30.05702 30.88612,-30.05704 30.8861,-30.05707 30.88607,-30.0571 30.88603,-30.05717 30.886,-30.05721 30.88597,-30.05724 30.88595,-30.05729 30.88586,-30.05732 30.88582,-30.05734 30.8858,-30.05737 30.88579,-30.05742 30.88578,-30.05745 30.88578,-30.05749 30.88576,-30.05751 30.88573,-30.05753 30.88566,-30.05755 30.88562,-30.05758 30.88561,-30.05762 30.8856,-30.05765 30.88559,-30.05769 30.88557,-30.05774 30.88554,-30.05777 30.88551,-30.05778 30.88547,-30.05782 30.88541,-30.05785 30.88537,-30.05796 30.88536,-30.05799 30.88534,-30.05802 30.88532,-30.05804 30.88528,-30.05806 30.88523,-30.05807 30.88506,-30.05822 30.88503,-30.05825 30.88501,-30.05829 30.88493,-30.05837 30.88492,-30.0584 30.88488,-30.05844 30.88486,-30.05849 30.88482,-30.05857 30.88479,-30.0586 30.88476,-30.05864 30.88474,-30.0587 30.88473,-30.05874 30.88471,-30.05878 30.8847,-30.05882 30.88466,-30.05886 30.88464,-30.05891 30.88463,-30.05896 30.88462,-30.059 30.8846,-30.05906 30.88456,-30.05911 30.88455,-30.05916 30.88453,-30.05922 30.8845,-30.05924 30.88446,-30.05927 30.88441,-30.05933 30.88438,-30.05937 30.88437,-30.0594 30.88436,-30.05944 30.88434,-30.05947 30.88434,-30.0595 30.88432,-30.05953 30.88428,-30.05957 30.88424,-30.05963 30.88421,-30.05964 30.88418,-30.05968 30.88417,-30.05971 30.88415,-30.05975 30.88412,-30.05979 30.88407,-30.05984 30.88404,-30.05986 30.88402,-30.05988 30.88397,-30.05992 30.88394,-30.05994 30.88392,-30.05996 30.8839,-30.06 30.88386,-30.06003 30.88379,-30.06014 30.88378,-30.06017 30.88375,-30.06023 30.88373,-30.06026 30.88368,-30.06035 30.88365,-30.06045 30.88364,-30.06059 30.88358,-30.06065 30.88357,-30.06068 30.88357,-30.06071 30.88358,-30.06074 30.88358,-30.06077 30.8836,-30.06082 30.88362,-30.06086 30.88364,-30.06089 30.88363,-30.06092 30.88363,-30.06093 30.88363,-30.06095 30.88362,-30.06098 30.88352,-30.06108 30.88348,-30.06113 30.88347,-30.06117 30.88347,-30.0612 30.88348,-30.06125 30.88349,-30.06128 30.88349,-30.06132 30.88347,-30.06137 30.88343,-30.06141 30.88338,-30.06147 30.88331,-30.06148 30.88326,-30.06148 30.88322,-30.06152 30.88318,-30.06166 30.88314,-30.06182 30.8831,-30.06201 30.88307,-30.06217 30.88298,-30.06244 30.8829,-30.06269 30.88291,-30.06284 30.88286,-30.06308 30.88282,-30.06322 30.88274,-30.06339 30.88267,-30.06356 30.88262,-30.06371 30.88248,-30.06398 30.88242,-30.06414 30.88235,-30.06428 30.88228,-30.06443 30.88213,-30.06467 30.88199,-30.06489 30.88193,-30.06502 30.88184,-30.06515 30.88167,-30.06541 30.88157,-30.06552 30.88144,-30.06565 30.8813,-30.06576 30.88116,-30.06588 30.88095,-30.06612 30.88087,-30.06624 30.88065,-30.06646 30.8805,-30.06663 30.88036,-30.06685 30.88028,-30.06698 30.88016,-30.06716 30.88007,-30.0673 30.87997,-30.06741 30.87981,-30.0676 30.87969,-30.06774 30.87959,-30.06788 30.87947,-30.06803 30.87934,-30.06819 30.87922,-30.06831 30.87911,-30.06844 30.87899,-30.06855 30.87888,-30.06866 30.87873,-30.0688 30.8786,-30.06892 30.87837,-30.06911 30.87813,-30.06936 30.87802,-30.06948 30.87792,-30.06963 30.8779,-30.06967 30.87788,-30.06973 30.87742,-30.06957 30.87716,-30.06948 30.87642,-30.0692 30.87615,-30.0691 30.87612,-30.06907 30.87608,-30.06905 30.87561,-30.06888 30.87552,-30.06884 30.87513,-30.0687 30.87475,-30.06856 30.87446,-30.06846 30.87426,-30.06838 30.874,-30.06829 30.87379,-30.0682 30.87347,-30.0681 30.87308,-30.06799 30.87297,-30.06794 30.87294,-30.06799 30.87274,-30.0683 30.87242,-30.06882 30.8722,-30.06924 30.87148,-30.06835 30.87113,-30.0679 30.87104,-30.06777 30.87089,-30.0674 30.87083,-30.06725 30.87078,-30.06714 30.87042,-30.067 30.8704,-30.067 30.86943,-30.06664 30.86829,-30.06622 30.86754,-30.06594 30.86678,-30.06567 30.8661,-30.06551 30.86602,-30.06547 30.86567,-30.06535 30.86546,-30.06527 30.86534,-30.06522 30.86525,-30.06519 30.86513,-30.06517 30.86506,-30.06503 30.86445,-30.06481 30.86426,-30.06474 30.86412,-30.06467 30.86399,-30.06462 30.86388,-30.06458 30.86381,-30.06457 30.86349,-30.06446 30.86336,-30.06441 30.86331,-30.06439 30.86252,-30.0641 30.86153,-30.06373 30.86141,-30.06371 30.86134,-30.06369 30.86061,-30.06342 30.85949,-30.063 30.85878,-30.06275 30.85809,-30.06249 30.85778,-30.06238 30.85739,-30.06221 30.85755,-30.062 30.85775,-30.06176 30.85793,-30.06146 30.85818,-30.06109 30.85844,-30.06068 30.85863,-30.06038 30.85889,-30.06007 30.85903,-30.05993 30.85926,-30.05977 30.85943,-30.05968 30.85959,-30.05959 30.85975,-30.05948 30.85986,-30.05935 30.85992,-30.0592 30.85992,-30.05919 30.85997,-30.05909 30.85991,-30.05906 30.85975,-30.05894 30.85933,-30.05867 30.85915,-30.05851 30.85907,-30.05838 30.859,-30.05826 30.859,-30.05824 30.85897,-30.05808 30.85896,-30.05794 30.85896,-30.05773 30.85905,-30.05751 30.8592,-30.05729 30.85937,-30.05705 30.85946,-30.05696 30.85954,-30.05687 30.85974,-30.05667 30.85986,-30.05655 30.85998,-30.05639 30.86003,-30.05624 30.86012,-30.05587 30.86017,-30.05563 30.86022,-30.05545 30.86036,-30.05525 30.86056,-30.05506 30.86124,-30.05451 30.86149,-30.05429 30.86188,-30.05389 30.86203,-30.05371 30.86215,-30.05354 30.86233,-30.0532 30.86242,-30.05297 30.86257,-30.05267 30.86265,-30.05252 30.86281,-30.05226 30.86305,-30.05187 30.86316,-30.05167 30.86321,-30.05152 30.86321,-30.05143 30.86319,-30.05134 30.86318,-30.05128 30.86316,-30.05125 30.86313,-30.0512 30.86308,-30.05115 30.863,-30.05107 30.86288,-30.05096 30.86284,-30.0509 30.8628,-30.05083 30.86278,-30.05073 30.86278,-30.05064 30.86282,-30.05057 30.86293,-30.05045 30.86301,-30.05039 30.86317,-30.05031 30.86338,-30.05023 30.86357,-30.05015 30.86365,-30.0501 30.86377,-30.05 30.86391,-30.04986 30.86397,-30.04976 30.86398,-30.04966 30.86398,-30.04961 30.86398,-30.04956 30.8639,-30.04937 30.86378,-30.04912 30.86372,-30.04899 30.86366,-30.04883 30.86365,-30.04872 30.86369,-30.04859 30.86374,-30.04851 30.86379,-30.04846 30.86386,-30.04842 30.8639,-30.04841 30.86395,-30.04839 30.86402,-30.04838 30.86408,-30.04838 30.86414,-30.04838 30.86424,-30.04839 30.86438,-30.04843 30.86451,-30.04846 30.86463,-30.0485 30.86515,-30.04861 30.86519,-30.04862 30.86532,-30.04792 30.8654,-30.04749 30.86547,-30.04702 30.86567,-30.04576 30.86648,-30.04531 30.86673,-30.04518 30.86654,-30.04513 30.86635,-30.0451 30.86624,-30.04508 30.86613,-30.04512 30.86601,-30.04503 30.86587,-30.04494 30.86583,-30.04486 30.86583,-30.04476 30.86588,-30.04468 30.86607,-30.04462 30.8663,-30.0446 30.86651,-30.0446 30.86667,-30.04456 30.86684,-30.04446 30.86701,-30.04438 30.8671,-30.04436 30.86726,-30.0444 30.86746,-30.04443 30.86757,-30.04442 30.86795,-30.04426 30.86816,-30.04415 30.86838,-30.04405 30.8687,-30.04389 30.86889,-30.04381 30.86917,-30.04369 30.86974,-30.04347 30.87014,-30.0433 30.87037,-30.04319 30.87054,-30.04314 30.87068,-30.04312 30.87103,-30.04306 30.8713,-30.04304 30.87155,-30.04305 30.87175,-30.04308 30.87191,-30.04309 30.87212,-30.0431 30.87236,-30.04308 30.87257,-30.04301 30.87286,-30.04289 30.87284,-30.04287 30.87284,-30.04287 30.87284,-30.04286 30.87282,-30.04281 30.87276,-30.04268 30.87271,-30.04252 30.87272,-30.04236 30.87275,-30.04224 30.8728,-30.04213 30.87287,-30.04203 30.87288,-30.04202 30.87321,-30.04168 30.87378,-30.04108 30.87408,-30.04079 30.87448,-30.04038 30.87465,-30.04019 30.87474,-30.04007 30.8748,-30.03996 30.87487,-30.03982 30.87493,-30.03969 30.87495,-30.0396 30.87499,-30.03944 30.87502,-30.03925 30.87506,-30.03894 30.87511,-30.03865 30.87515,-30.03851 30.87521,-30.03839 30.87543,-30.03805 30.87567,-30.0377 30.87573,-30.03762 30.87563,-30.03745 30.87533,-30.03675 30.87532,-30.03667 30.87533,-30.03665 30.87533,-30.03664 30.87553,-30.03663 30.87579,-30.03657 30.87609,-30.0365 30.87658,-30.03629 30.87664,-30.03626 30.8769,-30.0361 30.87722,-30.03587 30.8775,-30.03559 30.87763,-30.03544 30.87779,-30.03523 30.87786,-30.0351 30.87796,-30.03491 30.87805,-30.03469 30.8781,-30.0345 30.87814,-30.03433 30.87816,-30.03409 30.87817,-30.03399 30.87818,-30.03376 30.87818,-30.03345 30.87818,-30.03326 30.87818,-30.03274 30.87818,-30.03258 30.87819,-30.03242 30.87822,-30.03224 30.87836,-30.03176 30.87847,-30.03142 30.87868,-30.03119 30.87895,-30.03089 30.8792,-30.03067 30.87963,-30.03032 30.8802,-30.02987 30.8802,-30.0298 30.88016,-30.02976 30.88013,-30.02971 30.88011,-30.02969 30.88013,-30.02965 30.88022,-30.0296 30.88027,-30.02955 30.8803,-30.02948 30.88034,-30.02939 30.88035,-30.02929 30.88033,-30.02916 30.88024,-30.029 30.88018,-30.02895 30.88012,-30.02891 30.88008,-30.02887 30.88007,-30.0288 30.88008,-30.02873 30.8801,-30.02868 30.8801,-30.02865 30.88001,-30.02858 30.87979,-30.02849 30.87951,-30.02836 30.87905,-30.02813 30.87849,-30.02779 30.87834,-30.0277 30.87816,-30.0276 30.87804,-30.02755 30.87793,-30.02753 30.8778,-30.02749 30.87738,-30.02662 30.87722,-30.0263 30.8769,-30.02564 30.87688,-30.0256 30.87696,-30.02556 30.87739,-30.0254 30.87767,-30.02525 30.87789,-30.02541 30.87812,-30.02558 30.87824,-30.02567 30.87838,-30.02577 30.87848,-30.02583 30.87857,-30.02586 30.87881,-30.02598 30.87883,-30.02599 30.87906,-30.02614 30.8797,-30.02654 30.87994,-30.02668 30.8806,-30.02712 30.88106,-30.0274 30.88115,-30.02745 30.88129,-30.02753 30.88145,-30.02762 30.88159,-30.02771 30.88193,-30.02796 30.88214,-30.02811 30.88241,-30.02827 30.88244,-30.02829 30.8827,-30.02851</coordinates></LinearRing></outerBoundaryIs></Polygon></MultiGeometry></Placemark></Document></kml>