<?xml version="1.0" encoding="UTF-8"?><kml xmlns="http://www.opengis.net/kml/2.2"><Document><Placemark><name>Adams Mission</name><description>Sub Place 599179003</description><ExtendedData><Data name="code"><value>599179003</value></Data><Data name="name"><value>Adams Mission</value></Data><Data name="description"><value>Sub Place 599179003</value></Data></ExtendedData><MultiGeometry><Polygon><outerBoundaryIs><LinearRing><coordinates>30.81502,-30.02785 30.81542,-30.02802 30.81585,-30.02793 30.8161,-30.02787 30.81613,-30.02779 30.81616,-30.02772 30.81628,-30.02762 30.81644,-30.02752 30.81648,-30.02753 30.81657,-30.02754 30.81665,-30.02753 30.81677,-30.02751 30.81688,-30.02748 30.81707,-30.0274 30.81715,-30.0274 30.8173,-30.02742 30.81749,-30.02744 30.8177,-30.02742 30.81811,-30.0274 30.81833,-30.02739 30.8185,-30.02736 30.81856,-30.02758 30.81864,-30.02779 30.81882,-30.02812 30.81933,-30.02871 30.81959,-30.02916 30.81988,-30.02945 30.82,-30.02955 30.82024,-30.02979 30.82071,-30.03017 30.82096,-30.03036 30.8212,-30.0305 30.82146,-30.0307 30.82177,-30.0309 30.82193,-30.03115 30.82198,-30.03142 30.8222,-30.03171 30.82258,-30.03192 30.82277,-30.03195 30.82298,-30.03202 30.82318,-30.03209 30.82337,-30.03227 30.82345,-30.03239 30.82366,-30.03264 30.82379,-30.03279 30.82393,-30.03292 30.82412,-30.03335 30.8242,-30.03362 30.82432,-30.03394 30.82432,-30.03418 30.82425,-30.03451 30.82421,-30.03475 30.82427,-30.03507 30.82369,-30.03527 30.82349,-30.03534 30.82327,-30.03541 30.82316,-30.03544 30.82314,-30.03546 30.82297,-30.03565 30.82254,-30.03594 30.82195,-30.0364 30.82154,-30.03671 30.82115,-30.03699 30.82091,-30.03728 30.82083,-30.03738 30.8205,-30.03751 30.82011,-30.03776 30.81941,-30.03828 30.81904,-30.03853 30.81862,-30.03876 30.81848,-30.0388 30.81828,-30.03895 30.81781,-30.03943 30.81762,-30.03957 30.817,-30.04003 30.81679,-30.0403 30.81648,-30.04062 30.8163,-30.04079 30.81612,-30.04094 30.81592,-30.04109 30.81522,-30.04153 30.81491,-30.04174 30.8145,-30.04194 30.81405,-30.04206 30.81313,-30.04218 30.81279,-30.04229 30.81244,-30.04248 30.81222,-30.04264 30.81207,-30.04248 30.81175,-30.04204 30.81143,-30.04143 30.81053,-30.03939 30.81036,-30.03893 30.81026,-30.03868 30.80988,-30.03777 30.80941,-30.03698 30.80907,-30.03638 30.80906,-30.03636 30.80783,-30.03329 30.80712,-30.03187 30.80679,-30.03129 30.80666,-30.03102 30.80655,-30.0308 30.80711,-30.02953 30.80755,-30.02854 30.80813,-30.02723 30.80897,-30.02531 30.80905,-30.02534 30.80912,-30.02544 30.8092,-30.02553 30.80929,-30.02559 30.80933,-30.02561 30.80944,-30.02567 30.8096,-30.02576 30.80974,-30.02589 30.80997,-30.02607 30.8101,-30.02614 30.81021,-30.0262 30.81026,-30.02627 30.81029,-30.02635 30.81041,-30.02641 30.81055,-30.02644 30.81071,-30.02646 30.81079,-30.02652 30.81095,-30.02664 30.81117,-30.02673 30.81133,-30.02678 30.81147,-30.02682 30.81225,-30.02713 30.81226,-30.02713 30.81229,-30.02714 30.81278,-30.02734 30.81317,-30.02742 30.81366,-30.02755 30.81412,-30.02759 30.81502,-30.02785</coordinates></LinearRing></outerBoundaryIs></Polygon></MultiGeometry></Placemark></Document></kml>