<?xml version="1.0" encoding="UTF-8"?><kml xmlns="http://www.opengis.net/kml/2.2"><Document><Placemark><name>Umlazi</name><description>Main Place 599163</description><ExtendedData><Data name="code"><value>599163</value></Data><Data name="name"><value>Umlazi</value></Data><Data name="description"><value>Main Place 599163</value></Data></ExtendedData><MultiGeometry><Polygon><outerBoundaryIs><LinearRing><coordinates>30.86858,-29.93174 30.8687,-29.93184 30.86877,-29.93203 30.8688,-29.93214 30.8688,-29.93226 30.86879,-29.93235 30.86877,-29.93245 30.86877,-29.93261 30.86877,-29.93269 30.8688,-29.93275 30.86881,-29.93282 30.86882,-29.93288 30.86885,-29.93302 30.86886,-29.93324 30.86886,-29.93337 30.86887,-29.93346 30.8689,-29.93359 30.86893,-29.93372 30.86895,-29.93378 30.86892,-29.93385 30.8689,-29.93386 30.86887,-29.93386 30.86884,-29.93386 30.86878,-29.9339 30.86875,-29.93395 30.86874,-29.93402 30.86876,-29.93413 30.86878,-29.93421 30.8688,-29.93425 30.86882,-29.93433 30.86882,-29.93447 30.86881,-29.93455 30.86881,-29.93458 30.86881,-29.93461 30.86878,-29.9347 30.86877,-29.93477 30.86876,-29.93486 30.86877,-29.93501 30.86879,-29.93514 30.86882,-29.93531 30.86883,-29.93535 30.86883,-29.93539 30.86881,-29.93543 30.8688,-29.93547 30.8688,-29.93552 30.8688,-29.93564 30.8688,-29.93575 30.86878,-29.9359 30.86877,-29.93602 30.86876,-29.93608 30.86875,-29.93613 30.86875,-29.93617 30.86874,-29.93619 30.86874,-29.9362 30.86876,-29.93622 30.86878,-29.93625 30.86878,-29.93629 30.86878,-29.93634 30.86876,-29.93641 30.86875,-29.93645 30.86875,-29.93654 30.86875,-29.93659 30.86876,-29.93665 30.86877,-29.9367 30.8688,-29.93674 30.86882,-29.93678 30.86885,-29.93682 30.8689,-29.93683 30.86894,-29.93684 30.86897,-29.93686 30.86901,-29.93689 30.86903,-29.93691 30.86904,-29.93695 30.86904,-29.93705 30.86905,-29.93713 30.86906,-29.93723 30.86902,-29.9374 30.86899,-29.93751 30.86899,-29.93751 30.869,-29.93757 30.86902,-29.93769 30.86905,-29.93784 30.86906,-29.93791 30.8691,-29.93795 30.86912,-29.93798 30.86916,-29.938 30.86922,-29.93809 30.86922,-29.93816 30.86922,-29.93821 30.86925,-29.93843 30.86926,-29.93855 30.86926,-29.93862 30.86926,-29.93871 30.86928,-29.93893 30.86929,-29.93908 30.86928,-29.93917 30.86928,-29.93926 30.86928,-29.93928 30.86928,-29.93931 30.86929,-29.93936 30.86932,-29.93962 30.86935,-29.93976 30.86936,-29.93978 30.86937,-29.93989 30.86938,-29.93997 30.86945,-29.94023 30.86949,-29.94034 30.86951,-29.94041 30.86952,-29.94051 30.86951,-29.94058 30.8695,-29.94063 30.86951,-29.94069 30.86951,-29.94075 30.86954,-29.94083 30.86958,-29.94088 30.86964,-29.94093 30.86967,-29.94097 30.86975,-29.94105 30.86979,-29.94109 30.86984,-29.94117 30.86987,-29.94121 30.86987,-29.94121 30.87002,-29.94135 30.8701,-29.94148 30.8703,-29.9417 30.87042,-29.94178 30.87053,-29.9418 30.87065,-29.94179 30.87077,-29.94178 30.8709,-29.94175 30.87109,-29.9417 30.87136,-29.94161 30.87157,-29.94156 30.87171,-29.94153 30.87178,-29.94149 30.87184,-29.94146 30.87189,-29.94145 30.87195,-29.94146 30.87203,-29.94147 30.87207,-29.94148 30.87218,-29.94147 30.87218,-29.94147 30.87222,-29.94147 30.87226,-29.94146 30.87243,-29.94139 30.87249,-29.94137 30.87254,-29.94137 30.87264,-29.94133 30.87272,-29.94129 30.87275,-29.94127 30.87281,-29.94118 30.87287,-29.94109 30.87291,-29.94103 30.87294,-29.94098 30.87298,-29.94095 30.87309,-29.94091 30.87317,-29.94089 30.87324,-29.94087 30.87334,-29.94084 30.87349,-29.94083 30.87374,-29.94082 30.87386,-29.94084 30.87395,-29.94087 30.87407,-29.94091 30.87413,-29.94092 30.8742,-29.94093 30.87428,-29.94094 30.87435,-29.94094 30.87446,-29.94094 30.87456,-29.94092 30.87461,-29.94092 30.87465,-29.9409 30.87471,-29.94088 30.87476,-29.94087 30.87485,-29.94087 30.875,-29.94092 30.8751,-29.94094 30.8752,-29.94095 30.87533,-29.94095 30.87546,-29.94095 30.87566,-29.94097 30.87581,-29.941 30.87597,-29.94102 30.87611,-29.94101 30.87622,-29.94097 30.87631,-29.94097 30.87638,-29.94097 30.87649,-29.94099 30.87655,-29.941 30.87675,-29.94103 30.8769,-29.94106 30.87704,-29.94109 30.87715,-29.9411 30.87725,-29.94113 30.87757,-29.94118 30.87772,-29.94123 30.87789,-29.94132 30.8781,-29.94141 30.87822,-29.94147 30.87827,-29.94148 30.87833,-29.94149 30.87839,-29.94149 30.87844,-29.94149 30.87852,-29.94149 30.87862,-29.94148 30.87879,-29.94147 30.87895,-29.94147 30.8793,-29.94149 30.87961,-29.94148 30.87972,-29.94147 30.8799,-29.94144 30.88011,-29.94143 30.88031,-29.94142 30.88033,-29.94142 30.8805,-29.94143 30.88081,-29.94142 30.88112,-29.9414 30.88151,-29.94138 30.8816,-29.94138 30.88171,-29.94136 30.88174,-29.94135 30.88187,-29.94132 30.88187,-29.94132 30.88191,-29.94132 30.88197,-29.94132 30.88204,-29.94132 30.8821,-29.94131 30.88213,-29.94131 30.88217,-29.94129 30.88219,-29.94127 30.88224,-29.94126 30.8823,-29.94125 30.88236,-29.94124 30.88241,-29.94123 30.88247,-29.94121 30.88251,-29.94119 30.88254,-29.94117 30.88257,-29.94117 30.88266,-29.94116 30.88271,-29.94115 30.88275,-29.94115 30.88277,-29.94115 30.88294,-29.94115 30.88317,-29.94116 30.88331,-29.94117 30.88337,-29.94117 30.88345,-29.94118 30.88351,-29.94119 30.88359,-29.94122 30.88368,-29.94125 30.88376,-29.94128 30.88381,-29.94129 30.88382,-29.94129 30.8839,-29.94128 30.88405,-29.94127 30.88415,-29.94126 30.88427,-29.94125 30.88439,-29.94122 30.88444,-29.9412 30.88449,-29.94119 30.88454,-29.94119 30.88459,-29.94121 30.88467,-29.94121 30.88481,-29.94119 30.88502,-29.94114 30.88508,-29.94113 30.88513,-29.94112 30.8852,-29.94111 30.88532,-29.94109 30.88539,-29.94108 30.88549,-29.94107 30.88556,-29.94105 30.88561,-29.94103 30.88565,-29.94101 30.88572,-29.94098 30.8858,-29.94093 30.88593,-29.94089 30.88608,-29.94081 30.88613,-29.94078 30.88614,-29.94074 30.88615,-29.94071 30.88617,-29.9407 30.88621,-29.9407 30.88626,-29.94069 30.88637,-29.94067 30.88646,-29.94065 30.88648,-29.94063 30.88653,-29.9406 30.88656,-29.94059 30.88665,-29.94056 30.88673,-29.94054 30.88686,-29.94049 30.88709,-29.94044 30.88739,-29.94034 30.88768,-29.94024 30.8879,-29.94018 30.88807,-29.94011 30.88811,-29.9401 30.88825,-29.94006 30.88832,-29.94004 30.88844,-29.94 30.8886,-29.93993 30.8886,-29.93993 30.88871,-29.93986 30.88877,-29.93984 30.88888,-29.9398 30.88896,-29.93977 30.88904,-29.93973 30.88908,-29.93968 30.88911,-29.93964 30.88915,-29.93962 30.8892,-29.9396 30.88924,-29.93959 30.88929,-29.9396 30.88932,-29.93961 30.88939,-29.93962 30.88954,-29.93962 30.88966,-29.93963 30.88977,-29.93962 30.88981,-29.93962 30.88988,-29.93963 30.88997,-29.93965 30.89005,-29.93972 30.89009,-29.93979 30.8902,-29.93985 30.89032,-29.93988 30.89044,-29.93991 30.89051,-29.93995 30.89066,-29.94002 30.89074,-29.94008 30.89084,-29.94012 30.89095,-29.94015 30.89108,-29.94015 30.89118,-29.94016 30.8913,-29.94017 30.89138,-29.94018 30.89144,-29.94018 30.89151,-29.94019 30.89155,-29.94021 30.89158,-29.94024 30.8916,-29.94027 30.89161,-29.9403 30.8916,-29.94033 30.89158,-29.94039 30.8916,-29.94043 30.89165,-29.94046 30.89173,-29.94047 30.89177,-29.94047 30.89182,-29.94047 30.89185,-29.94046 30.89191,-29.94047 30.892,-29.94051 30.89203,-29.94052 30.89214,-29.94057 30.89218,-29.94059 30.89223,-29.94063 30.89229,-29.94065 30.89238,-29.94066 30.89248,-29.94068 30.89254,-29.94069 30.8926,-29.94069 30.89265,-29.94068 30.89271,-29.94068 30.89276,-29.94068 30.89285,-29.94069 30.89291,-29.94071 30.89302,-29.94076 30.89316,-29.94079 30.89336,-29.94084 30.89351,-29.94086 30.89357,-29.94085 30.89362,-29.94085 30.8937,-29.94085 30.89383,-29.94089 30.89396,-29.94093 30.8941,-29.94097 30.89416,-29.94098 30.8943,-29.94101 30.89455,-29.94105 30.89472,-29.94108 30.89482,-29.9411 30.8949,-29.94112 30.89493,-29.94113 30.89494,-29.94113 30.89505,-29.94114 30.89522,-29.9411 30.89536,-29.94102 30.89586,-29.94075 30.89625,-29.9405 30.89654,-29.94031 30.89676,-29.9402 30.89684,-29.94015 30.89694,-29.94008 30.89699,-29.94004 30.89702,-29.93996 30.89705,-29.93987 30.89705,-29.93987 30.89708,-29.93981 30.89712,-29.93974 30.89716,-29.93971 30.89722,-29.93968 30.89735,-29.93954 30.89754,-29.93934 30.89766,-29.9392 30.89777,-29.93907 30.89791,-29.93896 30.89798,-29.93892 30.89802,-29.93888 30.89816,-29.93862 30.89821,-29.93852 30.89824,-29.93846 30.89826,-29.9384 30.89829,-29.93828 30.89835,-29.93812 30.89838,-29.938 30.89844,-29.93773 30.89846,-29.93763 30.89847,-29.93756 30.8985,-29.93751 30.89857,-29.93731 30.89858,-29.9372 30.89857,-29.93716 30.8986,-29.93697 30.89863,-29.9369 30.8987,-29.93677 30.89875,-29.93666 30.89879,-29.93657 30.89883,-29.93649 30.89891,-29.93631 30.89897,-29.93616 30.899,-29.93608 30.89906,-29.93598 30.89908,-29.93595 30.89912,-29.93591 30.89916,-29.93585 30.89917,-29.9358 30.89916,-29.93569 30.89918,-29.93558 30.89922,-29.9355 30.89926,-29.93543 30.8993,-29.93534 30.89937,-29.9353 30.89953,-29.9352 30.89991,-29.93501 30.90011,-29.93484 30.90027,-29.93472 30.90042,-29.93462 30.90053,-29.93457 30.9006,-29.93454 30.90068,-29.93454 30.90087,-29.93452 30.90098,-29.9345 30.90106,-29.93446 30.90112,-29.93442 30.90116,-29.9344 30.90134,-29.93416 30.90135,-29.93416 30.90151,-29.9343 30.90163,-29.93436 30.90186,-29.93458 30.90201,-29.93472 30.90213,-29.93479 30.90223,-29.93487 30.90228,-29.93491 30.90236,-29.93501 30.90252,-29.93523 30.90264,-29.93534 30.90257,-29.93536 30.90249,-29.93539 30.90239,-29.93549 30.90217,-29.93561 30.90206,-29.93572 30.902,-29.9358 30.90193,-29.93591 30.90174,-29.93633 30.90149,-29.93663 30.90139,-29.93676 30.90137,-29.93681 30.90126,-29.9369 30.90112,-29.93699 30.90068,-29.93727 30.9005,-29.9374 30.90039,-29.93747 30.90034,-29.93753 30.90032,-29.93768 30.90034,-29.93779 30.9005,-29.93806 30.90074,-29.93851 30.90094,-29.9388 30.901,-29.93891 30.90104,-29.93894 30.90115,-29.93898 30.90121,-29.93899 30.90129,-29.939 30.90139,-29.93906 30.90147,-29.93911 30.9015,-29.93917 30.90156,-29.93928 30.90167,-29.93958 30.9017,-29.9398 30.90173,-29.93998 30.90197,-29.94076 30.9021,-29.94116 30.9023,-29.94169 30.90246,-29.94206 30.90267,-29.94235 30.90292,-29.94266 30.90302,-29.9428 30.9031,-29.94286 30.90313,-29.94288 30.9032,-29.94294 30.90322,-29.94297 30.90332,-29.94315 30.90343,-29.9433 30.90348,-29.94333 30.90352,-29.94341 30.90356,-29.94346 30.90358,-29.94353 30.90359,-29.94363 30.90359,-29.9437 30.90363,-29.94379 30.90371,-29.94392 30.90379,-29.94403 30.90397,-29.94419 30.90405,-29.94424 30.90419,-29.94434 30.90443,-29.94451 30.90463,-29.94465 30.90474,-29.94477 30.90476,-29.9449 30.90479,-29.94505 30.90481,-29.94512 30.90482,-29.94521 30.90486,-29.94528 30.90494,-29.94537 30.90503,-29.94543 30.9051,-29.94545 30.90516,-29.94548 30.90525,-29.94552 30.90538,-29.94559 30.90552,-29.94566 30.90556,-29.94568 30.90564,-29.9457 30.90576,-29.94571 30.90592,-29.94563 30.90602,-29.94558 30.90607,-29.94556 30.90616,-29.94556 30.90622,-29.94557 30.90636,-29.94565 30.90652,-29.94581 30.90687,-29.94597 30.90701,-29.94606 30.90712,-29.94619 30.90717,-29.94624 30.9072,-29.9463 30.90722,-29.94637 30.90726,-29.94643 30.90735,-29.94648 30.90749,-29.94652 30.90765,-29.94654 30.90778,-29.94654 30.90793,-29.94657 30.90821,-29.94655 30.90853,-29.9465 30.90888,-29.94644 30.90898,-29.94638 30.90925,-29.94622 30.90953,-29.94603 30.90972,-29.9459 30.90985,-29.94581 30.91011,-29.94563 30.91016,-29.94562 30.91021,-29.94561 30.91025,-29.94561 30.91029,-29.94562 30.91036,-29.94561 30.9104,-29.94558 30.91044,-29.94554 30.91055,-29.94543 30.9106,-29.94538 30.91065,-29.94531 30.91066,-29.94527 30.91067,-29.94519 30.91067,-29.94512 30.91068,-29.94497 30.9107,-29.94483 30.91074,-29.94475 30.91094,-29.94453 30.91103,-29.94445 30.91109,-29.9444 30.91115,-29.94437 30.91121,-29.94433 30.91124,-29.9443 30.9113,-29.94419 30.91135,-29.94405 30.91145,-29.94392 30.91191,-29.94336 30.91246,-29.94273 30.91269,-29.94249 30.91285,-29.94233 30.91306,-29.94217 30.91329,-29.94197 30.91357,-29.94164 30.91387,-29.94134 30.9141,-29.94112 30.91433,-29.94087 30.91434,-29.94086 30.91444,-29.9407 30.91452,-29.9406 30.91459,-29.94055 30.91467,-29.94051 30.91475,-29.9404 30.9148,-29.94028 30.91482,-29.94022 30.91485,-29.94009 30.91488,-29.94002 30.91493,-29.93995 30.91499,-29.93986 30.91501,-29.93982 30.91499,-29.93974 30.91499,-29.93968 30.91499,-29.93961 30.91501,-29.93954 30.91506,-29.93941 30.91512,-29.93934 30.91516,-29.93929 30.91525,-29.93923 30.91531,-29.93919 30.91536,-29.93917 30.91544,-29.93909 30.91549,-29.93903 30.91551,-29.93896 30.91553,-29.93886 30.91555,-29.93877 30.91557,-29.93859 30.91562,-29.93844 30.91563,-29.93836 30.91572,-29.93821 30.91577,-29.93813 30.9159,-29.93805 30.91602,-29.93792 30.91609,-29.93782 30.91612,-29.93779 30.9164,-29.93763 30.91661,-29.93742 30.91692,-29.93707 30.91744,-29.93647 30.91799,-29.93602 30.91806,-29.93598 30.91815,-29.93592 30.91852,-29.93585 30.91863,-29.93584 30.91899,-29.93592 30.91913,-29.93597 30.9193,-29.93612 30.91959,-29.93642 30.91988,-29.93665 30.92013,-29.93689 30.92017,-29.93695 30.92024,-29.93707 30.92029,-29.93742 30.92034,-29.93765 30.92038,-29.93779 30.92041,-29.93787 30.92049,-29.93797 30.9205,-29.93797 30.92055,-29.93804 30.92057,-29.93809 30.92062,-29.93812 30.92067,-29.93816 30.92074,-29.93818 30.92081,-29.93818 30.92092,-29.93824 30.92096,-29.93828 30.92108,-29.93839 30.92125,-29.93857 30.92138,-29.93869 30.92143,-29.93875 30.92155,-29.9388 30.92162,-29.93881 30.92172,-29.93883 30.92182,-29.93883 30.92185,-29.93883 30.92191,-29.93884 30.92198,-29.93886 30.9221,-29.9389 30.92219,-29.93894 30.92234,-29.939 30.92246,-29.93904 30.92258,-29.9391 30.92269,-29.93917 30.92276,-29.93923 30.92284,-29.93933 30.9229,-29.93941 30.92295,-29.93947 30.92308,-29.93957 30.92314,-29.93959 30.92324,-29.93962 30.92333,-29.93965 30.92334,-29.93965 30.92353,-29.93967 30.9236,-29.93969 30.92368,-29.93973 30.92381,-29.9398 30.92399,-29.93986 30.92416,-29.9399 30.92443,-29.94005 30.92452,-29.94013 30.92457,-29.94018 30.92464,-29.94025 30.92475,-29.94032 30.92483,-29.94038 30.92504,-29.94046 30.92517,-29.94051 30.92527,-29.94053 30.92529,-29.94057 30.92547,-29.9407 30.9258,-29.94085 30.92595,-29.94093 30.92607,-29.94098 30.92625,-29.94103 30.92642,-29.94102 30.92654,-29.941 30.9266,-29.94099 30.92667,-29.941 30.92672,-29.94102 30.92678,-29.94104 30.92681,-29.94107 30.92686,-29.94112 30.92688,-29.94119 30.92688,-29.94126 30.92688,-29.94132 30.92689,-29.9414 30.92692,-29.94149 30.92707,-29.94169 30.92721,-29.94194 30.92734,-29.94222 30.92738,-29.94233 30.92758,-29.94284 30.92766,-29.94304 30.9277,-29.94318 30.92772,-29.94357 30.92772,-29.94391 30.92774,-29.94418 30.92754,-29.94479 30.92747,-29.94492 30.92725,-29.94544 30.9271,-29.9458 30.92689,-29.94623 30.92665,-29.94675 30.92623,-29.94768 30.92604,-29.94792 30.92596,-29.94803 30.92589,-29.94816 30.92582,-29.94824 30.92572,-29.94831 30.92569,-29.94835 30.92559,-29.94845 30.92552,-29.94854 30.9255,-29.94865 30.92562,-29.9489 30.92568,-29.9491 30.92585,-29.94934 30.92595,-29.94947 30.92602,-29.94957 30.9261,-29.94967 30.92613,-29.94974 30.9261,-29.94982 30.92602,-29.94991 30.92575,-29.95024 30.92545,-29.95053 30.92533,-29.95081 30.92532,-29.951 30.92535,-29.95142 30.92549,-29.95178 30.92553,-29.95184 30.92571,-29.95213 30.92586,-29.95227 30.92676,-29.95259 30.92723,-29.95266 30.9275,-29.95271 30.92782,-29.95275 30.92826,-29.95275 30.92923,-29.95276 30.9301,-29.95283 30.93085,-29.95279 30.93121,-29.95276 30.93146,-29.95277 30.93217,-29.95282 30.93249,-29.95276 30.93269,-29.95272 30.93315,-29.95261 30.93333,-29.95255 30.93351,-29.95248 30.93404,-29.95227 30.93491,-29.95171 30.93559,-29.95117 30.93615,-29.95066 30.93642,-29.95031 30.93664,-29.95012 30.93682,-29.94997 30.93699,-29.94992 30.93721,-29.94985 30.93741,-29.94979 30.93769,-29.94972 30.93784,-29.94962 30.93804,-29.9496 30.93829,-29.94958 30.9385,-29.94958 30.93867,-29.94957 30.939,-29.94957 30.93939,-29.94957 30.93995,-29.94968 30.94026,-29.94994 30.94036,-29.95003 30.9407,-29.95035 30.94108,-29.95084 30.94127,-29.95103 30.94161,-29.95136 30.94195,-29.95178 30.94197,-29.95193 30.94217,-29.95219 30.94243,-29.95246 30.94269,-29.9527 30.94293,-29.95284 30.94305,-29.95291 30.94334,-29.95313 30.94364,-29.95352 30.94382,-29.95375 30.94403,-29.954 30.94429,-29.95426 30.94459,-29.95443 30.9454,-29.95444 30.94588,-29.95432 30.94624,-29.95432 30.94736,-29.95452 30.94739,-29.95453 30.94813,-29.95465 30.94849,-29.95472 30.9485,-29.95472 30.94853,-29.95473 30.95151,-29.95526 30.95236,-29.95542 30.95317,-29.95553 30.95304,-29.95577 30.95291,-29.9559 30.95212,-29.95617 30.94976,-29.95711 30.94925,-29.95735 30.94911,-29.95793 30.94887,-29.95848 30.9482,-29.95947 30.94751,-29.96063 30.94722,-29.96105 30.9472,-29.96109 30.94702,-29.96134 30.94523,-29.96396 30.94408,-29.96571 30.94215,-29.9687 30.94149,-29.96971 30.94112,-29.96925 30.94046,-29.96845 30.94005,-29.96782 30.93973,-29.96789 30.93914,-29.96702 30.9389,-29.96688 30.93873,-29.96679 30.93865,-29.96673 30.9383,-29.96713 30.9382,-29.96725 30.93739,-29.96793 30.93705,-29.96821 30.93671,-29.96847 30.93661,-29.96854 30.93639,-29.96865 30.93608,-29.9688 30.93581,-29.9689 30.93555,-29.96897 30.93531,-29.96903 30.93505,-29.96911 30.93506,-29.96908 30.93508,-29.96883 30.93507,-29.96845 30.93482,-29.96843 30.93444,-29.96835 30.93399,-29.9682 30.93368,-29.96806 30.93347,-29.96847 30.9334,-29.96853 30.93297,-29.96847 30.93275,-29.96844 30.93222,-29.96833 30.93161,-29.96819 30.9314,-29.96813 30.93118,-29.96809 30.93104,-29.96806 30.93078,-29.968 30.9307,-29.96799 30.93019,-29.96789 30.92961,-29.96785 30.92885,-29.96769 30.9282,-29.96773 30.92801,-29.96781 30.92781,-29.96784 30.92776,-29.96784 30.92769,-29.96785 30.92762,-29.96781 30.92712,-29.96832 30.927,-29.96843 30.92691,-29.96852 30.92685,-29.96848 30.9264,-29.96901 30.92588,-29.96963 30.92567,-29.96988 30.92553,-29.97004 30.92534,-29.97027 30.9244,-29.97139 30.92334,-29.97264 30.92325,-29.97275 30.92254,-29.97359 30.92234,-29.97383 30.92162,-29.97468 30.92155,-29.97464 30.92129,-29.97483 30.92114,-29.97498 30.92107,-29.97533 30.92056,-29.97594 30.92053,-29.97598 30.92045,-29.97607 30.92006,-29.97655 30.92003,-29.97657 30.91937,-29.97738 30.91904,-29.97777 30.91853,-29.97837 30.91853,-29.97837 30.91766,-29.97939 30.91726,-29.97984 30.91693,-29.98006 30.91624,-29.98052 30.91593,-29.98073 30.91561,-29.98095 30.91551,-29.98099 30.91541,-29.98105 30.91536,-29.9811 30.91527,-29.98124 30.91526,-29.98124 30.91485,-29.98152 30.91402,-29.98209 30.91282,-29.98292 30.91268,-29.98302 30.90715,-29.98684 30.90627,-29.98745 30.90561,-29.98789 30.90556,-29.98786 30.90537,-29.98782 30.90511,-29.98778 30.90497,-29.98772 30.90483,-29.98763 30.90467,-29.98755 30.9046,-29.9875 30.90452,-29.98747 30.90444,-29.98747 30.90429,-29.98746 30.90418,-29.98744 30.90403,-29.98742 30.90393,-29.98738 30.90385,-29.98736 30.90373,-29.98735 30.9036,-29.98732 30.90338,-29.98732 30.90328,-29.98732 30.9032,-29.98732 30.90311,-29.98732 30.903,-29.98731 30.90293,-29.98731 30.90285,-29.9873 30.90275,-29.98731 30.90261,-29.98736 30.9025,-29.98741 30.90239,-29.98743 30.90224,-29.9875 30.90216,-29.98755 30.90211,-29.98758 30.90201,-29.98761 30.9019,-29.98763 30.90175,-29.98771 30.90163,-29.98782 30.90159,-29.9879 30.90156,-29.98794 30.90153,-29.98798 30.9015,-29.98803 30.90149,-29.98806 30.90146,-29.98809 30.90142,-29.98811 30.90142,-29.98814 30.90141,-29.98818 30.90139,-29.98824 30.9014,-29.98832 30.9014,-29.98841 30.90139,-29.98859 30.90177,-29.98861 30.90214,-29.98848 30.90243,-29.98835 30.9028,-29.98818 30.90303,-29.98813 30.90352,-29.98819 30.90393,-29.9883 30.90447,-29.9885 30.90408,-29.98894 30.90502,-29.99031 30.90435,-29.99114 30.90355,-29.99139 30.9028,-29.99191 30.90201,-29.99232 30.90164,-29.99251 30.90118,-29.9925 30.90093,-29.9925 30.9006,-29.99249 30.90031,-29.99248 30.90031,-29.99248 30.90011,-29.99248 30.89994,-29.9925 30.8997,-29.99253 30.89954,-29.99256 30.89927,-29.99265 30.89911,-29.99271 30.89884,-29.99284 30.8984,-29.99306 30.89803,-29.99325 30.89672,-29.99393 30.89542,-29.9946 30.89537,-29.99462 30.89537,-29.99463 30.89467,-29.99499 30.89399,-29.99534 30.89359,-29.9955 30.89343,-29.99554 30.89326,-29.99558 30.89293,-29.99563 30.8922,-29.99574 30.89159,-29.99584 30.8913,-29.99587 30.89103,-29.99591 30.89068,-29.99591 30.89025,-29.99585 30.88988,-29.99578 30.88963,-29.99574 30.88941,-29.99571 30.88918,-29.99568 30.88905,-29.99565 30.88889,-29.99565 30.88875,-29.99565 30.88864,-29.99567 30.88851,-29.9957 30.88844,-29.99571 30.88833,-29.99575 30.88823,-29.99579 30.88816,-29.99582 30.88795,-29.99596 30.88782,-29.99607 30.88775,-29.99611 30.88763,-29.9962 30.88749,-29.99632 30.88709,-29.99666 30.887,-29.99672 30.88673,-29.99692 30.88635,-29.9972 30.88581,-29.9976 30.88554,-29.99779 30.88521,-29.99804 30.88506,-29.99815 30.88502,-29.99817 30.88489,-29.99826 30.88466,-29.99841 30.88437,-29.99857 30.88409,-29.99873 30.88326,-29.99914 30.88293,-29.99931 30.88301,-29.99942 30.88308,-29.99952 30.88315,-29.99968 30.88325,-29.99968 30.88333,-29.99967 30.88337,-29.99965 30.88343,-29.99965 30.88352,-29.99965 30.88355,-29.9997 30.8836,-29.99984 30.88368,-30.00003 30.88371,-30.00006 30.88376,-30.00009 30.88392,-30.00014 30.88431,-30.00022 30.88469,-30.00031 30.88487,-30.00035 30.88497,-30.0004 30.88509,-30.00042 30.88524,-30.00045 30.88525,-30.00045 30.88534,-30.00046 30.88545,-30.00046 30.88553,-30.00046 30.88565,-30.00047 30.88579,-30.00047 30.88591,-30.00049 30.88609,-30.00051 30.88616,-30.00057 30.88617,-30.00067 30.88621,-30.00087 30.88623,-30.00098 30.88621,-30.00106 30.88617,-30.00115 30.88618,-30.00124 30.88619,-30.00135 30.88621,-30.00151 30.88625,-30.00176 30.8863,-30.00203 30.8863,-30.00205 30.88638,-30.00223 30.88645,-30.00242 30.88652,-30.00262 30.88656,-30.00271 30.88665,-30.00282 30.88669,-30.00293 30.88672,-30.003 30.88673,-30.00313 30.88668,-30.00331 30.88663,-30.00345 30.88666,-30.00394 30.88672,-30.00414 30.88681,-30.00421 30.88693,-30.00426 30.88702,-30.00432 30.88707,-30.00441 30.88711,-30.0045 30.88719,-30.0046 30.88724,-30.00465 30.88726,-30.00468 30.88731,-30.00469 30.88734,-30.0047 30.88736,-30.00471 30.88742,-30.00471 30.88745,-30.00473 30.88749,-30.00476 30.88751,-30.0048 30.88751,-30.00484 30.88752,-30.00489 30.88753,-30.00492 30.88753,-30.00496 30.88754,-30.00498 30.88754,-30.00502 30.88754,-30.00508 30.88754,-30.0051 30.88753,-30.00513 30.88753,-30.00516 30.88754,-30.00518 30.88756,-30.00521 30.88758,-30.00524 30.88759,-30.00527 30.88761,-30.00528 30.88763,-30.00529 30.88765,-30.00533 30.88765,-30.00538 30.88765,-30.0054 30.88763,-30.00547 30.88759,-30.00555 30.88758,-30.00559 30.88756,-30.00561 30.88755,-30.00563 30.88754,-30.00564 30.88753,-30.00567 30.88754,-30.0057 30.88758,-30.00574 30.88763,-30.00576 30.88768,-30.00579 30.8877,-30.0058 30.88778,-30.00585 30.88782,-30.00587 30.88785,-30.0059 30.88786,-30.00593 30.88787,-30.00601 30.88785,-30.00606 30.88783,-30.00612 30.8878,-30.00616 30.8878,-30.00619 30.88782,-30.00622 30.88785,-30.00623 30.88791,-30.00627 30.88798,-30.00632 30.88802,-30.00635 30.88805,-30.00637 30.88808,-30.00639 30.88809,-30.00641 30.8881,-30.00646 30.88812,-30.00652 30.88816,-30.00656 30.88818,-30.00658 30.88823,-30.00676 30.88826,-30.00684 30.88829,-30.00701 30.88831,-30.0072 30.88833,-30.00732 30.8884,-30.00741 30.88849,-30.00745 30.88854,-30.00748 30.88858,-30.00749 30.88868,-30.00756 30.8887,-30.00757 30.88872,-30.00757 30.88876,-30.00758 30.8888,-30.00758 30.88885,-30.00758 30.88888,-30.00757 30.88891,-30.00756 30.88893,-30.00757 30.88895,-30.00758 30.88897,-30.00761 30.889,-30.00766 30.88902,-30.00768 30.88905,-30.00769 30.88911,-30.00772 30.88916,-30.00776 30.88919,-30.00778 30.88915,-30.00787 30.88861,-30.00858 30.88833,-30.00857 30.88832,-30.00862 30.88797,-30.00916 30.88755,-30.00944 30.88779,-30.00966 30.88866,-30.01013 30.88819,-30.0106 30.888,-30.0108 30.88782,-30.01103 30.88764,-30.01115 30.88752,-30.0112 30.88739,-30.01129 30.88733,-30.01137 30.88725,-30.01159 30.88694,-30.01191 30.88677,-30.0121 30.88668,-30.01226 30.88657,-30.01237 30.88656,-30.01237 30.88648,-30.01241 30.88643,-30.01241 30.88636,-30.0124 30.88631,-30.01238 30.88623,-30.01231 30.88618,-30.01228 30.88612,-30.01226 30.88605,-30.01224 30.88596,-30.01222 30.88583,-30.01218 30.88576,-30.01213 30.8857,-30.01207 30.88564,-30.01199 30.88559,-30.01192 30.88558,-30.01188 30.88556,-30.01186 30.88553,-30.01185 30.88548,-30.01184 30.88543,-30.01181 30.88537,-30.01172 30.88534,-30.01164 30.88532,-30.01156 30.8853,-30.0115 30.88528,-30.01144 30.88525,-30.01143 30.8852,-30.01139 30.88519,-30.01136 30.88516,-30.0113 30.88516,-30.01126 30.8852,-30.01117 30.88519,-30.0111 30.88517,-30.01106 30.88511,-30.01102 30.88505,-30.01097 30.88501,-30.01094 30.88496,-30.01088 30.88493,-30.01085 30.88489,-30.01081 30.88485,-30.01077 30.88483,-30.01074 30.88481,-30.01064 30.88482,-30.0105 30.88483,-30.01041 30.88485,-30.01035 30.8849,-30.01029 30.88494,-30.01022 30.88498,-30.01016 30.88497,-30.01008 30.88496,-30.01005 30.88495,-30.00997 30.88495,-30.00989 30.88495,-30.00976 30.88498,-30.00967 30.88501,-30.00962 30.88506,-30.00959 30.88508,-30.00957 30.88509,-30.00955 30.88509,-30.00953 30.88508,-30.00946 30.88504,-30.00938 30.88497,-30.00915 30.88492,-30.00902 30.88486,-30.00888 30.88474,-30.00882 30.88458,-30.0088 30.88435,-30.00878 30.88427,-30.00878 30.88417,-30.00878 30.88406,-30.00878 30.8839,-30.00876 30.88385,-30.00875 30.88382,-30.00874 30.88376,-30.00871 30.88371,-30.00869 30.8836,-30.00868 30.88344,-30.00867 30.88339,-30.00867 30.88332,-30.00868 30.88318,-30.0087 30.88308,-30.00871 30.88303,-30.00872 30.88297,-30.00872 30.88292,-30.00871 30.88278,-30.0087 30.88273,-30.00869 30.88269,-30.00868 30.88266,-30.00867 30.88264,-30.00867 30.88261,-30.00867 30.88258,-30.00867 30.88255,-30.00867 30.88253,-30.00867 30.88249,-30.00867 30.88245,-30.00867 30.88242,-30.00867 30.8824,-30.00866 30.88236,-30.00865 30.88233,-30.00866 30.88228,-30.00866 30.88224,-30.00866 30.88217,-30.00867 30.88214,-30.00867 30.88211,-30.00865 30.88208,-30.00865 30.88205,-30.00864 30.88203,-30.00863 30.88201,-30.00863 30.88198,-30.00863 30.88195,-30.00865 30.88192,-30.00865 30.8819,-30.00865 30.88186,-30.00864 30.88183,-30.00863 30.88179,-30.00861 30.88178,-30.0086 30.88172,-30.00857 30.88169,-30.00855 30.88163,-30.00853 30.88161,-30.00852 30.88157,-30.00851 30.88154,-30.0085 30.88148,-30.00848 30.88146,-30.00847 30.8814,-30.00846 30.88136,-30.00846 30.88132,-30.00845 30.88126,-30.00845 30.88121,-30.00846 30.88112,-30.0085 30.88111,-30.0085 30.88103,-30.00853 30.88094,-30.00856 30.88089,-30.00857 30.88084,-30.00857 30.8808,-30.00856 30.88077,-30.00854 30.88071,-30.00853 30.88067,-30.00852 30.8806,-30.00851 30.88055,-30.00851 30.88049,-30.00851 30.88045,-30.00851 30.88041,-30.00851 30.88036,-30.00851 30.8803,-30.00853 30.88023,-30.00856 30.88017,-30.00856 30.88008,-30.00856 30.87992,-30.00856 30.87962,-30.0086 30.87949,-30.00863 30.87938,-30.00866 30.87903,-30.0088 30.87901,-30.00881 30.87882,-30.00891 30.8787,-30.009 30.87855,-30.00912 30.87841,-30.00923 30.87833,-30.00931 30.8783,-30.00951 30.87825,-30.00965 30.87819,-30.00979 30.87809,-30.00999 30.87802,-30.01011 30.87786,-30.0103 30.8778,-30.01036 30.87771,-30.01042 30.87766,-30.01045 30.87762,-30.01047 30.87754,-30.01049 30.87748,-30.0105 30.87741,-30.01052 30.87736,-30.01054 30.87722,-30.01059 30.87721,-30.01059 30.87717,-30.0106 30.87715,-30.0106 30.87711,-30.0106 30.87705,-30.01063 30.87697,-30.01067 30.87689,-30.01073 30.87683,-30.01077 30.87671,-30.01078 30.87664,-30.01078 30.87655,-30.01075 30.87652,-30.01072 30.87646,-30.0107 30.87639,-30.01068 30.87629,-30.01064 30.87619,-30.01059 30.87609,-30.01053 30.87598,-30.01037 30.87595,-30.01033 30.87595,-30.01024 30.87592,-30.01011 30.87584,-30.00986 30.87575,-30.00964 30.87554,-30.00928 30.8755,-30.00919 30.87548,-30.00906 30.87543,-30.00895 30.87537,-30.00888 30.87532,-30.00885 30.87518,-30.00879 30.8751,-30.00875 30.87496,-30.00869 30.87477,-30.00863 30.87462,-30.0086 30.87449,-30.00858 30.87437,-30.00855 30.8743,-30.00849 30.8742,-30.0084 30.8741,-30.00834 30.87406,-30.0083 30.87396,-30.00822 30.87388,-30.00814 30.87385,-30.00809 30.87381,-30.00801 30.87379,-30.00791 30.87378,-30.00788 30.87378,-30.00783 30.87381,-30.00777 30.87379,-30.00773 30.87375,-30.00767 30.8737,-30.00762 30.87362,-30.00752 30.87354,-30.00745 30.87338,-30.0074 30.87329,-30.0074 30.8732,-30.00742 30.8734,-30.00685 30.87339,-30.0068 30.87339,-30.00675 30.87339,-30.0066 30.87337,-30.00653 30.87338,-30.00645 30.87338,-30.00636 30.87338,-30.00627 30.87341,-30.00616 30.87343,-30.00607 30.87343,-30.00604 30.87341,-30.00601 30.87341,-30.00594 30.87344,-30.00583 30.87345,-30.0058 30.87346,-30.00578 30.8735,-30.00571 30.87356,-30.00561 30.87358,-30.00558 30.8736,-30.00553 30.87363,-30.00547 30.87368,-30.00536 30.87376,-30.0052 30.87383,-30.00506 30.87387,-30.00501 30.87394,-30.00496 30.87398,-30.00491 30.87401,-30.00485 30.87403,-30.00476 30.87404,-30.00469 30.87406,-30.00465 30.87411,-30.00464 30.87416,-30.00463 30.87419,-30.00461 30.87422,-30.00458 30.87425,-30.00453 30.87429,-30.00439 30.87432,-30.00417 30.87431,-30.00387 30.87437,-30.00349 30.87434,-30.00336 30.87426,-30.00325 30.87421,-30.0031 30.87422,-30.00296 30.87422,-30.0028 30.87426,-30.00269 30.87428,-30.00261 30.87431,-30.00253 30.87437,-30.00239 30.87438,-30.00232 30.87437,-30.00226 30.87437,-30.00222 30.87439,-30.00215 30.87441,-30.00211 30.87446,-30.00202 30.87451,-30.00192 30.87462,-30.00163 30.87492,-30.00108 30.87501,-30.00081 30.87507,-30.00069 30.87514,-30.00056 30.87521,-30.0004 30.8753,-30.00029 30.87554,-30 30.87569,-29.99982 30.87587,-29.99968 30.87602,-29.99953 30.87612,-29.99936 30.87616,-29.9992 30.87618,-29.99908 30.87621,-29.99902 30.8763,-29.99888 30.87635,-29.99875 30.8764,-29.99862 30.87644,-29.99857 30.87648,-29.99852 30.87655,-29.99836 30.87663,-29.99825 30.87673,-29.99813 30.87681,-29.998 30.87686,-29.99781 30.87691,-29.99769 30.87693,-29.99767 30.87697,-29.99763 30.87709,-29.99756 30.87717,-29.9975 30.87719,-29.99743 30.8772,-29.99731 30.87721,-29.99716 30.87723,-29.9971 30.87723,-29.99702 30.87721,-29.99699 30.87719,-29.99697 30.87718,-29.99693 30.87717,-29.99683 30.87712,-29.99663 30.87705,-29.99632 30.87692,-29.99618 30.87681,-29.9961 30.87673,-29.99608 30.87664,-29.99603 30.8765,-29.99599 30.87639,-29.99593 30.8763,-29.99587 30.8762,-29.99581 30.87616,-29.99579 30.87613,-29.99576 30.87612,-29.99572 30.8761,-29.99567 30.87608,-29.99563 30.87603,-29.99559 30.87602,-29.99557 30.87601,-29.99552 30.876,-29.99549 30.87597,-29.99546 30.87593,-29.99545 30.87586,-29.99543 30.87578,-29.99542 30.87567,-29.99541 30.87546,-29.99537 30.87535,-29.99538 30.87529,-29.99535 30.87522,-29.99533 30.87517,-29.99531 30.87513,-29.9953 30.87507,-29.9953 30.87498,-29.9953 30.87493,-29.9953 30.87491,-29.9953 30.87486,-29.99532 30.87468,-29.99531 30.87443,-29.99529 30.87429,-29.99527 30.87421,-29.99526 30.87398,-29.99524 30.87386,-29.99523 30.87374,-29.99524 30.87357,-29.99526 30.8735,-29.99526 30.87343,-29.99527 30.8734,-29.99529 30.87334,-29.99532 30.87329,-29.99534 30.87322,-29.99537 30.87317,-29.99539 30.87312,-29.99539 30.87307,-29.99539 30.87297,-29.99538 30.87287,-29.99536 30.8728,-29.99535 30.87268,-29.99536 30.87258,-29.99538 30.87248,-29.9954 30.87242,-29.9954 30.87234,-29.99541 30.87226,-29.99539 30.87216,-29.99537 30.8721,-29.99537 30.87194,-29.9954 30.87184,-29.99542 30.87173,-29.99541 30.87161,-29.99536 30.87148,-29.99537 30.8714,-29.9954 30.87136,-29.99544 30.87132,-29.99552 30.87132,-29.99555 30.8713,-29.9956 30.8713,-29.99564 30.87127,-29.99569 30.87124,-29.99571 30.8712,-29.99575 30.87118,-29.9958 30.87116,-29.99587 30.87113,-29.99591 30.87107,-29.99601 30.8709,-29.99622 30.87082,-29.9963 30.87071,-29.99647 30.87059,-29.99667 30.87046,-29.99687 30.87012,-29.99725 30.86986,-29.99747 30.86974,-29.99759 30.86958,-29.99783 30.8695,-29.99789 30.86944,-29.99791 30.86939,-29.99794 30.86935,-29.99797 30.8693,-29.99806 30.86925,-29.99812 30.86915,-29.99825 30.86912,-29.99827 30.8691,-29.99829 30.8691,-29.99832 30.86908,-29.99833 30.869,-29.99835 30.86893,-29.99836 30.86887,-29.99837 30.86882,-29.99838 30.86874,-29.99839 30.86868,-29.99842 30.86865,-29.99843 30.86859,-29.99847 30.8685,-29.99848 30.86838,-29.9985 30.86832,-29.9985 30.86827,-29.9985 30.86822,-29.99852 30.86812,-29.99858 30.86802,-29.9986 30.86792,-29.9986 30.86783,-29.9986 30.86772,-29.99857 30.86763,-29.99851 30.86753,-29.99845 30.86742,-29.99838 30.86737,-29.99837 30.8673,-29.99834 30.86722,-29.99832 30.86718,-29.99832 30.86713,-29.99828 30.86706,-29.99824 30.867,-29.99819 30.86692,-29.99814 30.86684,-29.99812 30.86669,-29.99806 30.86663,-29.99803 30.86655,-29.99802 30.86649,-29.998 30.86644,-29.99796 30.8664,-29.99792 30.86639,-29.99787 30.86635,-29.99786 30.86631,-29.99782 30.86628,-29.99779 30.86624,-29.99777 30.86618,-29.99776 30.8661,-29.99778 30.86607,-29.99777 30.86601,-29.99777 30.86595,-29.99774 30.86589,-29.99769 30.8658,-29.99762 30.86578,-29.99756 30.86575,-29.99752 30.86571,-29.99749 30.86559,-29.99741 30.86549,-29.99726 30.86543,-29.99714 30.86537,-29.99708 30.8653,-29.99702 30.86523,-29.99695 30.86513,-29.99687 30.86504,-29.99675 30.86488,-29.99659 30.86473,-29.99642 30.86469,-29.99636 30.86466,-29.99633 30.86466,-29.99631 30.86464,-29.99626 30.86455,-29.9961 30.86455,-29.99602 30.86456,-29.99589 30.8646,-29.9958 30.86463,-29.99573 30.86464,-29.99568 30.86464,-29.99564 30.86464,-29.99558 30.86464,-29.99553 30.86466,-29.99548 30.86467,-29.99548 30.8647,-29.99544 30.86473,-29.99538 30.86481,-29.9953 30.86503,-29.99505 30.86509,-29.99496 30.86517,-29.9949 30.86526,-29.99486 30.86532,-29.99482 30.86533,-29.9948 30.86537,-29.99475 30.86551,-29.99465 30.86558,-29.9946 30.86576,-29.99454 30.86594,-29.99446 30.86604,-29.9944 30.86609,-29.99435 30.86614,-29.99435 30.86621,-29.99437 30.86632,-29.99435 30.86646,-29.99428 30.86664,-29.9942 30.86675,-29.99413 30.86691,-29.99409 30.86702,-29.99409 30.86718,-29.99404 30.86745,-29.99388 30.86777,-29.99367 30.86793,-29.9935 30.86806,-29.99339 30.86819,-29.99319 30.86822,-29.99306 30.86829,-29.99298 30.86834,-29.99287 30.86843,-29.99278 30.86855,-29.99264 30.86857,-29.99262 30.86864,-29.99253 30.86875,-29.99237 30.86893,-29.99212 30.86902,-29.99197 30.86906,-29.99189 30.86913,-29.9918 30.86925,-29.99167 30.86937,-29.99156 30.86942,-29.99149 30.86947,-29.99145 30.86952,-29.99144 30.86958,-29.99143 30.86962,-29.99142 30.86967,-29.99138 30.8698,-29.99131 30.86985,-29.99122 30.86986,-29.99104 30.86985,-29.99087 30.86981,-29.99071 30.86974,-29.99059 30.86968,-29.9905 30.86958,-29.99037 30.86948,-29.99024 30.86942,-29.99017 30.86932,-29.9901 30.8693,-29.99006 30.8693,-29.99003 30.8693,-29.98997 30.86928,-29.9899 30.86924,-29.98984 30.86914,-29.98974 30.86907,-29.98965 30.86898,-29.98957 30.86879,-29.98942 30.86866,-29.98934 30.86851,-29.98922 30.86841,-29.98916 30.86829,-29.9891 30.86825,-29.98907 30.86815,-29.98901 30.86805,-29.98895 30.86793,-29.98891 30.86786,-29.98885 30.86782,-29.98884 30.86778,-29.98884 30.86773,-29.98883 30.86768,-29.98878 30.86763,-29.98875 30.86754,-29.98873 30.86735,-29.98863 30.86718,-29.98853 30.86702,-29.98845 30.86695,-29.9884 30.86661,-29.98829 30.86647,-29.98822 30.86637,-29.98816 30.86628,-29.98813 30.86619,-29.98808 30.86615,-29.98808 30.86608,-29.98807 30.86602,-29.98807 30.86595,-29.98806 30.86589,-29.98804 30.86576,-29.988 30.86571,-29.98797 30.86567,-29.98794 30.86561,-29.98792 30.86556,-29.98789 30.8655,-29.98784 30.86544,-29.98773 30.86535,-29.9876 30.86526,-29.98753 30.86519,-29.98748 30.86514,-29.98745 30.86509,-29.98742 30.86504,-29.98737 30.865,-29.98734 30.86495,-29.98731 30.86489,-29.98728 30.86477,-29.9872 30.86468,-29.98712 30.86461,-29.98708 30.86452,-29.98701 30.86448,-29.98699 30.86448,-29.98698 30.8644,-29.98698 30.86437,-29.98699 30.8643,-29.98702 30.86427,-29.98702 30.86421,-29.98703 30.86415,-29.98702 30.86402,-29.98699 30.86392,-29.98694 30.86385,-29.9869 30.86378,-29.98686 30.86371,-29.98681 30.86367,-29.98679 30.86361,-29.98674 30.86358,-29.98672 30.86356,-29.9867 30.86355,-29.98668 30.86351,-29.98665 30.86349,-29.98664 30.86341,-29.98662 30.86335,-29.9866 30.86328,-29.98657 30.8632,-29.98653 30.86315,-29.98649 30.8631,-29.98647 30.86301,-29.98643 30.86292,-29.98638 30.86281,-29.98633 30.86272,-29.98628 30.86262,-29.98626 30.86235,-29.98623 30.86219,-29.98621 30.86198,-29.98619 30.86185,-29.98618 30.8618,-29.98618 30.86165,-29.98618 30.86142,-29.9862 30.86134,-29.9862 30.86117,-29.98622 30.86105,-29.98622 30.86096,-29.98626 30.86093,-29.98632 30.8609,-29.98638 30.86083,-29.98642 30.86071,-29.98644 30.86059,-29.98648 30.8605,-29.98655 30.86035,-29.98667 30.86018,-29.98679 30.86011,-29.98683 30.85993,-29.98694 30.85982,-29.98706 30.85936,-29.98719 30.85927,-29.98719 30.85916,-29.98722 30.85908,-29.98726 30.85896,-29.98728 30.85861,-29.98735 30.85824,-29.98742 30.85794,-29.98752 30.85781,-29.98755 30.85776,-29.98761 30.85762,-29.98771 30.85753,-29.98779 30.85748,-29.98783 30.85742,-29.98783 30.8573,-29.98779 30.85722,-29.98774 30.85712,-29.98763 30.85702,-29.98753 30.85693,-29.98747 30.85619,-29.98718 30.85606,-29.98713 30.85597,-29.98707 30.85585,-29.98703 30.85576,-29.987 30.85564,-29.98697 30.8555,-29.98693 30.85542,-29.98689 30.85532,-29.98686 30.85525,-29.98683 30.85513,-29.98683 30.85505,-29.98683 30.85487,-29.9868 30.85474,-29.98676 30.85465,-29.98672 30.8546,-29.98669 30.85457,-29.98663 30.85446,-29.98659 30.85424,-29.98652 30.85414,-29.9865 30.85409,-29.98648 30.85404,-29.98644 30.85397,-29.98641 30.85386,-29.98637 30.85377,-29.98634 30.85374,-29.98633 30.85359,-29.98625 30.85352,-29.98619 30.85342,-29.98609 30.85337,-29.98601 30.85328,-29.98596 30.85327,-29.98595 30.85319,-29.98592 30.85314,-29.98589 30.85312,-29.98584 30.85308,-29.98577 30.85304,-29.98573 30.85302,-29.9857 30.85296,-29.98556 30.85292,-29.98542 30.85291,-29.98535 30.85288,-29.98531 30.85279,-29.98506 30.85274,-29.98495 30.8527,-29.98477 30.85266,-29.98459 30.85265,-29.98445 30.85265,-29.9843 30.85272,-29.98396 30.85277,-29.98374 30.85285,-29.98352 30.85289,-29.98344 30.85293,-29.98339 30.85293,-29.98335 30.85291,-29.98331 30.85288,-29.98327 30.85286,-29.98322 30.85285,-29.98319 30.85285,-29.98316 30.85286,-29.9831 30.85289,-29.98303 30.85293,-29.98298 30.85301,-29.98291 30.85315,-29.98276 30.85318,-29.98273 30.85331,-29.98262 30.85345,-29.98249 30.85351,-29.98244 30.8536,-29.98239 30.85363,-29.98236 30.8537,-29.98233 30.8538,-29.98221 30.8539,-29.98204 30.85395,-29.98194 30.85398,-29.98187 30.85403,-29.98183 30.85406,-29.98175 30.85402,-29.98169 30.85402,-29.98157 30.854,-29.98139 30.854,-29.98127 30.85398,-29.9812 30.85398,-29.98112 30.85399,-29.98105 30.85399,-29.98099 30.854,-29.98092 30.854,-29.98083 30.85399,-29.98073 30.85397,-29.98064 30.85394,-29.98059 30.85391,-29.98055 30.85388,-29.98039 30.85388,-29.98029 30.85384,-29.98019 30.8538,-29.98012 30.85375,-29.98001 30.85372,-29.97994 30.85368,-29.97984 30.85366,-29.97978 30.85366,-29.97971 30.85362,-29.97962 30.85358,-29.97957 30.85355,-29.97953 30.85353,-29.97949 30.85351,-29.97942 30.85349,-29.97927 30.85347,-29.97913 30.85344,-29.97905 30.85338,-29.97897 30.85332,-29.97892 30.85332,-29.97885 30.85329,-29.97879 30.85324,-29.97872 30.85312,-29.97866 30.85298,-29.97858 30.85286,-29.97853 30.85286,-29.97853 30.85271,-29.97845 30.8526,-29.97838 30.85255,-29.97832 30.85252,-29.97826 30.85246,-29.97819 30.85238,-29.97816 30.85227,-29.97813 30.85199,-29.97812 30.85179,-29.97811 30.85171,-29.97812 30.85155,-29.97811 30.85147,-29.97811 30.85142,-29.97811 30.85137,-29.97809 30.85134,-29.97808 30.85128,-29.97805 30.85125,-29.97804 30.8512,-29.97803 30.85117,-29.97801 30.85113,-29.97797 30.85111,-29.97795 30.85106,-29.97792 30.85103,-29.9779 30.85101,-29.97788 30.85098,-29.97786 30.85091,-29.97786 30.85085,-29.97785 30.85082,-29.97783 30.85078,-29.97781 30.85071,-29.97783 30.85066,-29.97786 30.85057,-29.97788 30.85053,-29.97789 30.85049,-29.97788 30.8504,-29.97785 30.85033,-29.97782 30.85028,-29.97781 30.85015,-29.97781 30.85009,-29.97781 30.84999,-29.97782 30.84994,-29.97782 30.84988,-29.97783 30.84985,-29.97783 30.8498,-29.97783 30.84975,-29.97783 30.84971,-29.97783 30.84965,-29.97782 30.8496,-29.9778 30.84955,-29.97778 30.84952,-29.97776 30.84947,-29.97775 30.84941,-29.97774 30.84931,-29.97774 30.84921,-29.97776 30.84909,-29.97778 30.84898,-29.97781 30.84885,-29.97781 30.84874,-29.97781 30.8486,-29.9778 30.84853,-29.97781 30.84846,-29.97781 30.84832,-29.97779 30.84823,-29.97779 30.84814,-29.97778 30.84806,-29.97778 30.84803,-29.97777 30.848,-29.97775 30.84798,-29.97773 30.84794,-29.97773 30.84792,-29.97773 30.8479,-29.97773 30.84786,-29.97773 30.84783,-29.97773 30.84779,-29.97773 30.84775,-29.97773 30.84771,-29.97773 30.84768,-29.97773 30.84764,-29.97772 30.84763,-29.97771 30.8476,-29.9777 30.84758,-29.9777 30.84756,-29.97771 30.84753,-29.97773 30.8475,-29.97774 30.84745,-29.97775 30.84733,-29.97774 30.84707,-29.97767 30.84696,-29.97764 30.8469,-29.97763 30.84682,-29.97762 30.84677,-29.97761 30.84671,-29.97761 30.84663,-29.97762 30.84657,-29.97762 30.84651,-29.9776 30.84645,-29.97759 30.84638,-29.97758 30.84627,-29.97757 30.84608,-29.97756 30.84589,-29.97753 30.84581,-29.97751 30.8457,-29.9775 30.84561,-29.97749 30.84551,-29.97747 30.84546,-29.97745 30.84541,-29.97742 30.84537,-29.97738 30.84532,-29.97732 30.84528,-29.9773 30.84521,-29.97727 30.84516,-29.97727 30.8451,-29.97727 30.84503,-29.97728 30.84494,-29.9773 30.84489,-29.97731 30.84482,-29.97731 30.84477,-29.97731 30.84469,-29.97731 30.84462,-29.9773 30.8446,-29.97727 30.84458,-29.97726 30.84455,-29.97724 30.84451,-29.97723 30.84441,-29.97726 30.84427,-29.97703 30.84427,-29.97665 30.84482,-29.97608 30.84502,-29.97576 30.84489,-29.97538 30.84454,-29.97513 30.84404,-29.97503 30.84325,-29.97482 30.84296,-29.97465 30.84259,-29.97451 30.84222,-29.97451 30.84191,-29.97451 30.84152,-29.97438 30.84134,-29.97396 30.84128,-29.9735 30.84099,-29.97312 30.84073,-29.97287 30.84052,-29.97269 30.84035,-29.97258 30.84012,-29.97245 30.83994,-29.97232 30.8398,-29.97201 30.83969,-29.97182 30.83961,-29.97161 30.83951,-29.97141 30.83943,-29.97132 30.83932,-29.97123 30.8392,-29.97109 30.83912,-29.97103 30.83896,-29.97093 30.83876,-29.97083 30.83857,-29.97079 30.83836,-29.97071 30.83809,-29.97062 30.83797,-29.97059 30.83799,-29.97054 30.83801,-29.9705 30.83802,-29.97047 30.83802,-29.97045 30.83802,-29.97045 30.83796,-29.97042 30.83786,-29.97041 30.83778,-29.9704 30.83771,-29.97038 30.83762,-29.97038 30.83751,-29.9704 30.83745,-29.9704 30.83746,-29.97037 30.8375,-29.97028 30.83757,-29.97018 30.83764,-29.97009 30.83767,-29.97005 30.83772,-29.97001 30.83779,-29.96994 30.83782,-29.96988 30.83787,-29.9698 30.83795,-29.96949 30.83795,-29.96944 30.83799,-29.96939 30.83802,-29.96934 30.83806,-29.96929 30.8381,-29.96922 30.83811,-29.96919 30.83815,-29.96911 30.83817,-29.96906 30.83819,-29.96902 30.83821,-29.96894 30.83827,-29.96881 30.8383,-29.96875 30.83835,-29.96868 30.8384,-29.96861 30.83844,-29.96858 30.83847,-29.96853 30.83849,-29.9685 30.83853,-29.96846 30.83858,-29.9684 30.83867,-29.96825 30.83881,-29.96805 30.83889,-29.96795 30.8389,-29.96788 30.8389,-29.96783 30.8389,-29.9678 30.8389,-29.96779 30.8389,-29.96776 30.83892,-29.96773 30.83898,-29.96769 30.83903,-29.96764 30.83909,-29.96756 30.83913,-29.9675 30.83922,-29.96739 30.83926,-29.96732 30.83927,-29.96728 30.83927,-29.96724 30.83927,-29.96721 30.83928,-29.9672 30.83931,-29.96719 30.83932,-29.96717 30.83931,-29.96713 30.8393,-29.96712 30.83929,-29.96711 30.83927,-29.96708 30.83924,-29.96705 30.83922,-29.96706 30.83918,-29.96706 30.83915,-29.96705 30.83913,-29.96704 30.83912,-29.96701 30.83912,-29.967 30.83914,-29.96698 30.83914,-29.96694 30.83914,-29.96689 30.83913,-29.96689 30.83899,-29.96689 30.8389,-29.96689 30.8388,-29.96687 30.83872,-29.96685 30.83863,-29.96684 30.83852,-29.96684 30.83835,-29.96684 30.83829,-29.96685 30.83819,-29.96685 30.83812,-29.96685 30.83801,-29.96682 30.83791,-29.96682 30.8378,-29.9668 30.8377,-29.9668 30.83759,-29.96675 30.83743,-29.96669 30.83731,-29.96667 30.83713,-29.96662 30.83696,-29.96658 30.83683,-29.96657 30.83671,-29.96658 30.8366,-29.96663 30.83642,-29.96667 30.83625,-29.9667 30.83614,-29.96674 30.83597,-29.96687 30.83591,-29.96691 30.83588,-29.96694 30.83586,-29.96698 30.83585,-29.96701 30.83583,-29.96706 30.83576,-29.96713 30.83574,-29.96716 30.83568,-29.96721 30.8356,-29.96726 30.83556,-29.96732 30.83556,-29.96735 30.8355,-29.96742 30.8354,-29.96749 30.8353,-29.96756 30.83524,-29.96766 30.83523,-29.96772 30.83519,-29.96778 30.83513,-29.96786 30.83506,-29.96792 30.83497,-29.96798 30.8349,-29.96802 30.83483,-29.96806 30.83478,-29.96808 30.83468,-29.96808 30.8346,-29.96809 30.83455,-29.9681 30.83448,-29.96811 30.83443,-29.96807 30.83439,-29.96803 30.83436,-29.968 30.83433,-29.96792 30.83432,-29.96788 30.83431,-29.96779 30.83428,-29.96776 30.83426,-29.9677 30.83426,-29.96765 30.83427,-29.96759 30.83426,-29.96756 30.83424,-29.96753 30.83424,-29.9675 30.83424,-29.96746 30.83423,-29.96744 30.83421,-29.96741 30.83421,-29.96736 30.83421,-29.9673 30.83421,-29.96724 30.8342,-29.96718 30.83422,-29.96706 30.83422,-29.96698 30.83422,-29.96693 30.83425,-29.96679 30.83425,-29.96672 30.83424,-29.96665 30.83423,-29.9666 30.83423,-29.96656 30.83422,-29.96647 30.83423,-29.96638 30.83424,-29.96634 30.83423,-29.96626 30.83425,-29.96622 30.83424,-29.96613 30.83424,-29.96602 30.83422,-29.96597 30.83419,-29.96595 30.83416,-29.96592 30.83413,-29.96587 30.83404,-29.96573 30.83385,-29.96563 30.83372,-29.96558 30.83355,-29.96566 30.83341,-29.9657 30.83328,-29.96576 30.8332,-29.96579 30.83311,-29.96583 30.83302,-29.96586 30.83291,-29.9659 30.83282,-29.96594 30.83265,-29.96603 30.83253,-29.96609 30.83248,-29.96611 30.8324,-29.96614 30.8323,-29.96619 30.8322,-29.96631 30.83217,-29.96635 30.83211,-29.96639 30.83206,-29.9664 30.83199,-29.96642 30.8319,-29.96642 30.83186,-29.96643 30.83178,-29.96646 30.8317,-29.96649 30.83165,-29.96655 30.83159,-29.96658 30.8315,-29.96664 30.83144,-29.96667 30.83136,-29.96668 30.8313,-29.96669 30.83119,-29.9667 30.8311,-29.96673 30.83102,-29.96671 30.83098,-29.9667 30.83093,-29.96668 30.83086,-29.96667 30.83082,-29.96666 30.83076,-29.96663 30.83071,-29.9666 30.83068,-29.96657 30.83062,-29.96653 30.8306,-29.96651 30.83059,-29.96646 30.83059,-29.96641 30.83057,-29.96632 30.83059,-29.96628 30.8306,-29.96625 30.83062,-29.96622 30.83065,-29.9662 30.83067,-29.96616 30.83066,-29.96614 30.83065,-29.96611 30.83068,-29.96605 30.83071,-29.96599 30.83073,-29.96592 30.83076,-29.96586 30.83079,-29.9658 30.8308,-29.96575 30.83081,-29.96573 30.83085,-29.96566 30.83086,-29.96561 30.83088,-29.96556 30.83092,-29.96548 30.83095,-29.96544 30.831,-29.96539 30.83107,-29.96535 30.83114,-29.96534 30.83124,-29.96533 30.83132,-29.96534 30.83139,-29.96532 30.83144,-29.96531 30.83148,-29.96525 30.8315,-29.9652 30.8315,-29.96516 30.83152,-29.96512 30.83154,-29.96507 30.83153,-29.96504 30.83145,-29.96497 30.8314,-29.96493 30.83136,-29.9649 30.83129,-29.96487 30.83123,-29.96485 30.83119,-29.96484 30.83115,-29.96482 30.83112,-29.9648 30.83107,-29.96479 30.83101,-29.96477 30.83096,-29.96476 30.83089,-29.96476 30.83082,-29.96476 30.83075,-29.96477 30.83068,-29.96477 30.83063,-29.96476 30.83056,-29.96475 30.83047,-29.96475 30.83035,-29.96478 30.83026,-29.96478 30.83018,-29.96478 30.83016,-29.96478 30.83007,-29.96476 30.83003,-29.96474 30.82996,-29.96473 30.82989,-29.96469 30.82983,-29.96462 30.82978,-29.96454 30.8297,-29.96442 30.82965,-29.96439 30.82959,-29.96436 30.82958,-29.96432 30.82958,-29.96429 30.82954,-29.96426 30.82946,-29.96421 30.82942,-29.96415 30.82939,-29.96411 30.82937,-29.96408 30.82936,-29.96404 30.82935,-29.96401 30.82934,-29.96397 30.82931,-29.96395 30.82929,-29.96391 30.82926,-29.96384 30.82924,-29.96381 30.8292,-29.96376 30.82919,-29.96375 30.82917,-29.96371 30.82917,-29.96368 30.82913,-29.96363 30.82909,-29.96355 30.82905,-29.9635 30.82903,-29.96343 30.82902,-29.96337 30.82902,-29.9633 30.82901,-29.96325 30.82898,-29.96321 30.82895,-29.96318 30.82893,-29.96314 30.82891,-29.96308 30.82889,-29.96304 30.82886,-29.96302 30.82881,-29.96298 30.82879,-29.96293 30.82873,-29.96287 30.8287,-29.96283 30.82868,-29.9628 30.82864,-29.96276 30.82861,-29.96271 30.82859,-29.96267 30.82859,-29.96262 30.82857,-29.96258 30.82853,-29.96255 30.82851,-29.96253 30.82848,-29.96247 30.82844,-29.96239 30.82839,-29.96235 30.82831,-29.96228 30.82822,-29.96223 30.8281,-29.96217 30.82791,-29.96215 30.82779,-29.96214 30.82769,-29.96212 30.82762,-29.96208 30.82753,-29.96205 30.82745,-29.96201 30.82737,-29.96196 30.82728,-29.9619 30.82717,-29.96185 30.82716,-29.96185 30.82704,-29.96173 30.82685,-29.96158 30.82672,-29.96143 30.82665,-29.96126 30.82662,-29.96114 30.82665,-29.96104 30.82669,-29.96091 30.82668,-29.96076 30.8267,-29.96069 30.82669,-29.96059 30.8267,-29.9605 30.82669,-29.96042 30.82665,-29.96033 30.82667,-29.96018 30.82669,-29.96008 30.82669,-29.95999 30.82668,-29.9599 30.82664,-29.9598 30.82654,-29.95968 30.82644,-29.95956 30.82637,-29.95938 30.82625,-29.95925 30.82616,-29.95919 30.82607,-29.95915 30.82598,-29.95909 30.82596,-29.95907 30.82724,-29.958 30.82725,-29.95727 30.82728,-29.95641 30.82747,-29.95654 30.82763,-29.95664 30.82788,-29.95675 30.82809,-29.9568 30.82834,-29.95686 30.82854,-29.95687 30.82878,-29.95686 30.82903,-29.95684 30.82921,-29.95682 30.82933,-29.95678 30.82941,-29.95672 30.82953,-29.95663 30.82971,-29.95646 30.82983,-29.95634 30.83,-29.95624 30.8301,-29.95619 30.83021,-29.95618 30.8303,-29.95618 30.83038,-29.95618 30.8305,-29.9562 30.83061,-29.95622 30.83075,-29.95626 30.83089,-29.95631 30.83115,-29.9564 30.83166,-29.95658 30.83184,-29.95664 30.83213,-29.95674 30.8326,-29.9569 30.83299,-29.95703 30.8332,-29.9571 30.83342,-29.95717 30.83374,-29.95726 30.83399,-29.95733 30.83418,-29.95739 30.83431,-29.95744 30.83438,-29.95745 30.83447,-29.95747 30.83454,-29.95751 30.83471,-29.95759 30.83491,-29.95767 30.83512,-29.95772 30.83542,-29.95775 30.8355,-29.95775 30.83568,-29.95776 30.83601,-29.95778 30.8364,-29.95778 30.83655,-29.95776 30.83677,-29.95773 30.83687,-29.95771 30.83711,-29.95766 30.83736,-29.95759 30.83762,-29.95752 30.83777,-29.95751 30.83798,-29.95748 30.83812,-29.95747 30.83823,-29.95746 30.83842,-29.95746 30.83857,-29.95747 30.83868,-29.95747 30.83881,-29.95749 30.83908,-29.95753 30.8394,-29.95756 30.8397,-29.95757 30.84002,-29.95759 30.8403,-29.9576 30.84055,-29.9576 30.84076,-29.95759 30.84107,-29.95756 30.84148,-29.95752 30.84201,-29.95747 30.84222,-29.95746 30.84249,-29.95745 30.84261,-29.95745 30.8428,-29.95747 30.84292,-29.95749 30.84306,-29.95753 30.84321,-29.95758 30.84339,-29.95764 30.84362,-29.95774 30.84388,-29.95782 30.844,-29.95785 30.84413,-29.95788 30.84442,-29.95741 30.84497,-29.95694 30.84594,-29.95653 30.84696,-29.95568 30.84723,-29.95575 30.84738,-29.9558 30.84748,-29.95584 30.84766,-29.95592 30.84774,-29.95596 30.84785,-29.95599 30.84791,-29.95602 30.84797,-29.95605 30.84806,-29.95609 30.84815,-29.95613 30.84831,-29.95618 30.84842,-29.9562 30.8485,-29.95619 30.84859,-29.95612 30.8487,-29.95606 30.84879,-29.95599 30.84884,-29.95595 30.84895,-29.95583 30.84904,-29.95574 30.84911,-29.95566 30.84923,-29.95557 30.8493,-29.95552 30.84942,-29.95552 30.84948,-29.95554 30.84951,-29.95555 30.84958,-29.95555 30.84968,-29.95557 30.84981,-29.95556 30.84994,-29.95556 30.85007,-29.95559 30.85018,-29.9556 30.85026,-29.95559 30.85034,-29.95557 30.85037,-29.95553 30.8504,-29.95549 30.85051,-29.9554 30.8506,-29.95527 30.85074,-29.95514 30.85092,-29.95503 30.85112,-29.95496 30.85121,-29.95495 30.85135,-29.95496 30.85158,-29.95493 30.85162,-29.95493 30.85174,-29.95492 30.85184,-29.9549 30.85189,-29.9549 30.85198,-29.95487 30.85207,-29.95484 30.85212,-29.95482 30.85223,-29.95479 30.85235,-29.95475 30.85246,-29.95472 30.85251,-29.95472 30.85253,-29.95473 30.8526,-29.95473 30.85273,-29.95471 30.85281,-29.9547 30.85288,-29.9547 30.85299,-29.95467 30.85305,-29.95464 30.85309,-29.95461 30.85311,-29.95459 30.85313,-29.95457 30.85315,-29.95454 30.85315,-29.9545 30.85311,-29.95444 30.85306,-29.9544 30.853,-29.95436 30.85294,-29.95433 30.85289,-29.95422 30.85274,-29.95408 30.85271,-29.95402 30.8527,-29.95396 30.85272,-29.95393 30.85281,-29.95389 30.85284,-29.95383 30.85297,-29.95366 30.85303,-29.95362 30.85309,-29.95357 30.85319,-29.95347 30.85338,-29.95331 30.85346,-29.95323 30.8535,-29.95321 30.85358,-29.95318 30.85371,-29.95305 30.85385,-29.9528 30.85388,-29.95267 30.85386,-29.95263 30.85384,-29.95261 30.8538,-29.95258 30.85379,-29.95257 30.85372,-29.95257 30.85368,-29.95257 30.85365,-29.95257 30.85357,-29.95259 30.85352,-29.95261 30.8534,-29.95264 30.85332,-29.95267 30.85323,-29.9527 30.85316,-29.9527 30.85312,-29.9527 30.85308,-29.95271 30.85305,-29.9527 30.85303,-29.95269 30.85302,-29.95268 30.85301,-29.95266 30.853,-29.95263 30.853,-29.95259 30.853,-29.95256 30.85301,-29.95249 30.85307,-29.95231 30.85312,-29.95217 30.85321,-29.95203 30.85326,-29.95192 30.85335,-29.95178 30.85337,-29.95174 30.85342,-29.95166 30.85341,-29.95152 30.85341,-29.95142 30.85339,-29.95134 30.85336,-29.95127 30.85335,-29.95125 30.8533,-29.95122 30.85328,-29.95119 30.85325,-29.95116 30.85325,-29.95113 30.85327,-29.95105 30.85327,-29.95096 30.85329,-29.95087 30.85332,-29.95075 30.85335,-29.95068 30.85337,-29.95064 30.85339,-29.95059 30.85339,-29.95053 30.85336,-29.95045 30.85336,-29.95038 30.85331,-29.95032 30.85328,-29.95024 30.85324,-29.95016 30.85327,-29.95014 30.85341,-29.95008 30.85344,-29.95007 30.85353,-29.95002 30.85358,-29.95 30.85362,-29.94998 30.85365,-29.94995 30.85366,-29.94991 30.85366,-29.94988 30.85371,-29.94985 30.85378,-29.94982 30.85387,-29.94977 30.85393,-29.94975 30.85398,-29.94974 30.85417,-29.94971 30.85423,-29.94969 30.85437,-29.94968 30.85444,-29.94966 30.85449,-29.94963 30.85453,-29.9496 30.85457,-29.94956 30.85461,-29.94948 30.85466,-29.9494 30.85468,-29.94939 30.85472,-29.94939 30.85478,-29.94935 30.85479,-29.94934 30.85481,-29.94932 30.85483,-29.94929 30.85487,-29.94923 30.85488,-29.94918 30.85488,-29.94916 30.85485,-29.94912 30.85483,-29.94908 30.85482,-29.94905 30.85481,-29.94899 30.85479,-29.94891 30.85478,-29.9488 30.85476,-29.94872 30.85476,-29.94865 30.85478,-29.94856 30.85478,-29.94852 30.8548,-29.94844 30.85482,-29.94839 30.85486,-29.9483 30.85488,-29.94827 30.85492,-29.94822 30.85495,-29.94817 30.85496,-29.94813 30.85498,-29.94805 30.85498,-29.94801 30.85497,-29.94797 30.85493,-29.94793 30.85489,-29.94788 30.85484,-29.94782 30.85479,-29.94778 30.85475,-29.94777 30.85471,-29.94777 30.85468,-29.94777 30.85463,-29.94778 30.85459,-29.94778 30.85454,-29.94778 30.85449,-29.94777 30.85442,-29.94776 30.85438,-29.94775 30.85432,-29.94773 30.85423,-29.94769 30.85411,-29.94767 30.85407,-29.94762 30.85403,-29.94753 30.85402,-29.94742 30.85399,-29.94721 30.85399,-29.94714 30.85403,-29.94695 30.85405,-29.94688 30.85404,-29.94681 30.85405,-29.94678 30.85409,-29.94672 30.85414,-29.94664 30.85419,-29.9466 30.85423,-29.94657 30.85427,-29.94653 30.85431,-29.9465 30.85459,-29.94655 30.85496,-29.94668 30.85509,-29.94675 30.85529,-29.94682 30.8555,-29.94682 30.85565,-29.94681 30.85572,-29.94681 30.85594,-29.94685 30.85598,-29.94685 30.85603,-29.94685 30.85639,-29.94675 30.85676,-29.94652 30.85676,-29.94647 30.85681,-29.94594 30.8568,-29.94546 30.8568,-29.94546 30.8567,-29.94513 30.85662,-29.94496 30.85663,-29.94459 30.85665,-29.94443 30.85667,-29.94431 30.85671,-29.94407 30.85723,-29.94274 30.85729,-29.94263 30.85733,-29.94248 30.85738,-29.94241 30.85742,-29.94234 30.85743,-29.94229 30.85743,-29.9422 30.85743,-29.94218 30.85743,-29.9421 30.85747,-29.94199 30.85758,-29.94181 30.85769,-29.94167 30.85775,-29.94154 30.85787,-29.94123 30.858,-29.94088 30.85807,-29.94072 30.85818,-29.94057 30.85821,-29.94052 30.85821,-29.94051 30.85822,-29.9405 30.85827,-29.94043 30.8583,-29.9403 30.85835,-29.94011 30.8584,-29.93999 30.85845,-29.93992 30.85848,-29.93982 30.85856,-29.93969 30.85859,-29.93963 30.85861,-29.93954 30.8586,-29.93943 30.85861,-29.93928 30.85869,-29.93907 30.85871,-29.93899 30.8588,-29.93877 30.85891,-29.93858 30.85898,-29.93848 30.85904,-29.93839 30.85909,-29.93831 30.85912,-29.93827 30.85916,-29.93823 30.8592,-29.93822 30.85922,-29.93822 30.85928,-29.93819 30.85939,-29.93812 30.85947,-29.93806 30.85959,-29.93791 30.85978,-29.93772 30.8599,-29.93765 30.86003,-29.93763 30.86007,-29.93763 30.86017,-29.93763 30.86039,-29.93764 30.86058,-29.93766 30.86071,-29.93769 30.86081,-29.93774 30.86091,-29.93779 30.86102,-29.93787 30.86106,-29.93796 30.86108,-29.93807 30.86112,-29.93813 30.86119,-29.9382 30.86124,-29.93826 30.86139,-29.93841 30.86148,-29.93849 30.8616,-29.93863 30.86172,-29.93871 30.86187,-29.93879 30.86211,-29.93891 30.86248,-29.93906 30.86259,-29.9391 30.8626,-29.9391 30.86278,-29.93912 30.86294,-29.93911 30.86316,-29.93906 30.86324,-29.93904 30.86335,-29.939 30.86344,-29.93895 30.86354,-29.93886 30.86363,-29.93877 30.8637,-29.93872 30.8638,-29.93867 30.86386,-29.93863 30.86386,-29.93863 30.86395,-29.93856 30.86403,-29.9385 30.86411,-29.93843 30.86415,-29.93835 30.86422,-29.93828 30.86429,-29.93822 30.86433,-29.93816 30.86436,-29.93809 30.8644,-29.93803 30.86443,-29.93797 30.86445,-29.93791 30.86443,-29.93788 30.86441,-29.93787 30.86438,-29.93785 30.86435,-29.93778 30.86436,-29.93773 30.86438,-29.93771 30.86452,-29.93752 30.86465,-29.93742 30.86473,-29.9374 30.86478,-29.93739 30.86486,-29.9374 30.86496,-29.93741 30.86501,-29.93741 30.8651,-29.93739 30.86515,-29.93734 30.86524,-29.93726 30.86536,-29.9372 30.86546,-29.93712 30.86551,-29.93706 30.86555,-29.93702 30.86559,-29.93698 30.86562,-29.93695 30.86566,-29.93688 30.86571,-29.93685 30.86576,-29.93684 30.86577,-29.93684 30.86583,-29.9368 30.86589,-29.93678 30.86597,-29.93676 30.86598,-29.93676 30.86603,-29.93676 30.86609,-29.93675 30.86618,-29.93671 30.86623,-29.9367 30.8663,-29.93668 30.86636,-29.93663 30.86641,-29.93658 30.86644,-29.9365 30.86659,-29.93611 30.86679,-29.93579 30.86688,-29.93559 30.8669,-29.93553 30.86693,-29.93542 30.86693,-29.9354 30.86681,-29.93507 30.86674,-29.93495 30.86666,-29.93472 30.86655,-29.93458 30.86643,-29.93441 30.86637,-29.93431 30.86634,-29.93426 30.86614,-29.93394 30.86612,-29.93391 30.86609,-29.93387 30.86608,-29.93384 30.86607,-29.9338 30.86607,-29.93379 30.86606,-29.93377 30.86605,-29.93373 30.86604,-29.93367 30.86601,-29.93361 30.86598,-29.93355 30.86594,-29.93348 30.86592,-29.93344 30.86591,-29.93342 30.86593,-29.93332 30.86592,-29.93306 30.86591,-29.93293 30.8659,-29.93287 30.8659,-29.93278 30.86588,-29.93273 30.86587,-29.9327 30.86587,-29.93266 30.86588,-29.93255 30.86591,-29.93232 30.86592,-29.93224 30.86593,-29.93217 30.86594,-29.93212 30.86595,-29.93207 30.86595,-29.93203 30.86592,-29.93201 30.86591,-29.93198 30.86591,-29.93193 30.86591,-29.93187 30.86594,-29.93181 30.86594,-29.9318 30.86596,-29.93178 30.86598,-29.93176 30.866,-29.93176 30.86604,-29.93176 30.86605,-29.93177 30.86608,-29.93178 30.86609,-29.93179 30.86612,-29.93181 30.86615,-29.93181 30.86616,-29.93181 30.86619,-29.93181 30.86622,-29.93179 30.86623,-29.93178 30.86627,-29.93175 30.8663,-29.93171 30.86632,-29.93167 30.86638,-29.93161 30.86647,-29.93154 30.86654,-29.93151 30.8666,-29.93148 30.86663,-29.93145 30.8667,-29.93134 30.86678,-29.93127 30.86682,-29.93121 30.86683,-29.93118 30.86685,-29.93114 30.86689,-29.93111 30.86691,-29.93108 30.86695,-29.93105 30.86695,-29.931 30.86694,-29.93092 30.86693,-29.93083 30.86696,-29.93074 30.86723,-29.93059 30.86739,-29.93052 30.86749,-29.93051 30.8676,-29.93049 30.86767,-29.93046 30.86774,-29.93046 30.86778,-29.93046 30.86787,-29.93048 30.86803,-29.93064 30.86821,-29.93067 30.86838,-29.93077 30.86843,-29.93117 30.86844,-29.93148 30.86847,-29.93157 30.86852,-29.93165 30.86858,-29.93174</coordinates></LinearRing></outerBoundaryIs></Polygon></MultiGeometry></Placemark></Document></kml>