<?xml version="1.0" encoding="UTF-8"?><kml xmlns="http://www.opengis.net/kml/2.2"><Document><Placemark><name>Pinetown</name><description>Main Place 599116</description><ExtendedData><Data name="code"><value>599116</value></Data><Data name="name"><value>Pinetown</value></Data><Data name="description"><value>Main Place 599116</value></Data></ExtendedData><MultiGeometry><Polygon><outerBoundaryIs><LinearRing><coordinates>30.87654,-29.77911 30.87663,-29.77912 30.87687,-29.7791 30.87711,-29.77908 30.8774,-29.77905 30.87754,-29.77904 30.87764,-29.77905 30.87776,-29.7791 30.87799,-29.77921 30.87854,-29.77948 30.87921,-29.78037 30.87946,-29.78025 30.87969,-29.78012 30.87986,-29.78003 30.88002,-29.77999 30.88035,-29.77992 30.88058,-29.77988 30.88068,-29.77986 30.88093,-29.77972 30.88119,-29.77961 30.88143,-29.77951 30.88163,-29.77949 30.88203,-29.77945 30.88237,-29.77945 30.88276,-29.77938 30.88311,-29.77945 30.88352,-29.77953 30.88405,-29.77959 30.88411,-29.77961 30.88471,-29.77974 30.8853,-29.78008 30.88607,-29.78049 30.88602,-29.78074 30.88601,-29.78088 30.8866,-29.78079 30.8867,-29.78077 30.88724,-29.78073 30.88852,-29.78073 30.88865,-29.78072 30.88913,-29.78052 30.88936,-29.7804 30.88948,-29.78035 30.88968,-29.78031 30.88992,-29.78028 30.88991,-29.78067 30.8899,-29.78089 30.88988,-29.78117 30.88986,-29.78135 30.88981,-29.78222 30.88977,-29.7825 30.88974,-29.78286 30.88986,-29.783 30.88981,-29.78308 30.8898,-29.78314 30.88978,-29.78327 30.88976,-29.78353 30.88974,-29.78372 30.88969,-29.78388 30.88963,-29.78422 30.8893,-29.78568 30.88906,-29.78661 30.88885,-29.78695 30.88869,-29.78724 30.88861,-29.78741 30.88847,-29.78753 30.88858,-29.78767 30.88844,-29.78813 30.88848,-29.78853 30.88827,-29.78858 30.888,-29.78863 30.88787,-29.78866 30.88775,-29.78871 30.88775,-29.78913 30.88769,-29.78973 30.88748,-29.79051 30.8873,-29.79114 30.8886,-29.79117 30.88931,-29.79123 30.88968,-29.79125 30.89074,-29.79126 30.89125,-29.79127 30.89141,-29.79129 30.89162,-29.79131 30.89173,-29.79138 30.89113,-29.79177 30.89075,-29.79216 30.89051,-29.79238 30.89045,-29.79235 30.89037,-29.79233 30.88984,-29.79278 30.88947,-29.79309 30.88881,-29.79367 30.88871,-29.79383 30.88837,-29.7941 30.88794,-29.79445 30.88735,-29.79493 30.88719,-29.79508 30.88717,-29.79519 30.88741,-29.7952 30.8876,-29.79519 30.88792,-29.79516 30.88806,-29.79515 30.88821,-29.79517 30.88843,-29.79523 30.88857,-29.79522 30.88866,-29.79523 30.88878,-29.79525 30.88889,-29.79526 30.88902,-29.79525 30.88915,-29.79524 30.88925,-29.79524 30.88935,-29.79524 30.88947,-29.79521 30.88972,-29.79508 30.88983,-29.79504 30.88995,-29.79502 30.89007,-29.79502 30.89029,-29.79504 30.89053,-29.79504 30.89065,-29.79504 30.89084,-29.79507 30.891,-29.79514 30.89112,-29.79518 30.89118,-29.7952 30.89135,-29.79525 30.89151,-29.79533 30.89161,-29.79542 30.89169,-29.79553 30.89177,-29.79565 30.89185,-29.79579 30.89189,-29.79591 30.89191,-29.79606 30.89193,-29.79623 30.89199,-29.7964 30.892,-29.79652 30.89201,-29.79665 30.89206,-29.79674 30.8921,-29.79685 30.89212,-29.79697 30.89222,-29.79712 30.8923,-29.79722 30.89236,-29.79729 30.89242,-29.79737 30.89249,-29.79747 30.89259,-29.79762 30.8927,-29.79776 30.89283,-29.7979 30.89293,-29.79803 30.89299,-29.79814 30.89297,-29.79824 30.89294,-29.7984 30.89293,-29.79858 30.89288,-29.79873 30.8928,-29.79891 30.8927,-29.79909 30.89258,-29.79925 30.89253,-29.79936 30.89255,-29.79953 30.89261,-29.79969 30.89269,-29.79983 30.89278,-29.79998 30.89291,-29.80015 30.89299,-29.80025 30.89307,-29.80034 30.89313,-29.80055 30.8932,-29.8007 30.89324,-29.80083 30.89329,-29.80102 30.8933,-29.80115 30.89325,-29.80127 30.8932,-29.80137 30.89315,-29.80148 30.89312,-29.80156 30.89311,-29.80168 30.89309,-29.80176 30.89308,-29.80181 30.89309,-29.80194 30.89308,-29.80206 30.89307,-29.80224 30.89302,-29.80242 30.89297,-29.80253 30.89298,-29.80261 30.89301,-29.80276 30.89304,-29.8029 30.89304,-29.80308 30.89303,-29.8033 30.89308,-29.80345 30.89314,-29.8036 30.8932,-29.8037 30.89325,-29.80377 30.8933,-29.80391 30.8934,-29.80407 30.89356,-29.80418 30.89369,-29.80427 30.89391,-29.80443 30.89415,-29.80464 30.89446,-29.80481 30.89469,-29.80494 30.89491,-29.80505 30.89511,-29.80514 30.89532,-29.80518 30.89552,-29.80524 30.89574,-29.80526 30.89594,-29.80535 30.89614,-29.80542 30.89628,-29.80549 30.89645,-29.80552 30.89679,-29.80564 30.89697,-29.80569 30.89723,-29.80573 30.89746,-29.80575 30.89761,-29.80574 30.89771,-29.80573 30.89784,-29.80573 30.89798,-29.80575 30.89813,-29.80575 30.89823,-29.8057 30.89838,-29.8056 30.89855,-29.80546 30.89871,-29.80535 30.89894,-29.80525 30.89899,-29.80523 30.89913,-29.80576 30.89964,-29.80776 30.89996,-29.80899 30.90002,-29.80924 30.90009,-29.80952 30.90015,-29.80974 30.90024,-29.81005 30.90034,-29.81042 30.90042,-29.81077 30.90055,-29.81122 30.90029,-29.81124 30.89923,-29.8113 30.89887,-29.81132 30.89849,-29.81135 30.89807,-29.81136 30.89739,-29.8114 30.89657,-29.81145 30.89627,-29.81146 30.89558,-29.81151 30.8952,-29.81153 30.89435,-29.81158 30.89344,-29.81163 30.89239,-29.81169 30.89208,-29.81168 30.89198,-29.81186 30.89186,-29.81213 30.89168,-29.81251 30.89129,-29.81336 30.89099,-29.81401 30.89068,-29.81469 30.89032,-29.81543 30.89006,-29.816 30.88987,-29.8164 30.89033,-29.81702 30.89049,-29.81722 30.89075,-29.81757 30.89106,-29.81797 30.89193,-29.81913 30.89242,-29.81978 30.89276,-29.81975 30.89288,-29.81976 30.89369,-29.81955 30.89575,-29.81903 30.89677,-29.81877 30.897,-29.81871 30.8991,-29.81818 30.89995,-29.81796 30.90089,-29.81772 30.90176,-29.81749 30.9024,-29.81732 30.90502,-29.81786 30.90694,-29.81826 30.90736,-29.81833 30.90778,-29.81842 30.90814,-29.81848 30.90872,-29.81859 30.9093,-29.81871 30.90968,-29.81879 30.91009,-29.81884 30.91027,-29.81887 30.9106,-29.81892 30.91162,-29.81909 30.9114,-29.81943 30.91119,-29.81988 30.91084,-29.82061 30.91047,-29.82125 30.91027,-29.82162 30.9101,-29.82193 30.90993,-29.82234 30.90976,-29.82272 30.9097,-29.82302 30.90962,-29.82316 30.90948,-29.82346 30.90947,-29.82349 30.90922,-29.82402 30.90882,-29.82486 30.90872,-29.82506 30.90852,-29.82548 30.90823,-29.82609 30.90794,-29.8267 30.90758,-29.82746 30.9074,-29.82783 30.90717,-29.82831 30.90688,-29.82894 30.9066,-29.82952 30.90638,-29.82998 30.90616,-29.83044 30.90593,-29.83081 30.90584,-29.831 30.9058,-29.83109 30.90551,-29.83175 30.90516,-29.83245 30.90482,-29.83318 30.90466,-29.83352 30.90431,-29.83425 30.90411,-29.83468 30.90383,-29.83525 30.90369,-29.83554 30.90345,-29.83606 30.90318,-29.83666 30.90304,-29.83697 30.9027,-29.83768 30.90249,-29.83803 30.9021,-29.83886 30.90188,-29.83933 30.90141,-29.84032 30.90106,-29.84108 30.90073,-29.84177 30.90037,-29.84252 30.89996,-29.84337 30.89983,-29.84363 30.89953,-29.84424 30.89903,-29.84529 30.89865,-29.8461 30.89836,-29.84672 30.89828,-29.84674 30.89819,-29.84707 30.89814,-29.84722 30.89801,-29.84748 30.89791,-29.84768 30.89755,-29.84842 30.89727,-29.84899 30.897,-29.84953 30.89681,-29.84992 30.89658,-29.85038 30.89638,-29.8508 30.89614,-29.85129 30.89588,-29.85182 30.89559,-29.85241 30.89532,-29.85296 30.89513,-29.85334 30.89532,-29.85336 30.89563,-29.8534 30.89589,-29.85344 30.89615,-29.85345 30.89645,-29.85348 30.89674,-29.85354 30.89704,-29.85363 30.89735,-29.85377 30.89762,-29.85392 30.89788,-29.8541 30.89791,-29.85412 30.8981,-29.85425 30.8983,-29.85443 30.89853,-29.85463 30.89877,-29.85482 30.89897,-29.85502 30.89918,-29.85525 30.89943,-29.85555 30.89963,-29.85583 30.89978,-29.85606 30.89992,-29.8563 30.89999,-29.85646 30.89996,-29.85659 30.89989,-29.85678 30.89981,-29.85705 30.8997,-29.85732 30.89959,-29.85752 30.89953,-29.8576 30.89941,-29.85769 30.89917,-29.85781 30.8989,-29.85791 30.89856,-29.85794 30.89827,-29.85797 30.89803,-29.85799 30.89783,-29.85806 30.89772,-29.8581 30.89757,-29.85818 30.89747,-29.85825 30.89731,-29.85834 30.89712,-29.85844 30.89698,-29.85853 30.89692,-29.85858 30.89684,-29.85864 30.89672,-29.85884 30.8967,-29.85898 30.8967,-29.85904 30.89674,-29.85922 30.89679,-29.8594 30.89689,-29.85957 30.89704,-29.85973 30.89721,-29.85982 30.89737,-29.85987 30.89749,-29.85991 30.89778,-29.85999 30.89808,-29.86005 30.89827,-29.86009 30.89846,-29.86009 30.89869,-29.86013 30.89894,-29.86019 30.89922,-29.8603 30.89944,-29.8604 30.89951,-29.86043 30.8997,-29.86052 30.89991,-29.86056 30.90016,-29.8606 30.90038,-29.86067 30.90061,-29.86073 30.90079,-29.86078 30.90089,-29.86087 30.90102,-29.86103 30.90112,-29.86119 30.9012,-29.86142 30.90121,-29.86159 30.90125,-29.86185 30.90125,-29.86205 30.90125,-29.86228 30.90129,-29.86239 30.9014,-29.86257 30.90153,-29.86265 30.90185,-29.86277 30.90217,-29.86284 30.90245,-29.86289 30.90272,-29.86294 30.90299,-29.86299 30.90322,-29.86304 30.90359,-29.86314 30.90384,-29.86321 30.90418,-29.8633 30.90445,-29.86338 30.90475,-29.8634 30.90501,-29.86334 30.90519,-29.86321 30.90535,-29.86303 30.90547,-29.86286 30.90548,-29.86287 30.9056,-29.86299 30.90578,-29.8632 30.90594,-29.86345 30.90582,-29.8636 30.90572,-29.86369 30.90558,-29.86383 30.90538,-29.86399 30.90524,-29.86409 30.9051,-29.8642 30.90496,-29.86431 30.90489,-29.86441 30.90479,-29.86459 30.90469,-29.8648 30.90462,-29.86493 30.90453,-29.86503 30.90446,-29.86511 30.90436,-29.86518 30.90425,-29.86514 30.90416,-29.86507 30.904,-29.86494 30.90387,-29.86485 30.90376,-29.8648 30.90358,-29.86473 30.90329,-29.86465 30.90278,-29.86451 30.90249,-29.86443 30.90188,-29.86425 30.90163,-29.86417 30.90141,-29.8641 30.90125,-29.86406 30.90114,-29.86406 30.90102,-29.86407 30.90092,-29.86409 30.90087,-29.86411 30.9008,-29.86417 30.90076,-29.86422 30.90075,-29.86428 30.90074,-29.86436 30.9007,-29.86448 30.90066,-29.86462 30.90057,-29.86483 30.90057,-29.86493 30.90059,-29.86501 30.90066,-29.86513 30.90066,-29.86521 30.90062,-29.86526 30.90053,-29.86532 30.90046,-29.86536 30.90041,-29.86543 30.90034,-29.8656 30.90028,-29.86577 30.90025,-29.8659 30.9002,-29.86599 30.90007,-29.86614 30.89997,-29.86629 30.89985,-29.86646 30.89934,-29.86716 30.8989,-29.86689 30.89863,-29.86668 30.89829,-29.86644 30.89778,-29.86607 30.89734,-29.86574 30.89667,-29.86526 30.89639,-29.86506 30.89594,-29.86474 30.89591,-29.86472 30.89587,-29.86469 30.89541,-29.86439 30.89531,-29.86432 30.89489,-29.86407 30.8942,-29.86368 30.89361,-29.86334 30.89306,-29.86303 30.89284,-29.86291 30.89253,-29.86274 30.89234,-29.86264 30.89217,-29.86256 30.89186,-29.86244 30.8915,-29.86231 30.89101,-29.86216 30.89032,-29.86193 30.89071,-29.86171 30.89092,-29.86163 30.89119,-29.86147 30.89159,-29.86125 30.89174,-29.86118 30.89195,-29.86107 30.89214,-29.86091 30.89239,-29.86071 30.89279,-29.86038 30.89251,-29.86 30.89218,-29.85956 30.89197,-29.85932 30.89179,-29.85912 30.89171,-29.859 30.89161,-29.85882 30.89151,-29.85864 30.89136,-29.85838 30.89124,-29.85814 30.89115,-29.85788 30.89116,-29.85783 30.8912,-29.85773 30.8913,-29.85759 30.89137,-29.85748 30.89137,-29.85742 30.89135,-29.85734 30.89127,-29.85718 30.8912,-29.85706 30.89115,-29.85696 30.89114,-29.85687 30.89112,-29.85648 30.89082,-29.85637 30.89053,-29.85626 30.89022,-29.85614 30.8901,-29.85626 30.88989,-29.85645 30.88966,-29.85667 30.88937,-29.85696 30.88909,-29.8572 30.88886,-29.85741 30.88841,-29.85782 30.88823,-29.858 30.88814,-29.85808 30.88798,-29.85813 30.88787,-29.85833 30.88778,-29.85846 30.88762,-29.85867 30.8875,-29.85883 30.88744,-29.85893 30.88736,-29.85913 30.88729,-29.85934 30.88715,-29.8597 30.88703,-29.86001 30.88691,-29.86035 30.88676,-29.86081 30.88645,-29.86072 30.88593,-29.86058 30.88559,-29.8605 30.88501,-29.86034 30.88449,-29.86019 30.88464,-29.86076 30.8848,-29.86121 30.88488,-29.8615 30.88491,-29.86168 30.88491,-29.86183 30.88486,-29.86201 30.88478,-29.86234 30.88446,-29.86221 30.88438,-29.86214 30.88428,-29.86194 30.88418,-29.86179 30.88404,-29.86168 30.88392,-29.86163 30.88375,-29.86158 30.88359,-29.86156 30.88348,-29.86156 30.88329,-29.86161 30.88306,-29.86173 30.88297,-29.86181 30.8828,-29.86204 30.88268,-29.8622 30.88244,-29.8625 30.88229,-29.86266 30.88221,-29.86272 30.88212,-29.86336 30.88199,-29.86389 30.88183,-29.86429 30.88177,-29.86437 30.88169,-29.86448 30.88165,-29.86457 30.88162,-29.86471 30.88158,-29.86486 30.88148,-29.86514 30.88139,-29.86532 30.88135,-29.86543 30.88135,-29.86571 30.88135,-29.86582 30.8813,-29.86599 30.88125,-29.86623 30.88121,-29.86652 30.8812,-29.86668 30.88119,-29.86686 30.88116,-29.86706 30.88115,-29.86712 30.88111,-29.86726 30.88105,-29.86744 30.88098,-29.86759 30.88088,-29.86766 30.8807,-29.86783 30.88051,-29.868 30.88019,-29.86828 30.87994,-29.86844 30.87972,-29.86859 30.87954,-29.86872 30.87943,-29.86881 30.87934,-29.86887 30.87923,-29.86889 30.87911,-29.86888 30.87899,-29.86886 30.8789,-29.86887 30.87884,-29.86893 30.87877,-29.86906 30.87872,-29.86922 30.87869,-29.86942 30.87866,-29.86965 30.87869,-29.86978 30.87882,-29.86994 30.8789,-29.87004 30.87892,-29.87006 30.87903,-29.87017 30.87915,-29.87029 30.87926,-29.8704 30.87931,-29.87048 30.87932,-29.87052 30.87933,-29.87056 30.87931,-29.87071 30.87926,-29.87081 30.87916,-29.87089 30.87906,-29.87098 30.87892,-29.87103 30.87879,-29.87107 30.87872,-29.87113 30.87869,-29.87122 30.87868,-29.87132 30.87864,-29.87143 30.8786,-29.87155 30.87855,-29.87163 30.87845,-29.87169 30.87839,-29.87176 30.87831,-29.87188 30.87827,-29.87197 30.87822,-29.87203 30.87819,-29.87207 30.87817,-29.87217 30.87814,-29.87224 30.87805,-29.87231 30.87798,-29.8724 30.87785,-29.87251 30.87779,-29.87262 30.87776,-29.87277 30.87774,-29.87293 30.87773,-29.87306 30.87767,-29.87316 30.87762,-29.87331 30.87761,-29.87349 30.87757,-29.87379 30.87756,-29.87397 30.87755,-29.87405 30.87747,-29.87413 30.87739,-29.87425 30.87731,-29.87438 30.87725,-29.87447 30.87716,-29.87459 30.87699,-29.87475 30.87682,-29.87489 30.87673,-29.87497 30.87668,-29.87503 30.87665,-29.87509 30.87657,-29.87512 30.87646,-29.87517 30.87634,-29.87523 30.87629,-29.87527 30.8762,-29.87538 30.87614,-29.87547 30.8761,-29.87557 30.87609,-29.87568 30.87611,-29.87574 30.87613,-29.87581 30.87612,-29.87587 30.87501,-29.87696 30.87466,-29.8773 30.87464,-29.87711 30.87461,-29.87647 30.87424,-29.87476 30.87417,-29.87415 30.87419,-29.87374 30.8743,-29.87328 30.87452,-29.87272 30.87516,-29.87185 30.87535,-29.87158 30.87563,-29.87146 30.87578,-29.87113 30.87583,-29.87091 30.87586,-29.8707 30.87586,-29.87033 30.87581,-29.87011 30.87575,-29.86989 30.87565,-29.86967 30.87554,-29.86948 30.87533,-29.86923 30.87513,-29.86904 30.87512,-29.86903 30.87494,-29.86889 30.87468,-29.86871 30.87439,-29.86853 30.87407,-29.86834 30.8738,-29.86818 30.87354,-29.86803 30.87335,-29.86794 30.87323,-29.8679 30.8732,-29.86788 30.87301,-29.86782 30.87284,-29.86778 30.87261,-29.86772 30.87256,-29.86782 30.87249,-29.86793 30.87241,-29.86806 30.87232,-29.86819 30.87219,-29.86836 30.87182,-29.86885 30.87154,-29.8692 30.87112,-29.86976 30.87049,-29.87057 30.87041,-29.87067 30.87023,-29.8709 30.86994,-29.87127 30.86972,-29.87154 30.86956,-29.87173 30.86943,-29.8719 30.86931,-29.87207 30.86925,-29.87217 30.86918,-29.87229 30.86912,-29.8724 30.86906,-29.87254 30.86899,-29.87273 30.86894,-29.87287 30.8689,-29.87301 30.86887,-29.87313 30.86885,-29.87325 30.86883,-29.87337 30.86881,-29.87352 30.8688,-29.87367 30.8688,-29.87441 30.8688,-29.87476 30.86879,-29.87497 30.86878,-29.87511 30.86877,-29.87525 30.86874,-29.87538 30.86872,-29.8755 30.86872,-29.87552 30.86869,-29.87563 30.86864,-29.87576 30.86858,-29.87591 30.86851,-29.87605 30.86843,-29.87618 30.86836,-29.87627 30.8683,-29.87635 30.86819,-29.87647 30.86807,-29.87659 30.86795,-29.87669 30.86784,-29.87678 30.86774,-29.87684 30.8677,-29.87687 30.86756,-29.87696 30.86728,-29.87712 30.86706,-29.87724 30.86673,-29.87744 30.86624,-29.87772 30.8662,-29.87774 30.866,-29.87785 30.86576,-29.87798 30.86548,-29.87814 30.86526,-29.87826 30.86506,-29.87836 30.86493,-29.87842 30.86478,-29.87849 30.86465,-29.87854 30.8645,-29.87858 30.86438,-29.87862 30.86427,-29.87864 30.86413,-29.87867 30.86402,-29.87869 30.86389,-29.8787 30.86375,-29.87872 30.86347,-29.87872 30.86273,-29.87872 30.86221,-29.87871 30.86204,-29.87872 30.86191,-29.87873 30.86173,-29.87874 30.86159,-29.87876 30.86144,-29.87879 30.86129,-29.87884 30.8611,-29.87891 30.86096,-29.87897 30.86079,-29.87905 30.86066,-29.87911 30.86051,-29.87922 30.86033,-29.87934 30.86013,-29.87949 30.85993,-29.87967 30.85963,-29.87991 30.85952,-29.88004 30.85946,-29.8801 30.85932,-29.88021 30.85923,-29.88026 30.85907,-29.88036 30.85891,-29.88043 30.8588,-29.88048 30.85868,-29.88053 30.85854,-29.88058 30.85833,-29.88063 30.85766,-29.8808 30.85639,-29.88109 30.85585,-29.88122 30.85566,-29.88126 30.85546,-29.88131 30.85502,-29.88141 30.85484,-29.88146 30.85476,-29.88148 30.8547,-29.88149 30.85457,-29.88154 30.85446,-29.88158 30.85433,-29.88164 30.85422,-29.8817 30.85407,-29.88178 30.85395,-29.88185 30.85386,-29.88191 30.85377,-29.88198 30.85366,-29.88207 30.85356,-29.88217 30.85347,-29.88227 30.85338,-29.88237 30.85323,-29.88257 30.85312,-29.88272 30.85297,-29.88291 30.85286,-29.88307 30.85297,-29.8831 30.85323,-29.88319 30.85336,-29.88326 30.85359,-29.8834 30.85365,-29.88343 30.85368,-29.88345 30.85392,-29.88359 30.85443,-29.88398 30.85484,-29.88439 30.85513,-29.88473 30.85539,-29.88515 30.85558,-29.88556 30.85578,-29.88621 30.85583,-29.88657 30.85582,-29.8868 30.85583,-29.88711 30.85578,-29.88747 30.85572,-29.88781 30.8556,-29.88825 30.8556,-29.88827 30.85555,-29.88843 30.85553,-29.88849 30.85528,-29.88935 30.85507,-29.89008 30.85502,-29.89029 30.85493,-29.89061 30.85474,-29.89128 30.85471,-29.8914 30.85461,-29.89174 30.85455,-29.89197 30.85416,-29.89337 30.85404,-29.89396 30.85396,-29.89458 30.85394,-29.89507 30.85394,-29.89527 30.85394,-29.8957 30.85395,-29.89609 30.85401,-29.89641 30.85406,-29.8968 30.85408,-29.89691 30.85415,-29.89724 30.85423,-29.89752 30.85337,-29.89737 30.85282,-29.89729 30.85266,-29.89777 30.8491,-29.89668 30.84843,-29.89648 30.84779,-29.89629 30.84718,-29.89611 30.84724,-29.89586 30.84713,-29.89586 30.84705,-29.89586 30.84696,-29.89588 30.84686,-29.89591 30.84681,-29.89591 30.84669,-29.8959 30.84647,-29.89584 30.84639,-29.89582 30.84622,-29.89579 30.84612,-29.89578 30.84601,-29.89575 30.84594,-29.89572 30.84594,-29.89572 30.84527,-29.89552 30.84464,-29.89533 30.84453,-29.8953 30.84405,-29.89514 30.84378,-29.89508 30.84351,-29.89499 30.84303,-29.89483 30.84288,-29.89479 30.84197,-29.89452 30.8418,-29.89459 30.84175,-29.89462 30.84155,-29.89428 30.84137,-29.89407 30.84111,-29.89385 30.84099,-29.89376 30.84097,-29.89375 30.84071,-29.89363 30.84026,-29.89345 30.84093,-29.89166 30.84123,-29.89119 30.84125,-29.89116 30.84166,-29.89011 30.8418,-29.88915 30.84169,-29.88848 30.8416,-29.88798 30.84151,-29.88797 30.84112,-29.88773 30.84051,-29.88735 30.84004,-29.88705 30.83953,-29.88673 30.83912,-29.88648 30.83884,-29.88603 30.83865,-29.88572 30.83854,-29.88556 30.83829,-29.88514 30.83802,-29.88468 30.83798,-29.8845 30.838,-29.88444 30.83806,-29.88426 30.83817,-29.88408 30.83826,-29.88393 30.8383,-29.8838 30.83835,-29.88371 30.83838,-29.88364 30.8384,-29.88358 30.8384,-29.88354 30.8384,-29.88348 30.83841,-29.88343 30.83843,-29.8834 30.83844,-29.88337 30.83847,-29.88334 30.83855,-29.88327 30.83869,-29.88317 30.83875,-29.88314 30.83881,-29.8831 30.83883,-29.88307 30.83885,-29.88305 30.83889,-29.883 30.83895,-29.88292 30.83902,-29.88285 30.8391,-29.88279 30.83914,-29.88275 30.83911,-29.88271 30.83903,-29.88262 30.83899,-29.88258 30.83894,-29.88255 30.83892,-29.88254 30.83889,-29.88252 30.83884,-29.88249 30.8388,-29.88246 30.83878,-29.88243 30.83876,-29.88241 30.8387,-29.8824 30.83863,-29.88238 30.83857,-29.88235 30.83851,-29.88234 30.83832,-29.88229 30.83822,-29.88226 30.83811,-29.88222 30.83796,-29.88219 30.83788,-29.88217 30.83781,-29.88216 30.83775,-29.88214 30.83771,-29.88214 30.83766,-29.88214 30.8376,-29.88214 30.83752,-29.88212 30.83742,-29.8821 30.83733,-29.88208 30.83725,-29.88206 30.83716,-29.88203 30.8371,-29.88202 30.83705,-29.88201 30.83696,-29.882 30.83692,-29.882 30.8369,-29.88198 30.83686,-29.88196 30.83683,-29.88193 30.83679,-29.8819 30.83671,-29.88186 30.83666,-29.88182 30.8366,-29.88179 30.83652,-29.88171 30.83645,-29.88167 30.83641,-29.88163 30.83638,-29.8816 30.83629,-29.88142 30.83626,-29.88136 30.83622,-29.88131 30.83616,-29.88126 30.83603,-29.88122 30.83592,-29.8812 30.83576,-29.8812 30.83553,-29.88121 30.83514,-29.88122 30.83485,-29.88123 30.83484,-29.88123 30.83468,-29.88123 30.83467,-29.88113 30.83467,-29.88112 30.83468,-29.88111 30.83475,-29.88097 30.83467,-29.88097 30.83438,-29.881 30.83402,-29.88101 30.8337,-29.881 30.83344,-29.88098 30.83329,-29.88097 30.83302,-29.88094 30.83279,-29.8809 30.83259,-29.88086 30.83231,-29.8808 30.83202,-29.88072 30.83187,-29.88067 30.83168,-29.88061 30.83126,-29.88045 30.83112,-29.8804 30.83079,-29.88027 30.83071,-29.88035 30.83069,-29.88036 30.83067,-29.88036 30.83051,-29.88038 30.83048,-29.88039 30.83042,-29.88041 30.83037,-29.88042 30.83031,-29.88043 30.83029,-29.88043 30.83026,-29.88043 30.83021,-29.88043 30.83019,-29.88044 30.83016,-29.88045 30.83013,-29.88047 30.83009,-29.88049 30.83007,-29.8805 30.83005,-29.88051 30.83003,-29.88053 30.83002,-29.88055 30.82998,-29.88057 30.82996,-29.8806 30.82991,-29.88065 30.82986,-29.88069 30.82984,-29.88071 30.8298,-29.88075 30.82975,-29.8808 30.82971,-29.88085 30.82965,-29.88092 30.82963,-29.88095 30.8296,-29.88098 30.8296,-29.881 30.82959,-29.88105 30.82958,-29.88108 30.82957,-29.8811 30.82956,-29.88111 30.82956,-29.88113 30.82955,-29.88116 30.82954,-29.88119 30.82954,-29.8812 30.82953,-29.88122 30.8295,-29.88125 30.82948,-29.88127 30.82945,-29.88129 30.82943,-29.88131 30.82942,-29.88132 30.82939,-29.88134 30.82935,-29.88135 30.82931,-29.88137 30.82927,-29.8814 30.82923,-29.88144 30.82922,-29.88146 30.8292,-29.88147 30.82917,-29.88148 30.82916,-29.88151 30.82915,-29.88153 30.82913,-29.88156 30.82911,-29.88158 30.8291,-29.88161 30.8291,-29.88166 30.8291,-29.88171 30.8291,-29.88173 30.82908,-29.88176 30.82904,-29.88179 30.829,-29.8818 30.82888,-29.88182 30.82886,-29.88182 30.82876,-29.88183 30.82871,-29.88184 30.82866,-29.88184 30.82862,-29.88185 30.82861,-29.88185 30.82858,-29.88185 30.82847,-29.88189 30.82842,-29.88192 30.82838,-29.88193 30.82835,-29.88193 30.82833,-29.88194 30.8283,-29.88195 30.82828,-29.88197 30.82824,-29.882 30.8282,-29.88202 30.82815,-29.88203 30.82811,-29.88203 30.82809,-29.88204 30.82805,-29.88205 30.82803,-29.88205 30.82801,-29.88205 30.82799,-29.88206 30.82794,-29.88206 30.82788,-29.88207 30.82782,-29.88208 30.82779,-29.88208 30.8277,-29.88208 30.82767,-29.88208 30.82763,-29.88207 30.82762,-29.88207 30.82758,-29.88208 30.82746,-29.88211 30.82738,-29.88215 30.82727,-29.88228 30.82725,-29.88232 30.82724,-29.88235 30.82722,-29.88236 30.82721,-29.88237 30.82719,-29.88237 30.82718,-29.88238 30.82715,-29.88239 30.82713,-29.88242 30.82711,-29.88246 30.82709,-29.88249 30.82708,-29.88253 30.82708,-29.88256 30.82707,-29.8826 30.82707,-29.88262 30.82707,-29.88264 30.82706,-29.88266 30.82704,-29.88269 30.82702,-29.88272 30.827,-29.88276 30.82697,-29.88284 30.82694,-29.88291 30.82693,-29.88293 30.82692,-29.88296 30.82691,-29.883 30.8269,-29.88302 30.82688,-29.88304 30.82687,-29.88306 30.82687,-29.88309 30.82685,-29.88312 30.82682,-29.88318 30.82681,-29.88322 30.8268,-29.88324 30.82678,-29.88326 30.82675,-29.88329 30.82679,-29.8833 30.82681,-29.88331 30.82684,-29.88334 30.8269,-29.8834 30.82695,-29.88345 30.82701,-29.88355 30.82704,-29.88367 30.82707,-29.88378 30.82709,-29.88394 30.82719,-29.88435 30.82724,-29.88451 30.82731,-29.88465 30.82736,-29.88473 30.82742,-29.88482 30.82749,-29.88497 30.82755,-29.88507 30.8276,-29.88514 30.82774,-29.88537 30.82781,-29.8855 30.82785,-29.8856 30.82787,-29.88562 30.8279,-29.88563 30.82796,-29.88567 30.82797,-29.88569 30.82798,-29.88571 30.82798,-29.88571 30.82799,-29.88574 30.82798,-29.88581 30.82797,-29.88584 30.82796,-29.88589 30.82795,-29.88591 30.82794,-29.88593 30.82788,-29.88604 30.82786,-29.88608 30.82788,-29.88613 30.82793,-29.88618 30.82797,-29.88622 30.828,-29.88625 30.828,-29.8863 30.82796,-29.88639 30.82798,-29.88654 30.82793,-29.88669 30.8279,-29.88673 30.82789,-29.88679 30.82788,-29.8869 30.82789,-29.88701 30.8279,-29.88706 30.8279,-29.88708 30.82791,-29.88717 30.82796,-29.88749 30.82796,-29.88761 30.82795,-29.88774 30.82798,-29.88786 30.82799,-29.88791 30.82801,-29.88805 30.82802,-29.88814 30.82806,-29.88821 30.8281,-29.88827 30.82814,-29.88833 30.82819,-29.88838 30.82824,-29.88844 30.82826,-29.88848 30.82828,-29.8885 30.8283,-29.88861 30.82833,-29.88866 30.82838,-29.88872 30.82842,-29.88876 30.82846,-29.88879 30.82852,-29.88882 30.82856,-29.88889 30.82859,-29.88899 30.82863,-29.88909 30.8287,-29.88915 30.82874,-29.88919 30.82881,-29.88923 30.82889,-29.88927 30.82904,-29.88934 30.82888,-29.8898 30.82871,-29.89014 30.82864,-29.89033 30.82861,-29.89045 30.8286,-29.89052 30.82823,-29.89037 30.82797,-29.89026 30.82787,-29.89023 30.82776,-29.8902 30.82768,-29.89017 30.82752,-29.89015 30.82747,-29.89014 30.82728,-29.89011 30.82724,-29.8901 30.82717,-29.89007 30.82705,-29.89001 30.82695,-29.88995 30.82676,-29.88989 30.82668,-29.88984 30.82663,-29.88983 30.8265,-29.8898 30.82636,-29.88976 30.82631,-29.88977 30.82584,-29.88967 30.82559,-29.88956 30.82554,-29.88955 30.82538,-29.88948 30.82503,-29.88937 30.82489,-29.88933 30.82472,-29.88933 30.82447,-29.88934 30.8243,-29.88935 30.82429,-29.88935 30.82427,-29.88932 30.82423,-29.88921 30.82406,-29.8892 30.82385,-29.88915 30.82376,-29.88909 30.8236,-29.88893 30.82326,-29.88882 30.82326,-29.88882 30.82321,-29.88876 30.82314,-29.88872 30.82295,-29.88868 30.82288,-29.88866 30.82279,-29.88863 30.82268,-29.8886 30.82265,-29.8886 30.82261,-29.8886 30.82255,-29.8886 30.82249,-29.8886 30.82242,-29.8886 30.82236,-29.88858 30.82225,-29.88855 30.8221,-29.8885 30.82196,-29.88844 30.8218,-29.88838 30.82171,-29.88835 30.82149,-29.88829 30.82136,-29.88824 30.82133,-29.88823 30.8212,-29.88819 30.82092,-29.8881 30.82091,-29.88801 30.82075,-29.88797 30.82039,-29.88785 30.8196,-29.88765 30.8196,-29.88765 30.81934,-29.88759 30.81906,-29.88754 30.81886,-29.88749 30.81841,-29.88735 30.81828,-29.88731 30.81825,-29.88729 30.81825,-29.88729 30.81813,-29.88737 30.81807,-29.8874 30.81337,-29.88917 30.80905,-29.8908 30.80833,-29.89108 30.80831,-29.89109 30.8083,-29.89104 30.80828,-29.89093 30.80829,-29.89085 30.80827,-29.89051 30.80836,-29.8901 30.80841,-29.88983 30.80844,-29.88964 30.80847,-29.88928 30.80849,-29.88911 30.8085,-29.88908 30.80851,-29.88907 30.80854,-29.88904 30.80858,-29.88901 30.80861,-29.88899 30.80872,-29.88889 30.80878,-29.88882 30.80878,-29.88875 30.80875,-29.88869 30.80873,-29.88867 30.8087,-29.88861 30.80868,-29.88854 30.80858,-29.88827 30.80859,-29.88821 30.80859,-29.88821 30.80865,-29.88786 30.80892,-29.88689 30.80895,-29.88675 30.80895,-29.88672 30.80894,-29.88666 30.80893,-29.88659 30.80892,-29.88653 30.80892,-29.88649 30.80891,-29.88646 30.8089,-29.88643 30.80889,-29.88638 30.80889,-29.88635 30.80889,-29.88628 30.80889,-29.88626 30.80889,-29.88622 30.80889,-29.8862 30.80891,-29.88616 30.80891,-29.88613 30.80891,-29.8861 30.8089,-29.88607 30.80889,-29.88604 30.80889,-29.88599 30.80889,-29.88591 30.80888,-29.88582 30.80888,-29.88575 30.80886,-29.88569 30.80885,-29.88567 30.80883,-29.88565 30.80882,-29.88564 30.80882,-29.88562 30.80882,-29.88559 30.80883,-29.88552 30.80884,-29.88544 30.80883,-29.88541 30.80882,-29.88536 30.80881,-29.88533 30.8088,-29.88531 30.8088,-29.88529 30.8088,-29.88525 30.80879,-29.88524 30.80879,-29.88521 30.80878,-29.88518 30.80878,-29.88515 30.80876,-29.88511 30.80876,-29.88509 30.80877,-29.88508 30.80878,-29.88505 30.80878,-29.88504 30.8088,-29.88502 30.80881,-29.88499 30.80881,-29.88496 30.80881,-29.88492 30.80881,-29.88483 30.80884,-29.88479 30.80885,-29.88476 30.80887,-29.88473 30.80889,-29.88469 30.80891,-29.88466 30.80892,-29.88464 30.80893,-29.88462 30.80893,-29.88461 30.80893,-29.88458 30.80892,-29.88456 30.80892,-29.88454 30.80893,-29.88451 30.80893,-29.88449 30.80893,-29.88448 30.80893,-29.88445 30.80893,-29.88443 30.80893,-29.88443 30.80892,-29.8844 30.80892,-29.88435 30.80893,-29.88433 30.80895,-29.88433 30.80897,-29.88432 30.80898,-29.88431 30.80898,-29.88429 30.80899,-29.88428 30.809,-29.88426 30.80902,-29.88425 30.80904,-29.88423 30.80909,-29.88419 30.8091,-29.88418 30.80909,-29.88416 30.80906,-29.88414 30.80904,-29.88414 30.80902,-29.88413 30.80899,-29.88412 30.80895,-29.88411 30.80892,-29.88409 30.8089,-29.88408 30.80889,-29.88399 30.80888,-29.88396 30.80888,-29.88385 30.80896,-29.88356 30.80897,-29.88339 30.80898,-29.88311 30.80898,-29.88305 30.80895,-29.88302 30.80893,-29.88299 30.80891,-29.88293 30.80891,-29.88284 30.80889,-29.88276 30.80892,-29.88232 30.80897,-29.88167 30.80918,-29.88114 30.80916,-29.88105 30.80915,-29.88098 30.80915,-29.88092 30.80916,-29.88084 30.80917,-29.88073 30.80918,-29.88071 30.80921,-29.88064 30.80922,-29.8806 30.80923,-29.88058 30.80925,-29.88054 30.80925,-29.88049 30.80925,-29.88049 30.80926,-29.88047 30.80926,-29.88044 30.80923,-29.88041 30.8092,-29.88037 30.80919,-29.88034 30.80916,-29.88028 30.80913,-29.88021 30.80911,-29.88015 30.80912,-29.88008 30.80917,-29.87991 30.80917,-29.8799 30.80919,-29.87988 30.80919,-29.87985 30.80919,-29.87983 30.8092,-29.87982 30.80921,-29.87981 30.80922,-29.8798 30.80923,-29.87978 30.80925,-29.87977 30.80926,-29.87976 30.80927,-29.87974 30.80928,-29.87972 30.80928,-29.8797 30.80928,-29.87968 30.80928,-29.87966 30.80928,-29.87964 30.80929,-29.87961 30.8093,-29.87959 30.80931,-29.87953 30.80932,-29.87947 30.80932,-29.87941 30.80932,-29.87937 30.80932,-29.87934 30.80931,-29.87929 30.80931,-29.87924 30.80931,-29.87919 30.80931,-29.87915 30.80933,-29.87912 30.80934,-29.8791 30.80934,-29.87908 30.80935,-29.87905 30.80935,-29.87902 30.80935,-29.87899 30.80933,-29.87895 30.80931,-29.87891 30.80932,-29.87887 30.80932,-29.87883 30.80932,-29.8788 30.80932,-29.87878 30.80932,-29.87876 30.80933,-29.87874 30.80934,-29.8787 30.80934,-29.87866 30.80934,-29.87862 30.80933,-29.87858 30.80934,-29.87855 30.80934,-29.8785 30.80934,-29.87842 30.80936,-29.87818 30.8093,-29.87792 30.80924,-29.87778 30.80919,-29.87766 30.80919,-29.87759 30.80918,-29.87639 30.80929,-29.87527 30.80893,-29.87495 30.8091,-29.87459 30.80943,-29.87345 30.80904,-29.87338 30.80881,-29.87334 30.80804,-29.87319 30.80773,-29.87314 30.80746,-29.87309 30.80743,-29.87316 30.80679,-29.87487 30.80658,-29.87565 30.80645,-29.87626 30.80686,-29.87706 30.80671,-29.87729 30.80666,-29.87728 30.80658,-29.87727 30.80648,-29.87722 30.80642,-29.8772 30.80637,-29.87719 30.80631,-29.87721 30.80622,-29.87723 30.80614,-29.87724 30.80565,-29.87715 30.80555,-29.87714 30.80549,-29.87714 30.80541,-29.87716 30.80534,-29.8772 30.80526,-29.87726 30.80502,-29.87747 30.80478,-29.87776 30.80473,-29.87779 30.80467,-29.87783 30.80462,-29.87789 30.80451,-29.87805 30.80406,-29.87886 30.80402,-29.87892 30.80397,-29.87894 30.80391,-29.87895 30.80384,-29.87894 30.80332,-29.87885 30.80305,-29.87881 30.80298,-29.8788 30.80293,-29.87881 30.80289,-29.87884 30.80286,-29.87889 30.80283,-29.87903 30.80276,-29.87923 30.80267,-29.87941 30.80264,-29.87945 30.8026,-29.87947 30.80256,-29.87948 30.80223,-29.87955 30.8022,-29.87956 30.80219,-29.87958 30.80218,-29.8796 30.80218,-29.87965 30.80217,-29.87976 30.80216,-29.87979 30.80212,-29.87988 30.80209,-29.87995 30.80201,-29.88006 30.80182,-29.88031 30.79896,-29.88172 30.79799,-29.8822 30.79794,-29.8826 30.79762,-29.88256 30.79752,-29.88255 30.79745,-29.88256 30.79732,-29.88258 30.79722,-29.88261 30.79723,-29.88277 30.79722,-29.88288 30.79719,-29.88302 30.79718,-29.88302 30.79701,-29.883 30.79669,-29.88296 30.79649,-29.88294 30.79043,-29.88207 30.7894,-29.88168 30.7894,-29.88166 30.78953,-29.8815 30.78974,-29.88128 30.79008,-29.88109 30.79045,-29.88096 30.79097,-29.88084 30.79105,-29.88082 30.79131,-29.88059 30.79135,-29.88056 30.79147,-29.88051 30.79151,-29.88049 30.79156,-29.88047 30.79161,-29.88044 30.7917,-29.88039 30.79174,-29.88037 30.79178,-29.88035 30.79183,-29.88032 30.79188,-29.8803 30.79192,-29.88027 30.792,-29.88022 30.79204,-29.8802 30.79208,-29.88018 30.79212,-29.88015 30.79216,-29.88012 30.7922,-29.88009 30.79226,-29.88003 30.79229,-29.88 30.79232,-29.87997 30.79234,-29.87994 30.79237,-29.87991 30.79239,-29.87987 30.79242,-29.87984 30.79244,-29.87979 30.79246,-29.87976 30.79247,-29.87973 30.7925,-29.87965 30.79251,-29.87961 30.79252,-29.87955 30.79252,-29.87948 30.79252,-29.87945 30.79251,-29.87941 30.7925,-29.87938 30.7925,-29.87936 30.7925,-29.87934 30.79248,-29.87928 30.79247,-29.87926 30.79246,-29.87923 30.79245,-29.8792 30.79244,-29.87918 30.79242,-29.87914 30.7924,-29.87912 30.79239,-29.87909 30.79236,-29.87905 30.79235,-29.87903 30.79233,-29.879 30.79232,-29.87898 30.7923,-29.87895 30.79228,-29.87893 30.79225,-29.8789 30.79223,-29.87888 30.7922,-29.87886 30.7922,-29.87886 30.79218,-29.87884 30.79215,-29.87883 30.79211,-29.8788 30.79206,-29.87878 30.792,-29.87876 30.79195,-29.87873 30.7919,-29.87872 30.79181,-29.8787 30.79178,-29.8787 30.79175,-29.87869 30.7917,-29.87868 30.79166,-29.87867 30.79163,-29.87866 30.7916,-29.87864 30.79157,-29.87863 30.79154,-29.87861 30.79148,-29.87857 30.79144,-29.87854 30.79141,-29.87852 30.79137,-29.87847 30.79135,-29.87845 30.79132,-29.87841 30.79129,-29.87838 30.79127,-29.87834 30.79124,-29.87829 30.79119,-29.87822 30.79117,-29.87818 30.79114,-29.87814 30.79112,-29.8781 30.79109,-29.87806 30.79106,-29.87802 30.79103,-29.87799 30.79101,-29.87796 30.79098,-29.87791 30.79091,-29.87785 30.79088,-29.87781 30.79082,-29.87775 30.79078,-29.87771 30.79075,-29.87768 30.79071,-29.87765 30.79068,-29.87762 30.79064,-29.87759 30.7906,-29.87756 30.79056,-29.87753 30.79054,-29.87751 30.79052,-29.87749 30.79047,-29.87745 30.79042,-29.8774 30.79035,-29.87735 30.79028,-29.87729 30.7902,-29.87723 30.79015,-29.87719 30.7901,-29.87714 30.79005,-29.87711 30.79,-29.87706 30.78995,-29.87703 30.78988,-29.87699 30.78984,-29.87696 30.78979,-29.87693 30.78973,-29.87689 30.78967,-29.87686 30.78957,-29.87679 30.78955,-29.87678 30.7895,-29.87674 30.78945,-29.8767 30.78937,-29.87665 30.78934,-29.87663 30.78929,-29.87659 30.78923,-29.87656 30.78918,-29.87651 30.78911,-29.87647 30.78906,-29.87643 30.78901,-29.87639 30.7889,-29.87632 30.78879,-29.87624 30.7887,-29.87617 30.78865,-29.87613 30.7886,-29.87609 30.7885,-29.876 30.78845,-29.87596 30.78834,-29.87588 30.78829,-29.87583 30.78824,-29.87579 30.78817,-29.87574 30.78809,-29.87568 30.78802,-29.87562 30.788,-29.87561 30.78795,-29.87557 30.7879,-29.87554 30.78786,-29.8755 30.78781,-29.87546 30.78776,-29.87543 30.7877,-29.87538 30.78766,-29.87534 30.78757,-29.87526 30.78753,-29.87521 30.78748,-29.87517 30.78743,-29.87512 30.78739,-29.87507 30.78735,-29.87503 30.78731,-29.87498 30.78725,-29.87492 30.78722,-29.87488 30.78714,-29.8748 30.78711,-29.87477 30.78707,-29.87472 30.78703,-29.87468 30.78699,-29.87463 30.78694,-29.87459 30.7869,-29.87454 30.78686,-29.87449 30.78678,-29.87441 30.78674,-29.87436 30.7867,-29.87432 30.78666,-29.87427 30.78662,-29.87423 30.78658,-29.87419 30.78649,-29.8741 30.78644,-29.87405 30.78639,-29.87401 30.78635,-29.87398 30.7863,-29.87394 30.78626,-29.8739 30.78619,-29.87383 30.78618,-29.87382 30.78614,-29.87379 30.78611,-29.87375 30.78608,-29.87371 30.78605,-29.87367 30.78602,-29.87363 30.78598,-29.87358 30.78596,-29.87356 30.78594,-29.87353 30.78591,-29.8735 30.78588,-29.87346 30.78585,-29.87343 30.78583,-29.8734 30.78578,-29.87333 30.78576,-29.8733 30.78573,-29.87326 30.78571,-29.87322 30.78569,-29.87318 30.78564,-29.87311 30.78561,-29.87308 30.78556,-29.87301 30.78553,-29.87298 30.78548,-29.87292 30.78546,-29.87288 30.78543,-29.87284 30.78542,-29.87281 30.78541,-29.87279 30.78464,-29.8723 30.78461,-29.87227 30.78396,-29.87171 30.78443,-29.87115 30.78468,-29.87125 30.78491,-29.87109 30.78507,-29.87098 30.78522,-29.87081 30.78533,-29.87064 30.78545,-29.87041 30.78552,-29.87029 30.78556,-29.87009 30.78572,-29.86968 30.78581,-29.86943 30.78595,-29.86919 30.7862,-29.86893 30.78628,-29.86883 30.78639,-29.86877 30.78648,-29.86866 30.78653,-29.86856 30.78668,-29.86843 30.78685,-29.8683 30.787,-29.86815 30.78711,-29.86806 30.78725,-29.868 30.7874,-29.86793 30.78744,-29.8678 30.78755,-29.86742 30.78765,-29.8672 30.7877,-29.86712 30.78785,-29.86702 30.78795,-29.8669 30.78851,-29.86592 30.78913,-29.86587 30.78947,-29.86587 30.78954,-29.86553 30.78961,-29.86518 30.78966,-29.86494 30.78968,-29.86486 30.78974,-29.86476 30.78985,-29.86462 30.79001,-29.86444 30.7902,-29.86422 30.79034,-29.86411 30.79049,-29.86404 30.79082,-29.86394 30.79078,-29.86383 30.79078,-29.86374 30.7908,-29.86369 30.79086,-29.86362 30.79103,-29.86343 30.7911,-29.86336 30.79111,-29.86328 30.79111,-29.8632 30.79109,-29.86306 30.79131,-29.86296 30.79163,-29.86293 30.79195,-29.86275 30.792,-29.86279 30.79216,-29.86289 30.79237,-29.863 30.79241,-29.86301 30.79243,-29.86301 30.79264,-29.86308 30.79289,-29.86313 30.79317,-29.86313 30.79332,-29.86311 30.79363,-29.86305 30.79381,-29.86302 30.7939,-29.863 30.79414,-29.86296 30.79438,-29.86293 30.7946,-29.86291 30.79488,-29.86291 30.7949,-29.86291 30.79491,-29.86291 30.79522,-29.86293 30.79542,-29.86295 30.79577,-29.863 30.79603,-29.86303 30.79615,-29.86304 30.7963,-29.86304 30.79656,-29.86302 30.79676,-29.86297 30.79701,-29.86288 30.7972,-29.86277 30.79741,-29.86263 30.79752,-29.86255 30.79765,-29.86246 30.79788,-29.86228 30.7982,-29.86204 30.79833,-29.86195 30.7985,-29.86182 30.79877,-29.8616 30.79887,-29.86152 30.79905,-29.86139 30.79924,-29.86125 30.79951,-29.86105 30.79982,-29.86081 30.80008,-29.86063 30.80022,-29.86056 30.80041,-29.86045 30.80064,-29.86036 30.80087,-29.86032 30.80091,-29.86031 30.80108,-29.86031 30.80129,-29.86032 30.8015,-29.86036 30.80157,-29.86038 30.80174,-29.86043 30.80204,-29.86057 30.80223,-29.86073 30.80225,-29.86075 30.80242,-29.86093 30.80253,-29.86112 30.80261,-29.86133 30.80265,-29.86153 30.80266,-29.86184 30.80268,-29.86216 30.80267,-29.86239 30.80269,-29.86258 30.80271,-29.86277 30.80277,-29.86302 30.80288,-29.86329 30.80301,-29.86348 30.80318,-29.86368 30.80324,-29.86375 30.80333,-29.86383 30.80345,-29.86394 30.80364,-29.86407 30.80365,-29.86408 30.80368,-29.8641 30.8037,-29.86406 30.80374,-29.86398 30.80386,-29.86376 30.80389,-29.86373 30.80391,-29.86371 30.80395,-29.8637 30.80399,-29.86371 30.80417,-29.86374 30.80424,-29.86374 30.80426,-29.86373 30.80428,-29.86372 30.80432,-29.86367 30.80435,-29.86366 30.80442,-29.86363 30.80445,-29.86334 30.80446,-29.86322 30.80446,-29.8632 30.80446,-29.8632 30.80451,-29.86301 30.80452,-29.86284 30.80452,-29.86264 30.80454,-29.86248 30.80468,-29.86162 30.80473,-29.8614 30.80443,-29.86127 30.80428,-29.86119 30.8042,-29.86113 30.80419,-29.86092 30.80419,-29.86086 30.80419,-29.86063 30.80419,-29.86038 30.80417,-29.86025 30.80417,-29.86017 30.8042,-29.8598 30.80423,-29.85952 30.80425,-29.85936 30.8043,-29.85892 30.8043,-29.8585 30.8043,-29.85845 30.80431,-29.85834 30.80439,-29.85819 30.80437,-29.85809 30.80436,-29.85806 30.80431,-29.85791 30.80418,-29.85772 30.80404,-29.85745 30.80389,-29.85715 30.80388,-29.85712 30.80364,-29.85669 30.80348,-29.85642 30.80355,-29.85634 30.80361,-29.85626 30.80364,-29.85622 30.80368,-29.85613 30.80373,-29.85604 30.80381,-29.85594 30.80386,-29.85589 30.80393,-29.85585 30.804,-29.85577 30.8041,-29.85566 30.80418,-29.85561 30.80432,-29.85554 30.80442,-29.85551 30.8045,-29.8555 30.80459,-29.85553 30.80468,-29.85552 30.8048,-29.8555 30.80495,-29.85548 30.8051,-29.85549 30.80525,-29.85546 30.80557,-29.85544 30.80575,-29.85544 30.80599,-29.8554 30.80617,-29.85539 30.80617,-29.85541 30.80619,-29.85546 30.80631,-29.85557 30.80637,-29.85564 30.80641,-29.85571 30.80639,-29.85581 30.80649,-29.85582 30.80658,-29.85586 30.80663,-29.85593 30.8067,-29.85596 30.8068,-29.85602 30.80672,-29.85613 30.80681,-29.85618 30.80695,-29.85637 30.80705,-29.85645 30.80711,-29.85659 30.80715,-29.85668 30.80734,-29.85664 30.8074,-29.85677 30.80744,-29.85689 30.80745,-29.8569 30.80757,-29.85709 30.80768,-29.85726 30.80771,-29.85733 30.80777,-29.85746 30.80787,-29.85753 30.80801,-29.85767 30.80807,-29.85778 30.80812,-29.8579 30.80818,-29.85809 30.8082,-29.85814 30.80824,-29.85826 30.80831,-29.85834 30.80843,-29.85845 30.80855,-29.85855 30.80877,-29.85873 30.80896,-29.85894 30.80903,-29.85904 30.80911,-29.85922 30.80919,-29.85936 30.80919,-29.85937 30.8092,-29.85938 30.80935,-29.85957 30.80944,-29.85965 30.80953,-29.85971 30.80961,-29.85982 30.80967,-29.85988 30.80972,-29.8599 30.80976,-29.85998 30.80983,-29.86006 30.8099,-29.86011 30.80997,-29.86023 30.81011,-29.86058 30.811,-29.86151 30.81121,-29.86176 30.81126,-29.86198 30.8117,-29.86256 30.81243,-29.86351 30.81261,-29.86375 30.81296,-29.864 30.81316,-29.86415 30.81308,-29.86427 30.81331,-29.86454 30.81354,-29.86482 30.81355,-29.86489 30.81358,-29.86506 30.81361,-29.86516 30.81389,-29.86541 30.8144,-29.86607 30.81464,-29.86638 30.81464,-29.86651 30.81481,-29.86657 30.81487,-29.86662 30.81499,-29.86677 30.81506,-29.86693 30.81509,-29.86721 30.81511,-29.86738 30.81511,-29.86746 30.81515,-29.86756 30.81533,-29.8676 30.81545,-29.86764 30.81558,-29.86774 30.81566,-29.86785 30.8158,-29.86804 30.816,-29.86828 30.81617,-29.86835 30.81635,-29.86856 30.81649,-29.86874 30.81658,-29.86892 30.81664,-29.86895 30.817,-29.86946 30.81788,-29.87061 30.81809,-29.87053 30.81873,-29.87029 30.81948,-29.87008 30.82034,-29.86968 30.82082,-29.86945 30.82045,-29.86938 30.81992,-29.86927 30.81919,-29.86912 30.81871,-29.86902 30.81836,-29.86897 30.81798,-29.86886 30.81771,-29.86874 30.81747,-29.86858 30.81729,-29.8684 30.81717,-29.86819 30.81708,-29.86799 30.81701,-29.86778 30.81699,-29.86758 30.817,-29.86739 30.81706,-29.86718 30.81713,-29.86696 30.81722,-29.86673 30.81738,-29.86651 30.81752,-29.86629 30.81761,-29.86607 30.81769,-29.86585 30.81772,-29.86562 30.81769,-29.86539 30.81765,-29.8652 30.81755,-29.86498 30.81745,-29.86485 30.81738,-29.86477 30.8173,-29.86468 30.81718,-29.86457 30.81707,-29.86449 30.81688,-29.86438 30.81671,-29.86428 30.81653,-29.86417 30.81633,-29.86406 30.81621,-29.86396 30.81603,-29.86384 30.81592,-29.86372 30.81583,-29.8636 30.81581,-29.86357 30.81576,-29.86346 30.8157,-29.86333 30.81566,-29.86321 30.81564,-29.86306 30.81564,-29.86291 30.81566,-29.86278 30.81569,-29.86263 30.81575,-29.86246 30.81581,-29.86232 30.81588,-29.86216 30.81596,-29.86203 30.81605,-29.86187 30.81612,-29.86172 30.81619,-29.86153 30.81623,-29.86132 30.81623,-29.86121 30.81623,-29.86106 30.81619,-29.86086 30.81613,-29.86068 30.81604,-29.86049 30.81592,-29.86035 30.81575,-29.86016 30.81563,-29.86006 30.81557,-29.86001 30.8153,-29.85979 30.81504,-29.85955 30.81481,-29.85936 30.81461,-29.85917 30.81446,-29.85904 30.81429,-29.85891 30.81411,-29.85879 30.81394,-29.85871 30.81367,-29.8586 30.81349,-29.85855 30.81351,-29.85847 30.81347,-29.8584 30.81344,-29.85831 30.81344,-29.85822 30.81344,-29.85816 30.81345,-29.85811 30.81347,-29.85806 30.81349,-29.858 30.81352,-29.85795 30.81363,-29.85795 30.81369,-29.85794 30.81372,-29.85792 30.81375,-29.85785 30.81379,-29.85782 30.81385,-29.85775 30.81391,-29.85769 30.81396,-29.85766 30.81402,-29.85761 30.81407,-29.85756 30.81395,-29.85748 30.81389,-29.85743 30.81383,-29.85735 30.81376,-29.85723 30.81369,-29.85714 30.81358,-29.85702 30.81347,-29.85692 30.81334,-29.8568 30.81314,-29.85663 30.81293,-29.85648 30.81275,-29.85632 30.81296,-29.85636 30.81317,-29.85642 30.81339,-29.85648 30.81357,-29.85655 30.81361,-29.85657 30.81373,-29.85653 30.81386,-29.85649 30.81394,-29.85645 30.81401,-29.85642 30.81406,-29.85636 30.81409,-29.8563 30.81414,-29.85624 30.81423,-29.85614 30.81431,-29.85609 30.81445,-29.85608 30.81454,-29.85608 30.81474,-29.8561 30.8149,-29.85614 30.81501,-29.85615 30.81513,-29.85614 30.81526,-29.85611 30.81536,-29.8561 30.81549,-29.85613 30.8156,-29.85614 30.81572,-29.85614 30.81583,-29.85612 30.81598,-29.85613 30.81615,-29.85617 30.81634,-29.8562 30.81644,-29.85621 30.81657,-29.85618 30.81665,-29.85619 30.81675,-29.85624 30.81684,-29.85626 30.81692,-29.85626 30.81702,-29.85626 30.81715,-29.85625 30.81725,-29.85628 30.81732,-29.85629 30.81743,-29.85628 30.81747,-29.85627 30.81752,-29.85623 30.81762,-29.85622 30.81771,-29.85623 30.81782,-29.85624 30.81796,-29.85627 30.81813,-29.85633 30.81825,-29.85639 30.81835,-29.85648 30.81839,-29.85655 30.81845,-29.85661 30.81853,-29.85662 30.8186,-29.85659 30.81873,-29.85649 30.81882,-29.85637 30.8189,-29.85626 30.819,-29.85617 30.81909,-29.85609 30.81919,-29.85604 30.81926,-29.85604 30.81938,-29.85604 30.81948,-29.85605 30.81957,-29.85606 30.81967,-29.85606 30.8198,-29.85606 30.81992,-29.85605 30.81992,-29.85605 30.81992,-29.85593 30.81981,-29.85569 30.81974,-29.85552 30.81967,-29.8554 30.81966,-29.85529 30.81969,-29.8552 30.81975,-29.85507 30.81976,-29.855 30.81972,-29.85493 30.81973,-29.85486 30.81975,-29.85481 30.81976,-29.85479 30.81981,-29.85473 30.81981,-29.85465 30.81975,-29.8546 30.81971,-29.85453 30.8197,-29.85447 30.81972,-29.85435 30.81979,-29.85418 30.81989,-29.85403 30.82003,-29.8538 30.82013,-29.85369 30.82024,-29.85364 30.82036,-29.8536 30.8205,-29.85356 30.82066,-29.85349 30.82081,-29.85343 30.82094,-29.85337 30.82114,-29.85335 30.8213,-29.85335 30.82147,-29.85332 30.82161,-29.85327 30.82171,-29.85322 30.82181,-29.85316 30.82192,-29.85311 30.82208,-29.85305 30.82222,-29.85294 30.8224,-29.85286 30.82252,-29.85277 30.82263,-29.85269 30.82274,-29.85261 30.82292,-29.85254 30.82303,-29.85248 30.82311,-29.85241 30.82323,-29.85234 30.82339,-29.85231 30.82351,-29.85227 30.82365,-29.85223 30.82381,-29.85218 30.82392,-29.85211 30.82407,-29.85201 30.82412,-29.85196 30.82417,-29.85186 30.82423,-29.8518 30.82429,-29.85175 30.82437,-29.85173 30.82453,-29.85164 30.8246,-29.85156 30.82468,-29.85146 30.8247,-29.85135 30.8247,-29.85127 30.82466,-29.85116 30.82458,-29.85103 30.82449,-29.85087 30.82436,-29.8507 30.82418,-29.85054 30.82404,-29.85042 30.82388,-29.85032 30.82369,-29.85021 30.82345,-29.85008 30.82332,-29.85001 30.82322,-29.84993 30.8231,-29.84987 30.82293,-29.84984 30.82281,-29.8498 30.82266,-29.84977 30.82257,-29.84974 30.82252,-29.84969 30.82242,-29.84964 30.82231,-29.84961 30.82224,-29.84961 30.82215,-29.84957 30.82204,-29.84956 30.82192,-29.84955 30.82183,-29.84952 30.82172,-29.84952 30.82159,-29.8496 30.82149,-29.84968 30.82136,-29.84978 30.82122,-29.84989 30.82109,-29.84999 30.82101,-29.85004 30.82091,-29.85006 30.82081,-29.85008 30.82065,-29.85014 30.82049,-29.8502 30.82037,-29.85024 30.82023,-29.85031 30.82008,-29.85037 30.81995,-29.85047 30.81983,-29.85055 30.8197,-29.85057 30.81955,-29.85055 30.81941,-29.85053 30.81927,-29.85049 30.81918,-29.85043 30.81911,-29.85038 30.81901,-29.85036 30.81893,-29.85035 30.81884,-29.85036 30.81875,-29.85038 30.81866,-29.85039 30.81856,-29.85037 30.81854,-29.85035 30.81849,-29.85032 30.81846,-29.85024 30.81841,-29.85015 30.81835,-29.85008 30.8183,-29.84996 30.8183,-29.84982 30.81831,-29.8497 30.81833,-29.84961 30.81833,-29.84952 30.81839,-29.84941 30.81846,-29.84931 30.81851,-29.84911 30.81857,-29.84897 30.81863,-29.84888 30.81867,-29.84878 30.81875,-29.84858 30.81886,-29.84837 30.81898,-29.84823 30.81915,-29.84806 30.81927,-29.848 30.81937,-29.84797 30.81945,-29.84792 30.81956,-29.84785 30.81965,-29.84775 30.81974,-29.84765 30.81983,-29.8475 30.81991,-29.84737 30.81995,-29.84727 30.81996,-29.84719 30.81991,-29.84711 30.81985,-29.84704 30.81981,-29.84694 30.81978,-29.84681 30.81977,-29.84668 30.81979,-29.84662 30.81978,-29.84655 30.81974,-29.84642 30.81972,-29.84628 30.8197,-29.84619 30.81965,-29.84615 30.81955,-29.84607 30.8195,-29.84598 30.81945,-29.84588 30.81939,-29.84577 30.81927,-29.84567 30.81914,-29.8456 30.81901,-29.84556 30.81879,-29.84549 30.81861,-29.84541 30.81842,-29.8454 30.81826,-29.8454 30.81814,-29.84545 30.81802,-29.84551 30.81792,-29.84557 30.81783,-29.84561 30.81771,-29.84567 30.81753,-29.84571 30.8174,-29.84576 30.81722,-29.84583 30.81704,-29.84595 30.81684,-29.84611 30.81662,-29.84625 30.81641,-29.84635 30.81621,-29.84644 30.81607,-29.84649 30.81595,-29.84652 30.81583,-29.84652 30.81573,-29.84648 30.8156,-29.84641 30.81549,-29.84638 30.81537,-29.84638 30.81529,-29.84641 30.81521,-29.84645 30.81512,-29.84646 30.81506,-29.84643 30.81502,-29.84637 30.81494,-29.84627 30.81495,-29.84617 30.81496,-29.84605 30.81498,-29.84594 30.81501,-29.84578 30.81501,-29.84564 30.81503,-29.84551 30.81502,-29.8454 30.81502,-29.8453 30.81512,-29.84519 30.81523,-29.8451 30.81535,-29.84505 30.81552,-29.84492 30.81565,-29.84485 30.81575,-29.84473 30.81586,-29.84457 30.81598,-29.84442 30.81609,-29.84427 30.81622,-29.84415 30.81636,-29.84405 30.81647,-29.84394 30.81665,-29.8438 30.81695,-29.84362 30.81723,-29.84343 30.81739,-29.84328 30.81751,-29.84318 30.8176,-29.84312 30.81763,-29.84307 30.81758,-29.84296 30.81751,-29.8429 30.81744,-29.84284 30.81739,-29.84276 30.81732,-29.84269 30.81722,-29.84264 30.81715,-29.84253 30.81708,-29.84241 30.81704,-29.84226 30.81698,-29.84216 30.81692,-29.84208 30.81682,-29.84201 30.81673,-29.84195 30.81667,-29.84184 30.81653,-29.84169 30.81645,-29.8415 30.81638,-29.84127 30.81639,-29.84111 30.81642,-29.84098 30.81648,-29.84083 30.81655,-29.8407 30.81664,-29.84057 30.81674,-29.84043 30.81689,-29.8403 30.81702,-29.84016 30.81712,-29.84007 30.81729,-29.83993 30.81738,-29.83979 30.81753,-29.83968 30.81764,-29.83957 30.81782,-29.83948 30.81792,-29.83942 30.81801,-29.83937 30.81809,-29.83931 30.81825,-29.83916 30.81844,-29.83898 30.8186,-29.83881 30.81878,-29.83867 30.81894,-29.83856 30.81908,-29.83845 30.81922,-29.83838 30.81936,-29.83832 30.81958,-29.83823 30.81978,-29.83811 30.81994,-29.83802 30.82005,-29.83796 30.82012,-29.83794 30.82018,-29.83789 30.82021,-29.83779 30.82021,-29.83773 30.82016,-29.83766 30.82011,-29.83759 30.81997,-29.83748 30.81986,-29.83738 30.81972,-29.83733 30.81958,-29.83729 30.81941,-29.83726 30.81929,-29.83726 30.81912,-29.83726 30.81889,-29.83726 30.81875,-29.83725 30.81852,-29.83726 30.81832,-29.83727 30.81814,-29.83728 30.81797,-29.83733 30.81782,-29.83733 30.81772,-29.83736 30.81763,-29.83741 30.81754,-29.83747 30.81747,-29.83749 30.81738,-29.83753 30.81721,-29.83753 30.817,-29.83757 30.81681,-29.83754 30.81669,-29.8375 30.81661,-29.83748 30.81657,-29.83744 30.81656,-29.83739 30.81651,-29.83736 30.81647,-29.83736 30.81639,-29.83732 30.81626,-29.83723 30.81611,-29.83712 30.816,-29.83706 30.81589,-29.83701 30.81572,-29.83699 30.8156,-29.837 30.81542,-29.83698 30.81527,-29.83695 30.8151,-29.83692 30.81496,-29.83692 30.81486,-29.83694 30.81472,-29.83693 30.81462,-29.83689 30.81452,-29.83686 30.81434,-29.83685 30.8142,-29.83684 30.81406,-29.83684 30.81394,-29.83688 30.81384,-29.83692 30.81375,-29.83696 30.81365,-29.83696 30.81349,-29.83695 30.81343,-29.83695 30.81325,-29.83697 30.81314,-29.83702 30.81294,-29.83706 30.8127,-29.83705 30.81248,-29.83702 30.81226,-29.83693 30.81206,-29.83682 30.8119,-29.83668 30.81176,-29.83655 30.81163,-29.83649 30.81148,-29.83642 30.81138,-29.83636 30.81131,-29.8363 30.81119,-29.83622 30.81109,-29.83611 30.81096,-29.83595 30.8109,-29.83582 30.81083,-29.83568 30.81072,-29.83553 30.81065,-29.83543 30.81061,-29.83532 30.8106,-29.83526 30.81058,-29.8352 30.81058,-29.8351 30.81051,-29.83497 30.81045,-29.83489 30.8104,-29.83472 30.81039,-29.8346 30.81036,-29.83445 30.81037,-29.83429 30.81042,-29.83408 30.81052,-29.83391 30.81061,-29.83378 30.81071,-29.83367 30.81088,-29.83361 30.81099,-29.83354 30.81109,-29.83348 30.81119,-29.83336 30.8112,-29.83329 30.81127,-29.83315 30.81131,-29.8331 30.81141,-29.83309 30.8115,-29.83306 30.81157,-29.83298 30.8117,-29.83285 30.81175,-29.8328 30.81192,-29.83258 30.81201,-29.83238 30.81205,-29.83222 30.81209,-29.832 30.81211,-29.83179 30.8121,-29.83162 30.81203,-29.83141 30.81199,-29.83125 30.81191,-29.83111 30.81184,-29.831 30.81173,-29.83094 30.81159,-29.8309 30.81154,-29.83081 30.81145,-29.83069 30.81134,-29.83056 30.81125,-29.8305 30.81117,-29.8304 30.81108,-29.83029 30.81103,-29.83025 30.81088,-29.83015 30.81067,-29.83 30.81047,-29.82989 30.81022,-29.82968 30.80998,-29.8295 30.80974,-29.82929 30.80948,-29.8291 30.80927,-29.82886 30.809,-29.82862 30.80875,-29.82832 30.80845,-29.82801 30.80831,-29.8278 30.80818,-29.82758 30.80804,-29.82741 30.80789,-29.82727 30.80781,-29.82718 30.80778,-29.82707 30.80778,-29.82706 30.80784,-29.82691 30.8079,-29.82674 30.8079,-29.82659 30.80791,-29.82644 30.80789,-29.82631 30.8078,-29.82624 30.80753,-29.82604 30.80731,-29.82586 30.80696,-29.82569 30.80663,-29.82552 30.8065,-29.82538 30.80642,-29.82531 30.80635,-29.82524 30.80625,-29.82519 30.80612,-29.82514 30.806,-29.8251 30.80591,-29.82507 30.80583,-29.82507 30.80577,-29.82505 30.80567,-29.82499 30.8056,-29.82494 30.80532,-29.8252 30.80516,-29.82546 30.80508,-29.82577 30.80509,-29.82603 30.80508,-29.82607 30.80507,-29.82608 30.80503,-29.82612 30.80496,-29.82617 30.80491,-29.82622 30.80484,-29.82626 30.8048,-29.82631 30.80479,-29.82635 30.80475,-29.82639 30.80471,-29.82644 30.80468,-29.82649 30.80463,-29.82654 30.80456,-29.82659 30.80448,-29.82663 30.80439,-29.82666 30.80432,-29.82673 30.80426,-29.82678 30.8042,-29.82685 30.80417,-29.82694 30.80414,-29.827 30.8041,-29.82705 30.80406,-29.82709 30.80398,-29.82712 30.8039,-29.82715 30.80384,-29.82715 30.80379,-29.82715 30.80373,-29.82715 30.80368,-29.82719 30.80363,-29.82723 30.80353,-29.82724 30.80345,-29.82723 30.80339,-29.82723 30.80331,-29.82721 30.80326,-29.82721 30.80319,-29.8272 30.80315,-29.82718 30.8031,-29.82717 30.80304,-29.82717 30.80296,-29.82719 30.80288,-29.82719 30.80282,-29.82719 30.80275,-29.82718 30.8027,-29.82716 30.80266,-29.82716 30.80262,-29.82717 30.8026,-29.82717 30.80256,-29.82716 30.80252,-29.82715 30.80249,-29.82712 30.80247,-29.82709 30.80245,-29.82705 30.80243,-29.82704 30.80241,-29.82702 30.80238,-29.82699 30.80235,-29.82698 30.80232,-29.82697 30.80229,-29.82698 30.80226,-29.827 30.80224,-29.82704 30.80222,-29.82706 30.8022,-29.82708 30.80213,-29.82711 30.8021,-29.82711 30.80208,-29.82711 30.80205,-29.82711 30.802,-29.82715 30.80196,-29.82719 30.80191,-29.82722 30.80187,-29.8272 30.80182,-29.82717 30.80179,-29.82712 30.80175,-29.82712 30.8017,-29.82713 30.80165,-29.82712 30.8016,-29.82708 30.80155,-29.82706 30.80147,-29.82705 30.80139,-29.82706 30.80133,-29.82709 30.80126,-29.82712 30.80119,-29.82713 30.80112,-29.82716 30.80112,-29.82716 30.80107,-29.82718 30.801,-29.82721 30.80094,-29.82724 30.80089,-29.82726 30.80084,-29.82729 30.80078,-29.82733 30.80074,-29.82738 30.80068,-29.82743 30.80059,-29.82747 30.80051,-29.8275 30.80046,-29.82752 30.80043,-29.82754 30.80039,-29.82757 30.80034,-29.82759 30.80031,-29.8276 30.80026,-29.82763 30.80022,-29.82766 30.80017,-29.8277 30.8001,-29.82775 30.80004,-29.82777 30.79999,-29.8278 30.79996,-29.82782 30.79994,-29.82785 30.79989,-29.82788 30.79982,-29.8279 30.79975,-29.82794 30.79972,-29.82796 30.79967,-29.82799 30.79962,-29.82801 30.79957,-29.82801 30.79954,-29.828 30.79949,-29.828 30.79945,-29.82804 30.79943,-29.82807 30.79943,-29.82809 30.79943,-29.82814 30.79942,-29.82818 30.79938,-29.82822 30.79934,-29.82826 30.79928,-29.8283 30.79924,-29.82831 30.79915,-29.82838 30.79908,-29.82843 30.79903,-29.82845 30.79898,-29.82847 30.79894,-29.82852 30.7989,-29.82856 30.79886,-29.82856 30.79858,-29.82897 30.79812,-29.82963 30.79699,-29.83125 30.79669,-29.83168 30.79581,-29.83296 30.79461,-29.83402 30.79402,-29.83453 30.79271,-29.83556 30.79229,-29.83606 30.79189,-29.83652 30.79181,-29.83661 30.7916,-29.83685 30.79113,-29.83656 30.79052,-29.83668 30.79029,-29.83668 30.78997,-29.8367 30.7895,-29.83669 30.7891,-29.83658 30.78886,-29.83651 30.78855,-29.83641 30.78828,-29.83632 30.78808,-29.83627 30.7878,-29.83622 30.78766,-29.83616 30.78748,-29.83604 30.78721,-29.83581 30.78697,-29.83564 30.78698,-29.83549 30.78701,-29.83533 30.78699,-29.83521 30.78694,-29.83509 30.78683,-29.83503 30.78669,-29.83502 30.78656,-29.83504 30.78641,-29.83514 30.7863,-29.83523 30.78623,-29.83535 30.78621,-29.8355 30.78619,-29.83571 30.78615,-29.83589 30.7861,-29.83608 30.78603,-29.83629 30.78597,-29.8364 30.78585,-29.83653 30.78547,-29.83628 30.78516,-29.83605 30.78498,-29.8359 30.78482,-29.83577 30.78469,-29.83563 30.78458,-29.83549 30.78432,-29.83508 30.78411,-29.83476 30.78396,-29.83457 30.78372,-29.83426 30.78365,-29.83418 30.7834,-29.83392 30.78327,-29.83383 30.78307,-29.83376 30.7829,-29.83373 30.78274,-29.83372 30.7825,-29.83371 30.78208,-29.83371 30.78119,-29.83375 30.78068,-29.83378 30.78068,-29.83378 30.78066,-29.83378 30.78066,-29.83378 30.78087,-29.83316 30.78112,-29.83227 30.78154,-29.83082 30.78153,-29.83029 30.78187,-29.82966 30.78213,-29.82908 30.78218,-29.82883 30.78222,-29.8286 30.78215,-29.8281 30.78221,-29.82798 30.78233,-29.82778 30.78243,-29.82757 30.78247,-29.82742 30.78249,-29.82725 30.7825,-29.82708 30.78248,-29.82686 30.7825,-29.82667 30.78273,-29.82657 30.78288,-29.82604 30.78315,-29.8252 30.78354,-29.82382 30.7842,-29.82153 30.78434,-29.82102 30.78473,-29.82119 30.78732,-29.82231 30.78909,-29.82116 30.78991,-29.82158 30.7923,-29.82281 30.79358,-29.82217 30.7945,-29.82233 30.79738,-29.8214 30.79855,-29.82102 30.80047,-29.81993 30.80258,-29.81873 30.80298,-29.8185 30.80341,-29.81834 30.80677,-29.82123 30.80625,-29.82224 30.80651,-29.82224 30.80677,-29.82226 30.8071,-29.8223 30.80741,-29.82234 30.8077,-29.82241 30.80798,-29.82247 30.80836,-29.82258 30.80868,-29.82268 30.80913,-29.82285 30.8097,-29.82313 30.81012,-29.82339 30.8097,-29.8229 30.80933,-29.82259 30.80906,-29.82235 30.80877,-29.82206 30.80852,-29.82177 30.80836,-29.82156 30.80814,-29.82124 30.80793,-29.82082 30.80776,-29.82044 30.80763,-29.82014 30.80754,-29.81963 30.80749,-29.81921 30.80748,-29.81879 30.80843,-29.81795 30.8087,-29.81751 30.80875,-29.81735 30.80981,-29.81523 30.81063,-29.8136 30.81114,-29.81259 30.81467,-29.81394 30.81559,-29.81214 30.81631,-29.81071 30.81664,-29.81005 30.81754,-29.81023 30.8198,-29.81066 30.82102,-29.8109 30.82244,-29.81117 30.8243,-29.81153 30.82541,-29.80974 30.82621,-29.80843 30.82706,-29.80706 30.8273,-29.80664 30.82784,-29.80579 30.82803,-29.80547 30.82888,-29.80409 30.82956,-29.803 30.83174,-29.80369 30.8325,-29.80277 30.83354,-29.80142 30.83387,-29.80099 30.83431,-29.80043 30.83488,-29.80039 30.83554,-29.79969 30.83795,-29.8008 30.83834,-29.80103 30.83901,-29.80114 30.84073,-29.80066 30.84176,-29.80127 30.84273,-29.80158 30.84447,-29.80151 30.84656,-29.80139 30.84793,-29.80175 30.84907,-29.80337 30.84963,-29.80394 30.85037,-29.80468 30.85151,-29.80423 30.85173,-29.80414 30.85173,-29.80413 30.8516,-29.80386 30.85146,-29.80356 30.85129,-29.80322 30.85191,-29.80319 30.8521,-29.80319 30.85237,-29.80318 30.85253,-29.80317 30.85245,-29.80309 30.85232,-29.80298 30.85208,-29.80277 30.85192,-29.80261 30.85183,-29.80246 30.85179,-29.80235 30.85176,-29.80221 30.85176,-29.80208 30.85179,-29.80189 30.85186,-29.80166 30.85195,-29.80133 30.85205,-29.80101 30.85214,-29.8007 30.85221,-29.80043 30.85224,-29.80023 30.85224,-29.80004 30.8522,-29.79989 30.85213,-29.7997 30.85196,-29.79949 30.85178,-29.79933 30.8516,-29.79924 30.85141,-29.79916 30.85119,-29.79911 30.85086,-29.79906 30.85069,-29.79903 30.85052,-29.79899 30.85037,-29.79892 30.85015,-29.79876 30.85001,-29.79858 30.84993,-29.79835 30.84997,-29.79818 30.85,-29.79802 30.8501,-29.79783 30.85017,-29.79773 30.85033,-29.79761 30.85049,-29.79751 30.85077,-29.79737 30.85101,-29.79732 30.85135,-29.79726 30.85163,-29.79716 30.85181,-29.79708 30.85209,-29.79693 30.85232,-29.7968 30.85238,-29.79675 30.85251,-29.79665 30.85264,-29.79653 30.8527,-29.7964 30.85276,-29.79625 30.85277,-29.79607 30.85274,-29.79587 30.85274,-29.79587 30.85268,-29.79574 30.85259,-29.7956 30.85246,-29.79548 30.8523,-29.79536 30.85341,-29.79449 30.85434,-29.79376 30.85509,-29.7931 30.85518,-29.79303 30.85533,-29.79292 30.85552,-29.79277 30.85573,-29.7926 30.85586,-29.79256 30.85665,-29.79193 30.85707,-29.7916 30.85788,-29.79096 30.85856,-29.79043 30.85865,-29.79035 30.85937,-29.78978 30.86044,-29.78894 30.8611,-29.78842 30.86138,-29.78819 30.86169,-29.78796 30.86201,-29.78768 30.86237,-29.78739 30.86286,-29.78702 30.86314,-29.78681 30.86284,-29.78652 30.86228,-29.78615 30.86347,-29.78478 30.86355,-29.78468 30.86492,-29.7854 30.86593,-29.78461 30.86629,-29.78432 30.86659,-29.78409 30.86733,-29.7835 30.86749,-29.78275 30.86764,-29.78206 30.86765,-29.78203 30.86765,-29.78203 30.86785,-29.78109 30.86806,-29.78014 30.86818,-29.77958 30.86837,-29.77937 30.86884,-29.77889 30.869,-29.77872 30.8696,-29.77808 30.86984,-29.77782 30.87015,-29.77756 30.87039,-29.77734 30.87082,-29.77686 30.8712,-29.77649 30.87155,-29.77606 30.87175,-29.77586 30.87201,-29.77593 30.87235,-29.77605 30.8726,-29.77617 30.87287,-29.77623 30.87298,-29.77624 30.87312,-29.77626 30.87319,-29.77631 30.87335,-29.77653 30.87342,-29.77668 30.87353,-29.777 30.87358,-29.77733 30.87399,-29.77747 30.87436,-29.77769 30.8747,-29.77801 30.87496,-29.77827 30.87504,-29.77834 30.87527,-29.77843 30.87586,-29.77868 30.87607,-29.77883 30.87631,-29.779 30.87642,-29.77909 30.87654,-29.77911</coordinates></LinearRing></outerBoundaryIs></Polygon></MultiGeometry></Placemark></Document></kml>