<?xml version="1.0" encoding="UTF-8"?><kml xmlns="http://www.opengis.net/kml/2.2"><Document><Placemark><name>Loporung</name><description>Main Place 665003</description><ExtendedData><Data name="code"><value>665003</value></Data><Data name="name"><value>Loporung</value></Data><Data name="description"><value>Main Place 665003</value></Data></ExtendedData><MultiGeometry><Polygon><outerBoundaryIs><LinearRing><coordinates>24.99303,-25.74989 24.99327,-25.75029 24.9937,-25.7502 24.99397,-25.7502 24.99431,-25.75046 24.99483,-25.75071 24.99551,-25.75117 24.99602,-25.75146 24.99611,-25.75159 24.99622,-25.75165 24.99653,-25.75194 24.99684,-25.7522 24.99677,-25.75228 24.99665,-25.75245 24.99637,-25.75264 24.99645,-25.75295 24.99633,-25.75323 24.99651,-25.75366 24.99663,-25.75424 24.99679,-25.7548 24.99696,-25.75511 24.99717,-25.75545 24.99717,-25.75565 24.9972,-25.75603 24.99733,-25.75642 24.99758,-25.75659 24.99777,-25.75677 24.99765,-25.75694 24.99795,-25.7572 24.99797,-25.75738 24.99782,-25.7577 24.99767,-25.75792 24.9977,-25.75812 24.99785,-25.75841 24.99785,-25.75878 24.99786,-25.75906 24.99798,-25.7593 24.99793,-25.75948 24.99783,-25.7597 24.99771,-25.76007 24.99752,-25.7603 24.99741,-25.76059 24.99744,-25.7608 24.99755,-25.76117 24.99759,-25.76148 24.99766,-25.7617 24.99769,-25.76193 24.99763,-25.7622 24.99762,-25.76256 24.99763,-25.76293 24.99759,-25.76314 24.99654,-25.7628 24.99574,-25.76254 24.99507,-25.76233 24.99464,-25.76225 24.99457,-25.76262 24.99455,-25.76324 24.99464,-25.76366 24.99449,-25.76405 24.99448,-25.7644 24.99466,-25.76466 24.99475,-25.76523 24.99489,-25.76563 24.9947,-25.76576 24.99452,-25.76589 24.99418,-25.76593 24.9941,-25.76621 24.99361,-25.76599 24.99322,-25.76563 24.99291,-25.76534 24.99276,-25.76509 24.99257,-25.76486 24.9922,-25.76463 24.99198,-25.76438 24.9918,-25.7644 24.99111,-25.7646 24.99082,-25.76473 24.99051,-25.76471 24.98981,-25.76486 24.98978,-25.76487 24.98938,-25.76511 24.98913,-25.76511 24.98854,-25.76475 24.98796,-25.76455 24.98751,-25.76435 24.9874,-25.7643 24.98706,-25.76408 24.98649,-25.76377 24.98596,-25.76349 24.98577,-25.7633 24.98498,-25.76301 24.98413,-25.76283 24.9832,-25.7629 24.98255,-25.7633 24.98201,-25.76337 24.9818,-25.76305 24.9813,-25.76183 24.98091,-25.76179 24.98012,-25.76237 24.9794,-25.7629 24.97847,-25.76333 24.97736,-25.76333 24.97636,-25.76394 24.97568,-25.76394 24.97511,-25.76444 24.97414,-25.76469 24.97328,-25.76494 24.97239,-25.76419 24.97135,-25.76308 24.97035,-25.76217 24.97028,-25.76211 24.97045,-25.76127 24.97045,-25.76054 24.97048,-25.76008 24.97048,-25.76007 24.9706,-25.75985 24.97077,-25.75953 24.97101,-25.75919 24.97102,-25.75918 24.97121,-25.75885 24.97171,-25.75856 24.972,-25.7584 24.97202,-25.75838 24.97227,-25.75804 24.97243,-25.75742 24.97262,-25.75697 24.97262,-25.75697 24.97262,-25.75638 24.97277,-25.75595 24.97318,-25.75562 24.97359,-25.75546 24.97381,-25.75525 24.97399,-25.75508 24.97442,-25.75467 24.975,-25.7543 24.97511,-25.75414 24.97529,-25.75387 24.97538,-25.75383 24.97581,-25.75363 24.97606,-25.75354 24.97631,-25.75345 24.97678,-25.75354 24.97688,-25.75356 24.97774,-25.75376 24.97816,-25.754 24.97823,-25.75404 24.97823,-25.75404 24.97835,-25.75404 24.97875,-25.75406 24.97915,-25.75415 24.97945,-25.75421 24.97978,-25.75418 24.98004,-25.75415 24.98033,-25.75415 24.98061,-25.7542 24.9811,-25.7543 24.98182,-25.75448 24.9823,-25.7546 24.98275,-25.75469 24.98326,-25.75456 24.98342,-25.7545 24.98387,-25.75433 24.98434,-25.75396 24.98487,-25.75354 24.98547,-25.753 24.9856,-25.75287 24.986,-25.75248 24.98604,-25.75241 24.98627,-25.75193 24.98652,-25.75119 24.98661,-25.75081 24.98667,-25.75058 24.98672,-25.75033 24.98681,-25.7499 24.98691,-25.74936 24.98691,-25.74933 24.98691,-25.74933 24.98699,-25.74922 24.98721,-25.74893 24.98725,-25.74872 24.9873,-25.74843 24.98784,-25.7478 24.9881,-25.74753 24.9881,-25.74753 24.9881,-25.74753 24.9881,-25.74753 24.98905,-25.74825 24.98943,-25.74858 24.99013,-25.74892 24.99074,-25.74919 24.99134,-25.7494 24.99208,-25.74946 24.99268,-25.74967 24.99303,-25.74989</coordinates></LinearRing></outerBoundaryIs></Polygon></MultiGeometry></Placemark></Document></kml>