<?xml version="1.0" encoding="UTF-8"?><kml xmlns="http://www.opengis.net/kml/2.2"><Document><Placemark><name>Kagiso</name><description>Main Place 763010</description><ExtendedData><Data name="code"><value>763010</value></Data><Data name="name"><value>Kagiso</value></Data><Data name="description"><value>Main Place 763010</value></Data></ExtendedData><MultiGeometry><Polygon><outerBoundaryIs><LinearRing><coordinates>27.8038,-26.13113 27.80446,-26.13218 27.80521,-26.13192 27.80554,-26.13257 27.80585,-26.13326 27.80609,-26.13381 27.80621,-26.13408 27.8063,-26.13428 27.80663,-26.13506 27.8068,-26.13543 27.80681,-26.13545 27.80681,-26.13546 27.80692,-26.13577 27.80693,-26.13621 27.80686,-26.13649 27.80683,-26.1366 27.80677,-26.13682 27.80649,-26.13753 27.80637,-26.13783 27.80628,-26.13807 27.80606,-26.13862 27.80599,-26.13877 27.80594,-26.1389 27.80579,-26.13926 27.80485,-26.14156 27.8044,-26.14269 27.80362,-26.14227 27.80316,-26.14198 27.80276,-26.14289 27.80229,-26.14392 27.80205,-26.14446 27.80191,-26.14476 27.80163,-26.14497 27.8012,-26.14526 27.80079,-26.14555 27.80057,-26.14566 27.80042,-26.14568 27.80029,-26.14566 27.80006,-26.14562 27.79973,-26.14553 27.79934,-26.14542 27.79876,-26.14526 27.7969,-26.14478 27.79688,-26.14477 27.79576,-26.14445 27.79373,-26.14391 27.79277,-26.14367 27.79248,-26.1436 27.79199,-26.14353 27.79159,-26.14419 27.79135,-26.1446 27.7911,-26.14502 27.79053,-26.14597 27.78972,-26.14731 27.78936,-26.14795 27.78846,-26.14947 27.78868,-26.14954 27.78867,-26.15005 27.78861,-26.15081 27.78867,-26.15099 27.78871,-26.15104 27.78953,-26.15169 27.79026,-26.15229 27.79019,-26.15236 27.79014,-26.15241 27.79022,-26.15247 27.79094,-26.15305 27.79181,-26.15374 27.79232,-26.15415 27.79375,-26.15536 27.79422,-26.15575 27.79508,-26.15645 27.79571,-26.15698 27.79614,-26.15735 27.79632,-26.15748 27.79702,-26.15805 27.79728,-26.15826 27.79787,-26.15873 27.79849,-26.15925 27.79945,-26.16003 27.7997,-26.16023 27.79977,-26.16028 27.79988,-26.16038 27.80004,-26.16053 27.80009,-26.16069 27.8002,-26.16106 27.80039,-26.16167 27.80072,-26.16274 27.80084,-26.16319 27.80101,-26.16371 27.80123,-26.16451 27.80143,-26.16508 27.80158,-26.1655 27.80205,-26.16537 27.80305,-26.16512 27.80364,-26.16497 27.80458,-26.16475 27.80464,-26.16474 27.80493,-26.16467 27.80503,-26.16464 27.80516,-26.16462 27.80509,-26.16456 27.80485,-26.16436 27.805,-26.16435 27.80533,-26.16432 27.80543,-26.1643 27.80553,-26.16429 27.80555,-26.16428 27.80606,-26.16419 27.80614,-26.16435 27.80631,-26.16509 27.80662,-26.1661 27.80688,-26.16696 27.80721,-26.16807 27.80766,-26.1695 27.80774,-26.16978 27.80808,-26.1709 27.80843,-26.17196 27.80865,-26.17281 27.80885,-26.17347 27.80935,-26.17514 27.80906,-26.17506 27.80909,-26.1752 27.80921,-26.17574 27.80932,-26.17626 27.80946,-26.17689 27.81005,-26.17958 27.81056,-26.18191 27.81059,-26.18204 27.8106,-26.18208 27.80981,-26.18207 27.80763,-26.18205 27.80592,-26.18203 27.80215,-26.182 27.80026,-26.18198 27.79971,-26.18197 27.79514,-26.18199 27.79479,-26.18199 27.79478,-26.18199 27.79424,-26.18198 27.79366,-26.18198 27.79262,-26.18198 27.79252,-26.18198 27.79251,-26.18198 27.79132,-26.18198 27.78974,-26.18198 27.78945,-26.18198 27.78937,-26.18198 27.78776,-26.18196 27.78771,-26.18196 27.78614,-26.18195 27.78598,-26.18193 27.78598,-26.18193 27.78599,-26.18184 27.78602,-26.18167 27.7861,-26.18074 27.78614,-26.18004 27.78614,-26.18002 27.78611,-26.1797 27.78605,-26.17947 27.786,-26.1793 27.78599,-26.17925 27.78593,-26.17909 27.78586,-26.17892 27.78575,-26.17874 27.78556,-26.17855 27.78552,-26.17851 27.78537,-26.17837 27.7852,-26.17822 27.78467,-26.17776 27.7844,-26.17758 27.78422,-26.17749 27.78389,-26.17739 27.78358,-26.17732 27.78302,-26.17719 27.78211,-26.17697 27.78174,-26.17688 27.78105,-26.17672 27.78067,-26.17663 27.78022,-26.17653 27.77988,-26.17644 27.77964,-26.17636 27.7795,-26.17629 27.77933,-26.17617 27.77913,-26.17599 27.77898,-26.17579 27.77883,-26.17543 27.77882,-26.17539 27.77863,-26.17488 27.77828,-26.17396 27.77798,-26.17309 27.77791,-26.17286 27.77788,-26.17277 27.77782,-26.1725 27.77777,-26.17215 27.77774,-26.17182 27.77775,-26.17162 27.77777,-26.17126 27.77783,-26.171 27.77792,-26.17053 27.77804,-26.17004 27.77842,-26.16866 27.77844,-26.16857 27.77851,-26.16826 27.77869,-26.16764 27.77871,-26.16756 27.77865,-26.16755 27.7765,-26.16697 27.7765,-26.16697 27.77315,-26.16613 27.77202,-26.16585 27.77108,-26.16559 27.77064,-26.1655 27.77038,-26.16543 27.76874,-26.16501 27.76772,-26.16476 27.76696,-26.16457 27.76667,-26.16449 27.76544,-26.16418 27.76447,-26.16396 27.76359,-26.16382 27.76225,-26.16369 27.76152,-26.16361 27.76173,-26.16199 27.76202,-26.15943 27.76221,-26.15766 27.76226,-26.1571 27.76228,-26.15687 27.76241,-26.15599 27.7625,-26.1554 27.7629,-26.15232 27.76316,-26.15006 27.76331,-26.1488 27.76355,-26.14722 27.76375,-26.14634 27.76434,-26.14455 27.76508,-26.14291 27.76568,-26.14205 27.76572,-26.14199 27.76632,-26.14235 27.7665,-26.14246 27.76662,-26.14255 27.76696,-26.14281 27.76853,-26.14392 27.76874,-26.14407 27.76875,-26.14408 27.76893,-26.14419 27.76899,-26.14421 27.76932,-26.14406 27.7695,-26.1441 27.76965,-26.14416 27.76983,-26.14429 27.77002,-26.14431 27.77017,-26.14431 27.77038,-26.14453 27.77056,-26.14453 27.77085,-26.14454 27.77135,-26.14471 27.77137,-26.14471 27.77172,-26.14478 27.77214,-26.14497 27.77216,-26.14497 27.77261,-26.14511 27.77481,-26.1458 27.77429,-26.14692 27.77414,-26.14724 27.77367,-26.14818 27.77341,-26.14869 27.77429,-26.149 27.77511,-26.14929 27.77521,-26.14932 27.77649,-26.14975 27.77714,-26.14996 27.77835,-26.15042 27.77932,-26.15074 27.78004,-26.15098 27.78146,-26.15145 27.78193,-26.15158 27.78242,-26.15094 27.78258,-26.15073 27.78268,-26.1506 27.78308,-26.15007 27.78373,-26.14919 27.78413,-26.14868 27.78436,-26.14837 27.7823,-26.14776 27.78244,-26.14731 27.7811,-26.14694 27.78165,-26.14445 27.78194,-26.14317 27.78198,-26.14297 27.78202,-26.1428 27.78213,-26.14232 27.78218,-26.14214 27.78227,-26.14169 27.78232,-26.14145 27.78235,-26.14135 27.78241,-26.14122 27.78247,-26.14115 27.78261,-26.14102 27.78295,-26.14075 27.78296,-26.14074 27.78324,-26.14056 27.78324,-26.14047 27.78325,-26.14013 27.78334,-26.13974 27.78298,-26.13964 27.78307,-26.13935 27.78284,-26.13929 27.78284,-26.13925 27.78284,-26.13921 27.78284,-26.13905 27.78295,-26.13872 27.78246,-26.1386 27.78222,-26.13854 27.78235,-26.13801 27.78246,-26.13759 27.78256,-26.13719 27.78286,-26.13719 27.78561,-26.13669 27.78572,-26.13672 27.78589,-26.13676 27.78612,-26.13679 27.78627,-26.13681 27.78678,-26.13692 27.7868,-26.13693 27.78686,-26.13694 27.78726,-26.13711 27.78775,-26.1372 27.78775,-26.1372 27.78822,-26.13735 27.78828,-26.13736 27.78891,-26.1375 27.7895,-26.13765 27.79016,-26.1379 27.79062,-26.13806 27.79108,-26.13824 27.79132,-26.13831 27.79142,-26.13833 27.79182,-26.1384 27.79235,-26.13851 27.79283,-26.13859 27.79311,-26.13864 27.7937,-26.13876 27.7941,-26.1389 27.79457,-26.139 27.79479,-26.13907 27.79507,-26.13856 27.79523,-26.1383 27.79539,-26.1381 27.79563,-26.13795 27.79599,-26.13784 27.79642,-26.13774 27.7967,-26.13774 27.79714,-26.13776 27.79755,-26.13769 27.79824,-26.13743 27.79864,-26.13729 27.79913,-26.13717 27.79949,-26.13694 27.79991,-26.13653 27.80018,-26.1361 27.80064,-26.1343 27.80071,-26.13404 27.80087,-26.13335 27.80109,-26.13241 27.80125,-26.13177 27.80141,-26.13113 27.80158,-26.13044 27.80163,-26.13024 27.80174,-26.12981 27.80238,-26.12996 27.80328,-26.13023 27.80353,-26.13031 27.80385,-26.13044 27.80414,-26.131 27.8038,-26.13113</coordinates></LinearRing></outerBoundaryIs></Polygon></MultiGeometry></Placemark></Document></kml>