<?xml version="1.0" encoding="UTF-8"?><kml xmlns="http://www.opengis.net/kml/2.2"><Document><Placemark><name>City of Johannesburg</name><description>Metropolitan Municipality 798</description><ExtendedData><Data name="code"><value>798</value></Data><Data name="name"><value>City of Johannesburg</value></Data><Data name="description"><value>Metropolitan Municipality 798</value></Data></ExtendedData><MultiGeometry><Polygon><outerBoundaryIs><LinearRing><coordinates>27.98484,-25.90973 27.98514,-25.91217 27.98541,-25.91435 27.98553,-25.91529 27.98575,-25.91704 27.98592,-25.9184 27.9863,-25.92152 27.98669,-25.92464 27.98684,-25.92583 27.98708,-25.92775 27.98746,-25.93087 27.98767,-25.93252 27.98767,-25.93252 27.9877,-25.93279 27.98786,-25.93401 27.98894,-25.93341 27.99174,-25.93187 27.99468,-25.93026 27.99496,-25.9301 27.99693,-25.92903 27.99978,-25.92748 28.00263,-25.92594 28.00357,-25.92542 28.00447,-25.92494 28.00573,-25.92425 28.00802,-25.923 28.00969,-25.9221 28.01073,-25.92153 28.01112,-25.92132 28.01281,-25.9204 28.01356,-25.91999 28.01571,-25.91882 28.01663,-25.91832 28.01949,-25.91677 28.02234,-25.91522 28.02474,-25.91392 28.02524,-25.91364 28.02575,-25.91337 28.02609,-25.91319 28.02626,-25.91309 28.02633,-25.91305 28.0273,-25.91253 28.02782,-25.91224 28.02834,-25.91196 28.02887,-25.91167 28.02939,-25.91139 28.02991,-25.9111 28.03127,-25.91335 28.03261,-25.91557 28.03393,-25.91777 28.03474,-25.91911 28.03556,-25.92047 28.0362,-25.92153 28.03683,-25.92257 28.03767,-25.92395 28.03916,-25.92639 28.03933,-25.92653 28.04094,-25.9278 28.04104,-25.92788 28.04238,-25.92893 28.04308,-25.92949 28.04392,-25.93015 28.04487,-25.9309 28.04574,-25.93155 28.04912,-25.93125 28.05061,-25.9311 28.05389,-25.93078 28.05555,-25.93062 28.05819,-25.93036 28.05982,-25.93021 28.06133,-25.93006 28.06282,-25.92991 28.06398,-25.9298 28.06545,-25.92966 28.06691,-25.92952 28.06851,-25.92936 28.07016,-25.9292 28.0716,-25.92906 28.07389,-25.92884 28.07403,-25.92882 28.07442,-25.92879 28.07455,-25.92877 28.07468,-25.92876 28.07474,-25.92884 28.0748,-25.92891 28.07496,-25.92911 28.07505,-25.92921 28.07506,-25.92915 28.07508,-25.92909 28.07509,-25.92903 28.07511,-25.92896 28.07513,-25.9289 28.07514,-25.92884 28.07516,-25.92878 28.07518,-25.92871 28.07519,-25.92865 28.07521,-25.92859 28.07533,-25.92813 28.07539,-25.92789 28.07563,-25.92697 28.0757,-25.92673 28.07582,-25.92627 28.07596,-25.92571 28.07604,-25.92543 28.07618,-25.92487 28.07626,-25.92459 28.0764,-25.92403 28.07648,-25.92375 28.07655,-25.92347 28.07662,-25.92322 28.07669,-25.92296 28.07675,-25.9227 28.07689,-25.92218 28.07696,-25.92193 28.07702,-25.92167 28.07723,-25.92089 28.07756,-25.92133 28.07789,-25.92178 28.07822,-25.92222 28.07829,-25.9223 28.07891,-25.92314 28.07923,-25.92355 28.07985,-25.92439 28.08017,-25.9248 28.08048,-25.92522 28.08075,-25.92521 28.08104,-25.92519 28.08191,-25.9251 28.0822,-25.92508 28.08307,-25.92499 28.08336,-25.92497 28.0856,-25.92473 28.08783,-25.9245 28.09016,-25.92426 28.09084,-25.92743 28.09224,-25.92718 28.09247,-25.92714 28.09325,-25.927 28.09817,-25.92615 28.1006,-25.92573 28.10305,-25.92531 28.10505,-25.92497 28.10547,-25.9249 28.10608,-25.92745 28.10668,-25.92999 28.10745,-25.93324 28.10857,-25.93792 28.10939,-25.9414 28.11023,-25.94491 28.11612,-25.9428 28.11921,-25.9417 28.12015,-25.94136 28.12373,-25.94008 28.12619,-25.9392 28.13078,-25.93755 28.13601,-25.93568 28.13841,-25.93482 28.14247,-25.93336 28.14325,-25.93308 28.14715,-25.93169 28.14891,-25.93106 28.15147,-25.93014 28.15512,-25.92883 28.16053,-25.92688 28.1607,-25.92682 28.16074,-25.92681 28.17627,-25.92125 28.18071,-25.91967 28.18105,-25.91955 28.18083,-25.92047 28.17962,-25.9254 28.17596,-25.94043 28.17505,-25.94418 28.17407,-25.94818 28.17364,-25.94996 28.17313,-25.95204 28.17259,-25.95426 28.172,-25.95668 28.17141,-25.95909 28.17102,-25.96067 28.17063,-25.9623 28.17024,-25.96389 28.16985,-25.9655 28.16663,-25.97855 28.16646,-25.97927 28.16675,-25.97933 28.17367,-25.98072 28.17585,-25.98116 28.18043,-25.98208 28.1831,-25.98262 28.18542,-25.98308 28.19306,-25.98462 28.1933,-25.98467 28.19445,-25.9849 28.19454,-25.98462 28.19565,-25.9809 28.19689,-25.97676 28.19746,-25.97486 28.19754,-25.97459 28.19907,-25.97533 28.19974,-25.97543 28.20028,-25.97552 28.20109,-25.97568 28.20181,-25.97601 28.20296,-25.97634 28.2053,-25.97686 28.20658,-25.97732 28.20679,-25.97742 28.20693,-25.97748 28.20698,-25.9775 28.20709,-25.97756 28.20721,-25.97761 28.20732,-25.97767 28.20744,-25.97772 28.20755,-25.97777 28.20767,-25.97783 28.20778,-25.97788 28.2079,-25.97794 28.20802,-25.97799 28.20813,-25.97804 28.20825,-25.9781 28.20836,-25.97815 28.20848,-25.9782 28.20859,-25.97826 28.20884,-25.97838 28.20914,-25.97852 28.20927,-25.97855 28.20939,-25.97859 28.20951,-25.97862 28.20964,-25.97866 28.20976,-25.9787 28.20988,-25.97873 28.21001,-25.97877 28.21013,-25.9788 28.21026,-25.97883 28.21038,-25.97886 28.21051,-25.97888 28.21064,-25.97891 28.21077,-25.97892 28.2109,-25.97894 28.21152,-25.97892 28.21192,-25.98098 28.21197,-25.98124 28.2126,-25.98468 28.21261,-25.98474 28.21264,-25.98487 28.21337,-25.98869 28.21345,-25.98931 28.21354,-25.98965 28.21391,-25.99162 28.214,-25.99209 28.21446,-25.99453 28.21382,-25.99487 28.21359,-25.99505 28.21353,-25.9952 28.21293,-25.99566 28.21286,-25.99571 28.21283,-25.99574 28.21277,-25.99578 28.21256,-25.99594 28.21247,-25.99601 28.21229,-25.99614 28.21216,-25.99624 28.21198,-25.99638 28.21188,-25.99646 28.21177,-25.99654 28.21167,-25.99661 28.21157,-25.99669 28.2114,-25.99682 28.21131,-25.99688 28.21123,-25.99695 28.21106,-25.99708 28.21078,-25.99729 28.21055,-25.99746 28.21037,-25.9976 28.21006,-25.99784 28.20969,-25.99812 28.20951,-25.99825 28.20925,-25.99846 28.20896,-25.99867 28.20862,-25.99893 28.20823,-25.99926 28.20801,-25.9994 28.2075,-25.99978 28.20738,-25.9999 28.20729,-25.99998 28.20617,-26.00083 28.20498,-26.00174 28.20336,-26.00297 28.19528,-26.00912 28.19514,-26.00922 28.19484,-26.00945 28.19279,-26.01101 28.18993,-26.01318 28.18981,-26.01327 28.1897,-26.01336 28.18698,-26.01535 28.18689,-26.01542 28.1865,-26.01571 28.18642,-26.01577 28.18637,-26.0158 28.18606,-26.01605 28.18604,-26.01607 28.18464,-26.01713 28.18423,-26.01744 28.18421,-26.01746 28.18333,-26.01813 28.18281,-26.01852 28.1822,-26.01899 28.18147,-26.01961 28.18105,-26.01986 28.18097,-26.01999 28.18067,-26.02022 28.17986,-26.02085 28.18008,-26.02119 28.18079,-26.02229 28.18452,-26.02811 28.18465,-26.0283 28.18617,-26.03067 28.18629,-26.03087 28.18654,-26.03127 28.18743,-26.03273 28.18942,-26.03207 28.1892,-26.0327 28.18799,-26.03616 28.1826,-26.03593 28.18237,-26.03592 28.17687,-26.03568 28.1769,-26.03555 28.17716,-26.03402 28.17718,-26.03392 28.17734,-26.03296 28.17738,-26.03275 28.17742,-26.03253 28.17745,-26.03232 28.17749,-26.0321 28.17753,-26.03188 28.17757,-26.03166 28.1776,-26.03145 28.17764,-26.03123 28.17768,-26.03101 28.17771,-26.03079 28.17775,-26.03057 28.17779,-26.03036 28.17783,-26.03014 28.17787,-26.02992 28.1779,-26.02971 28.17794,-26.02949 28.17798,-26.02927 28.17802,-26.02905 28.17804,-26.02891 28.17812,-26.02844 28.17775,-26.02833 28.17727,-26.0282 28.17697,-26.0282 28.17669,-26.0282 28.17636,-26.0282 28.17607,-26.02816 28.17582,-26.02813 28.17557,-26.02811 28.17552,-26.0281 28.17547,-26.02809 28.17532,-26.02809 28.17507,-26.02809 28.17482,-26.02808 28.17458,-26.02808 28.17432,-26.02809 28.17382,-26.02811 28.1737,-26.02811 28.17352,-26.02813 28.17304,-26.02817 28.1728,-26.02819 28.17274,-26.02821 28.17224,-26.02844 28.17216,-26.02859 28.17228,-26.02909 28.17229,-26.02914 28.17232,-26.02919 28.1724,-26.02933 28.17252,-26.02954 28.17263,-26.02973 28.17275,-26.02994 28.17287,-26.03013 28.17298,-26.03034 28.1731,-26.03053 28.17321,-26.03074 28.17344,-26.03113 28.17356,-26.03134 28.17367,-26.03154 28.17379,-26.03174 28.1739,-26.03194 28.17402,-26.03214 28.17413,-26.03234 28.17421,-26.03248 28.17425,-26.03257 28.17449,-26.03286 28.17465,-26.03304 28.17485,-26.03312 28.17494,-26.03334 28.17485,-26.03351 28.17489,-26.03407 28.17493,-26.0342 28.17506,-26.03472 28.17523,-26.03561 28.1749,-26.03552 28.17468,-26.03545 28.17328,-26.0354 28.16541,-26.03506 28.16508,-26.03521 28.16488,-26.0353 28.16276,-26.03623 28.16082,-26.03709 28.16003,-26.03743 28.15985,-26.03752 28.15977,-26.03755 28.15964,-26.03761 28.15919,-26.03781 28.15818,-26.03825 28.15816,-26.03827 28.15819,-26.03831 28.15826,-26.03841 28.15873,-26.03907 28.15874,-26.0391 28.15896,-26.0394 28.15909,-26.03959 28.15932,-26.03992 28.15969,-26.04045 28.15995,-26.04083 28.16022,-26.04122 28.16221,-26.04409 28.16228,-26.0442 28.16209,-26.04441 28.16178,-26.04475 28.16047,-26.04618 28.16071,-26.04634 28.162,-26.04715 28.16212,-26.04744 28.16217,-26.04755 28.16221,-26.04766 28.16225,-26.04776 28.1623,-26.04787 28.16234,-26.04797 28.16239,-26.04808 28.16243,-26.04818 28.16247,-26.04829 28.16252,-26.0484 28.16254,-26.04846 28.16257,-26.04853 28.1626,-26.04861 28.16265,-26.04872 28.16285,-26.0492 28.16287,-26.04926 28.16292,-26.04938 28.16299,-26.04953 28.16305,-26.04969 28.1631,-26.04979 28.16316,-26.04995 28.16321,-26.05008 28.16352,-26.05081 28.16354,-26.05085 28.16359,-26.05099 28.16362,-26.05106 28.16363,-26.05109 28.16429,-26.05267 28.16431,-26.05271 28.16436,-26.05283 28.1644,-26.05294 28.16451,-26.05319 28.16568,-26.05602 28.16999,-26.05379 28.17089,-26.05599 28.17166,-26.05786 28.1717,-26.05794 28.17177,-26.05812 28.17172,-26.05875 28.17157,-26.06087 28.17155,-26.06109 28.17153,-26.0615 28.1715,-26.0619 28.17147,-26.06231 28.17144,-26.06271 28.17141,-26.06312 28.17138,-26.06357 28.17208,-26.06356 28.17274,-26.06355 28.17424,-26.06352 28.17532,-26.0635 28.17564,-26.06349 28.17608,-26.06349 28.17636,-26.06348 28.17664,-26.06348 28.17693,-26.06347 28.17721,-26.06346 28.17749,-26.06346 28.17792,-26.06345 28.17805,-26.06345 28.17919,-26.06627 28.17921,-26.06633 28.17941,-26.06684 28.17939,-26.06687 28.17919,-26.06725 28.17858,-26.06835 28.17837,-26.06873 28.17561,-26.07367 28.18159,-26.0745 28.18196,-26.07434 28.18285,-26.07595 28.18434,-26.07864 28.18226,-26.08209 28.18221,-26.08217 28.18151,-26.08334 28.18111,-26.08425 28.18092,-26.08447 28.18108,-26.0846 28.18126,-26.08477 28.18134,-26.08473 28.18155,-26.08501 28.18483,-26.08926 28.18479,-26.08932 28.18476,-26.08939 28.18365,-26.09174 28.18342,-26.09221 28.18241,-26.0929 28.18208,-26.09312 28.1821,-26.09319 28.18217,-26.0934 28.18222,-26.09354 28.18076,-26.09489 28.18061,-26.09503 28.17752,-26.09787 28.1774,-26.09797 28.1773,-26.09807 28.17693,-26.09839 28.17854,-26.10792 28.1788,-26.10946 28.17961,-26.11421 28.17985,-26.11565 28.17991,-26.11596 28.17996,-26.1163 28.18,-26.11652 28.18004,-26.11678 28.18009,-26.11703 28.18013,-26.11728 28.18021,-26.11776 28.18025,-26.11801 28.18048,-26.11943 28.17979,-26.11953 28.17958,-26.11957 28.17807,-26.11981 28.17721,-26.11995 28.17714,-26.11997 28.17621,-26.12012 28.17566,-26.12021 28.17559,-26.12005 28.17513,-26.11907 28.17508,-26.11897 28.17503,-26.11886 28.17483,-26.11844 28.17461,-26.11797 28.17454,-26.11781 28.17446,-26.11765 28.17438,-26.11748 28.17431,-26.11732 28.17423,-26.11716 28.17415,-26.11699 28.17408,-26.11683 28.174,-26.11667 28.17392,-26.1165 28.17385,-26.11634 28.17377,-26.11618 28.17369,-26.11601 28.17362,-26.11585 28.17354,-26.11568 28.17346,-26.11552 28.17339,-26.11536 28.17331,-26.11519 28.17323,-26.11503 28.17316,-26.11487 28.17308,-26.1147 28.173,-26.11454 28.17293,-26.11438 28.17285,-26.11421 28.17277,-26.11405 28.1727,-26.11389 28.17262,-26.11372 28.17245,-26.11336 28.17237,-26.1132 28.1722,-26.11283 28.17213,-26.11267 28.17205,-26.11251 28.17197,-26.11234 28.1719,-26.11218 28.17182,-26.11201 28.17166,-26.11169 28.17159,-26.11152 28.17143,-26.1112 28.17136,-26.11103 28.1712,-26.11071 28.17113,-26.11054 28.17105,-26.11039 28.17082,-26.10989 28.17064,-26.1095 28.17056,-26.10933 28.17048,-26.10917 28.17041,-26.10901 28.17033,-26.10884 28.17025,-26.10868 28.17018,-26.10851 28.17002,-26.10819 28.16995,-26.10802 28.16979,-26.10769 28.16972,-26.10753 28.16956,-26.10721 28.16934,-26.10673 28.16929,-26.10664 28.1692,-26.10644 28.16902,-26.10605 28.16893,-26.10587 28.16879,-26.10556 28.16756,-26.10631 28.16606,-26.10724 28.16604,-26.10739 28.166,-26.10768 28.16598,-26.1078 28.1659,-26.10837 28.16586,-26.1086 28.16583,-26.10883 28.1658,-26.109 28.16578,-26.10918 28.16575,-26.10936 28.16573,-26.10953 28.1657,-26.10971 28.16568,-26.10988 28.16565,-26.11006 28.16563,-26.11024 28.1656,-26.11041 28.16557,-26.11059 28.16555,-26.11076 28.16552,-26.11094 28.1655,-26.11112 28.16547,-26.11129 28.16545,-26.11147 28.16542,-26.11165 28.16539,-26.11182 28.16537,-26.112 28.16534,-26.11217 28.16532,-26.11235 28.16529,-26.11253 28.16527,-26.1127 28.16524,-26.11288 28.16522,-26.11305 28.16516,-26.11341 28.16513,-26.11367 28.16511,-26.11376 28.16509,-26.11393 28.16504,-26.11429 28.16501,-26.11447 28.16498,-26.11464 28.16496,-26.11482 28.16493,-26.115 28.16491,-26.11517 28.16488,-26.11535 28.16486,-26.11552 28.1648,-26.11588 28.16478,-26.11605 28.16475,-26.11623 28.16473,-26.1164 28.1647,-26.11658 28.16468,-26.11676 28.16465,-26.11693 28.16463,-26.11711 28.1646,-26.11729 28.16457,-26.11746 28.16455,-26.11764 28.16452,-26.11781 28.1645,-26.11799 28.16447,-26.11817 28.16445,-26.11834 28.16442,-26.11852 28.16439,-26.11869 28.16437,-26.11887 28.16434,-26.11905 28.16432,-26.11922 28.16429,-26.1194 28.16427,-26.11957 28.16424,-26.11975 28.16422,-26.11993 28.16419,-26.1201 28.16416,-26.12028 28.16414,-26.12046 28.16411,-26.12065 28.16394,-26.12183 28.1639,-26.12212 28.1638,-26.12214 28.16296,-26.12227 28.16107,-26.12258 28.16099,-26.12259 28.16071,-26.12264 28.16046,-26.12268 28.16012,-26.12274 28.15988,-26.12277 28.15983,-26.12278 28.15965,-26.12281 28.15938,-26.12286 28.15911,-26.1229 28.15883,-26.12294 28.15868,-26.12297 28.15862,-26.12298 28.1584,-26.12301 28.15812,-26.12306 28.1579,-26.1231 28.15784,-26.12311 28.15775,-26.12312 28.15766,-26.12314 28.15688,-26.12326 28.15682,-26.12327 28.15667,-26.1233 28.1566,-26.12331 28.15637,-26.12334 28.15612,-26.12338 28.15585,-26.12343 28.15559,-26.12347 28.1551,-26.12355 28.15483,-26.1236 28.1545,-26.12365 28.15413,-26.12371 28.1538,-26.12376 28.15349,-26.12381 28.15313,-26.12387 28.15272,-26.12394 28.15247,-26.12398 28.15219,-26.12402 28.15187,-26.12408 28.15148,-26.12414 28.1512,-26.12418 28.15077,-26.12425 28.15049,-26.1243 28.15021,-26.12434 28.14988,-26.1244 28.14961,-26.12444 28.14931,-26.12449 28.14902,-26.12454 28.14875,-26.12458 28.14835,-26.12465 28.1482,-26.12467 28.14786,-26.12473 28.14753,-26.12478 28.14724,-26.12483 28.14696,-26.12487 28.14662,-26.12493 28.14627,-26.12498 28.146,-26.12503 28.14584,-26.12505 28.14556,-26.1251 28.14527,-26.12515 28.14498,-26.12519 28.1447,-26.12524 28.14451,-26.12527 28.14388,-26.12537 28.14356,-26.12542 28.14325,-26.12548 28.14259,-26.12558 28.14248,-26.1256 28.14239,-26.12561 28.14236,-26.12562 28.14231,-26.12563 28.1418,-26.12571 28.14164,-26.12574 28.14099,-26.12584 28.14083,-26.12587 28.14076,-26.12588 28.14083,-26.12558 28.14113,-26.12438 28.14132,-26.12435 28.14117,-26.12422 28.14016,-26.12337 28.13843,-26.11803 28.13749,-26.11924 28.13569,-26.12154 28.13542,-26.12189 28.13549,-26.12204 28.13576,-26.12259 28.13674,-26.12462 28.13695,-26.12506 28.13747,-26.12613 28.1376,-26.12639 28.13605,-26.12641 28.13439,-26.13097 28.13378,-26.13269 28.13355,-26.13341 28.13341,-26.13415 28.13332,-26.13525 28.13308,-26.13692 28.13292,-26.13762 28.13291,-26.13772 28.13288,-26.13789 28.13252,-26.14047 28.13257,-26.14049 28.13254,-26.14075 28.13237,-26.14184 28.13208,-26.14364 28.1319,-26.14646 28.13205,-26.14696 28.13249,-26.14754 28.13288,-26.14805 28.1329,-26.14912 28.1329,-26.14925 28.13373,-26.14936 28.13421,-26.14938 28.13421,-26.14947 28.13355,-26.14944 28.13348,-26.14944 28.13197,-26.14939 28.13155,-26.14937 28.13151,-26.14937 28.13131,-26.14936 28.13047,-26.14933 28.12919,-26.14929 28.12915,-26.14928 28.12783,-26.14924 28.12455,-26.14913 28.12434,-26.14943 28.12425,-26.14957 28.12369,-26.1504 28.12277,-26.1515 28.12049,-26.15607 28.12022,-26.15611 28.11767,-26.16004 28.11471,-26.16173 28.1142,-26.1619 28.11815,-26.16644 28.11851,-26.16686 28.11274,-26.16778 28.1132,-26.16968 28.11322,-26.16976 28.11352,-26.17096 28.11362,-26.1714 28.11368,-26.17162 28.11373,-26.17184 28.11379,-26.17206 28.11389,-26.1725 28.11395,-26.17272 28.114,-26.17295 28.1142,-26.17375 28.11441,-26.17461 28.11448,-26.17479 28.11459,-26.17535 28.11467,-26.17568 28.1148,-26.1762 28.11514,-26.1776 28.11523,-26.17795 28.11538,-26.17858 28.11539,-26.17863 28.11578,-26.18021 28.11598,-26.18103 28.11624,-26.18211 28.11638,-26.18265 28.11651,-26.18319 28.11654,-26.18332 28.11673,-26.18406 28.11677,-26.18424 28.11702,-26.18529 28.11715,-26.18582 28.1174,-26.18683 28.11771,-26.18809 28.11774,-26.18819 28.11828,-26.19044 28.1186,-26.19173 28.11919,-26.19416 28.11967,-26.19614 28.11968,-26.19617 28.11981,-26.19667 28.11983,-26.19676 28.12014,-26.19802 28.12015,-26.19808 28.12017,-26.19817 28.12068,-26.20025 28.12076,-26.20059 28.12096,-26.20138 28.12103,-26.20169 28.12111,-26.20202 28.12121,-26.2024 28.12141,-26.20321 28.12214,-26.2062 28.12268,-26.20842 28.1227,-26.2085 28.12289,-26.20926 28.12292,-26.20932 28.12305,-26.20983 28.1231,-26.21001 28.12313,-26.21013 28.12323,-26.21052 28.1235,-26.21162 28.12367,-26.21231 28.12379,-26.2128 28.12391,-26.21327 28.12422,-26.21453 28.12435,-26.21506 28.12449,-26.21563 28.12469,-26.21648 28.12501,-26.21793 28.1251,-26.21829 28.12513,-26.2184 28.12521,-26.21873 28.12531,-26.21913 28.12547,-26.2198 28.12556,-26.22016 28.12564,-26.22047 28.12581,-26.22118 28.12646,-26.22383 28.12658,-26.22433 28.12703,-26.22439 28.12704,-26.22469 28.12711,-26.22718 28.12762,-26.22716 28.12641,-26.22986 28.12421,-26.23162 28.1249,-26.23171 28.1244,-26.23403 28.12472,-26.23404 28.12332,-26.23556 28.1224,-26.23915 28.12238,-26.23923 28.12241,-26.23923 28.12462,-26.23946 28.12458,-26.2396 28.12454,-26.23974 28.12344,-26.24492 28.12327,-26.24531 28.1233,-26.24561 28.12314,-26.24645 28.12295,-26.24732 28.12285,-26.24789 28.12285,-26.24793 28.11986,-26.24875 28.1181,-26.24923 28.10972,-26.25153 28.10601,-26.25256 28.09525,-26.25549 28.09532,-26.25758 28.09444,-26.2577 28.09367,-26.25781 28.09325,-26.25787 28.09289,-26.25792 28.09061,-26.25823 28.09024,-26.25829 28.08949,-26.25839 28.08924,-26.25842 28.0889,-26.25847 28.0886,-26.25851 28.08827,-26.25856 28.08794,-26.2586 28.0875,-26.25866 28.08713,-26.25872 28.08681,-26.25876 28.0865,-26.2588 28.08619,-26.25885 28.08588,-26.25889 28.08556,-26.25893 28.08525,-26.25898 28.08463,-26.25906 28.08393,-26.25916 28.08339,-26.25923 28.0822,-26.25937 28.07984,-26.25965 28.07794,-26.25985 28.07719,-26.25993 28.07704,-26.26004 28.07683,-26.26017 28.07664,-26.2603 28.07569,-26.2609 28.07566,-26.26092 28.07552,-26.26101 28.07544,-26.26106 28.07494,-26.26138 28.07467,-26.26156 28.0744,-26.26173 28.07426,-26.26182 28.07243,-26.26299 28.07238,-26.26302 28.07224,-26.26311 28.07217,-26.26316 28.07124,-26.26375 28.07097,-26.26392 28.07084,-26.26418 28.07078,-26.26428 28.0707,-26.26443 28.07075,-26.26466 28.07091,-26.26531 28.07092,-26.26537 28.07094,-26.26543 28.07139,-26.2673 28.06882,-26.26807 28.06561,-26.26823 28.06562,-26.26825 28.06568,-26.26847 28.0658,-26.26889 28.06584,-26.26904 28.06669,-26.27205 28.07049,-26.27261 28.07056,-26.27262 28.07201,-26.27864 28.07241,-26.28032 28.07244,-26.28045 28.07286,-26.28219 28.07345,-26.28463 28.07348,-26.28474 28.07421,-26.28776 28.07454,-26.28914 28.07513,-26.29157 28.07521,-26.29191 28.07639,-26.29682 28.07648,-26.29719 28.07653,-26.29742 28.07659,-26.29764 28.07664,-26.29787 28.0767,-26.29811 28.07675,-26.29834 28.07681,-26.29857 28.077,-26.29938 28.07736,-26.30085 28.07748,-26.30138 28.07807,-26.30381 28.08805,-26.30435 28.09004,-26.30446 28.09146,-26.30454 28.09477,-26.30472 28.09462,-26.30692 28.09053,-26.3067 28.0911,-26.31175 28.09087,-26.31177 28.09089,-26.31196 28.09107,-26.31356 28.08026,-26.32091 28.08102,-26.32687 28.08178,-26.33283 28.08145,-26.3343 28.08028,-26.33453 28.07995,-26.33459 28.07949,-26.33467 28.06655,-26.33708 28.06703,-26.33942 28.06727,-26.33935 28.06727,-26.33993 28.0671,-26.34194 28.06707,-26.342 28.05107,-26.34908 28.05081,-26.35153 28.05034,-26.35597 28.04783,-26.35958 28.04752,-26.35895 28.04193,-26.34751 28.04314,-26.34718 28.04243,-26.34615 28.04137,-26.34464 28.04128,-26.34472 28.04055,-26.34373 28.0401,-26.34311 28.03961,-26.34244 28.03893,-26.34238 28.03851,-26.34234 28.03629,-26.34214 28.03261,-26.34181 28.03134,-26.34171 28.02954,-26.34162 28.02753,-26.34184 28.02598,-26.34201 28.02567,-26.34205 28.02414,-26.34222 28.02274,-26.34209 28.02123,-26.34203 28.02127,-26.34176 28.01894,-26.34158 28.01841,-26.34167 28.01806,-26.34154 28.01718,-26.34123 28.01626,-26.3409 28.01558,-26.34066 28.01478,-26.34037 28.01465,-26.34033 28.01378,-26.34002 28.01272,-26.33964 28.01139,-26.33916 28.01138,-26.3392 28.00909,-26.35017 28.00902,-26.35052 28.00901,-26.35058 27.99031,-26.34633 27.98482,-26.34508 27.98434,-26.34497 27.96998,-26.3417 27.97008,-26.34038 27.97014,-26.3396 27.97035,-26.33716 27.97034,-26.33711 27.97011,-26.33709 27.96882,-26.33696 27.96861,-26.33694 27.96835,-26.33691 27.96723,-26.3368 27.9661,-26.33669 27.96497,-26.33657 27.96461,-26.33654 27.96384,-26.33646 27.96271,-26.33635 27.96208,-26.33629 27.95958,-26.33604 27.95923,-26.336 27.95887,-26.33597 27.95751,-26.33542 27.95686,-26.33516 27.95654,-26.33685 27.95621,-26.33856 27.95589,-26.34027 27.95556,-26.34201 27.95522,-26.34377 27.95488,-26.34559 27.95452,-26.34747 27.95433,-26.34849 27.95415,-26.34943 27.95382,-26.35118 27.95339,-26.3532 27.95025,-26.35366 27.94745,-26.35389 27.93549,-26.35539 27.92726,-26.35628 27.91223,-26.35895 27.91162,-26.35949 27.91029,-26.3604 27.90897,-26.3613 27.90758,-26.36235 27.90584,-26.36388 27.90546,-26.36432 27.90527,-26.36455 27.90465,-26.36527 27.90229,-26.36847 27.90055,-26.37084 27.89962,-26.37233 27.89929,-26.37286 27.89874,-26.37382 27.89853,-26.37418 27.89834,-26.37445 27.89804,-26.37488 27.89748,-26.37557 27.89712,-26.37634 27.89693,-26.37676 27.89644,-26.37787 27.89602,-26.37954 27.89574,-26.38051 27.89546,-26.38177 27.89535,-26.38296 27.89533,-26.38323 27.89512,-26.38525 27.89519,-26.38789 27.89519,-26.38949 27.89521,-26.38981 27.89526,-26.39054 27.89526,-26.39165 27.89484,-26.3936 27.89463,-26.39534 27.894,-26.39715 27.89385,-26.39747 27.8939,-26.3976 27.89403,-26.39836 27.89436,-26.39919 27.89421,-26.40032 27.89356,-26.40203 27.89361,-26.40314 27.89316,-26.40431 27.89908,-26.40369 27.90281,-26.40329 27.90541,-26.40301 27.90766,-26.40277 27.91042,-26.40248 27.91402,-26.4021 27.91678,-26.4018 27.91923,-26.40154 27.92217,-26.40123 27.92533,-26.40089 27.92849,-26.40056 27.93165,-26.40022 27.93555,-26.39982 27.93552,-26.4002 27.93539,-26.40198 27.93512,-26.40504 27.9349,-26.40748 27.93462,-26.4105 27.93418,-26.41533 27.93345,-26.42334 27.93338,-26.42418 27.93185,-26.42485 27.92493,-26.42783 27.9224,-26.42892 27.92227,-26.42898 27.92094,-26.43726 27.92087,-26.43723 27.92063,-26.43903 27.92047,-26.44002 27.92023,-26.44155 27.92,-26.44298 27.91977,-26.44442 27.91955,-26.44581 27.91932,-26.44727 27.91909,-26.44868 27.91887,-26.4501 27.91871,-26.45106 27.91863,-26.45161 27.91853,-26.45219 27.91839,-26.45307 27.91828,-26.45378 27.91817,-26.45446 27.91815,-26.45459 27.91793,-26.45596 27.9177,-26.45743 27.91752,-26.45854 27.91751,-26.45858 27.91385,-26.45857 27.91221,-26.45849 27.91248,-26.45684 27.9127,-26.4553 27.91291,-26.45389 27.91313,-26.4524 27.91328,-26.45159 27.91337,-26.45099 27.9134,-26.4505 27.91354,-26.44956 27.91375,-26.44807 27.91395,-26.44662 27.91408,-26.44583 27.91418,-26.44517 27.91436,-26.44376 27.91453,-26.44292 27.91462,-26.44236 27.91484,-26.44097 27.91397,-26.44108 27.91228,-26.44131 27.91082,-26.44159 27.91064,-26.44158 27.90914,-26.44182 27.90749,-26.44211 27.90713,-26.44217 27.90569,-26.44242 27.90398,-26.44269 27.9038,-26.44271 27.90204,-26.44302 27.90045,-26.44325 27.90011,-26.44332 27.89811,-26.44366 27.89701,-26.44385 27.89604,-26.44399 27.89382,-26.44436 27.89345,-26.4444 27.89167,-26.44471 27.89156,-26.44472 27.88989,-26.445 27.88929,-26.44508 27.88642,-26.44555 27.88408,-26.44597 27.87915,-26.44675 27.87915,-26.44671 27.87864,-26.44088 27.88012,-26.43965 27.88012,-26.43867 27.87904,-26.43888 27.87733,-26.43919 27.87708,-26.43947 27.87672,-26.43982 27.87637,-26.44009 27.87599,-26.44036 27.87487,-26.44108 27.87406,-26.44153 27.87153,-26.44308 27.87146,-26.44331 27.86907,-26.4448 27.86948,-26.44659 27.86957,-26.4488 27.86958,-26.4491 27.86958,-26.44917 27.86965,-26.45084 27.8697,-26.45202 27.8697,-26.45212 27.86972,-26.45225 27.86976,-26.45289 27.86984,-26.45423 27.86965,-26.45421 27.86947,-26.45333 27.86954,-26.45462 27.86967,-26.45648 27.86968,-26.45659 27.8697,-26.45696 27.86972,-26.45722 27.86972,-26.45726 27.86987,-26.45955 27.86994,-26.4606 27.87042,-26.46787 27.87059,-26.47054 27.87075,-26.47276 27.87077,-26.47271 27.87078,-26.47274 27.87078,-26.4728 27.87068,-26.4741 27.87062,-26.47499 27.87073,-26.47561 27.87205,-26.47818 27.87225,-26.47839 27.87229,-26.47844 27.87246,-26.47861 27.87248,-26.47865 27.87254,-26.47877 27.87328,-26.47929 27.87353,-26.47946 27.87364,-26.47954 27.8738,-26.47965 27.87452,-26.48016 27.87465,-26.48024 27.87469,-26.48027 27.87472,-26.48029 27.87479,-26.48036 27.87482,-26.48038 27.87486,-26.4804 27.87492,-26.48046 27.87498,-26.4805 27.87528,-26.4808 27.87536,-26.48089 27.87827,-26.48425 27.8805,-26.48681 27.88061,-26.48694 27.88079,-26.48716 27.88087,-26.48727 27.88096,-26.48739 27.88104,-26.4875 27.88112,-26.48762 27.88119,-26.48774 27.88127,-26.48786 27.88148,-26.48822 27.88154,-26.48834 27.8816,-26.48847 27.88166,-26.48859 27.88173,-26.48874 27.88178,-26.48885 27.88183,-26.48897 27.88193,-26.48923 27.88197,-26.48936 27.88202,-26.48949 27.88206,-26.48963 27.88209,-26.48976 27.88255,-26.49144 27.88297,-26.49297 27.88482,-26.49971 27.88612,-26.50444 27.88584,-26.50506 27.88578,-26.50519 27.88621,-26.50533 27.88655,-26.50544 27.88655,-26.50547 27.8866,-26.50639 27.88655,-26.50693 27.88604,-26.51025 27.88601,-26.51086 27.88609,-26.51205 27.88653,-26.51652 27.88702,-26.52236 27.88737,-26.52629 27.88721,-26.52625 27.88705,-26.52622 27.88671,-26.52236 27.8836,-26.52237 27.8836,-26.52233 27.88188,-26.52234 27.88123,-26.52235 27.8812,-26.52235 27.8802,-26.52226 27.87922,-26.52205 27.87826,-26.52181 27.87798,-26.5217 27.87792,-26.52167 27.87734,-26.52144 27.87646,-26.52101 27.87563,-26.5205 27.87488,-26.5199 27.87414,-26.51929 27.87254,-26.51786 27.87205,-26.5176 27.8718,-26.51757 27.87162,-26.51741 27.87158,-26.51719 27.8713,-26.51674 27.86689,-26.5128 27.86639,-26.51254 27.86614,-26.51251 27.86606,-26.51244 27.86597,-26.51235 27.86593,-26.51213 27.86564,-26.51168 27.86458,-26.51073 27.86457,-26.51051 27.86455,-26.51 27.86432,-26.50979 27.86046,-26.50629 27.86043,-26.50626 27.85985,-26.50647 27.85783,-26.50464 27.85776,-26.50458 27.85753,-26.50437 27.85648,-26.50342 27.8556,-26.50262 27.85425,-26.50139 27.85424,-26.50139 27.85401,-26.50118 27.85335,-26.50064 27.85292,-26.50029 27.85201,-26.49973 27.84737,-26.49718 27.84689,-26.49692 27.84682,-26.49688 27.84167,-26.49406 27.83507,-26.49045 27.83475,-26.49075 27.82996,-26.50008 27.82981,-26.50037 27.82778,-26.50434 27.82773,-26.50443 27.82761,-26.5035 27.82665,-26.49627 27.82518,-26.48519 27.82447,-26.47988 27.82169,-26.48488 27.81911,-26.48453 27.81849,-26.48445 27.81785,-26.48436 27.81659,-26.48419 27.81534,-26.48402 27.8141,-26.48386 27.81288,-26.4837 27.81167,-26.48353 27.80929,-26.48321 27.80811,-26.48306 27.80695,-26.4829 27.80589,-26.48276 27.80579,-26.48274 27.80464,-26.48259 27.8035,-26.48244 27.80296,-26.48236 27.78132,-26.47945 27.78104,-26.47942 27.77955,-26.47922 27.77954,-26.4793 27.77902,-26.48366 27.77886,-26.48501 27.75971,-26.48387 27.75942,-26.45965 27.75924,-26.44466 27.76894,-26.44565 27.76926,-26.45072 27.76928,-26.45096 27.7698,-26.45113 27.76987,-26.45107 27.77012,-26.45086 27.77044,-26.45093 27.7706,-26.45137 27.77277,-26.45195 27.77591,-26.45221 27.7773,-26.45233 27.78028,-26.45258 27.78058,-26.45201 27.7815,-26.45027 27.7834,-26.4467 27.78594,-26.44762 27.78663,-26.44612 27.7874,-26.44444 27.78894,-26.4411 27.78971,-26.43942 27.79048,-26.43775 27.79125,-26.43607 27.79202,-26.4344 27.79308,-26.4321 27.79455,-26.42888 27.79165,-26.42024 27.79163,-26.42019 27.79009,-26.41985 27.78618,-26.41898 27.77207,-26.41907 27.76869,-26.41909 27.76129,-26.41915 27.7581,-26.40206 27.75724,-26.39748 27.75614,-26.39163 27.75486,-26.38476 27.75475,-26.38415 27.75474,-26.38411 27.75463,-26.38327 27.75403,-26.37871 27.75357,-26.37511 27.75327,-26.37285 27.7528,-26.36922 27.75186,-26.362 27.75886,-26.36229 27.75945,-26.36232 27.76109,-26.36239 27.76269,-26.36246 27.76786,-26.36268 27.7687,-26.36272 27.76954,-26.36275 27.77038,-26.36279 27.77122,-26.36282 27.7729,-26.3629 27.77374,-26.36293 27.77458,-26.36297 27.77542,-26.363 27.77626,-26.36304 27.7828,-26.36333 27.7891,-26.36359 27.80284,-26.36417 27.80285,-26.36411 27.80711,-26.36429 27.81154,-26.36447 27.81159,-26.36448 27.81154,-26.36298 27.81045,-26.33289 27.82083,-26.33628 27.82447,-26.33748 27.82409,-26.33288 27.82341,-26.32475 27.8234,-26.32457 27.82338,-26.32437 27.82334,-26.32387 27.82322,-26.32239 27.82277,-26.31691 27.82274,-26.3167 27.82274,-26.31667 27.82272,-26.31639 27.82227,-26.31102 27.82226,-26.31089 27.82226,-26.31086 27.82176,-26.30476 27.82176,-26.30439 27.82181,-26.30407 27.82161,-26.30405 27.82002,-26.30388 27.81529,-26.30339 27.81528,-26.30249 27.81528,-26.30229 27.81527,-26.30173 27.81525,-26.29945 27.81522,-26.29456 27.81518,-26.29006 27.81515,-26.28692 27.81514,-26.28678 27.81506,-26.28573 27.81504,-26.28554 27.81484,-26.285 27.81468,-26.28486 27.81421,-26.28473 27.8138,-26.28477 27.81377,-26.28498 27.81368,-26.28565 27.80957,-26.286 27.80913,-26.28604 27.80845,-26.2861 27.8069,-26.28623 27.80325,-26.28654 27.80303,-26.28656 27.80279,-26.28658 27.79967,-26.28684 27.7952,-26.28722 27.7923,-26.28747 27.78972,-26.30391 27.7828,-26.30435 27.78022,-26.29654 27.77651,-26.28533 27.77253,-26.28556 27.76351,-26.28608 27.7438,-26.28722 27.74465,-26.27949 27.75052,-26.26522 27.75348,-26.25804 27.72915,-26.24629 27.72899,-26.24527 27.72853,-26.24249 27.72611,-26.24037 27.72653,-26.24019 27.72644,-26.24007 27.72616,-26.23978 27.72579,-26.23942 27.72495,-26.2387 27.72469,-26.23808 27.72327,-26.2348 27.72236,-26.23268 27.72065,-26.22872 27.71875,-26.22429 27.71776,-26.22199 27.71479,-26.21507 27.71427,-26.21387 27.7157,-26.2143 27.71851,-26.21389 27.71958,-26.21067 27.71928,-26.21058 27.71952,-26.20899 27.71953,-26.20891 27.71956,-26.20872 27.72013,-26.20495 27.72029,-26.20386 27.71776,-26.20286 27.71827,-26.19893 27.74569,-26.20622 27.74952,-26.20724 27.77199,-26.21321 27.77449,-26.20769 27.77667,-26.20289 27.77969,-26.19622 27.78134,-26.1926 27.78187,-26.19142 27.78212,-26.19088 27.78239,-26.19028 27.78457,-26.18548 27.78537,-26.18367 27.78571,-26.18292 27.7861,-26.18205 27.78613,-26.18198 27.78614,-26.18195 27.78945,-26.18198 27.79251,-26.18198 27.79366,-26.18198 27.79478,-26.18199 27.79514,-26.18199 27.79971,-26.18197 27.80592,-26.18203 27.8106,-26.18208 27.81059,-26.18204 27.81056,-26.18191 27.80909,-26.17519 27.80906,-26.17506 27.81201,-26.17589 27.81352,-26.17606 27.81805,-26.17596 27.81853,-26.17501 27.81857,-26.17501 27.81861,-26.17499 27.81866,-26.17498 27.81872,-26.17497 27.81876,-26.17496 27.81883,-26.17493 27.81894,-26.17489 27.81902,-26.17482 27.81906,-26.17477 27.81909,-26.17473 27.81913,-26.17469 27.81915,-26.17465 27.81918,-26.17461 27.8192,-26.17457 27.81923,-26.17453 27.81929,-26.17443 27.81931,-26.17438 27.81937,-26.1743 27.8194,-26.17428 27.81955,-26.17437 27.81946,-26.1742 27.81948,-26.17416 27.81951,-26.17412 27.81953,-26.17406 27.81956,-26.17401 27.81958,-26.17395 27.81969,-26.17373 27.81971,-26.17366 27.81974,-26.17359 27.81976,-26.17353 27.81978,-26.17341 27.81979,-26.17337 27.8198,-26.1733 27.81978,-26.17324 27.81978,-26.17316 27.81977,-26.17311 27.81975,-26.17305 27.81974,-26.17299 27.8197,-26.17294 27.81966,-26.17291 27.81963,-26.17288 27.81959,-26.17285 27.81953,-26.17281 27.8195,-26.17278 27.81945,-26.17276 27.81941,-26.17274 27.81939,-26.17271 27.81936,-26.17269 27.81934,-26.17267 27.81933,-26.17263 27.81935,-26.17258 27.81936,-26.17254 27.81936,-26.17251 27.81937,-26.17248 27.81937,-26.17206 27.81935,-26.17204 27.81933,-26.172 27.81933,-26.17191 27.81932,-26.17188 27.81927,-26.17181 27.81927,-26.17177 27.81925,-26.17175 27.81922,-26.17169 27.81921,-26.17165 27.81918,-26.17162 27.81916,-26.17158 27.81914,-26.17156 27.8191,-26.17147 27.8191,-26.17144 27.81908,-26.17141 27.81905,-26.17134 27.81903,-26.1713 27.81902,-26.17127 27.81899,-26.17121 27.81897,-26.17119 27.81896,-26.17115 27.81893,-26.17108 27.8189,-26.17103 27.81889,-26.17099 27.81888,-26.17096 27.81888,-26.17093 27.81886,-26.17091 27.81884,-26.17088 27.81882,-26.17085 27.8188,-26.17083 27.81879,-26.1708 27.81872,-26.17073 27.8187,-26.17069 27.81868,-26.17065 27.81864,-26.17061 27.81861,-26.17057 27.81859,-26.17054 27.81857,-26.1705 27.81855,-26.17048 27.81852,-26.17045 27.8185,-26.17041 27.81847,-26.17038 27.81843,-26.1703 27.81841,-26.17026 27.81838,-26.17021 27.81835,-26.17016 27.81832,-26.17013 27.8183,-26.17009 27.81828,-26.17007 27.81825,-26.17004 27.81821,-26.17 27.81815,-26.16993 27.81811,-26.16992 27.81808,-26.16989 27.81806,-26.16987 27.81803,-26.16984 27.818,-26.16982 27.81798,-26.16979 27.81795,-26.16977 27.81787,-26.16973 27.81785,-26.1697 27.8178,-26.16968 27.81778,-26.16966 27.81776,-26.16963 27.8177,-26.1696 27.81766,-26.16956 27.81762,-26.16954 27.81759,-26.16953 27.81749,-26.16948 27.81746,-26.16947 27.81741,-26.16945 27.81732,-26.16941 27.81726,-26.16937 27.81722,-26.16936 27.8171,-26.16928 27.81706,-26.16927 27.81702,-26.16924 27.81699,-26.16921 27.81695,-26.16918 27.81693,-26.16916 27.81689,-26.16912 27.81683,-26.16909 27.8168,-26.16905 27.81678,-26.16903 27.81675,-26.16901 27.8167,-26.16896 27.81667,-26.16894 27.81664,-26.16893 27.8166,-26.16889 27.81656,-26.16886 27.81652,-26.16883 27.81642,-26.16874 27.81638,-26.16872 27.81634,-26.16871 27.81631,-26.16868 27.81622,-26.16862 27.8162,-26.1686 27.81616,-26.16859 27.81611,-26.16854 27.81606,-26.16852 27.81601,-26.16848 27.81598,-26.16846 27.81594,-26.16843 27.8159,-26.16841 27.81587,-26.16839 27.81584,-26.16836 27.81581,-26.16834 27.81577,-26.16832 27.81573,-26.16828 27.8157,-26.16826 27.81567,-26.16825 27.81565,-26.16823 27.81562,-26.16822 27.81556,-26.16819 27.81543,-26.16815 27.81538,-26.16813 27.81532,-26.16813 27.81528,-26.16811 27.81513,-26.16811 27.8151,-26.1681 27.81506,-26.16811 27.81501,-26.16812 27.81498,-26.16813 27.81494,-26.16814 27.81488,-26.16816 27.81484,-26.16816 27.81479,-26.16818 27.81475,-26.16819 27.8147,-26.16821 27.81465,-26.16822 27.81451,-26.16823 27.81446,-26.16821 27.81442,-26.1682 27.81437,-26.16818 27.81429,-26.16816 27.81426,-26.16815 27.81423,-26.16814 27.8142,-26.16812 27.81416,-26.1681 27.81414,-26.16808 27.8141,-26.16807 27.81406,-26.16805 27.81401,-26.16801 27.81399,-26.16799 27.81396,-26.16798 27.81391,-26.16796 27.81389,-26.16794 27.81386,-26.16792 27.81382,-26.1679 27.81379,-26.16788 27.81375,-26.16784 27.81371,-26.16783 27.81368,-26.16781 27.81363,-26.16779 27.8136,-26.16778 27.81358,-26.16776 27.81352,-26.16773 27.81349,-26.16772 27.81343,-26.16769 27.81339,-26.16766 27.81335,-26.16765 27.81333,-26.16763 27.81326,-26.16758 27.81321,-26.16756 27.81318,-26.16755 27.8131,-26.16753 27.81306,-26.1675 27.81299,-26.16748 27.81294,-26.16746 27.81291,-26.16743 27.81288,-26.16743 27.81286,-26.16741 27.81282,-26.1674 27.81278,-26.16739 27.81274,-26.16736 27.8127,-26.16734 27.81268,-26.16732 27.81265,-26.16732 27.81263,-26.1673 27.8126,-26.16728 27.81258,-26.16726 27.81255,-26.16725 27.81252,-26.16722 27.81248,-26.1672 27.81245,-26.16717 27.81241,-26.16713 27.81236,-26.16709 27.81233,-26.16705 27.8123,-26.16703 27.81228,-26.167 27.81227,-26.16697 27.81225,-26.16695 27.81234,-26.16689 27.81304,-26.16656 27.81397,-26.16489 27.81812,-26.15749 27.81814,-26.15746 27.81825,-26.15725 27.82117,-26.15205 27.82257,-26.14955 27.82572,-26.14393 27.83312,-26.13072 27.83457,-26.12813 27.83461,-26.12805 27.83468,-26.12793 27.83574,-26.12603 27.83592,-26.12586 27.83738,-26.12449 27.83724,-26.1243 27.83881,-26.12022 27.83786,-26.11991 27.83859,-26.11795 27.83871,-26.11764 27.839,-26.11685 27.83217,-26.11456 27.83189,-26.11365 27.83204,-26.11274 27.83262,-26.11137 27.83229,-26.11085 27.83223,-26.11078 27.83218,-26.1107 27.8321,-26.11059 27.83205,-26.11047 27.83199,-26.1103 27.83194,-26.11017 27.83188,-26.11004 27.83184,-26.10993 27.83188,-26.1098 27.83196,-26.10973 27.832,-26.10966 27.83201,-26.10956 27.83204,-26.10927 27.83204,-26.10913 27.83205,-26.109 27.83205,-26.10884 27.83203,-26.10873 27.83203,-26.10863 27.83206,-26.10856 27.83215,-26.10854 27.83226,-26.10853 27.83235,-26.10849 27.83252,-26.10844 27.83271,-26.10837 27.83285,-26.10827 27.83301,-26.10816 27.83312,-26.10809 27.83319,-26.10806 27.83326,-26.10798 27.83334,-26.10789 27.83346,-26.10781 27.83357,-26.10777 27.83361,-26.10775 27.83378,-26.10763 27.8339,-26.10754 27.83397,-26.10751 27.83406,-26.10743 27.8341,-26.10739 27.83416,-26.10734 27.83422,-26.10726 27.83431,-26.10722 27.83438,-26.10719 27.83451,-26.10715 27.83459,-26.10711 27.83468,-26.10707 27.83478,-26.10706 27.83485,-26.10702 27.835,-26.10692 27.83519,-26.10682 27.83528,-26.1068 27.83542,-26.10681 27.8358,-26.10692 27.83588,-26.10692 27.83596,-26.10693 27.83613,-26.10703 27.83618,-26.10705 27.83623,-26.10706 27.83627,-26.10708 27.83631,-26.10711 27.83639,-26.10716 27.83648,-26.1072 27.83668,-26.10726 27.8369,-26.10737 27.83699,-26.1074 27.83711,-26.10743 27.83721,-26.10747 27.83739,-26.10759 27.83746,-26.1076 27.83749,-26.10759 27.83753,-26.10757 27.83757,-26.10756 27.83763,-26.10753 27.83767,-26.10754 27.83771,-26.10754 27.83774,-26.10755 27.83778,-26.10757 27.83781,-26.10758 27.83788,-26.10762 27.83794,-26.10765 27.83805,-26.10765 27.83809,-26.10764 27.83816,-26.10762 27.8382,-26.10761 27.83823,-26.10761 27.83827,-26.10759 27.83832,-26.10757 27.8384,-26.10758 27.83846,-26.10761 27.8385,-26.10763 27.83854,-26.10764 27.83857,-26.10764 27.83863,-26.10762 27.83869,-26.10758 27.83873,-26.10754 27.83878,-26.10748 27.83887,-26.10738 27.83892,-26.10733 27.83898,-26.1073 27.83904,-26.10729 27.83911,-26.10729 27.83916,-26.10728 27.83924,-26.10726 27.83933,-26.10724 27.83939,-26.10722 27.83946,-26.10719 27.83953,-26.10715 27.83956,-26.10712 27.83957,-26.10709 27.8396,-26.10703 27.83965,-26.10687 27.83962,-26.10671 27.83967,-26.10658 27.83971,-26.10646 27.83974,-26.10638 27.83976,-26.10619 27.83978,-26.10601 27.83968,-26.10589 27.83959,-26.10576 27.83957,-26.10565 27.83959,-26.10561 27.83959,-26.1055 27.83962,-26.10537 27.83966,-26.10523 27.83968,-26.10515 27.83971,-26.10509 27.83973,-26.10494 27.83977,-26.10477 27.83989,-26.10461 27.83991,-26.10456 27.83997,-26.10449 27.84003,-26.10444 27.84011,-26.10432 27.84011,-26.10428 27.8401,-26.10424 27.84009,-26.10421 27.84008,-26.10416 27.84006,-26.10409 27.84006,-26.10394 27.84007,-26.10391 27.84008,-26.10387 27.84009,-26.10383 27.84009,-26.1038 27.8401,-26.10377 27.8401,-26.10374 27.84006,-26.10369 27.84001,-26.10365 27.83999,-26.10362 27.83996,-26.10359 27.8399,-26.10355 27.83984,-26.10349 27.8398,-26.10346 27.83977,-26.10343 27.83975,-26.1034 27.83975,-26.10325 27.83976,-26.10321 27.83976,-26.10312 27.83978,-26.10306 27.83982,-26.103 27.83984,-26.10298 27.83988,-26.10295 27.84,-26.10295 27.84003,-26.10294 27.84008,-26.10292 27.84008,-26.10286 27.84008,-26.10279 27.84006,-26.10273 27.84006,-26.1027 27.84004,-26.10265 27.84003,-26.10262 27.84003,-26.10259 27.84001,-26.10253 27.84,-26.10249 27.83998,-26.10245 27.83997,-26.10241 27.83997,-26.10235 27.84,-26.1023 27.84002,-26.10225 27.84003,-26.10221 27.84004,-26.10215 27.84004,-26.1021 27.84006,-26.10201 27.84009,-26.1018 27.84011,-26.10174 27.84011,-26.10169 27.8401,-26.10165 27.84009,-26.10158 27.84008,-26.10153 27.84008,-26.10141 27.84007,-26.10134 27.84006,-26.10126 27.84006,-26.1012 27.84005,-26.10117 27.84004,-26.10113 27.84,-26.10109 27.83994,-26.10102 27.83988,-26.10096 27.83982,-26.10088 27.83974,-26.10079 27.83966,-26.10066 27.83962,-26.1006 27.83955,-26.10051 27.8395,-26.10041 27.83947,-26.10036 27.83944,-26.1003 27.83943,-26.10022 27.83943,-26.10017 27.83944,-26.10007 27.83942,-26.1 27.83942,-26.09995 27.83939,-26.09986 27.83937,-26.09984 27.83935,-26.09979 27.83929,-26.09973 27.83926,-26.09968 27.83922,-26.09962 27.8392,-26.09958 27.83918,-26.09953 27.83915,-26.09946 27.83912,-26.0994 27.83911,-26.09935 27.8391,-26.09929 27.83905,-26.09923 27.83902,-26.09918 27.83901,-26.09914 27.83901,-26.09909 27.83906,-26.09904 27.83909,-26.09901 27.83907,-26.09895 27.83905,-26.09891 27.83903,-26.09884 27.83907,-26.09877 27.83915,-26.0986 27.83922,-26.09846 27.83924,-26.09839 27.83931,-26.09829 27.83937,-26.09824 27.83942,-26.09818 27.83947,-26.09811 27.83952,-26.098 27.83956,-26.09794 27.83959,-26.09787 27.83959,-26.09783 27.83962,-26.09778 27.83965,-26.09776 27.83969,-26.09773 27.83974,-26.09763 27.83975,-26.0976 27.83975,-26.09757 27.83978,-26.09755 27.83981,-26.09748 27.83982,-26.09744 27.83984,-26.09741 27.83984,-26.09738 27.83985,-26.09735 27.83985,-26.09726 27.83983,-26.0972 27.83983,-26.09717 27.83982,-26.09711 27.83981,-26.09707 27.83978,-26.09702 27.83976,-26.09698 27.83975,-26.09694 27.83973,-26.09689 27.83972,-26.09686 27.83969,-26.09681 27.83968,-26.09678 27.83964,-26.09672 27.83958,-26.09665 27.83951,-26.09659 27.83943,-26.09651 27.83937,-26.09644 27.83933,-26.09642 27.83926,-26.09638 27.8391,-26.09622 27.83905,-26.09619 27.839,-26.09612 27.83895,-26.09608 27.8389,-26.09605 27.83883,-26.096 27.83871,-26.09594 27.83865,-26.0959 27.8386,-26.09586 27.83856,-26.09581 27.83851,-26.09575 27.83847,-26.0957 27.83847,-26.09564 27.83846,-26.0956 27.83842,-26.0955 27.83842,-26.09547 27.83845,-26.09542 27.83849,-26.09534 27.83851,-26.09531 27.83854,-26.0953 27.83856,-26.09526 27.83858,-26.09521 27.83861,-26.09517 27.83863,-26.09514 27.83865,-26.0951 27.83868,-26.09507 27.83872,-26.09502 27.83876,-26.09494 27.83878,-26.09489 27.83881,-26.09483 27.83884,-26.09479 27.83888,-26.09478 27.83891,-26.09477 27.8389,-26.09473 27.8389,-26.09467 27.83895,-26.09457 27.83898,-26.09454 27.83899,-26.09449 27.83901,-26.09446 27.83906,-26.09444 27.83908,-26.09442 27.83911,-26.0944 27.83912,-26.09437 27.83915,-26.09436 27.83919,-26.09436 27.83924,-26.09435 27.83926,-26.09433 27.83928,-26.09423 27.83926,-26.09419 27.83924,-26.09414 27.83926,-26.09407 27.83927,-26.09401 27.83929,-26.09396 27.83932,-26.0939 27.83933,-26.09383 27.83937,-26.09368 27.83937,-26.09355 27.83934,-26.09347 27.83933,-26.09339 27.83931,-26.09321 27.83931,-26.09308 27.83929,-26.09303 27.83927,-26.09299 27.83924,-26.09296 27.83923,-26.09293 27.8392,-26.09291 27.83918,-26.09279 27.83915,-26.09274 27.83913,-26.0927 27.83914,-26.09265 27.83914,-26.0926 27.83913,-26.09255 27.83911,-26.09248 27.83909,-26.09242 27.8391,-26.09237 27.8391,-26.0923 27.83911,-26.09222 27.83914,-26.09216 27.83916,-26.09213 27.83919,-26.09208 27.83922,-26.09206 27.83926,-26.09207 27.8393,-26.09209 27.83934,-26.0921 27.83937,-26.09209 27.83944,-26.09202 27.83949,-26.09198 27.83954,-26.09198 27.83957,-26.09201 27.83963,-26.09203 27.83966,-26.09202 27.83963,-26.09197 27.83931,-26.09162 27.83879,-26.09105 27.83756,-26.08794 27.83762,-26.08793 27.83531,-26.08463 27.84338,-26.08338 27.844,-26.08329 27.84415,-26.08326 27.84414,-26.08321 27.84412,-26.08315 27.84409,-26.08313 27.84408,-26.08308 27.84408,-26.08304 27.84413,-26.08299 27.84417,-26.08296 27.84423,-26.08292 27.84426,-26.08289 27.84429,-26.08288 27.84432,-26.08286 27.84437,-26.08282 27.84441,-26.08281 27.84443,-26.08279 27.84449,-26.08276 27.84456,-26.08271 27.84464,-26.08267 27.84468,-26.08264 27.8447,-26.08262 27.84472,-26.08259 27.84474,-26.08257 27.84476,-26.08254 27.84477,-26.0825 27.84477,-26.08227 27.84478,-26.08223 27.84475,-26.08214 27.8447,-26.08208 27.84466,-26.08202 27.8446,-26.08183 27.84457,-26.08161 27.84455,-26.08146 27.84455,-26.08135 27.84456,-26.08117 27.8446,-26.08107 27.84465,-26.08103 27.8447,-26.081 27.84474,-26.08097 27.84481,-26.08094 27.84485,-26.08093 27.84488,-26.08092 27.84492,-26.08087 27.84493,-26.08084 27.84493,-26.0808 27.84494,-26.08076 27.84494,-26.08059 27.84493,-26.08055 27.84493,-26.08046 27.84492,-26.08041 27.84492,-26.08031 27.84491,-26.08025 27.84491,-26.08021 27.8449,-26.08017 27.8449,-26.08009 27.84489,-26.08005 27.84489,-26.08 27.8449,-26.07995 27.84491,-26.07964 27.84492,-26.07948 27.84492,-26.07943 27.84493,-26.07938 27.84495,-26.07932 27.84496,-26.07927 27.84497,-26.07921 27.84498,-26.07916 27.845,-26.07911 27.84501,-26.079 27.84501,-26.07895 27.84502,-26.0789 27.84504,-26.07874 27.84505,-26.07867 27.84505,-26.07853 27.84504,-26.07846 27.84503,-26.07842 27.84502,-26.07839 27.845,-26.07837 27.84497,-26.07833 27.84495,-26.0783 27.84492,-26.07829 27.84489,-26.07828 27.84487,-26.07827 27.84483,-26.07825 27.84479,-26.07822 27.84476,-26.07819 27.84475,-26.07816 27.84473,-26.07812 27.84473,-26.07808 27.84471,-26.07803 27.8447,-26.07799 27.84466,-26.07791 27.84465,-26.07788 27.84462,-26.07785 27.84459,-26.07781 27.84457,-26.07777 27.84456,-26.07773 27.84454,-26.07769 27.84453,-26.07766 27.84452,-26.07762 27.84451,-26.07759 27.84449,-26.07756 27.84448,-26.07752 27.84447,-26.07749 27.84444,-26.07745 27.84443,-26.07742 27.84442,-26.07737 27.84441,-26.07735 27.84439,-26.07732 27.84438,-26.0773 27.84437,-26.07726 27.84435,-26.07722 27.84434,-26.07718 27.84432,-26.07713 27.8443,-26.07707 27.8443,-26.077 27.84429,-26.07695 27.84428,-26.07691 27.84426,-26.07687 27.84425,-26.07683 27.84422,-26.0768 27.84421,-26.07678 27.8442,-26.07674 27.84419,-26.07671 27.84417,-26.07668 27.84415,-26.07663 27.84413,-26.0766 27.84413,-26.07657 27.84412,-26.07655 27.84411,-26.07651 27.84409,-26.07646 27.84408,-26.07642 27.84408,-26.07637 27.84407,-26.07633 27.84405,-26.07629 27.84404,-26.0762 27.84404,-26.07607 27.84404,-26.07604 27.84405,-26.07601 27.84407,-26.07597 27.84408,-26.07594 27.8441,-26.07592 27.84412,-26.07588 27.84414,-26.07586 27.84417,-26.07584 27.84418,-26.07581 27.8442,-26.07578 27.84421,-26.07573 27.84421,-26.07567 27.84421,-26.07563 27.84418,-26.07552 27.84394,-26.07498 27.84371,-26.07444 27.84347,-26.0739 27.84345,-26.07387 27.84344,-26.07375 27.84343,-26.07365 27.84341,-26.07359 27.84341,-26.07351 27.84339,-26.07342 27.84339,-26.07333 27.84337,-26.07326 27.84334,-26.0732 27.84332,-26.07312 27.84327,-26.07306 27.84323,-26.07298 27.84318,-26.07293 27.84312,-26.07286 27.84308,-26.0728 27.84304,-26.07275 27.84297,-26.0727 27.8429,-26.07266 27.84282,-26.07261 27.84275,-26.0726 27.84268,-26.07255 27.84262,-26.07249 27.84254,-26.07245 27.84249,-26.07247 27.84244,-26.07244 27.84239,-26.07239 27.84225,-26.0723 27.84237,-26.07214 27.8426,-26.07185 27.84617,-26.07245 27.84656,-26.07252 27.84737,-26.07266 27.84841,-26.07283 27.84917,-26.07296 27.84957,-26.07303 27.8506,-26.0732 27.85155,-26.07337 27.85161,-26.07338 27.85247,-26.07352 27.8525,-26.07353 27.85363,-26.07372 27.85431,-26.07384 27.85492,-26.07394 27.85778,-26.07442 27.85918,-26.07466 27.85978,-26.07476 27.86064,-26.07491 27.86166,-26.07508 27.86222,-26.07518 27.86383,-26.07545 27.86437,-26.07554 27.86524,-26.07536 27.86651,-26.07511 27.86544,-26.07431 27.86183,-26.07158 27.8617,-26.07148 27.8581,-26.06876 27.85469,-26.06618 27.85411,-26.06575 27.85409,-26.06573 27.85294,-26.06487 27.85291,-26.06484 27.84994,-26.0626 27.84964,-26.06238 27.84996,-26.06195 27.85096,-26.06061 27.85157,-26.05979 27.85555,-26.05881 27.8556,-26.0588 27.85748,-26.05833 27.86144,-26.05736 27.86464,-26.05657 27.86551,-26.05876 27.86554,-26.05884 27.86657,-26.06142 27.86659,-26.06147 27.86801,-26.06507 27.86804,-26.06507 27.86897,-26.0647 27.86877,-26.06419 27.87199,-26.06246 27.87164,-26.06199 27.87211,-26.0617 27.87206,-26.06153 27.87169,-26.0603 27.87118,-26.06042 27.86974,-26.05779 27.87049,-26.05746 27.87052,-26.05745 27.87148,-26.05755 27.87152,-26.05755 27.87612,-26.05802 27.87664,-26.05918 27.87666,-26.05921 27.87708,-26.06017 27.87714,-26.0603 27.87765,-26.06147 27.87767,-26.0615 27.87779,-26.06175 27.87879,-26.06125 27.87824,-26.06023 27.8808,-26.05748 27.88113,-26.05736 27.88282,-26.05925 27.88366,-26.05883 27.88454,-26.0584 27.88456,-26.05838 27.88541,-26.05796 27.88595,-26.05769 27.88628,-26.05753 27.88803,-26.05666 27.89018,-26.06017 27.89087,-26.05983 27.89093,-26.05979 27.89252,-26.059 27.89377,-26.05838 27.89418,-26.05817 27.89625,-26.06181 27.89627,-26.06185 27.897,-26.05906 27.89698,-26.05903 27.89759,-26.05672 27.8976,-26.05669 27.89764,-26.05653 27.8979,-26.05555 27.89828,-26.05412 27.89856,-26.05304 27.89887,-26.05188 27.89919,-26.05069 27.89951,-26.04945 27.89985,-26.04818 27.90022,-26.0468 27.90048,-26.04581 27.90092,-26.04416 27.90131,-26.04266 27.90135,-26.04253 27.90179,-26.04087 27.90232,-26.03885 27.90339,-26.03482 27.90437,-26.03111 27.90495,-26.03091 27.90761,-26.02997 27.91264,-26.02821 27.91453,-26.02303 27.91557,-26.02018 27.91646,-26.01774 27.91685,-26.01666 27.91766,-26.01443 27.91916,-26.01031 27.92118,-26.00477 27.92193,-26.00272 27.92251,-26.00112 27.92353,-25.99831 27.92353,-25.99828 27.92348,-25.99773 27.92347,-25.99766 27.924,-25.99292 27.92474,-25.98631 27.92499,-25.98404 27.92501,-25.98387 27.92524,-25.98176 27.92526,-25.9816 27.92542,-25.98018 27.92559,-25.97871 27.92559,-25.97867 27.9256,-25.97861 27.92555,-25.9786 27.92552,-25.97858 27.92548,-25.97858 27.9252,-25.97773 27.92492,-25.97689 27.92488,-25.97674 27.92467,-25.97604 27.92441,-25.97527 27.92415,-25.97451 27.92379,-25.97351 27.9235,-25.97274 27.92344,-25.97257 27.9232,-25.97197 27.92297,-25.97136 27.92273,-25.97075 27.92271,-25.9707 27.92252,-25.97072 27.91883,-25.97126 27.91188,-25.97055 27.90736,-25.97009 27.90937,-25.96857 27.91058,-25.96764 27.90358,-25.96048 27.90202,-25.95888 27.90055,-25.95738 27.9003,-25.95712 27.89759,-25.95436 27.9032,-25.94952 27.90566,-25.94739 27.90736,-25.94593 27.90945,-25.94413 27.90822,-25.94252 27.90704,-25.93764 27.90518,-25.93308 27.90521,-25.93305 27.90531,-25.93294 27.90544,-25.93283 27.90552,-25.93275 27.90556,-25.9327 27.90568,-25.9326 27.90581,-25.93251 27.9059,-25.93244 27.90598,-25.93234 27.90606,-25.93226 27.90615,-25.93219 27.90627,-25.93211 27.90638,-25.93204 27.90647,-25.93197 27.90656,-25.93191 27.90662,-25.93186 27.90669,-25.93179 27.90676,-25.93173 27.90684,-25.93168 27.90699,-25.93162 27.90713,-25.93156 27.90739,-25.93144 27.90753,-25.93139 27.90763,-25.93133 27.90777,-25.93123 27.90785,-25.9312 27.90797,-25.93113 27.90814,-25.93107 27.90828,-25.93101 27.9084,-25.93098 27.90843,-25.93097 27.90863,-25.93093 27.90878,-25.93088 27.90894,-25.93082 27.90922,-25.93072 27.9093,-25.93067 27.90943,-25.93059 27.90952,-25.93053 27.90965,-25.93042 27.90976,-25.9303 27.90983,-25.93015 27.90988,-25.92999 27.90992,-25.92985 27.90995,-25.9297 27.90997,-25.92956 27.90787,-25.92873 27.90768,-25.92873 27.9077,-25.92869 27.90839,-25.92693 27.9085,-25.92695 27.90865,-25.92696 27.90879,-25.92696 27.90896,-25.92697 27.90912,-25.92698 27.90921,-25.927 27.90929,-25.92704 27.90945,-25.92682 27.91896,-25.92645 27.92176,-25.92635 27.92525,-25.92621 27.92883,-25.92608 27.93234,-25.92594 27.93918,-25.9279 27.94085,-25.92838 27.93712,-25.92329 27.93709,-25.92326 27.93474,-25.92005 27.93201,-25.91631 27.93212,-25.9163 27.93975,-25.91517 27.94164,-25.91609 27.94184,-25.91606 27.94218,-25.916 27.94279,-25.9159 27.94314,-25.91585 27.94352,-25.91574 27.94394,-25.91566 27.94442,-25.91552 27.94481,-25.91539 27.94527,-25.91527 27.94574,-25.91516 27.94624,-25.91504 27.94667,-25.91494 27.94687,-25.9148 27.94709,-25.91459 27.94721,-25.91439 27.94736,-25.91411 27.94733,-25.9139 27.94719,-25.91356 27.94709,-25.91333 27.94688,-25.91299 27.94682,-25.91265 27.94674,-25.91216 27.94676,-25.9116 27.94671,-25.91078 27.94671,-25.91056 27.94673,-25.91032 27.94676,-25.91004 27.94663,-25.9097 27.9466,-25.90933 27.94656,-25.90891 27.94656,-25.90852 27.94668,-25.90804 27.94685,-25.90767 27.94713,-25.90738 27.94734,-25.90725 27.9476,-25.90755 27.94784,-25.90769 27.94812,-25.9078 27.94842,-25.90792 27.94876,-25.908 27.94927,-25.90794 27.94943,-25.90785 27.94978,-25.9075 27.94996,-25.90711 27.95003,-25.9068 27.95015,-25.90637 27.95016,-25.90617 27.95193,-25.90633 27.96234,-25.90724 27.96262,-25.90888 27.9629,-25.91049 27.96686,-25.91092 27.96849,-25.91015 27.97013,-25.90937 27.97177,-25.9086 27.97341,-25.90782 27.97504,-25.90705 27.97668,-25.90627 27.97832,-25.9055 27.97996,-25.90472 27.9816,-25.90395 27.98279,-25.90339 27.98331,-25.90314 27.98398,-25.90283 27.98437,-25.90594 27.98455,-25.90742 27.98476,-25.90906 27.98484,-25.90973</coordinates></LinearRing></outerBoundaryIs></Polygon></MultiGeometry></Placemark></Document></kml>