<?xml version="1.0" encoding="UTF-8"?><kml xmlns="http://www.opengis.net/kml/2.2"><Document><Placemark><name>Bramley Park</name><description>Sub Place 798013054</description><ExtendedData><Data name="code"><value>798013054</value></Data><Data name="name"><value>Bramley Park</value></Data><Data name="description"><value>Sub Place 798013054</value></Data></ExtendedData><MultiGeometry><Polygon><outerBoundaryIs><LinearRing><coordinates>28.07954,-26.11439 28.08022,-26.11499 28.08061,-26.1153 28.08079,-26.11543 28.08105,-26.11576 28.08157,-26.11638 28.08244,-26.11746 28.08315,-26.11902 28.08117,-26.11963 28.08071,-26.11932 28.08014,-26.11886 28.07988,-26.11865 28.07964,-26.11847 28.07912,-26.11807 28.07904,-26.118 28.07848,-26.11758 28.07821,-26.11739 28.07732,-26.11668 28.07673,-26.11625 28.07633,-26.11629 28.07537,-26.1164 28.07537,-26.1165 28.07532,-26.1165 28.07456,-26.11627 28.07454,-26.11632 28.07305,-26.12034 28.07302,-26.12029 28.07285,-26.12006 28.07273,-26.11979 28.07245,-26.11932 28.07236,-26.11913 28.07221,-26.11899 28.07217,-26.11888 28.07217,-26.11873 28.07217,-26.11855 28.07221,-26.11841 28.0722,-26.11826 28.0722,-26.11813 28.07213,-26.11807 28.072,-26.11801 28.07178,-26.1179 28.07172,-26.11784 28.07144,-26.11762 28.07118,-26.11738 28.07109,-26.11721 28.07109,-26.11699 28.07121,-26.11679 28.07132,-26.1165 28.07131,-26.11639 28.07126,-26.11586 28.07126,-26.11563 28.07127,-26.11562 28.07145,-26.11539 28.07175,-26.11514 28.07198,-26.11489 28.0721,-26.1147 28.07234,-26.11438 28.07245,-26.11403 28.07249,-26.11403 28.07321,-26.11406 28.07369,-26.11407 28.074,-26.11416 28.07508,-26.11447 28.07564,-26.11306 28.07648,-26.10908 28.07664,-26.10834 28.07664,-26.10832 28.07692,-26.10862 28.07698,-26.10868 28.07741,-26.10918 28.07761,-26.10961 28.07767,-26.10975 28.07784,-26.11055 28.07826,-26.11242 28.07843,-26.11306 28.07846,-26.11314 28.07891,-26.11373 28.07954,-26.11439</coordinates></LinearRing></outerBoundaryIs></Polygon></MultiGeometry></Placemark></Document></kml>