<?xml version="1.0" encoding="UTF-8"?><kml xmlns="http://www.opengis.net/kml/2.2"><Document><Placemark><name>Sejwetla</name><description>Sub Place 798014009</description><ExtendedData><Data name="code"><value>798014009</value></Data><Data name="name"><value>Sejwetla</value></Data><Data name="description"><value>Sub Place 798014009</value></Data></ExtendedData><MultiGeometry><Polygon><outerBoundaryIs><LinearRing><coordinates>28.10619,-26.0885 28.1065,-26.08856 28.10722,-26.08854 28.10843,-26.0885 28.10833,-26.08866 28.10822,-26.08881 28.10811,-26.08894 28.1079,-26.08924 28.1076,-26.08961 28.10727,-26.0899 28.10714,-26.08998 28.10704,-26.09 28.10689,-26.08997 28.10681,-26.09 28.10675,-26.09028 28.10669,-26.09066 28.10664,-26.09094 28.10666,-26.09115 28.10668,-26.09129 28.10664,-26.09146 28.10658,-26.09176 28.10655,-26.092 28.10678,-26.09248 28.10684,-26.09278 28.10685,-26.09287 28.10686,-26.09304 28.10681,-26.09334 28.10663,-26.09371 28.1066,-26.09423 28.10658,-26.09455 28.10658,-26.09468 28.10658,-26.09468 28.10641,-26.09474 28.10595,-26.09488 28.10564,-26.09498 28.10524,-26.09511 28.10502,-26.0952 28.10487,-26.09528 28.10485,-26.0953 28.10474,-26.09536 28.10455,-26.09549 28.1042,-26.09563 28.10431,-26.09535 28.10443,-26.09507 28.10447,-26.09505 28.10456,-26.09492 28.1047,-26.09446 28.10481,-26.09405 28.10481,-26.09394 28.10482,-26.09389 28.10483,-26.09382 28.1049,-26.09339 28.10472,-26.0934 28.10471,-26.09334 28.10472,-26.09334 28.10495,-26.09327 28.10521,-26.09299 28.10524,-26.09284 28.10527,-26.09267 28.10527,-26.0926 28.10529,-26.09247 28.10528,-26.09236 28.10527,-26.09216 28.10526,-26.09213 28.10527,-26.09195 28.10533,-26.09164 28.10535,-26.09155 28.10543,-26.09108 28.10547,-26.09089 28.10546,-26.09085 28.10545,-26.09083 28.10542,-26.0906 28.10539,-26.09049 28.10507,-26.09017 28.10499,-26.09011 28.10477,-26.08993 28.10469,-26.0898 28.10488,-26.08968 28.10548,-26.08957 28.10585,-26.08946 28.10603,-26.08846 28.10619,-26.0885</coordinates></LinearRing></outerBoundaryIs></Polygon></MultiGeometry></Placemark></Document></kml>