<?xml version="1.0" encoding="UTF-8"?><kml xmlns="http://www.opengis.net/kml/2.2"><Document><Placemark><name>Roodepoort</name><description>Main Place 798022</description><ExtendedData><Data name="code"><value>798022</value></Data><Data name="name"><value>Roodepoort</value></Data><Data name="description"><value>Main Place 798022</value></Data></ExtendedData><MultiGeometry><Polygon><outerBoundaryIs><LinearRing><coordinates>27.93476,-26.00939 27.93525,-26.00994 27.93544,-26.0099 27.93546,-26.00989 27.93591,-26.00982 27.93597,-26.00989 27.93615,-26.00977 27.93636,-26.00964 27.93639,-26.00962 27.93641,-26.00961 27.93643,-26.00961 27.93646,-26.00961 27.93649,-26.0096 27.93659,-26.00956 27.93663,-26.00955 27.93668,-26.00955 27.93676,-26.00954 27.93679,-26.00954 27.93681,-26.00953 27.93684,-26.00952 27.93713,-26.00942 27.93716,-26.00941 27.93719,-26.00941 27.93727,-26.00942 27.93733,-26.00942 27.93736,-26.00941 27.93742,-26.00939 27.93746,-26.00938 27.93749,-26.00937 27.93754,-26.00937 27.9376,-26.00936 27.93763,-26.00936 27.93768,-26.00935 27.93779,-26.0093 27.93783,-26.00928 27.93786,-26.00927 27.93789,-26.00926 27.93812,-26.00918 27.93964,-26.00884 27.9405,-26.00863 27.94147,-26.00825 27.94244,-26.00814 27.94247,-26.00814 27.9425,-26.00813 27.94252,-26.00813 27.94342,-26.00789 27.94347,-26.00788 27.94362,-26.00785 27.94395,-26.00778 27.94403,-26.00774 27.94406,-26.00775 27.94458,-26.00762 27.94522,-26.00746 27.94531,-26.00739 27.94535,-26.00742 27.94611,-26.00804 27.94851,-26.00999 27.95083,-26.01184 27.95097,-26.01195 27.95107,-26.01202 27.95118,-26.0121 27.95114,-26.01218 27.95105,-26.01233 27.9507,-26.01289 27.95023,-26.01369 27.95004,-26.014 27.95001,-26.01406 27.95,-26.0141 27.94998,-26.01413 27.94997,-26.01416 27.94996,-26.01421 27.94986,-26.01416 27.94909,-26.01548 27.94899,-26.01563 27.94898,-26.01565 27.94897,-26.01568 27.94896,-26.0157 27.94873,-26.01608 27.94868,-26.01616 27.94867,-26.01618 27.94865,-26.01621 27.94864,-26.01622 27.94864,-26.01622 27.94863,-26.01623 27.94863,-26.01626 27.94863,-26.01627 27.94863,-26.01628 27.94834,-26.01674 27.94789,-26.0175 27.94773,-26.01778 27.94771,-26.01781 27.94734,-26.01845 27.94714,-26.01878 27.94692,-26.01916 27.94574,-26.02115 27.94459,-26.02307 27.94371,-26.02464 27.94342,-26.02515 27.94267,-26.02637 27.94265,-26.02635 27.9426,-26.02644 27.94232,-26.0269 27.94202,-26.02741 27.94198,-26.02748 27.94175,-26.02787 27.94093,-26.02924 27.94064,-26.02975 27.94031,-26.03032 27.94028,-26.03036 27.94025,-26.03041 27.94017,-26.03051 27.93964,-26.03126 27.93957,-26.03135 27.9389,-26.0323 27.93864,-26.03266 27.93864,-26.03266 27.93846,-26.0329 27.93842,-26.03297 27.93818,-26.03329 27.93816,-26.03332 27.93816,-26.03333 27.9381,-26.03342 27.93749,-26.03424 27.93676,-26.03523 27.93664,-26.03541 27.93671,-26.03553 27.93676,-26.03549 27.93685,-26.03543 27.93702,-26.03535 27.93796,-26.03488 27.93932,-26.03419 27.94082,-26.03344 27.94157,-26.03306 27.94167,-26.03302 27.94174,-26.033 27.94182,-26.03298 27.94195,-26.03296 27.94222,-26.03293 27.94379,-26.03275 27.94513,-26.0326 27.9454,-26.03256 27.94695,-26.03238 27.94701,-26.03264 27.94715,-26.03325 27.94729,-26.03384 27.94732,-26.03396 27.94741,-26.03438 27.9476,-26.03518 27.94777,-26.03589 27.94785,-26.03623 27.94794,-26.0365 27.94796,-26.03655 27.94798,-26.03658 27.94805,-26.03677 27.94813,-26.03695 27.94822,-26.03713 27.94828,-26.03726 27.94837,-26.0374 27.94845,-26.03754 27.94852,-26.03764 27.94863,-26.0378 27.94873,-26.03794 27.94881,-26.03805 27.94889,-26.03814 27.94895,-26.03821 27.94904,-26.03831 27.94913,-26.03841 27.94923,-26.03851 27.94942,-26.03869 27.94949,-26.03875 27.94973,-26.03891 27.94993,-26.03906 27.95011,-26.03918 27.95031,-26.03931 27.95041,-26.03937 27.95065,-26.03953 27.95101,-26.03977 27.95151,-26.04008 27.95173,-26.04023 27.95223,-26.04055 27.95262,-26.04079 27.95286,-26.04094 27.95301,-26.04105 27.95311,-26.04113 27.95326,-26.04126 27.95342,-26.04141 27.9535,-26.04149 27.9536,-26.0416 27.95374,-26.04179 27.95399,-26.0421 27.9542,-26.04237 27.95451,-26.04277 27.95474,-26.04307 27.95521,-26.04367 27.95532,-26.04377 27.95541,-26.04389 27.95559,-26.04411 27.95585,-26.04443 27.9561,-26.04476 27.95625,-26.04496 27.95643,-26.04519 27.95643,-26.04519 27.95654,-26.04537 27.95662,-26.04551 27.95669,-26.04566 27.95677,-26.04584 27.95684,-26.04607 27.95688,-26.04627 27.95691,-26.04645 27.95692,-26.04663 27.95692,-26.04681 27.95692,-26.04695 27.95691,-26.04705 27.95689,-26.04716 27.95684,-26.04737 27.95674,-26.04784 27.95664,-26.04839 27.95662,-26.04854 27.95661,-26.04868 27.95646,-26.0495 27.95639,-26.04983 27.95636,-26.04997 27.95633,-26.05009 27.95627,-26.05042 27.95611,-26.0514 27.95598,-26.05207 27.95591,-26.05245 27.95586,-26.05266 27.95586,-26.0527 27.95518,-26.05252 27.95438,-26.05223 27.9529,-26.05181 27.9526,-26.05175 27.95169,-26.05149 27.95161,-26.05147 27.95152,-26.05199 27.94957,-26.05133 27.94929,-26.05169 27.94859,-26.05261 27.94796,-26.0534 27.94763,-26.05383 27.94751,-26.05399 27.94751,-26.05399 27.94739,-26.05415 27.94727,-26.05431 27.94719,-26.05444 27.94712,-26.05456 27.94696,-26.05476 27.94646,-26.05541 27.9456,-26.0565 27.94545,-26.0567 27.94526,-26.05695 27.94517,-26.05706 27.94494,-26.05737 27.94469,-26.05775 27.9444,-26.05817 27.94418,-26.05852 27.94402,-26.05886 27.94348,-26.05979 27.94314,-26.06038 27.94307,-26.0605 27.94245,-26.06168 27.94213,-26.06229 27.94182,-26.06283 27.94164,-26.06316 27.94149,-26.06348 27.94144,-26.06362 27.94139,-26.06376 27.94119,-26.06417 27.94083,-26.06483 27.94082,-26.06484 27.93992,-26.06649 27.9398,-26.06671 27.93885,-26.06852 27.9384,-26.06937 27.93821,-26.06972 27.93799,-26.07016 27.93791,-26.07031 27.93778,-26.07055 27.93742,-26.07123 27.93728,-26.0715 27.9372,-26.07166 27.93715,-26.07177 27.93715,-26.07177 27.93714,-26.07177 27.93693,-26.07169 27.93684,-26.07165 27.93676,-26.07162 27.93668,-26.0716 27.93659,-26.07158 27.93651,-26.07157 27.93642,-26.07157 27.93637,-26.07157 27.93631,-26.07158 27.93625,-26.0716 27.93619,-26.07163 27.93608,-26.0717 27.93582,-26.07187 27.93539,-26.07216 27.93455,-26.07274 27.93367,-26.07333 27.93272,-26.07397 27.93181,-26.07459 27.93174,-26.07464 27.93168,-26.07468 27.93154,-26.07475 27.93149,-26.07477 27.93146,-26.07479 27.93139,-26.07487 27.93132,-26.07492 27.93123,-26.07499 27.93104,-26.07511 27.93075,-26.07532 27.93067,-26.07537 27.92933,-26.07613 27.92806,-26.07701 27.92797,-26.07706 27.92772,-26.07721 27.92755,-26.07815 27.92794,-26.07845 27.92795,-26.07846 27.92806,-26.07853 27.928,-26.0787 27.92788,-26.07902 27.92787,-26.07903 27.92787,-26.07904 27.92786,-26.07904 27.92786,-26.07905 27.92781,-26.0791 27.9278,-26.07912 27.9278,-26.07913 27.92779,-26.07915 27.92769,-26.07949 27.92763,-26.07968 27.9276,-26.07981 27.92755,-26.08003 27.92754,-26.08011 27.92753,-26.08018 27.92752,-26.08024 27.92749,-26.08055 27.92747,-26.08095 27.92744,-26.08143 27.92742,-26.08183 27.92742,-26.08201 27.92739,-26.08277 27.92732,-26.08415 27.92728,-26.08488 27.92724,-26.08543 27.92721,-26.08605 27.92718,-26.08652 27.9271,-26.08781 27.92701,-26.08948 27.92701,-26.0895 27.92701,-26.08952 27.92701,-26.08953 27.92702,-26.08955 27.92703,-26.08956 27.92705,-26.08957 27.92707,-26.08957 27.92711,-26.08958 27.92718,-26.08958 27.9276,-26.0896 27.92787,-26.08961 27.92787,-26.08961 27.92787,-26.08961 27.92783,-26.08974 27.92775,-26.08999 27.92762,-26.09038 27.92755,-26.09057 27.92751,-26.0907 27.92745,-26.09093 27.92737,-26.09122 27.92729,-26.09151 27.92724,-26.09168 27.92719,-26.0919 27.92707,-26.09243 27.92697,-26.09287 27.92689,-26.09327 27.92687,-26.0934 27.92686,-26.09345 27.92685,-26.0935 27.92684,-26.09355 27.92684,-26.09361 27.92683,-26.09368 27.92682,-26.09376 27.92681,-26.09384 27.9268,-26.09395 27.92679,-26.09406 27.92679,-26.09417 27.92678,-26.09429 27.92673,-26.095 27.92671,-26.09534 27.92672,-26.09536 27.92673,-26.09544 27.92673,-26.09544 27.92674,-26.09554 27.92673,-26.09565 27.92673,-26.09574 27.92672,-26.09587 27.92668,-26.09639 27.92666,-26.09673 27.92665,-26.09683 27.92662,-26.09728 27.9266,-26.09759 27.9266,-26.09766 27.92658,-26.09797 27.92654,-26.09863 27.92651,-26.09917 27.92651,-26.09922 27.9265,-26.09937 27.92649,-26.09947 27.92644,-26.1003 27.92643,-26.10047 27.92641,-26.10093 27.92639,-26.10118 27.92637,-26.10139 27.92635,-26.10157 27.92632,-26.10176 27.92631,-26.10177 27.92629,-26.10191 27.92626,-26.10204 27.92625,-26.10207 27.92621,-26.10223 27.92615,-26.10244 27.92625,-26.10249 27.92634,-26.10254 27.92693,-26.10286 27.92707,-26.10293 27.92799,-26.10342 27.92876,-26.10384 27.92978,-26.1044 27.93169,-26.10543 27.93225,-26.10573 27.9325,-26.10585 27.93272,-26.10597 27.93368,-26.10651 27.93397,-26.10665 27.9344,-26.10689 27.93469,-26.10704 27.93476,-26.10709 27.93552,-26.10747 27.93556,-26.10749 27.93558,-26.10748 27.93559,-26.10748 27.93561,-26.10747 27.93563,-26.10748 27.93566,-26.10748 27.9357,-26.1075 27.93575,-26.10753 27.93621,-26.10778 27.93623,-26.10779 27.93624,-26.10781 27.93625,-26.10783 27.93625,-26.10785 27.93625,-26.10786 27.93624,-26.10787 27.93634,-26.10792 27.93922,-26.10948 27.93979,-26.10979 27.93992,-26.10986 27.941,-26.11044 27.94108,-26.11049 27.94118,-26.11041 27.94125,-26.11047 27.94131,-26.11051 27.94138,-26.11055 27.94148,-26.1106 27.94167,-26.11071 27.94231,-26.11105 27.94305,-26.11146 27.94305,-26.11146 27.94395,-26.11194 27.94562,-26.11284 27.94588,-26.11298 27.94597,-26.11305 27.94603,-26.11309 27.94609,-26.11316 27.94613,-26.11321 27.94625,-26.11336 27.94636,-26.1135 27.94641,-26.11357 27.94641,-26.11358 27.94648,-26.11353 27.94653,-26.11349 27.94682,-26.11332 27.94742,-26.11294 27.9473,-26.11338 27.94734,-26.1134 27.94727,-26.11357 27.9477,-26.1138 27.94784,-26.11387 27.94957,-26.11481 27.94958,-26.11482 27.94956,-26.11488 27.94953,-26.11493 27.9495,-26.11496 27.94947,-26.115 27.94943,-26.11503 27.94943,-26.11503 27.94942,-26.11504 27.94942,-26.11505 27.94942,-26.11506 27.94943,-26.11507 27.94943,-26.11507 27.94944,-26.11508 27.94952,-26.11513 27.94958,-26.11516 27.94968,-26.11522 27.94997,-26.11538 27.95003,-26.11541 27.95005,-26.11539 27.95008,-26.11533 27.95035,-26.11549 27.95111,-26.11589 27.9512,-26.11594 27.9512,-26.11595 27.95118,-26.11621 27.95127,-26.11621 27.95156,-26.11643 27.95188,-26.11667 27.95022,-26.11816 27.94988,-26.11846 27.94888,-26.11935 27.94735,-26.12073 27.94679,-26.12122 27.94551,-26.12238 27.94441,-26.12335 27.94421,-26.12353 27.94397,-26.12377 27.94372,-26.12406 27.94342,-26.12437 27.94326,-26.12455 27.94307,-26.12477 27.94267,-26.12527 27.94227,-26.12581 27.94223,-26.12586 27.94179,-26.12651 27.94179,-26.12652 27.9412,-26.12742 27.94112,-26.12753 27.94036,-26.12869 27.94028,-26.12882 27.94021,-26.12891 27.93778,-26.13265 27.93742,-26.13319 27.93695,-26.13389 27.93598,-26.13536 27.93527,-26.13644 27.93462,-26.13746 27.93457,-26.13753 27.93434,-26.1379 27.93404,-26.13839 27.93373,-26.13893 27.93341,-26.13952 27.93299,-26.14034 27.93256,-26.14119 27.93251,-26.1413 27.9319,-26.14251 27.93132,-26.14368 27.93081,-26.14472 27.93021,-26.14592 27.92845,-26.14941 27.92763,-26.15103 27.92743,-26.1515 27.92737,-26.15168 27.92729,-26.15196 27.92721,-26.15225 27.92718,-26.15242 27.92714,-26.15258 27.92711,-26.1528 27.92708,-26.15298 27.92704,-26.1533 27.92703,-26.15354 27.92702,-26.15374 27.92703,-26.15404 27.92704,-26.15421 27.92706,-26.15443 27.92709,-26.15468 27.92713,-26.15493 27.92713,-26.15493 27.92718,-26.15518 27.92725,-26.15543 27.9273,-26.15562 27.92742,-26.15598 27.92751,-26.15621 27.92762,-26.15644 27.92777,-26.15671 27.92779,-26.15675 27.92799,-26.15708 27.92822,-26.15744 27.9284,-26.15769 27.92855,-26.15787 27.92861,-26.15794 27.92871,-26.15807 27.92891,-26.15829 27.92915,-26.15852 27.92939,-26.15873 27.92954,-26.15886 27.92973,-26.159 27.92994,-26.15915 27.93055,-26.15957 27.93134,-26.16011 27.93141,-26.16016 27.93259,-26.16095 27.93295,-26.1612 27.93322,-26.16138 27.93476,-26.16242 27.93534,-26.16281 27.93549,-26.16291 27.93568,-26.16278 27.93597,-26.16258 27.93619,-26.16244 27.9364,-26.16229 27.93644,-26.16228 27.93646,-26.16225 27.93659,-26.16217 27.9367,-26.16207 27.93716,-26.16165 27.93745,-26.16157 27.93753,-26.16154 27.93756,-26.16153 27.9376,-26.16151 27.93772,-26.16138 27.93806,-26.16115 27.93831,-26.16099 27.93863,-26.16075 27.93868,-26.16072 27.93911,-26.16043 27.94002,-26.1598 27.94022,-26.15967 27.94048,-26.15949 27.94141,-26.15886 27.94176,-26.15888 27.94196,-26.15889 27.94209,-26.15889 27.94209,-26.1589 27.9421,-26.15892 27.94212,-26.15894 27.94284,-26.15898 27.94294,-26.15899 27.94298,-26.15899 27.94301,-26.159 27.94303,-26.159 27.94304,-26.15899 27.94305,-26.15899 27.94306,-26.15898 27.94307,-26.15897 27.94309,-26.15895 27.94386,-26.15898 27.94442,-26.15901 27.94449,-26.15901 27.94449,-26.15902 27.94456,-26.15938 27.94491,-26.16116 27.945,-26.16163 27.94514,-26.1624 27.94523,-26.16283 27.94524,-26.1629 27.94526,-26.16299 27.94527,-26.16305 27.94528,-26.16312 27.94529,-26.16317 27.94529,-26.16322 27.9453,-26.1633 27.94529,-26.16361 27.94528,-26.16434 27.94527,-26.16435 27.94527,-26.16438 27.94526,-26.16456 27.94527,-26.16456 27.94638,-26.16513 27.9477,-26.16582 27.94793,-26.16594 27.94811,-26.16567 27.94822,-26.16571 27.94823,-26.16572 27.94887,-26.1659 27.94853,-26.16711 27.94853,-26.16713 27.94846,-26.16738 27.9482,-26.16837 27.94816,-26.16854 27.94816,-26.16854 27.94798,-26.16921 27.94766,-26.17047 27.94766,-26.17047 27.94754,-26.17044 27.94724,-26.17037 27.94715,-26.17036 27.94633,-26.17018 27.94628,-26.17017 27.946,-26.17011 27.94565,-26.17003 27.94528,-26.16995 27.94526,-26.16995 27.94524,-26.17 27.94515,-26.17018 27.94505,-26.17034 27.94465,-26.17101 27.94459,-26.1711 27.94444,-26.17132 27.94443,-26.17133 27.94424,-26.17133 27.94375,-26.17137 27.94361,-26.17137 27.94359,-26.17137 27.9432,-26.17141 27.9428,-26.17144 27.94267,-26.17148 27.94256,-26.17149 27.94213,-26.17152 27.94212,-26.17152 27.9421,-26.1715 27.94208,-26.17149 27.94206,-26.17148 27.94204,-26.17148 27.94202,-26.17148 27.94199,-26.17148 27.9417,-26.1715 27.94096,-26.17155 27.94077,-26.17157 27.94062,-26.17158 27.94049,-26.1716 27.94001,-26.17163 27.9395,-26.17168 27.93935,-26.17169 27.93924,-26.17169 27.93921,-26.17169 27.9392,-26.17169 27.93918,-26.17168 27.93918,-26.17168 27.93916,-26.17168 27.93913,-26.17166 27.93911,-26.17165 27.93907,-26.17162 27.93905,-26.17162 27.93897,-26.17155 27.93814,-26.17094 27.938,-26.17084 27.93799,-26.17083 27.93798,-26.17081 27.93797,-26.17079 27.93796,-26.17075 27.93793,-26.17079 27.9379,-26.17086 27.93777,-26.17119 27.93749,-26.17193 27.93742,-26.1719 27.9373,-26.17184 27.93728,-26.17197 27.93728,-26.17197 27.93725,-26.17219 27.93725,-26.1722 27.93725,-26.17223 27.93724,-26.17225 27.93723,-26.17228 27.93722,-26.1723 27.93668,-26.17268 27.93664,-26.1727 27.93723,-26.17298 27.93726,-26.17299 27.93724,-26.17308 27.93706,-26.17363 27.93688,-26.17414 27.93666,-26.17476 27.93666,-26.17478 27.93665,-26.17485 27.93665,-26.17487 27.93664,-26.17488 27.93658,-26.17499 27.93657,-26.17501 27.93656,-26.17502 27.93656,-26.17504 27.93656,-26.17505 27.93656,-26.17506 27.93656,-26.17507 27.93656,-26.17508 27.93656,-26.1751 27.93656,-26.17511 27.93657,-26.17513 27.93658,-26.17515 27.93659,-26.17516 27.9366,-26.17517 27.93662,-26.17518 27.93636,-26.17564 27.93635,-26.1757 27.93632,-26.17576 27.93629,-26.17575 27.93616,-26.17569 27.93595,-26.17632 27.93594,-26.17647 27.93589,-26.17653 27.93571,-26.17699 27.93559,-26.17728 27.9355,-26.17729 27.9355,-26.17744 27.9355,-26.17746 27.93549,-26.17759 27.93548,-26.17778 27.93547,-26.17798 27.93542,-26.17869 27.93539,-26.17942 27.93478,-26.1796 27.93331,-26.17996 27.93324,-26.17998 27.9324,-26.18019 27.93047,-26.18067 27.9304,-26.18069 27.93032,-26.18072 27.93025,-26.18074 27.93019,-26.18077 27.93013,-26.1808 27.93005,-26.18083 27.92998,-26.18087 27.92992,-26.1809 27.92988,-26.18093 27.92981,-26.18097 27.9292,-26.18137 27.92884,-26.18162 27.92862,-26.18176 27.9285,-26.18183 27.92846,-26.18186 27.92839,-26.18189 27.92828,-26.18194 27.92821,-26.18197 27.92817,-26.18199 27.92781,-26.18213 27.92767,-26.18219 27.92781,-26.1825 27.92786,-26.18258 27.92791,-26.18268 27.92794,-26.18277 27.92795,-26.18285 27.92795,-26.18293 27.92793,-26.183 27.92789,-26.18307 27.92782,-26.18323 27.92746,-26.18397 27.92732,-26.18425 27.92721,-26.18448 27.92688,-26.18517 27.9265,-26.18595 27.9262,-26.18656 27.92583,-26.18734 27.92571,-26.18757 27.92567,-26.18765 27.9256,-26.18778 27.92538,-26.18816 27.92536,-26.18821 27.92514,-26.18857 27.92497,-26.18886 27.92488,-26.18902 27.9247,-26.18931 27.9247,-26.18932 27.92444,-26.18977 27.92436,-26.18973 27.92402,-26.18956 27.92379,-26.18944 27.92323,-26.18915 27.92268,-26.18887 27.92232,-26.18869 27.92212,-26.18858 27.92166,-26.18835 27.92156,-26.1883 27.92101,-26.18801 27.92058,-26.1878 27.92057,-26.18787 27.92031,-26.18765 27.91907,-26.18726 27.91752,-26.18679 27.91606,-26.18634 27.91383,-26.18565 27.91242,-26.18523 27.91171,-26.18516 27.91121,-26.1851 27.91121,-26.18513 27.91097,-26.1863 27.91073,-26.18744 27.91058,-26.18808 27.91048,-26.18831 27.91002,-26.18813 27.90925,-26.18785 27.90844,-26.18754 27.90752,-26.18719 27.90663,-26.18689 27.90559,-26.18652 27.90472,-26.18617 27.90368,-26.18576 27.90318,-26.18555 27.90258,-26.1853 27.90181,-26.18492 27.90084,-26.18448 27.89968,-26.184 27.89988,-26.18305 27.90005,-26.18223 27.90021,-26.18146 27.90038,-26.18061 27.90049,-26.18006 27.90053,-26.17987 27.90023,-26.17979 27.89942,-26.17956 27.89851,-26.1793 27.89813,-26.1792 27.89768,-26.17908 27.89755,-26.17905 27.89715,-26.17894 27.89639,-26.17871 27.8957,-26.17851 27.89566,-26.1785 27.8952,-26.17837 27.8948,-26.17824 27.89443,-26.17809 27.89414,-26.17796 27.8938,-26.17772 27.89309,-26.17708 27.893,-26.17699 27.8922,-26.17633 27.89157,-26.17581 27.89114,-26.17544 27.89058,-26.17497 27.89014,-26.17462 27.88987,-26.17444 27.88983,-26.17442 27.88975,-26.17437 27.8897,-26.17433 27.88902,-26.17386 27.88818,-26.17328 27.88732,-26.17268 27.88656,-26.17218 27.88608,-26.17189 27.88606,-26.17189 27.88602,-26.17186 27.8859,-26.17179 27.88552,-26.17161 27.88351,-26.17078 27.88254,-26.17041 27.88242,-26.17163 27.88222,-26.17324 27.88208,-26.17424 27.8819,-26.1753 27.8813,-26.17648 27.88085,-26.17701 27.88101,-26.17712 27.88077,-26.17737 27.88059,-26.17756 27.88018,-26.17797 27.87984,-26.17833 27.87968,-26.17857 27.87934,-26.17961 27.87933,-26.17974 27.87933,-26.17987 27.87933,-26.18 27.87934,-26.18013 27.87936,-26.18026 27.87939,-26.18039 27.87942,-26.18052 27.88003,-26.18241 27.88072,-26.1844 27.88109,-26.18559 27.88113,-26.18573 27.88115,-26.18588 27.88117,-26.18602 27.88119,-26.18617 27.88119,-26.18632 27.88119,-26.18647 27.88118,-26.18661 27.88117,-26.18676 27.88115,-26.18691 27.88112,-26.18705 27.88108,-26.18719 27.88104,-26.18733 27.88099,-26.18747 27.88032,-26.18916 27.87898,-26.1925 27.879,-26.19245 27.87868,-26.19232 27.87866,-26.19231 27.87849,-26.1922 27.8784,-26.19215 27.87832,-26.19209 27.87822,-26.19203 27.87809,-26.19196 27.87788,-26.19184 27.87775,-26.19176 27.87754,-26.19165 27.87734,-26.19152 27.87706,-26.19136 27.87643,-26.19107 27.87637,-26.19108 27.87618,-26.19063 27.87559,-26.19064 27.87503,-26.19049 27.87482,-26.19043 27.87464,-26.19039 27.87429,-26.19031 27.87379,-26.19008 27.87344,-26.18997 27.87268,-26.18967 27.87195,-26.18941 27.87138,-26.18918 27.8711,-26.18908 27.86977,-26.18908 27.86892,-26.18884 27.8679,-26.18884 27.8678,-26.18884 27.86783,-26.18854 27.86797,-26.18792 27.8681,-26.1874 27.86695,-26.18712 27.86683,-26.18694 27.86546,-26.18661 27.86532,-26.18656 27.86394,-26.18631 27.86388,-26.18639 27.86351,-26.18631 27.86338,-26.18628 27.86305,-26.18625 27.8627,-26.18622 27.86264,-26.18617 27.8623,-26.18618 27.86183,-26.1861 27.86178,-26.18607 27.86155,-26.18596 27.86135,-26.18593 27.86103,-26.18594 27.86022,-26.18601 27.86018,-26.18602 27.86008,-26.18604 27.85921,-26.1861 27.85862,-26.18614 27.85671,-26.18627 27.85671,-26.18624 27.85676,-26.18424 27.85671,-26.18316 27.85625,-26.18324 27.856,-26.18327 27.85589,-26.18264 27.85571,-26.18156 27.85406,-26.1815 27.85375,-26.18152 27.85267,-26.1816 27.85161,-26.18167 27.85061,-26.18173 27.84965,-26.1818 27.84852,-26.18188 27.84684,-26.182 27.84636,-26.18203 27.84513,-26.18212 27.84484,-26.18214 27.84449,-26.18217 27.84328,-26.18225 27.84222,-26.18233 27.84035,-26.18247 27.84027,-26.18247 27.84024,-26.18247 27.84024,-26.18259 27.84023,-26.18264 27.84022,-26.18271 27.84021,-26.18276 27.84019,-26.18282 27.83966,-26.18379 27.83937,-26.18435 27.83933,-26.18444 27.83928,-26.18453 27.83924,-26.18459 27.83919,-26.18467 27.83907,-26.18479 27.83885,-26.185 27.83875,-26.1851 27.83865,-26.1852 27.83859,-26.18528 27.8385,-26.1854 27.83842,-26.18554 27.83818,-26.18603 27.83811,-26.18618 27.83767,-26.186 27.83606,-26.18524 27.83601,-26.18522 27.83498,-26.18475 27.83492,-26.18469 27.83421,-26.18391 27.83399,-26.18367 27.83317,-26.1828 27.8326,-26.18218 27.83205,-26.18158 27.83203,-26.18157 27.83192,-26.18156 27.83143,-26.18157 27.83133,-26.18158 27.82977,-26.18164 27.8285,-26.18169 27.82747,-26.18173 27.82739,-26.18173 27.82714,-26.18174 27.82689,-26.18174 27.82683,-26.18172 27.82679,-26.1817 27.8267,-26.18171 27.82664,-26.18172 27.82658,-26.18172 27.8265,-26.18172 27.82623,-26.18172 27.82621,-26.18172 27.82621,-26.18172 27.82593,-26.18174 27.82592,-26.18174 27.81878,-26.18207 27.81877,-26.18201 27.81875,-26.18191 27.81858,-26.18154 27.81819,-26.18103 27.81805,-26.18086 27.81801,-26.18071 27.81803,-26.18058 27.81801,-26.1803 27.81802,-26.18024 27.81815,-26.1797 27.81824,-26.17953 27.81829,-26.17946 27.81836,-26.17936 27.81833,-26.17926 27.81844,-26.17918 27.81846,-26.17911 27.81846,-26.17906 27.81851,-26.17888 27.81853,-26.17874 27.8185,-26.17869 27.81847,-26.17863 27.81843,-26.17855 27.81839,-26.1785 27.81834,-26.17846 27.81823,-26.17848 27.81813,-26.17843 27.81808,-26.17838 27.81805,-26.1783 27.81803,-26.17821 27.818,-26.1781 27.81798,-26.17806 27.81798,-26.178 27.81793,-26.1779 27.81792,-26.17785 27.81793,-26.17774 27.81794,-26.17754 27.81799,-26.17736 27.81798,-26.17716 27.81795,-26.17709 27.81792,-26.17705 27.8179,-26.17697 27.81787,-26.1768 27.81786,-26.17652 27.81784,-26.17634 27.81783,-26.17626 27.81783,-26.17618 27.81786,-26.17605 27.81786,-26.17596 27.81805,-26.17596 27.81853,-26.17501 27.81857,-26.17501 27.81861,-26.17499 27.81866,-26.17498 27.81872,-26.17497 27.81876,-26.17496 27.81883,-26.17493 27.81894,-26.17489 27.81902,-26.17482 27.81906,-26.17477 27.81909,-26.17473 27.81913,-26.17469 27.81915,-26.17465 27.81918,-26.17461 27.8192,-26.17457 27.81923,-26.17453 27.81929,-26.17443 27.81931,-26.17438 27.81937,-26.1743 27.8194,-26.17428 27.81955,-26.17437 27.81946,-26.1742 27.81948,-26.17416 27.81951,-26.17412 27.81953,-26.17406 27.81956,-26.17401 27.81958,-26.17395 27.81969,-26.17373 27.81971,-26.17366 27.81974,-26.17359 27.81976,-26.17353 27.81978,-26.17341 27.81979,-26.17337 27.8198,-26.1733 27.81978,-26.17324 27.81978,-26.17316 27.81977,-26.17311 27.81975,-26.17305 27.81974,-26.17299 27.8197,-26.17294 27.81966,-26.17291 27.81963,-26.17288 27.81959,-26.17285 27.81953,-26.17281 27.8195,-26.17278 27.81945,-26.17276 27.81941,-26.17274 27.81939,-26.17271 27.81936,-26.17269 27.81934,-26.17267 27.81933,-26.17263 27.81935,-26.17258 27.81936,-26.17254 27.81936,-26.17251 27.81937,-26.17248 27.81937,-26.17206 27.81935,-26.17204 27.81933,-26.172 27.81933,-26.17191 27.81932,-26.17188 27.81927,-26.17181 27.81927,-26.17177 27.81925,-26.17175 27.81922,-26.17169 27.8192,-26.17165 27.81918,-26.17162 27.81916,-26.17158 27.81914,-26.17156 27.8191,-26.17147 27.8191,-26.17144 27.81908,-26.17141 27.81905,-26.17134 27.81903,-26.1713 27.81902,-26.17127 27.81899,-26.17121 27.81897,-26.17119 27.81896,-26.17115 27.81893,-26.17108 27.8189,-26.17103 27.81889,-26.17099 27.81888,-26.17096 27.81888,-26.17093 27.81886,-26.17091 27.81884,-26.17088 27.81882,-26.17085 27.8188,-26.17083 27.81879,-26.1708 27.81872,-26.17073 27.8187,-26.17069 27.81867,-26.17065 27.81865,-26.17061 27.81861,-26.17057 27.81859,-26.17054 27.81857,-26.1705 27.81854,-26.17048 27.81852,-26.17045 27.81849,-26.17041 27.81847,-26.17038 27.81843,-26.1703 27.81841,-26.17026 27.81838,-26.17021 27.81835,-26.17016 27.81832,-26.17013 27.8183,-26.17009 27.81828,-26.17007 27.81824,-26.17004 27.81821,-26.17 27.81815,-26.16993 27.81811,-26.16991 27.81808,-26.16989 27.81806,-26.16987 27.81803,-26.16984 27.818,-26.16982 27.81798,-26.16979 27.81795,-26.16977 27.81787,-26.16973 27.81785,-26.1697 27.8178,-26.16968 27.81778,-26.16966 27.81776,-26.16963 27.8177,-26.1696 27.81766,-26.16957 27.81762,-26.16954 27.81759,-26.16953 27.81749,-26.16948 27.81746,-26.16947 27.81741,-26.16945 27.81732,-26.16941 27.81726,-26.16937 27.81722,-26.16936 27.8171,-26.16928 27.81706,-26.16927 27.81702,-26.16924 27.81699,-26.16921 27.81695,-26.16919 27.81693,-26.16916 27.81689,-26.16912 27.81683,-26.16909 27.8168,-26.16905 27.81678,-26.16903 27.81675,-26.16901 27.8167,-26.16896 27.81667,-26.16894 27.81664,-26.16893 27.8166,-26.16889 27.81656,-26.16887 27.81652,-26.16883 27.81642,-26.16874 27.81638,-26.16872 27.81634,-26.1687 27.81631,-26.16868 27.81622,-26.16862 27.8162,-26.1686 27.81616,-26.16859 27.81611,-26.16854 27.81606,-26.16853 27.81601,-26.16848 27.81598,-26.16846 27.81594,-26.16843 27.8159,-26.16841 27.81587,-26.16839 27.81584,-26.16836 27.81581,-26.16834 27.81577,-26.16832 27.81573,-26.16828 27.8157,-26.16826 27.81567,-26.16825 27.81565,-26.16823 27.81562,-26.16822 27.81556,-26.16819 27.81543,-26.16814 27.81538,-26.16813 27.81532,-26.16813 27.81528,-26.16811 27.81513,-26.16811 27.8151,-26.1681 27.81506,-26.16811 27.81501,-26.16812 27.81498,-26.16813 27.81494,-26.16814 27.81488,-26.16816 27.81484,-26.16817 27.81479,-26.16818 27.81475,-26.16819 27.8147,-26.16821 27.81465,-26.16822 27.81451,-26.16823 27.81446,-26.16821 27.81442,-26.1682 27.81437,-26.16818 27.81429,-26.16816 27.81426,-26.16815 27.81423,-26.16814 27.8142,-26.16812 27.81416,-26.1681 27.81414,-26.16808 27.8141,-26.16807 27.81406,-26.16805 27.81401,-26.16801 27.81399,-26.16799 27.81396,-26.16798 27.81391,-26.16796 27.81389,-26.16794 27.81386,-26.16792 27.81382,-26.1679 27.81379,-26.16788 27.81375,-26.16784 27.81371,-26.16783 27.81368,-26.16781 27.81363,-26.16779 27.8136,-26.16778 27.81358,-26.16776 27.81352,-26.16773 27.81349,-26.16772 27.81343,-26.16769 27.81339,-26.16767 27.81335,-26.16765 27.81333,-26.16763 27.81326,-26.16759 27.81321,-26.16756 27.81318,-26.16755 27.8131,-26.16753 27.81306,-26.1675 27.81299,-26.16747 27.81294,-26.16746 27.81291,-26.16743 27.81288,-26.16743 27.81286,-26.16741 27.81282,-26.1674 27.81278,-26.16739 27.81274,-26.16736 27.8127,-26.16734 27.81268,-26.16732 27.81265,-26.16732 27.81263,-26.1673 27.8126,-26.16728 27.81258,-26.16726 27.81255,-26.16725 27.81252,-26.16722 27.81248,-26.1672 27.81245,-26.16718 27.81241,-26.16714 27.81236,-26.16709 27.81233,-26.16706 27.8123,-26.16703 27.81228,-26.167 27.81227,-26.16697 27.81224,-26.16695 27.81234,-26.16689 27.81304,-26.16656 27.81397,-26.16489 27.81404,-26.16476 27.8153,-26.16252 27.81663,-26.16015 27.81762,-26.15837 27.81812,-26.15749 27.81813,-26.15746 27.81825,-26.15725 27.81859,-26.15665 27.82111,-26.15214 27.82117,-26.15205 27.8212,-26.15199 27.82177,-26.15097 27.8218,-26.15092 27.82215,-26.15031 27.82257,-26.14955 27.82389,-26.14719 27.82572,-26.14393 27.82635,-26.14281 27.82686,-26.14189 27.82689,-26.14184 27.82689,-26.14184 27.82719,-26.1413 27.82771,-26.14038 27.82823,-26.13946 27.82925,-26.13762 27.82926,-26.13761 27.82977,-26.1367 27.83133,-26.13392 27.83183,-26.13302 27.83234,-26.13212 27.83234,-26.1321 27.83312,-26.13072 27.83361,-26.12984 27.83457,-26.12813 27.83459,-26.12808 27.83461,-26.12805 27.83468,-26.12793 27.83486,-26.1276 27.83574,-26.12603 27.83585,-26.12593 27.83585,-26.12593 27.83585,-26.12593 27.83592,-26.12586 27.83624,-26.12556 27.83627,-26.12553 27.83695,-26.1249 27.83697,-26.12488 27.83738,-26.12449 27.83724,-26.1243 27.83742,-26.12384 27.83849,-26.12106 27.83871,-26.12048 27.83881,-26.12022 27.83786,-26.11991 27.83826,-26.11883 27.83856,-26.11803 27.83859,-26.11795 27.83867,-26.11773 27.83868,-26.11771 27.83871,-26.11764 27.839,-26.11685 27.839,-26.11685 27.83899,-26.11685 27.83669,-26.11608 27.83461,-26.11538 27.83217,-26.11456 27.83189,-26.11365 27.83204,-26.11274 27.83262,-26.11137 27.83229,-26.11085 27.83223,-26.11078 27.83218,-26.1107 27.8321,-26.11059 27.83205,-26.11047 27.83199,-26.1103 27.83194,-26.11017 27.83188,-26.11004 27.83184,-26.10993 27.83188,-26.1098 27.83196,-26.10973 27.832,-26.10966 27.83201,-26.10956 27.83204,-26.10927 27.83204,-26.10913 27.83205,-26.109 27.83205,-26.10884 27.83203,-26.10873 27.83203,-26.1087 27.83203,-26.10863 27.83206,-26.10856 27.83215,-26.10854 27.83226,-26.10853 27.83235,-26.10849 27.83252,-26.10844 27.83271,-26.10837 27.83285,-26.10827 27.83301,-26.10816 27.83312,-26.10809 27.83319,-26.10806 27.83326,-26.10798 27.83334,-26.10789 27.83346,-26.10781 27.83357,-26.10777 27.83361,-26.10775 27.83378,-26.10763 27.8339,-26.10754 27.83397,-26.10751 27.83406,-26.10743 27.8341,-26.10739 27.83416,-26.10734 27.83422,-26.10726 27.83431,-26.10722 27.83438,-26.10719 27.83451,-26.10715 27.83459,-26.10711 27.83468,-26.10707 27.83478,-26.10706 27.83485,-26.10702 27.835,-26.10692 27.83519,-26.10682 27.83528,-26.1068 27.83542,-26.10681 27.8358,-26.10692 27.83588,-26.10692 27.83596,-26.10693 27.83613,-26.10703 27.83618,-26.10705 27.83619,-26.10705 27.83623,-26.10706 27.83627,-26.10708 27.83631,-26.10711 27.83639,-26.10716 27.83648,-26.1072 27.83668,-26.10726 27.8369,-26.10737 27.83699,-26.1074 27.83711,-26.10743 27.83721,-26.10747 27.83739,-26.10759 27.83746,-26.1076 27.83749,-26.10759 27.83753,-26.10757 27.83757,-26.10756 27.83763,-26.10753 27.83767,-26.10754 27.83771,-26.10754 27.83774,-26.10755 27.83778,-26.10757 27.83781,-26.10758 27.83788,-26.10762 27.83794,-26.10765 27.83805,-26.10765 27.83809,-26.10764 27.83816,-26.10762 27.8382,-26.10761 27.83823,-26.10761 27.83827,-26.10759 27.83832,-26.10757 27.8384,-26.10759 27.83846,-26.10761 27.8385,-26.10763 27.83854,-26.10764 27.83857,-26.10764 27.83863,-26.10762 27.83867,-26.10759 27.83869,-26.10758 27.8387,-26.10757 27.83873,-26.10754 27.83878,-26.10748 27.83887,-26.10738 27.83892,-26.10733 27.83898,-26.1073 27.83904,-26.10729 27.83911,-26.10729 27.83916,-26.10728 27.83924,-26.10726 27.83933,-26.10724 27.83939,-26.10722 27.83946,-26.10719 27.83953,-26.10715 27.83956,-26.10712 27.83957,-26.10709 27.8396,-26.10703 27.83965,-26.10687 27.83962,-26.10671 27.83967,-26.10658 27.83971,-26.10646 27.83974,-26.10638 27.83976,-26.10619 27.83978,-26.10601 27.83968,-26.10589 27.83959,-26.10576 27.83957,-26.10565 27.83959,-26.10561 27.83959,-26.1055 27.83962,-26.10537 27.83966,-26.10523 27.83968,-26.10515 27.83971,-26.10509 27.83973,-26.10494 27.83977,-26.10476 27.83989,-26.10461 27.83991,-26.10456 27.83997,-26.10449 27.84003,-26.10444 27.84011,-26.10432 27.84011,-26.10428 27.8401,-26.10424 27.84009,-26.10421 27.84008,-26.10416 27.84006,-26.10409 27.84006,-26.10397 27.84006,-26.10394 27.84007,-26.10391 27.84008,-26.10387 27.84009,-26.10383 27.84009,-26.1038 27.8401,-26.10377 27.8401,-26.10374 27.84006,-26.10369 27.84001,-26.10365 27.83999,-26.10362 27.83996,-26.10359 27.8399,-26.10355 27.83984,-26.10349 27.8398,-26.10346 27.83977,-26.10343 27.83975,-26.1034 27.83975,-26.10325 27.83976,-26.10321 27.83976,-26.10312 27.83978,-26.10306 27.83982,-26.103 27.83984,-26.10298 27.83988,-26.10295 27.84,-26.10295 27.84003,-26.10294 27.84007,-26.10292 27.84007,-26.10286 27.84008,-26.10279 27.84006,-26.10273 27.84006,-26.1027 27.84004,-26.10265 27.84003,-26.10262 27.84003,-26.10259 27.84001,-26.10253 27.84,-26.10249 27.83998,-26.10245 27.83997,-26.10241 27.83997,-26.10235 27.84,-26.1023 27.84002,-26.10225 27.84003,-26.10221 27.84004,-26.10215 27.84004,-26.1021 27.84006,-26.10201 27.84009,-26.1018 27.84011,-26.10174 27.84011,-26.10169 27.8401,-26.10165 27.84009,-26.10158 27.84008,-26.10153 27.84008,-26.10141 27.84007,-26.10134 27.84006,-26.10126 27.84006,-26.1012 27.84005,-26.10117 27.84004,-26.10113 27.84,-26.10109 27.83994,-26.10102 27.83988,-26.10096 27.83982,-26.10088 27.83974,-26.10079 27.83966,-26.10066 27.83962,-26.1006 27.83955,-26.10051 27.8395,-26.10041 27.83947,-26.10036 27.83944,-26.1003 27.83943,-26.10022 27.83943,-26.10017 27.83944,-26.10007 27.83942,-26.1 27.83942,-26.09995 27.83939,-26.09986 27.83937,-26.09984 27.83935,-26.09979 27.83929,-26.09973 27.83926,-26.09968 27.83922,-26.09962 27.8392,-26.09958 27.83918,-26.09953 27.83915,-26.09946 27.83912,-26.0994 27.83911,-26.09935 27.8391,-26.09929 27.83905,-26.09923 27.83902,-26.09918 27.83901,-26.09914 27.83901,-26.09909 27.83906,-26.09904 27.83909,-26.09901 27.83907,-26.09895 27.83905,-26.09891 27.83903,-26.09884 27.83907,-26.09877 27.83915,-26.0986 27.83916,-26.09859 27.83922,-26.09846 27.83924,-26.09839 27.83931,-26.09829 27.83937,-26.09824 27.83942,-26.09818 27.83947,-26.09811 27.83952,-26.098 27.83956,-26.09794 27.83958,-26.09787 27.83959,-26.09783 27.83962,-26.09779 27.83965,-26.09776 27.83969,-26.09773 27.83974,-26.09763 27.83975,-26.0976 27.83975,-26.09757 27.83978,-26.09755 27.83981,-26.09748 27.83982,-26.09744 27.83984,-26.09741 27.83984,-26.09738 27.83985,-26.09735 27.83985,-26.09726 27.83983,-26.0972 27.83983,-26.09717 27.83982,-26.09711 27.83981,-26.09707 27.83978,-26.09702 27.83976,-26.09698 27.83975,-26.09694 27.83973,-26.09689 27.83972,-26.09686 27.83969,-26.09681 27.83968,-26.09678 27.83964,-26.09672 27.83962,-26.09669 27.83958,-26.09665 27.83951,-26.09659 27.83943,-26.09651 27.83937,-26.09644 27.83933,-26.09642 27.83926,-26.09638 27.8391,-26.09622 27.83905,-26.09619 27.839,-26.09612 27.83895,-26.09608 27.8389,-26.09605 27.83883,-26.096 27.83871,-26.09594 27.83865,-26.0959 27.8386,-26.09586 27.83856,-26.09581 27.83851,-26.09575 27.83847,-26.0957 27.83847,-26.09564 27.83846,-26.09559 27.83842,-26.0955 27.83842,-26.09547 27.83845,-26.09542 27.83849,-26.09534 27.83851,-26.09531 27.83854,-26.0953 27.83856,-26.09526 27.83858,-26.09521 27.83861,-26.09517 27.83863,-26.09514 27.83865,-26.0951 27.83868,-26.09507 27.83872,-26.09502 27.83876,-26.09494 27.83878,-26.09489 27.83881,-26.09483 27.83884,-26.09479 27.83887,-26.09478 27.83891,-26.09476 27.8389,-26.09473 27.8389,-26.09467 27.83895,-26.09457 27.83898,-26.09454 27.83899,-26.09449 27.83901,-26.09446 27.83906,-26.09444 27.83908,-26.09442 27.83911,-26.0944 27.83912,-26.09437 27.83915,-26.09436 27.83919,-26.09436 27.83924,-26.09435 27.83926,-26.09433 27.83928,-26.09423 27.83926,-26.09419 27.83924,-26.09414 27.83926,-26.09407 27.83927,-26.09401 27.83929,-26.09396 27.83932,-26.0939 27.83933,-26.09383 27.83937,-26.09368 27.83937,-26.09355 27.83934,-26.09347 27.83933,-26.09339 27.83931,-26.09321 27.83931,-26.09308 27.83929,-26.09303 27.83927,-26.09299 27.83924,-26.09296 27.83923,-26.09293 27.8392,-26.09291 27.83918,-26.09279 27.83915,-26.09274 27.83913,-26.0927 27.83914,-26.09265 27.83914,-26.0926 27.83913,-26.09255 27.83911,-26.09248 27.83909,-26.09242 27.8391,-26.09237 27.8391,-26.0923 27.8391,-26.09229 27.83911,-26.09222 27.83914,-26.09216 27.83916,-26.09213 27.83919,-26.09208 27.83922,-26.09206 27.83926,-26.09207 27.8393,-26.09209 27.83934,-26.0921 27.83937,-26.09209 27.83944,-26.09202 27.83949,-26.09198 27.83954,-26.09199 27.83957,-26.09201 27.83963,-26.09204 27.83966,-26.09203 27.83963,-26.09197 27.83931,-26.09162 27.83879,-26.09105 27.83867,-26.09073 27.83778,-26.08849 27.83771,-26.08831 27.83756,-26.08794 27.83762,-26.08793 27.83555,-26.08497 27.83531,-26.08463 27.83636,-26.08447 27.83718,-26.08434 27.83941,-26.08399 27.83966,-26.08396 27.84296,-26.08345 27.84338,-26.08338 27.844,-26.08329 27.84415,-26.08326 27.84414,-26.08321 27.84412,-26.08315 27.8441,-26.08313 27.84407,-26.08308 27.84408,-26.08304 27.84413,-26.08299 27.84417,-26.08296 27.84423,-26.08292 27.84426,-26.08289 27.84429,-26.08288 27.84432,-26.08286 27.84437,-26.08282 27.84441,-26.08281 27.84443,-26.08279 27.84449,-26.08276 27.84456,-26.08271 27.84464,-26.08266 27.84468,-26.08264 27.8447,-26.08262 27.84472,-26.08259 27.84474,-26.08257 27.84476,-26.08254 27.84477,-26.0825 27.84477,-26.08227 27.84478,-26.08223 27.84476,-26.08214 27.8447,-26.08208 27.84466,-26.08202 27.8446,-26.08183 27.84459,-26.08172 27.84457,-26.08161 27.84455,-26.08146 27.84455,-26.08135 27.84456,-26.08117 27.8446,-26.08107 27.84465,-26.08103 27.8447,-26.081 27.84474,-26.08097 27.84481,-26.08094 27.84485,-26.08093 27.84488,-26.08092 27.84492,-26.08087 27.84493,-26.08084 27.84493,-26.0808 27.84494,-26.08076 27.84494,-26.08059 27.84493,-26.08055 27.84493,-26.08046 27.84492,-26.08041 27.84492,-26.08031 27.84491,-26.08025 27.84491,-26.08021 27.8449,-26.08017 27.8449,-26.08009 27.84489,-26.08005 27.84489,-26.08 27.8449,-26.07997 27.8449,-26.07996 27.8449,-26.07995 27.84491,-26.07964 27.84492,-26.07948 27.84492,-26.07944 27.84493,-26.07938 27.84495,-26.07932 27.84496,-26.07928 27.84497,-26.07923 27.84497,-26.07921 27.84498,-26.07915 27.845,-26.07911 27.84501,-26.079 27.84501,-26.07895 27.84502,-26.0789 27.84504,-26.07874 27.84505,-26.07866 27.84505,-26.07853 27.84504,-26.07846 27.84503,-26.07842 27.84502,-26.07839 27.845,-26.07837 27.84497,-26.07833 27.84495,-26.0783 27.84492,-26.07829 27.84489,-26.07828 27.84487,-26.07826 27.84483,-26.07825 27.84479,-26.07822 27.84476,-26.07818 27.84475,-26.07816 27.84473,-26.07812 27.84472,-26.07808 27.84472,-26.07803 27.8447,-26.07799 27.84467,-26.07792 27.84465,-26.07788 27.84462,-26.07785 27.8446,-26.07783 27.84459,-26.07781 27.84457,-26.07777 27.84456,-26.07773 27.84454,-26.07769 27.84453,-26.07766 27.84451,-26.07763 27.84451,-26.07759 27.84449,-26.07756 27.84448,-26.07752 27.84447,-26.07749 27.84444,-26.07746 27.84443,-26.07742 27.84442,-26.07738 27.84441,-26.07735 27.84439,-26.07733 27.84438,-26.0773 27.84437,-26.07726 27.84435,-26.07722 27.84434,-26.07718 27.84432,-26.07713 27.84431,-26.07707 27.8443,-26.077 27.84428,-26.07694 27.84428,-26.07691 27.84426,-26.07688 27.84425,-26.07684 27.84422,-26.0768 27.84422,-26.07677 27.8442,-26.07674 27.84419,-26.07671 27.84417,-26.07668 27.84415,-26.07663 27.84414,-26.0766 27.84413,-26.07657 27.84411,-26.07655 27.8441,-26.07651 27.8441,-26.07645 27.84409,-26.07641 27.84407,-26.07636 27.84406,-26.07632 27.84405,-26.07629 27.84403,-26.0762 27.84403,-26.07607 27.84405,-26.07604 27.84406,-26.07601 27.84407,-26.07597 27.84408,-26.07594 27.8441,-26.07591 27.84412,-26.07588 27.84414,-26.07586 27.84417,-26.07584 27.84418,-26.07581 27.8442,-26.07578 27.84422,-26.07574 27.84422,-26.07567 27.84422,-26.07564 27.84418,-26.07552 27.84394,-26.07498 27.84371,-26.07444 27.84347,-26.0739 27.84345,-26.07387 27.84344,-26.07375 27.84343,-26.07365 27.84341,-26.07359 27.84341,-26.07351 27.84339,-26.07342 27.84339,-26.07333 27.84337,-26.07326 27.84334,-26.0732 27.84332,-26.07312 27.84327,-26.07306 27.84323,-26.07298 27.84318,-26.07293 27.84312,-26.07286 27.84308,-26.0728 27.84304,-26.07275 27.84297,-26.0727 27.8429,-26.07266 27.84282,-26.07261 27.84275,-26.0726 27.84268,-26.07255 27.84262,-26.07249 27.84254,-26.07245 27.84249,-26.07247 27.84244,-26.07244 27.84239,-26.07239 27.84225,-26.0723 27.84237,-26.07214 27.84259,-26.07184 27.84617,-26.07245 27.84656,-26.07252 27.84737,-26.07266 27.84841,-26.07283 27.84917,-26.07296 27.84957,-26.07303 27.8506,-26.0732 27.85155,-26.07337 27.85161,-26.07338 27.85247,-26.07352 27.8525,-26.07353 27.85278,-26.07358 27.85363,-26.07372 27.85395,-26.07377 27.85422,-26.07382 27.85431,-26.07384 27.85431,-26.07384 27.85492,-26.07394 27.85768,-26.0744 27.85778,-26.07442 27.85857,-26.07456 27.85918,-26.07466 27.85952,-26.07472 27.85978,-26.07476 27.86015,-26.07483 27.86015,-26.07483 27.86015,-26.07483 27.86015,-26.07483 27.86064,-26.07491 27.8611,-26.07499 27.86166,-26.07508 27.86222,-26.07518 27.86382,-26.07545 27.86437,-26.07554 27.86524,-26.07536 27.86651,-26.07511 27.86641,-26.07503 27.8664,-26.07503 27.86544,-26.07431 27.86492,-26.07391 27.86212,-26.0718 27.86183,-26.07158 27.8617,-26.07148 27.86169,-26.07147 27.8581,-26.06877 27.85802,-26.06871 27.85469,-26.06618 27.85411,-26.06575 27.85409,-26.06573 27.85294,-26.06487 27.85291,-26.06484 27.84994,-26.0626 27.84964,-26.06238 27.84964,-26.06238 27.84996,-26.06195 27.85096,-26.06061 27.85157,-26.05979 27.85555,-26.05881 27.85558,-26.0588 27.8556,-26.0588 27.85748,-26.05833 27.86144,-26.05736 27.86465,-26.05658 27.86551,-26.05876 27.86554,-26.05884 27.86657,-26.06142 27.86659,-26.06147 27.86801,-26.06507 27.86804,-26.06507 27.86897,-26.0647 27.86877,-26.0642 27.87198,-26.06247 27.87338,-26.06451 27.87526,-26.06755 27.87536,-26.06771 27.87647,-26.0695 27.87689,-26.07018 27.87706,-26.07046 27.87746,-26.07112 27.87748,-26.07115 27.88161,-26.0691 27.88204,-26.06888 27.88608,-26.06687 27.89253,-26.06367 27.89299,-26.06344 27.89373,-26.06307 27.89627,-26.06185 27.89701,-26.05906 27.89698,-26.05903 27.89701,-26.05891 27.89759,-26.05672 27.8976,-26.05669 27.89764,-26.05655 27.89764,-26.05654 27.89764,-26.05653 27.8979,-26.05555 27.89806,-26.05495 27.89828,-26.05412 27.89856,-26.05304 27.89887,-26.05188 27.89919,-26.05069 27.89951,-26.04945 27.89985,-26.04818 27.90022,-26.0468 27.90048,-26.04581 27.90092,-26.04416 27.90131,-26.04266 27.90135,-26.04253 27.90179,-26.04087 27.90232,-26.03885 27.90339,-26.03482 27.90437,-26.03111 27.90495,-26.03091 27.90761,-26.02997 27.9088,-26.02955 27.90882,-26.02955 27.91264,-26.02821 27.91367,-26.02538 27.91391,-26.02474 27.91453,-26.02303 27.91502,-26.02169 27.91519,-26.02122 27.91577,-26.02059 27.91649,-26.01981 27.91653,-26.01977 27.91706,-26.01924 27.91769,-26.01851 27.91814,-26.01799 27.91904,-26.01704 27.91954,-26.01651 27.92037,-26.01562 27.92095,-26.01501 27.92221,-26.01394 27.92281,-26.01345 27.92383,-26.0127 27.92404,-26.01247 27.92516,-26.01119 27.92742,-26.00869 27.92878,-26.00719 27.92946,-26.00642 27.92967,-26.00619 27.9298,-26.00587 27.93012,-26.00555 27.93039,-26.00525 27.93047,-26.00534 27.9306,-26.00545 27.93122,-26.00603 27.93217,-26.0069 27.93282,-26.0075 27.9335,-26.00812 27.9336,-26.00821 27.93378,-26.00838 27.93393,-26.00852 27.93414,-26.00871 27.93476,-26.00939</coordinates></LinearRing></outerBoundaryIs></Polygon></MultiGeometry></Placemark></Document></kml>