<?xml version="1.0" encoding="UTF-8"?><kml xmlns="http://www.opengis.net/kml/2.2"><Document><Placemark><name>Alexandra</name><description>Main Place 798014</description><ExtendedData><Data name="code"><value>798014</value></Data><Data name="name"><value>Alexandra</value></Data><Data name="description"><value>Main Place 798014</value></Data></ExtendedData><MultiGeometry><Polygon><outerBoundaryIs><LinearRing><coordinates>28.11429,-26.08273 28.11435,-26.08292 28.11443,-26.08312 28.11454,-26.08339 28.11474,-26.0838 28.1149,-26.08418 28.11502,-26.0846 28.11537,-26.08606 28.11582,-26.08789 28.11609,-26.08904 28.11644,-26.09047 28.11653,-26.09083 28.1166,-26.09116 28.11671,-26.09157 28.11677,-26.0918 28.11686,-26.09217 28.117,-26.09262 28.11714,-26.09307 28.11718,-26.09318 28.11727,-26.09341 28.11736,-26.09366 28.11747,-26.09396 28.11748,-26.09398 28.11763,-26.09435 28.11774,-26.09463 28.11782,-26.09481 28.118,-26.09518 28.11815,-26.09551 28.11833,-26.09587 28.1184,-26.09601 28.11858,-26.09634 28.11858,-26.09634 28.11876,-26.09668 28.11899,-26.09706 28.11914,-26.09731 28.11922,-26.09746 28.11943,-26.09778 28.11975,-26.09826 28.12019,-26.09888 28.12072,-26.09956 28.12083,-26.09969 28.12124,-26.10019 28.12129,-26.10024 28.12278,-26.10198 28.12354,-26.10287 28.12379,-26.10315 28.12487,-26.10438 28.12453,-26.10461 28.12426,-26.10481 28.124,-26.10499 28.12382,-26.10511 28.12373,-26.10517 28.12368,-26.10521 28.12345,-26.10535 28.12323,-26.10548 28.12297,-26.10561 28.12279,-26.10569 28.1225,-26.10582 28.12228,-26.10589 28.12207,-26.10595 28.12185,-26.10601 28.12185,-26.10601 28.12177,-26.10603 28.12161,-26.10607 28.1214,-26.10611 28.12097,-26.10619 28.1207,-26.10622 28.12053,-26.10624 28.12035,-26.10626 28.12009,-26.10627 28.11989,-26.10628 28.1196,-26.10628 28.11944,-26.10628 28.11918,-26.10627 28.11898,-26.10626 28.11882,-26.10625 28.11859,-26.10622 28.11794,-26.10616 28.11777,-26.10615 28.11757,-26.10614 28.11747,-26.10615 28.11716,-26.10619 28.11716,-26.10619 28.117,-26.10624 28.11681,-26.1063 28.11663,-26.10638 28.11647,-26.10647 28.11638,-26.10652 28.11625,-26.10662 28.11614,-26.10671 28.11606,-26.10679 28.11602,-26.10684 28.11593,-26.10694 28.11588,-26.10701 28.11583,-26.10709 28.11578,-26.10717 28.11571,-26.10731 28.11567,-26.10738 28.11566,-26.1074 28.11563,-26.10746 28.11549,-26.10773 28.11548,-26.10773 28.11545,-26.10779 28.11536,-26.10794 28.11527,-26.10807 28.1152,-26.10818 28.1151,-26.1083 28.11509,-26.10831 28.11497,-26.10846 28.11488,-26.10856 28.11479,-26.10865 28.11467,-26.10876 28.11451,-26.1089 28.11451,-26.10891 28.1145,-26.10892 28.11435,-26.10904 28.11415,-26.1092 28.1136,-26.10953 28.11306,-26.10973 28.113,-26.10975 28.11266,-26.10985 28.11186,-26.11009 28.11064,-26.11047 28.11028,-26.11058 28.10929,-26.11088 28.10886,-26.11101 28.10832,-26.11118 28.10825,-26.1112 28.10781,-26.11134 28.10737,-26.11148 28.10636,-26.11179 28.10538,-26.1121 28.10501,-26.11221 28.10452,-26.11236 28.10442,-26.11239 28.10351,-26.11266 28.10344,-26.11268 28.10248,-26.11297 28.10247,-26.11297 28.10207,-26.1131 28.10199,-26.11312 28.10057,-26.11351 28.10008,-26.11364 28.09957,-26.1138 28.09856,-26.11412 28.09768,-26.11439 28.09637,-26.1148 28.09566,-26.115 28.09557,-26.11502 28.09469,-26.11529 28.09368,-26.11559 28.09275,-26.11587 28.0926,-26.11591 28.09179,-26.11616 28.09115,-26.1148 28.09096,-26.11437 28.09061,-26.11358 28.08974,-26.1116 28.08953,-26.11113 28.08923,-26.11047 28.08852,-26.10891 28.08845,-26.10874 28.08761,-26.10693 28.08741,-26.10648 28.08632,-26.10404 28.08615,-26.10365 28.08585,-26.103 28.0855,-26.10219 28.0855,-26.10121 28.08568,-26.10118 28.08627,-26.101 28.08722,-26.10072 28.08788,-26.10053 28.08818,-26.10043 28.08916,-26.10014 28.09013,-26.09985 28.09013,-26.09985 28.09019,-26.09984 28.09099,-26.0996 28.09111,-26.09957 28.09208,-26.09927 28.09306,-26.09898 28.09308,-26.09897 28.09358,-26.09882 28.09401,-26.09869 28.09403,-26.09869 28.09499,-26.0984 28.09597,-26.09811 28.09602,-26.0981 28.09693,-26.09783 28.09792,-26.09753 28.0986,-26.09733 28.09888,-26.09724 28.09984,-26.09695 28.09998,-26.09691 28.10001,-26.0969 28.10081,-26.09667 28.1011,-26.09659 28.1015,-26.09648 28.10177,-26.0964 28.10191,-26.09636 28.10231,-26.09623 28.10257,-26.09618 28.10259,-26.09618 28.10271,-26.09615 28.1033,-26.09597 28.10351,-26.09589 28.10384,-26.09576 28.1042,-26.09563 28.10431,-26.09535 28.10443,-26.09507 28.10447,-26.09505 28.10456,-26.09492 28.1047,-26.09446 28.10481,-26.09405 28.10481,-26.09394 28.10482,-26.09389 28.10483,-26.09382 28.1049,-26.09339 28.10472,-26.0934 28.10471,-26.09334 28.10472,-26.09334 28.10495,-26.09327 28.10521,-26.09299 28.10524,-26.09284 28.10527,-26.09267 28.10527,-26.0926 28.10529,-26.09247 28.10528,-26.09236 28.10527,-26.09216 28.10526,-26.09213 28.10527,-26.09195 28.10533,-26.09164 28.10535,-26.09155 28.10543,-26.09108 28.10547,-26.09089 28.10546,-26.09085 28.10545,-26.09083 28.10542,-26.0906 28.10539,-26.09049 28.10507,-26.09017 28.10499,-26.09011 28.10477,-26.08993 28.10469,-26.0898 28.10488,-26.08968 28.10548,-26.08957 28.10585,-26.08946 28.10603,-26.08846 28.10619,-26.0885 28.1065,-26.08856 28.10722,-26.08854 28.10843,-26.0885 28.10869,-26.08774 28.10874,-26.08679 28.10868,-26.08634 28.10868,-26.08598 28.10871,-26.08536 28.10866,-26.08416 28.10866,-26.08416 28.10836,-26.08408 28.10752,-26.08375 28.10706,-26.08346 28.10667,-26.08294 28.10658,-26.08278 28.1065,-26.08266 28.10685,-26.08262 28.10716,-26.08262 28.10751,-26.08261 28.10791,-26.08266 28.10815,-26.08267 28.10878,-26.08273 28.10943,-26.08278 28.10986,-26.08281 28.10995,-26.08281 28.11044,-26.08285 28.11076,-26.08284 28.11108,-26.08281 28.11143,-26.08273 28.11199,-26.08262 28.11239,-26.08254 28.11298,-26.08242 28.11415,-26.08218 28.11417,-26.08218 28.11429,-26.08273</coordinates></LinearRing></outerBoundaryIs></Polygon></MultiGeometry></Placemark></Document></kml>