<?xml version="1.0" encoding="UTF-8"?><kml xmlns="http://www.opengis.net/kml/2.2"><Document><Placemark><name>Linksfield</name><description>Sub Place 798015028</description><ExtendedData><Data name="code"><value>798015028</value></Data><Data name="name"><value>Linksfield</value></Data><Data name="description"><value>Sub Place 798015028</value></Data></ExtendedData><MultiGeometry><Polygon><outerBoundaryIs><LinearRing><coordinates>28.13605,-26.12641 28.13439,-26.13097 28.13378,-26.13269 28.13364,-26.13314 28.13355,-26.13341 28.13341,-26.13415 28.13332,-26.13525 28.13318,-26.13624 28.13308,-26.13692 28.13292,-26.13762 28.13291,-26.13772 28.13288,-26.13789 28.13252,-26.14047 28.13257,-26.14049 28.13254,-26.14075 28.13237,-26.14184 28.13208,-26.14364 28.13203,-26.14446 28.1319,-26.14646 28.13205,-26.14696 28.13249,-26.14754 28.13288,-26.14805 28.1329,-26.14912 28.1329,-26.14925 28.13373,-26.14936 28.13421,-26.14938 28.13421,-26.14947 28.13355,-26.14944 28.13348,-26.14944 28.13197,-26.14939 28.13155,-26.14937 28.13151,-26.14937 28.13131,-26.14936 28.13118,-26.14936 28.13116,-26.14936 28.13047,-26.14933 28.12919,-26.14929 28.12915,-26.14928 28.12809,-26.14925 28.12783,-26.14924 28.12455,-26.14913 28.12434,-26.14944 28.12433,-26.14945 28.12429,-26.14951 28.12425,-26.14957 28.12369,-26.1504 28.12277,-26.1515 28.12086,-26.15532 28.12049,-26.15607 28.12022,-26.15611 28.11772,-26.15997 28.11767,-26.16004 28.11565,-26.16119 28.11471,-26.16173 28.11424,-26.16189 28.1142,-26.1619 28.1173,-26.16547 28.11815,-26.16644 28.11851,-26.16686 28.11274,-26.16778 28.11097,-26.16784 28.11046,-26.16782 28.1097,-26.1678 28.10943,-26.16768 28.10932,-26.16772 28.10909,-26.16742 28.10844,-26.16658 28.10833,-26.16659 28.10832,-26.16659 28.10823,-26.16659 28.10803,-26.16661 28.10799,-26.16662 28.10704,-26.16667 28.10665,-26.16669 28.10566,-26.16676 28.10575,-26.16714 28.10528,-26.16716 28.10515,-26.16678 28.10383,-26.16688 28.1033,-26.16693 28.10359,-26.16787 28.10265,-26.16791 28.10251,-26.16788 28.10223,-26.16699 28.10215,-26.16699 28.10203,-26.16699 28.10176,-26.16697 28.10146,-26.16698 28.10105,-26.16696 28.10077,-26.16691 28.10026,-26.16681 28.09993,-26.16674 28.0988,-26.1665 28.0985,-26.16645 28.09785,-26.16628 28.09764,-26.16629 28.09532,-26.16657 28.09495,-26.16661 28.0939,-26.16673 28.09394,-26.16753 28.094,-26.16758 28.09407,-26.16769 28.09387,-26.16771 28.09358,-26.16775 28.09355,-26.16779 28.09357,-26.16783 28.09361,-26.16786 28.09389,-26.16786 28.09395,-26.16787 28.09396,-26.16787 28.09396,-26.16791 28.09393,-26.16794 28.09369,-26.16802 28.09357,-26.16807 28.09349,-26.16801 28.09338,-26.16794 28.09306,-26.16788 28.09263,-26.16785 28.09246,-26.16861 28.09246,-26.16871 28.09244,-26.16871 28.09226,-26.16871 28.0921,-26.16863 28.09194,-26.16858 28.09204,-26.16798 28.09202,-26.1679 28.09176,-26.16787 28.09171,-26.1679 28.09162,-26.16797 28.09154,-26.16801 28.09146,-26.16802 28.09137,-26.16802 28.09132,-26.168 28.09125,-26.16793 28.09109,-26.16785 28.09097,-26.16781 28.09088,-26.16778 28.09076,-26.16777 28.09063,-26.16777 28.09044,-26.1678 28.09014,-26.16785 28.0897,-26.16794 28.08952,-26.16795 28.0892,-26.16805 28.08889,-26.16813 28.08847,-26.16803 28.08822,-26.16862 28.08819,-26.16861 28.08804,-26.16854 28.08742,-26.16806 28.08732,-26.16794 28.08734,-26.16779 28.08739,-26.1676 28.08898,-26.1663 28.09072,-26.16492 28.09123,-26.16446 28.09129,-26.1644 28.09137,-26.1643 28.09208,-26.16376 28.09253,-26.1634 28.09281,-26.16319 28.09382,-26.16233 28.0942,-26.16204 28.09431,-26.16196 28.09486,-26.16151 28.09486,-26.1615 28.09511,-26.16022 28.09513,-26.16011 28.09525,-26.15946 28.09527,-26.15941 28.09596,-26.15952 28.09713,-26.15974 28.09727,-26.15962 28.09825,-26.15883 28.09863,-26.15852 28.09937,-26.15797 28.10034,-26.15716 28.10149,-26.15625 28.10153,-26.15611 28.10154,-26.15608 28.10158,-26.15583 28.10161,-26.15561 28.10167,-26.15542 28.10172,-26.15528 28.10175,-26.15498 28.10086,-26.15304 28.10065,-26.15248 28.10065,-26.15246 28.10082,-26.15246 28.10221,-26.1523 28.10344,-26.15217 28.10357,-26.15214 28.10373,-26.15202 28.10392,-26.15185 28.10402,-26.15176 28.10421,-26.1516 28.10631,-26.14966 28.10701,-26.14905 28.10715,-26.14892 28.10745,-26.14865 28.10868,-26.14812 28.10917,-26.14793 28.11018,-26.14752 28.11059,-26.14736 28.11174,-26.14692 28.11292,-26.1462 28.11345,-26.14589 28.11523,-26.14477 28.11623,-26.14418 28.11635,-26.14408 28.11642,-26.14397 28.11642,-26.14397 28.11642,-26.14397 28.11642,-26.14397 28.11649,-26.14393 28.11678,-26.1437 28.11732,-26.14281 28.11743,-26.14277 28.11757,-26.14273 28.11757,-26.14272 28.11763,-26.14264 28.11779,-26.14248 28.11813,-26.14213 28.11862,-26.1416 28.11947,-26.14046 28.11947,-26.14046 28.11928,-26.14027 28.11852,-26.13949 28.11788,-26.13883 28.11699,-26.13786 28.11716,-26.13773 28.11743,-26.1375 28.11732,-26.13738 28.11533,-26.1351 28.11528,-26.13504 28.11484,-26.13454 28.11454,-26.13419 28.11359,-26.13305 28.11307,-26.13247 28.11244,-26.13181 28.11142,-26.13061 28.11165,-26.13053 28.11969,-26.12795 28.11977,-26.12798 28.11988,-26.12805 28.12004,-26.12816 28.12013,-26.12824 28.12027,-26.12837 28.12055,-26.12821 28.12089,-26.12803 28.12124,-26.12793 28.12169,-26.1278 28.12215,-26.12766 28.12247,-26.1276 28.12286,-26.12755 28.12318,-26.12753 28.12348,-26.12752 28.12441,-26.12752 28.12458,-26.12752 28.12715,-26.12755 28.12992,-26.1276 28.13017,-26.12759 28.13037,-26.12757 28.13082,-26.12746 28.13128,-26.12731 28.13157,-26.1272 28.13197,-26.12701 28.1322,-26.12684 28.13248,-26.12663 28.13268,-26.12644 28.13268,-26.12644 28.13605,-26.12641</coordinates></LinearRing></outerBoundaryIs></Polygon></MultiGeometry></Placemark></Document></kml>