<?xml version="1.0" encoding="UTF-8"?><kml xmlns="http://www.opengis.net/kml/2.2"><Document><Placemark><name>Douglasdale</name><description>Sub Place 798013013</description><ExtendedData><Data name="code"><value>798013013</value></Data><Data name="name"><value>Douglasdale</value></Data><Data name="description"><value>Sub Place 798013013</value></Data></ExtendedData><MultiGeometry><Polygon><outerBoundaryIs><LinearRing><coordinates>27.99209,-26.03143 27.99212,-26.03163 27.99221,-26.03162 27.99238,-26.0316 27.99307,-26.03153 27.99351,-26.03147 27.99431,-26.03138 27.99445,-26.03176 27.9945,-26.03195 27.99469,-26.03257 27.99471,-26.03263 27.99489,-26.03317 27.99531,-26.03292 27.99626,-26.03231 27.99662,-26.03209 27.99692,-26.03189 27.997,-26.03185 27.99714,-26.03202 27.99847,-26.03372 27.9987,-26.03401 27.99907,-26.03449 27.99911,-26.03455 27.99951,-26.03506 27.99987,-26.03553 27.99996,-26.03564 28.00026,-26.036 28.00048,-26.03622 28.00068,-26.03642 28.00085,-26.0366 28.00095,-26.03669 28.00109,-26.03683 28.00119,-26.03695 28.00127,-26.03705 28.00145,-26.03727 28.00158,-26.03744 28.00231,-26.03838 28.00234,-26.03841 28.00362,-26.03816 28.00402,-26.03808 28.00433,-26.03853 28.00463,-26.03896 28.00501,-26.0395 28.00554,-26.04025 28.00595,-26.04083 28.00593,-26.04084 28.00488,-26.04131 28.00475,-26.04137 28.00473,-26.04138 28.00465,-26.04142 28.00458,-26.04145 28.00457,-26.04145 28.0044,-26.04122 28.00433,-26.04126 28.00276,-26.04199 28.00271,-26.04201 28.00262,-26.04297 28.00257,-26.04354 28.00256,-26.04361 28.00256,-26.04371 28.00235,-26.04379 28.00217,-26.04386 28.00217,-26.04402 28.00324,-26.0441 28.00334,-26.04411 28.00339,-26.04411 28.00346,-26.04411 28.00351,-26.04411 28.00351,-26.04412 28.00369,-26.0443 28.00366,-26.04432 28.00262,-26.04521 28.00246,-26.04535 28.00163,-26.04606 28.001,-26.0466 27.99949,-26.04788 27.99924,-26.04809 27.99775,-26.04936 27.9974,-26.04966 27.99702,-26.04998 27.99683,-26.04977 27.99537,-26.0501 27.99527,-26.05012 27.99526,-26.05013 27.99524,-26.05013 27.99456,-26.0504 27.99453,-26.05038 27.99443,-26.0503 27.99442,-26.05031 27.9944,-26.05034 27.99438,-26.05036 27.99437,-26.05037 27.99436,-26.05037 27.99434,-26.05039 27.99432,-26.0504 27.99428,-26.05042 27.99422,-26.05044 27.99191,-26.05132 27.99137,-26.05153 27.99114,-26.05158 27.99112,-26.05159 27.99111,-26.05159 27.99111,-26.05159 27.9911,-26.05159 27.99107,-26.05158 27.99092,-26.05152 27.99089,-26.05155 27.99087,-26.05159 27.99084,-26.05162 27.99082,-26.05164 27.99078,-26.05168 27.99075,-26.0517 27.9907,-26.05174 27.99066,-26.05176 27.99061,-26.05179 27.99055,-26.05182 27.99044,-26.05186 27.99027,-26.05192 27.98969,-26.05216 27.98903,-26.05241 27.98849,-26.05261 27.98834,-26.05267 27.98828,-26.0527 27.98824,-26.05273 27.98817,-26.05278 27.98813,-26.05272 27.98808,-26.05264 27.98823,-26.05225 27.98806,-26.05175 27.98815,-26.05168 27.98817,-26.05166 27.98821,-26.05156 27.98835,-26.05127 27.98843,-26.05109 27.98848,-26.051 27.98858,-26.05075 27.98861,-26.05074 27.98861,-26.05072 27.98858,-26.0507 27.98861,-26.05057 27.98863,-26.05038 27.9886,-26.05033 27.98856,-26.05025 27.98855,-26.0502 27.98848,-26.05007 27.98842,-26.04986 27.98842,-26.04977 27.98821,-26.04981 27.98811,-26.04938 27.98818,-26.04933 27.9882,-26.04922 27.98805,-26.04913 27.98803,-26.04904 27.988,-26.04887 27.98798,-26.04876 27.98788,-26.04783 27.98788,-26.04783 27.98786,-26.04747 27.98786,-26.04742 27.98781,-26.04654 27.98775,-26.04567 27.9877,-26.04478 27.98763,-26.04372 27.98761,-26.04335 27.9875,-26.04166 27.98748,-26.04135 27.98738,-26.03981 27.98727,-26.038 27.98717,-26.03638 27.98715,-26.03609 27.98722,-26.03589 27.98724,-26.0358 27.98752,-26.03489 27.98753,-26.03485 27.98772,-26.03426 27.98783,-26.03391 27.98785,-26.03383 27.98818,-26.03279 27.9882,-26.03272 27.98862,-26.03137 27.98875,-26.03094 27.98921,-26.02945 27.98933,-26.02906 27.98988,-26.02731 27.9903,-26.02593 27.98982,-26.02556 27.98976,-26.02552 27.98987,-26.02549 27.99003,-26.02545 27.9905,-26.02531 27.99063,-26.02526 27.99063,-26.02526 27.9907,-26.02539 27.99079,-26.02561 27.99087,-26.02581 27.99106,-26.02617 27.99118,-26.02637 27.99126,-26.02651 27.99133,-26.02665 27.99147,-26.02689 27.99149,-26.02694 27.99151,-26.02699 27.99152,-26.02704 27.99154,-26.02716 27.99155,-26.02726 27.99157,-26.02734 27.99162,-26.02766 27.99163,-26.02777 27.9917,-26.02817 27.99174,-26.02844 27.99177,-26.02862 27.9918,-26.0289 27.99189,-26.02989 27.99193,-26.03031 27.99209,-26.03143</coordinates></LinearRing></outerBoundaryIs></Polygon></MultiGeometry></Placemark></Document></kml>