<?xml version="1.0" encoding="UTF-8"?><kml xmlns="http://www.opengis.net/kml/2.2"><Document><Placemark><name>Ivory Park</name><description>Main Place 798006</description><ExtendedData><Data name="code"><value>798006</value></Data><Data name="name"><value>Ivory Park</value></Data><Data name="description"><value>Main Place 798006</value></Data></ExtendedData><MultiGeometry><Polygon><outerBoundaryIs><LinearRing><coordinates>28.21077,-25.97892 28.2109,-25.97894 28.21106,-25.97893 28.21135,-25.97892 28.21152,-25.97892 28.21192,-25.98098 28.21196,-25.9812 28.21196,-25.9812 28.21197,-25.98124 28.21197,-25.98127 28.2122,-25.98253 28.21228,-25.98291 28.21252,-25.98424 28.2126,-25.98466 28.2126,-25.98466 28.2126,-25.98468 28.21261,-25.98474 28.21264,-25.98487 28.21274,-25.98538 28.21287,-25.98608 28.21288,-25.98614 28.21297,-25.98663 28.21301,-25.98684 28.21304,-25.98698 28.21333,-25.9885 28.21337,-25.98869 28.21337,-25.98869 28.2134,-25.98896 28.21342,-25.98906 28.21345,-25.98931 28.21354,-25.98965 28.21375,-25.99076 28.21391,-25.99162 28.21397,-25.99195 28.21398,-25.99199 28.214,-25.99208 28.21425,-25.99339 28.21446,-25.99453 28.21382,-25.99487 28.21359,-25.99505 28.21353,-25.9952 28.21293,-25.99566 28.21286,-25.99571 28.21284,-25.99572 28.21283,-25.99573 28.21283,-25.99574 28.21277,-25.99578 28.21256,-25.99594 28.21247,-25.99601 28.21229,-25.99614 28.21216,-25.99624 28.21198,-25.99638 28.21188,-25.99646 28.21177,-25.99654 28.21167,-25.99661 28.21157,-25.99669 28.2114,-25.99682 28.21131,-25.99688 28.21123,-25.99695 28.21106,-25.99708 28.21078,-25.99729 28.21076,-25.9973 28.21055,-25.99746 28.21037,-25.9976 28.21028,-25.99767 28.21006,-25.99784 28.20969,-25.99812 28.20951,-25.99825 28.20925,-25.99846 28.20896,-25.99867 28.20862,-25.99893 28.20823,-25.99926 28.20801,-25.9994 28.2075,-25.99978 28.20741,-25.99987 28.20739,-25.99989 28.20738,-25.9999 28.20729,-25.99998 28.20721,-26.00004 28.20684,-26.00032 28.20617,-26.00083 28.20581,-26.00111 28.20576,-26.00115 28.20576,-26.00115 28.20573,-26.00117 28.20498,-26.00174 28.20438,-26.0022 28.20389,-26.00257 28.20339,-26.00295 28.20336,-26.00297 28.20296,-26.00328 28.20061,-26.00507 28.20016,-26.00541 28.20015,-26.00541 28.19888,-26.00638 28.19885,-26.00641 28.19795,-26.00709 28.19632,-26.00833 28.19528,-26.00912 28.19514,-26.00922 28.19511,-26.00924 28.19511,-26.00925 28.19484,-26.00945 28.19373,-26.01029 28.19281,-26.011 28.19279,-26.01101 28.19137,-26.01209 28.19019,-26.01298 28.18993,-26.01318 28.18981,-26.01327 28.1898,-26.01328 28.1897,-26.01336 28.18698,-26.01535 28.18689,-26.01542 28.1865,-26.01571 28.18645,-26.01575 28.18642,-26.01576 28.18642,-26.01577 28.18637,-26.0158 28.18606,-26.01605 28.18604,-26.01607 28.18464,-26.01713 28.18433,-26.01737 28.18427,-26.01741 28.18423,-26.01744 28.18421,-26.01746 28.18333,-26.01813 28.18284,-26.0185 28.18281,-26.01852 28.1822,-26.01899 28.18215,-26.01903 28.1815,-26.01958 28.18147,-26.01961 28.18105,-26.01986 28.18097,-26.01999 28.18067,-26.02022 28.17986,-26.02085 28.17981,-26.02077 28.17927,-26.01992 28.17903,-26.01955 28.17859,-26.01886 28.17851,-26.01874 28.17785,-26.01771 28.17732,-26.01688 28.17719,-26.01667 28.1768,-26.01607 28.1762,-26.01513 28.17598,-26.01479 28.17599,-26.01476 28.176,-26.01473 28.176,-26.01472 28.176,-26.01469 28.176,-26.01464 28.17526,-26.01344 28.17491,-26.0129 28.17446,-26.01218 28.17428,-26.01189 28.17326,-26.01027 28.17255,-26.00915 28.17241,-26.00894 28.17197,-26.00829 28.17183,-26.00818 28.17233,-26.00792 28.17357,-26.00727 28.1739,-26.0071 28.1748,-26.00659 28.17597,-26.00592 28.17611,-26.00583 28.17612,-26.00583 28.17729,-26.00513 28.17734,-26.0051 28.17893,-26.00404 28.17909,-26.00394 28.1811,-26.0024 28.18113,-26.00239 28.18269,-26.00106 28.18281,-26.00095 28.18297,-26.0008 28.18424,-25.99959 28.18437,-25.99945 28.18584,-25.99782 28.18588,-25.99778 28.18657,-25.99693 28.18702,-25.99637 28.18748,-25.99577 28.18798,-25.99513 28.18805,-25.99502 28.18825,-25.99473 28.18899,-25.99363 28.18902,-25.99358 28.18934,-25.99311 28.18991,-25.99209 28.19016,-25.99165 28.1908,-25.99047 28.19086,-25.99034 28.19089,-25.99027 28.19116,-25.98969 28.19116,-25.98968 28.19155,-25.98884 28.1918,-25.98822 28.19235,-25.98683 28.19288,-25.9854 28.19294,-25.98515 28.19294,-25.98514 28.19306,-25.98462 28.1933,-25.98467 28.19445,-25.9849 28.19454,-25.98462 28.19556,-25.98121 28.19566,-25.9809 28.19689,-25.97676 28.19746,-25.97486 28.19754,-25.97459 28.19894,-25.97527 28.19894,-25.97527 28.19895,-25.97527 28.19907,-25.97533 28.19974,-25.97543 28.19985,-25.97545 28.20028,-25.97552 28.20045,-25.97555 28.20109,-25.97568 28.20181,-25.97601 28.20244,-25.97619 28.20296,-25.97634 28.20485,-25.97676 28.20529,-25.97686 28.2053,-25.97686 28.20614,-25.97716 28.20658,-25.97732 28.20679,-25.97742 28.20688,-25.97746 28.20693,-25.97748 28.20696,-25.97749 28.20698,-25.9775 28.20698,-25.9775 28.20709,-25.97756 28.20721,-25.97761 28.20732,-25.97767 28.20744,-25.97772 28.20755,-25.97777 28.20767,-25.97783 28.20778,-25.97788 28.2079,-25.97794 28.20802,-25.97799 28.20813,-25.97804 28.20825,-25.9781 28.20836,-25.97815 28.20848,-25.9782 28.20859,-25.97826 28.20884,-25.97838 28.20913,-25.97851 28.20913,-25.97851 28.20914,-25.97852 28.20927,-25.97855 28.20939,-25.97859 28.20951,-25.97862 28.20964,-25.97866 28.20976,-25.9787 28.20988,-25.97873 28.21001,-25.97877 28.21013,-25.9788 28.21026,-25.97883 28.21038,-25.97886 28.21051,-25.97888 28.21064,-25.97891 28.21077,-25.97892</coordinates></LinearRing></outerBoundaryIs></Polygon></MultiGeometry></Placemark></Document></kml>