<?xml version="1.0" encoding="UTF-8"?><kml xmlns="http://www.opengis.net/kml/2.2"><Document><Placemark><name>Centurion</name><description>Main Place 799059</description><ExtendedData><Data name="code"><value>799059</value></Data><Data name="name"><value>Centurion</value></Data><Data name="description"><value>Main Place 799059</value></Data></ExtendedData><MultiGeometry><Polygon><outerBoundaryIs><LinearRing><coordinates>27.92319,-25.89362 27.92339,-25.89622 27.92362,-25.90047 27.92381,-25.90318 27.92391,-25.9057 27.92395,-25.90803 27.92379,-25.91559 27.9238,-25.91737 27.92367,-25.91739 27.92248,-25.91756 27.9142,-25.91382 27.91108,-25.91242 27.907,-25.91057 27.90673,-25.91046 27.90279,-25.90867 27.90212,-25.90837 27.90198,-25.90831 27.9019,-25.90827 27.90155,-25.90811 27.90115,-25.90793 27.90098,-25.90526 27.90035,-25.89556 27.90048,-25.89514 27.90079,-25.89565 27.90124,-25.896 27.90172,-25.89625 27.90213,-25.89631 27.90281,-25.89625 27.90364,-25.89619 27.9041,-25.89603 27.90545,-25.89503 27.90584,-25.8948 27.90646,-25.8946 27.90693,-25.89438 27.91214,-25.89546 27.91281,-25.89547 27.91342,-25.89521 27.91492,-25.89495 27.91573,-25.89486 27.92251,-25.89381 27.92319,-25.89362</coordinates></LinearRing></outerBoundaryIs></Polygon><Polygon><outerBoundaryIs><LinearRing><coordinates>28.19718,-25.79922 28.19755,-25.80025 28.19911,-25.80475 28.19979,-25.80673 28.2002,-25.80804 28.20109,-25.81127 28.20194,-25.81087 28.20254,-25.81056 28.20315,-25.81021 28.20477,-25.80931 28.20672,-25.80821 28.2068,-25.80837 28.20918,-25.80707 28.21141,-25.80578 28.21276,-25.80505 28.21361,-25.80458 28.21388,-25.8044 28.21518,-25.80369 28.21616,-25.80285 28.21727,-25.80225 28.21787,-25.80194 28.21799,-25.80189 28.21807,-25.80189 28.21817,-25.8019 28.21839,-25.8019 28.21895,-25.80158 28.21937,-25.80262 28.22047,-25.80529 28.22051,-25.80538 28.22092,-25.80638 28.22117,-25.80701 28.2218,-25.80855 28.22222,-25.80958 28.22274,-25.81086 28.22293,-25.81135 28.22296,-25.81142 28.22397,-25.81389 28.22402,-25.81411 28.22403,-25.81432 28.22413,-25.81437 28.22474,-25.81458 28.22479,-25.81459 28.22515,-25.81467 28.22558,-25.81473 28.22585,-25.81475 28.226,-25.81476 28.22635,-25.81476 28.2272,-25.81471 28.22834,-25.81463 28.22918,-25.81459 28.23018,-25.81451 28.23125,-25.81446 28.23354,-25.81432 28.23445,-25.81429 28.2368,-25.81742 28.23863,-25.82018 28.24098,-25.82445 28.24356,-25.82918 28.24418,-25.83031 28.24429,-25.8305 28.24517,-25.83216 28.24531,-25.83242 28.24614,-25.83394 28.24622,-25.83408 28.24651,-25.83464 28.24697,-25.8355 28.24756,-25.83673 28.24782,-25.83667 28.24835,-25.83658 28.24884,-25.83723 28.24912,-25.8376 28.24936,-25.83816 28.24965,-25.83807 28.24991,-25.83851 28.25007,-25.83879 28.25018,-25.83896 28.25036,-25.83928 28.25041,-25.83926 28.2506,-25.83925 28.25068,-25.83986 28.25075,-25.84014 28.25089,-25.84047 28.25152,-25.84161 28.25163,-25.84179 28.25338,-25.84479 28.25451,-25.84677 28.25501,-25.84769 28.25511,-25.84789 28.25541,-25.84863 28.25559,-25.84925 28.25587,-25.85032 28.2559,-25.85043 28.25642,-25.85239 28.2569,-25.85361 28.25726,-25.85462 28.2576,-25.85552 28.25763,-25.85566 28.25773,-25.85599 28.25784,-25.85645 28.25793,-25.8569 28.25802,-25.85732 28.25812,-25.85786 28.25837,-25.85917 28.25844,-25.8595 28.25874,-25.86109 28.25889,-25.86189 28.25905,-25.86277 28.25921,-25.86362 28.25924,-25.86377 28.25929,-25.86405 28.25935,-25.86432 28.25941,-25.86468 28.25942,-25.86475 28.25944,-25.86498 28.25948,-25.86542 28.25949,-25.86597 28.25949,-25.86635 28.25949,-25.86684 28.25949,-25.8671 28.25948,-25.86716 28.25944,-25.86744 28.25955,-25.86748 28.25978,-25.86757 28.26002,-25.86764 28.26015,-25.86768 28.26016,-25.86769 28.26016,-25.86781 28.26023,-25.86811 28.26024,-25.86823 28.26026,-25.8684 28.26032,-25.86843 28.2604,-25.86891 28.26047,-25.86935 28.2605,-25.86954 28.26063,-25.87024 28.26091,-25.87148 28.26097,-25.87185 28.26111,-25.87255 28.26115,-25.87265 28.26117,-25.87269 28.26121,-25.87316 28.26122,-25.87336 28.26145,-25.87422 28.26146,-25.87432 28.26162,-25.8751 28.26165,-25.87523 28.2618,-25.87599 28.26202,-25.87715 28.26257,-25.88029 28.26286,-25.88175 28.2634,-25.88458 28.26394,-25.88729 28.26439,-25.88979 28.26455,-25.89059 28.2652,-25.89365 28.26561,-25.89599 28.2659,-25.89736 28.26625,-25.89916 28.26666,-25.90127 28.26702,-25.90374 28.27175,-25.90284 28.27305,-25.90262 28.27395,-25.90699 28.2751,-25.91232 28.27534,-25.91347 28.2756,-25.91457 28.27661,-25.91531 28.27662,-25.91547 28.27621,-25.91549 28.27384,-25.91559 28.26943,-25.91577 28.26977,-25.91751 28.27022,-25.91986 28.27069,-25.92225 28.27122,-25.92501 28.26739,-25.92476 28.2628,-25.92445 28.26203,-25.9244 28.26195,-25.9244 28.26192,-25.92439 28.26156,-25.92437 28.25944,-25.92423 28.25944,-25.92423 28.25804,-25.92414 28.25764,-25.92411 28.2566,-25.92404 28.25611,-25.92401 28.25339,-25.92383 28.25314,-25.92381 28.25132,-25.9237 28.25132,-25.9237 28.24548,-25.92331 28.24465,-25.92326 28.24285,-25.92314 28.23845,-25.92274 28.23844,-25.92274 28.23084,-25.91999 28.23057,-25.91989 28.23043,-25.91984 28.23041,-25.91983 28.23011,-25.91972 28.22892,-25.91929 28.22728,-25.9187 28.21899,-25.9157 28.2119,-25.91314 28.20776,-25.91164 28.20694,-25.91134 28.20192,-25.90952 28.20165,-25.90943 28.20048,-25.909 28.19924,-25.90855 28.19352,-25.90648 28.1928,-25.90622 28.19178,-25.90585 28.18499,-25.90341 28.18499,-25.90341 28.18423,-25.90653 28.18395,-25.90765 28.18394,-25.90771 28.18302,-25.91149 28.18254,-25.91345 28.18253,-25.91349 28.18195,-25.9159 28.18141,-25.9181 28.18136,-25.9183 28.1813,-25.91855 28.18115,-25.91916 28.18105,-25.91955 28.18071,-25.91967 28.17627,-25.92125 28.17537,-25.92157 28.16074,-25.92681 28.1607,-25.92682 28.16058,-25.92687 28.16053,-25.92689 28.15512,-25.92883 28.15148,-25.93014 28.15147,-25.93014 28.15055,-25.93047 28.14891,-25.93106 28.14834,-25.93126 28.14833,-25.93127 28.14715,-25.93169 28.14325,-25.93308 28.1429,-25.93321 28.14247,-25.93336 28.13841,-25.93482 28.13822,-25.93489 28.13723,-25.93524 28.13701,-25.93532 28.13617,-25.93562 28.13601,-25.93568 28.13459,-25.93619 28.13276,-25.93684 28.13108,-25.93744 28.13106,-25.93745 28.13078,-25.93755 28.1262,-25.9392 28.12619,-25.9392 28.12531,-25.93951 28.12373,-25.94008 28.12015,-25.94136 28.11972,-25.94152 28.11946,-25.94161 28.11921,-25.9417 28.11811,-25.94209 28.11612,-25.9428 28.11593,-25.94287 28.1157,-25.94295 28.11234,-25.94415 28.11023,-25.94491 28.11023,-25.94491 28.10939,-25.9414 28.10857,-25.93792 28.10745,-25.93324 28.10668,-25.92999 28.10625,-25.92816 28.10608,-25.92745 28.10547,-25.9249 28.10507,-25.92497 28.10507,-25.92496 28.10501,-25.92464 28.10495,-25.92438 28.10478,-25.9236 28.10465,-25.92292 28.1046,-25.9227 28.10732,-25.92191 28.10826,-25.92163 28.11067,-25.92097 28.1107,-25.92097 28.11089,-25.92093 28.11227,-25.92215 28.11267,-25.92249 28.11284,-25.92247 28.1144,-25.92207 28.11507,-25.92222 28.11569,-25.92232 28.11587,-25.92225 28.11621,-25.92196 28.11695,-25.92163 28.11775,-25.92112 28.1182,-25.92104 28.1194,-25.92097 28.12065,-25.9209 28.12071,-25.92083 28.12072,-25.92071 28.1207,-25.92048 28.12075,-25.9202 28.12074,-25.92006 28.1208,-25.91961 28.12081,-25.9191 28.12094,-25.9188 28.12095,-25.91842 28.12102,-25.91794 28.12106,-25.91773 28.12141,-25.91772 28.12152,-25.91699 28.12162,-25.91648 28.12155,-25.91633 28.12152,-25.91618 28.12154,-25.91606 28.12159,-25.91575 28.1217,-25.91547 28.12182,-25.9153 28.12203,-25.91513 28.12236,-25.91492 28.12268,-25.91474 28.12282,-25.91461 28.12305,-25.91439 28.12315,-25.9145 28.12339,-25.91472 28.12391,-25.91513 28.12482,-25.91582 28.12485,-25.91549 28.12497,-25.91434 28.12499,-25.91422 28.12527,-25.91339 28.12569,-25.91303 28.12653,-25.9123 28.12571,-25.91225 28.12523,-25.91223 28.12399,-25.91152 28.12159,-25.90965 28.11948,-25.90818 28.11961,-25.90802 28.11975,-25.90787 28.11989,-25.90773 28.12018,-25.90751 28.12038,-25.90726 28.12048,-25.90724 28.1206,-25.90724 28.12069,-25.90724 28.12084,-25.90724 28.12097,-25.90723 28.12119,-25.90726 28.12182,-25.90733 28.12231,-25.90724 28.12302,-25.90712 28.12361,-25.90703 28.1238,-25.90701 28.12387,-25.90698 28.12399,-25.90698 28.12408,-25.90696 28.12456,-25.9069 28.12452,-25.90656 28.12452,-25.90581 28.12453,-25.90545 28.12453,-25.90485 28.12453,-25.90451 28.12455,-25.90432 28.12454,-25.9042 28.12455,-25.90406 28.12456,-25.90381 28.12456,-25.90319 28.12457,-25.90275 28.12457,-25.90252 28.12457,-25.90251 28.12458,-25.90193 28.12409,-25.90193 28.124,-25.90194 28.12385,-25.90196 28.12371,-25.90196 28.12353,-25.90195 28.12331,-25.90192 28.12323,-25.90192 28.12312,-25.90191 28.12294,-25.90187 28.12279,-25.90181 28.12272,-25.90173 28.12265,-25.90171 28.12259,-25.90172 28.12253,-25.90169 28.12242,-25.90166 28.12236,-25.90177 28.12235,-25.90185 28.12231,-25.90198 28.12218,-25.90191 28.12207,-25.90187 28.12199,-25.90185 28.12187,-25.90185 28.12175,-25.90184 28.12163,-25.90184 28.12156,-25.90182 28.12144,-25.90181 28.12145,-25.90173 28.12145,-25.90165 28.12145,-25.90157 28.12147,-25.90143 28.12152,-25.90126 28.12154,-25.9011 28.12154,-25.90099 28.12148,-25.90084 28.12146,-25.90077 28.12142,-25.90065 28.12137,-25.90055 28.12132,-25.90051 28.12127,-25.90048 28.12116,-25.90037 28.12113,-25.90033 28.12102,-25.90022 28.12095,-25.90015 28.12084,-25.90007 28.12068,-25.89999 28.12062,-25.89991 28.12061,-25.89988 28.12055,-25.89993 28.12047,-25.90002 28.12041,-25.90016 28.12034,-25.90039 28.12027,-25.90028 28.12008,-25.89996 28.11987,-25.89961 28.11967,-25.89978 28.11956,-25.89984 28.11952,-25.89986 28.11723,-25.90196 28.11709,-25.9021 28.11742,-25.90278 28.11746,-25.90286 28.11744,-25.90289 28.1173,-25.90287 28.11673,-25.90266 28.11534,-25.9022 28.11467,-25.902 28.11328,-25.90154 28.11305,-25.90289 28.11304,-25.90299 28.11291,-25.90387 28.11291,-25.90392 28.11284,-25.90433 28.1128,-25.90437 28.11273,-25.90438 28.11255,-25.90436 28.11229,-25.90431 28.11204,-25.90428 28.11198,-25.90425 28.11107,-25.90334 28.11087,-25.90318 28.11077,-25.90315 28.11048,-25.90313 28.11016,-25.90309 28.10991,-25.90309 28.10975,-25.90305 28.10951,-25.90301 28.10871,-25.90289 28.10847,-25.90282 28.10827,-25.90269 28.10793,-25.90249 28.10783,-25.90244 28.10725,-25.90204 28.10695,-25.90192 28.10671,-25.90186 28.1064,-25.90181 28.10539,-25.90167 28.10433,-25.90154 28.10339,-25.90144 28.10264,-25.90133 28.10287,-25.90007 28.10296,-25.89962 28.10298,-25.8995 28.10318,-25.89846 28.10339,-25.89706 28.10349,-25.89647 28.1035,-25.89605 28.10315,-25.89478 28.1031,-25.89463 28.10309,-25.89454 28.10302,-25.89407 28.10304,-25.89371 28.10311,-25.89341 28.10194,-25.89347 28.09775,-25.89371 28.09701,-25.89373 28.096,-25.89376 28.09433,-25.89393 28.09179,-25.89417 28.09123,-25.89429 28.09046,-25.89444 28.08876,-25.89484 28.08706,-25.89524 28.08573,-25.89557 28.08571,-25.8961 28.0856,-25.8973 28.08554,-25.89832 28.08555,-25.8992 28.08551,-25.89994 28.0854,-25.90164 28.08534,-25.90242 28.08527,-25.90335 28.08534,-25.90384 28.08533,-25.90397 28.08532,-25.90426 28.08531,-25.90448 28.08406,-25.90692 28.08395,-25.90713 28.08259,-25.90997 28.08165,-25.91191 28.08036,-25.91455 28.07972,-25.91584 28.07906,-25.91717 28.07862,-25.91807 28.07797,-25.91927 28.0772,-25.92071 28.07723,-25.92089 28.07723,-25.92089 28.07702,-25.92167 28.07696,-25.92193 28.07689,-25.92218 28.07675,-25.9227 28.07669,-25.92296 28.07662,-25.92322 28.07655,-25.92347 28.07648,-25.92375 28.0764,-25.92403 28.07626,-25.92459 28.07618,-25.92487 28.07604,-25.92543 28.07596,-25.92571 28.07582,-25.92627 28.0757,-25.92673 28.07563,-25.92697 28.07539,-25.92789 28.07533,-25.92813 28.07521,-25.92859 28.07519,-25.92865 28.07518,-25.92871 28.07516,-25.92878 28.07514,-25.92884 28.07513,-25.9289 28.07512,-25.92893 28.07511,-25.92896 28.07509,-25.92903 28.07508,-25.92909 28.07506,-25.92915 28.07505,-25.92921 28.07496,-25.92911 28.0748,-25.92891 28.07474,-25.92884 28.07468,-25.92876 28.07455,-25.92877 28.07442,-25.92879 28.07403,-25.92882 28.07389,-25.92884 28.07179,-25.92904 28.0716,-25.92906 28.07016,-25.9292 28.06851,-25.92936 28.06691,-25.92952 28.06678,-25.92953 28.06545,-25.92966 28.06437,-25.92976 28.06411,-25.92979 28.06398,-25.9298 28.06387,-25.92981 28.06282,-25.92991 28.06133,-25.93006 28.05982,-25.93021 28.05819,-25.93036 28.05581,-25.93059 28.05555,-25.93062 28.05389,-25.93078 28.05357,-25.93081 28.05061,-25.9311 28.04912,-25.93125 28.04574,-25.93155 28.04487,-25.9309 28.04392,-25.93015 28.0436,-25.9299 28.04308,-25.92949 28.04238,-25.92893 28.04104,-25.92788 28.04104,-25.92788 28.04094,-25.9278 28.03933,-25.92653 28.03916,-25.92639 28.03914,-25.92636 28.03767,-25.92395 28.03683,-25.92257 28.0362,-25.92153 28.03556,-25.92047 28.03474,-25.91911 28.03393,-25.91777 28.03261,-25.91557 28.03127,-25.91335 28.03004,-25.91133 28.02991,-25.9111 28.02991,-25.9111 28.02939,-25.91139 28.02887,-25.91167 28.02834,-25.91196 28.0281,-25.91209 28.02782,-25.91224 28.02763,-25.91234 28.0273,-25.91253 28.0267,-25.91285 28.02633,-25.91305 28.02626,-25.91309 28.0262,-25.91312 28.02608,-25.91319 28.02575,-25.91337 28.02524,-25.91364 28.02474,-25.91392 28.02234,-25.91522 28.02214,-25.91533 28.02075,-25.91608 28.02015,-25.91641 28.01994,-25.91653 28.01985,-25.91657 28.01962,-25.9167 28.01949,-25.91677 28.0174,-25.9179 28.01696,-25.91814 28.01663,-25.91832 28.01636,-25.91847 28.01618,-25.91857 28.01571,-25.91882 28.01525,-25.91907 28.01416,-25.91966 28.01415,-25.91967 28.01387,-25.91982 28.01386,-25.91983 28.01356,-25.91999 28.01348,-25.92003 28.01285,-25.92038 28.01281,-25.9204 28.01275,-25.92043 28.01248,-25.92058 28.01231,-25.92067 28.01143,-25.92115 28.01113,-25.92131 28.01112,-25.92132 28.0111,-25.92133 28.01088,-25.92145 28.01073,-25.92153 28.00969,-25.9221 28.0082,-25.92291 28.00802,-25.923 28.00573,-25.92425 28.00544,-25.92441 28.00447,-25.92494 28.00399,-25.9252 28.00357,-25.92542 28.00263,-25.92594 27.99978,-25.92748 27.99793,-25.92848 27.99772,-25.9286 27.9975,-25.92872 27.99745,-25.92875 27.99693,-25.92903 27.99496,-25.9301 27.99468,-25.93026 27.99336,-25.93098 27.99335,-25.93099 27.99174,-25.93187 27.98894,-25.93341 27.98876,-25.93351 27.98786,-25.93401 27.98774,-25.9331 27.9877,-25.93279 27.98769,-25.93271 27.98767,-25.93252 27.98746,-25.93087 27.98708,-25.92775 27.98684,-25.92583 27.98669,-25.92464 27.9863,-25.92152 27.98592,-25.9184 27.98575,-25.91704 27.98553,-25.91529 27.98541,-25.91435 27.98514,-25.91217 27.98484,-25.90973 27.98476,-25.90906 27.98455,-25.90742 27.98437,-25.90594 27.98398,-25.90283 27.98114,-25.88017 27.97955,-25.86744 27.96944,-25.87154 27.95201,-25.84061 27.94757,-25.83272 27.94013,-25.81967 27.94984,-25.81786 27.95004,-25.81782 27.95238,-25.81739 27.95303,-25.81727 27.96017,-25.81599 27.96017,-25.81599 27.97622,-25.81318 27.98311,-25.81187 27.98668,-25.80775 27.98995,-25.80586 27.99222,-25.80674 27.99819,-25.80907 27.99875,-25.80351 27.99966,-25.79534 27.99983,-25.79538 27.99992,-25.79536 28.00008,-25.79512 28.00067,-25.79451 28.00102,-25.79422 28.00144,-25.79396 28.00222,-25.79365 28.00255,-25.79354 28.00305,-25.79352 28.00341,-25.79356 28.00372,-25.79372 28.0038,-25.79384 28.00395,-25.79403 28.00411,-25.79418 28.00436,-25.7943 28.00465,-25.79434 28.00501,-25.79433 28.00532,-25.79428 28.00577,-25.79415 28.00616,-25.79402 28.00649,-25.79386 28.00672,-25.79372 28.00696,-25.79355 28.00727,-25.79329 28.00741,-25.79323 28.00762,-25.79321 28.00807,-25.79329 28.00849,-25.79332 28.00884,-25.79329 28.00917,-25.79323 28.00959,-25.79313 28.00989,-25.79304 28.01047,-25.79276 28.01104,-25.7925 28.01165,-25.79229 28.01273,-25.79194 28.0132,-25.79181 28.01371,-25.79173 28.01456,-25.79168 28.01552,-25.79162 28.01696,-25.79153 28.01785,-25.79143 28.01796,-25.7921 28.01824,-25.79328 28.01902,-25.79307 28.01983,-25.79284 28.01986,-25.79283 28.01997,-25.79323 28.01998,-25.79326 28.02021,-25.79404 28.02033,-25.79523 28.02034,-25.7953 28.02061,-25.79613 28.02062,-25.79652 28.02074,-25.79691 28.02118,-25.79789 28.02168,-25.79875 28.02206,-25.79861 28.02221,-25.79856 28.02339,-25.79828 28.02387,-25.79832 28.02399,-25.79832 28.02445,-25.79831 28.02481,-25.79873 28.0255,-25.79876 28.02594,-25.79846 28.02601,-25.79813 28.02655,-25.79833 28.02694,-25.79824 28.02736,-25.79827 28.02798,-25.79847 28.02866,-25.79852 28.02913,-25.79886 28.0292,-25.79896 28.02952,-25.79937 28.02988,-25.79957 28.03032,-25.80039 28.03118,-25.80024 28.03168,-25.8001 28.03286,-25.79967 28.03253,-25.79937 28.03295,-25.79881 28.0339,-25.79817 28.0339,-25.79816 28.03393,-25.7976 28.0342,-25.79735 28.0344,-25.79714 28.03406,-25.7968 28.03426,-25.79671 28.03477,-25.79691 28.03525,-25.79673 28.03601,-25.7962 28.03659,-25.79586 28.03666,-25.79586 28.03744,-25.79589 28.03767,-25.79641 28.03791,-25.7966 28.03811,-25.79716 28.03866,-25.797 28.03867,-25.79688 28.03942,-25.79666 28.03934,-25.79642 28.03969,-25.7963 28.03963,-25.79613 28.04131,-25.79561 28.04148,-25.79552 28.04207,-25.79518 28.04257,-25.79489 28.04287,-25.79468 28.04358,-25.79432 28.04373,-25.79428 28.04393,-25.79462 28.04417,-25.79504 28.04492,-25.79471 28.04528,-25.79455 28.04525,-25.79443 28.04494,-25.79384 28.04498,-25.79383 28.04595,-25.79346 28.04605,-25.7933 28.04615,-25.79312 28.04608,-25.79296 28.04658,-25.79255 28.04711,-25.79232 28.04755,-25.79214 28.0478,-25.79204 28.04813,-25.79181 28.04826,-25.79159 28.04862,-25.79139 28.04842,-25.79109 28.04883,-25.7909 28.04875,-25.79076 28.04888,-25.79065 28.04939,-25.79046 28.04939,-25.79046 28.05041,-25.79031 28.05048,-25.79037 28.05079,-25.79065 28.0511,-25.79054 28.05181,-25.79033 28.05225,-25.79029 28.05252,-25.79029 28.05294,-25.78994 28.05302,-25.78987 28.05376,-25.78928 28.05379,-25.78923 28.05376,-25.78917 28.05395,-25.78913 28.05407,-25.78919 28.05417,-25.7892 28.05438,-25.78926 28.05456,-25.7893 28.05481,-25.7893 28.05533,-25.78943 28.05548,-25.78944 28.05576,-25.78943 28.05604,-25.78937 28.05623,-25.78937 28.05649,-25.78923 28.05667,-25.78923 28.05675,-25.78926 28.05678,-25.78933 28.05683,-25.78932 28.05688,-25.78932 28.05734,-25.78936 28.05784,-25.78924 28.05824,-25.78881 28.05828,-25.78881 28.05863,-25.78881 28.05898,-25.78906 28.05954,-25.78908 28.05997,-25.78906 28.06076,-25.78924 28.06117,-25.78925 28.06122,-25.78922 28.06146,-25.78911 28.06151,-25.78883 28.06148,-25.78844 28.06145,-25.78815 28.06153,-25.78802 28.06166,-25.78782 28.06121,-25.78747 28.06113,-25.78724 28.06112,-25.78701 28.06098,-25.78664 28.06078,-25.78647 28.06137,-25.78613 28.06139,-25.78606 28.06128,-25.78582 28.06153,-25.78565 28.06163,-25.7856 28.06172,-25.7855 28.06172,-25.78541 28.06159,-25.78527 28.06151,-25.78522 28.06134,-25.78522 28.06124,-25.78522 28.06112,-25.78518 28.06111,-25.78514 28.06113,-25.78504 28.06124,-25.78494 28.0613,-25.78487 28.06131,-25.78477 28.06133,-25.78481 28.06144,-25.78492 28.06159,-25.78504 28.06175,-25.78504 28.06191,-25.785 28.06206,-25.785 28.06226,-25.785 28.06245,-25.78491 28.06252,-25.78484 28.06259,-25.78478 28.06276,-25.78468 28.06309,-25.78454 28.06328,-25.78446 28.06341,-25.78439 28.06351,-25.78431 28.06353,-25.78429 28.0636,-25.78422 28.06367,-25.78414 28.06378,-25.78407 28.06386,-25.78403 28.06398,-25.78399 28.0641,-25.78395 28.0642,-25.78391 28.06428,-25.78392 28.06441,-25.78394 28.06451,-25.78395 28.06461,-25.78396 28.06467,-25.78394 28.06471,-25.7839 28.06476,-25.78386 28.06478,-25.78385 28.06488,-25.78385 28.06499,-25.78388 28.06506,-25.7839 28.06509,-25.78392 28.06512,-25.78397 28.06513,-25.78406 28.06515,-25.78415 28.0652,-25.7842 28.06531,-25.78422 28.06543,-25.78421 28.06561,-25.78417 28.06574,-25.78418 28.06583,-25.7842 28.06589,-25.78424 28.06595,-25.78429 28.06604,-25.78432 28.06614,-25.78435 28.06628,-25.78435 28.06638,-25.78436 28.0665,-25.78436 28.06656,-25.78438 28.06664,-25.78443 28.0667,-25.78449 28.06676,-25.78462 28.06687,-25.78476 28.06697,-25.7848 28.06707,-25.7848 28.0671,-25.78476 28.06714,-25.78474 28.06723,-25.78478 28.06735,-25.78478 28.06752,-25.78479 28.06757,-25.7848 28.06763,-25.78485 28.0677,-25.78492 28.06769,-25.78753 28.06771,-25.78802 28.07063,-25.78767 28.07192,-25.78751 28.07381,-25.7873 28.07428,-25.78724 28.0743,-25.78724 28.07459,-25.7872 28.07495,-25.78716 28.07549,-25.78709 28.07609,-25.78702 28.07633,-25.78699 28.07686,-25.78692 28.07698,-25.78691 28.07747,-25.78691 28.07787,-25.78688 28.07825,-25.78682 28.07844,-25.7868 28.07872,-25.78676 28.07873,-25.78676 28.07891,-25.78674 28.07909,-25.78672 28.0795,-25.78667 28.08016,-25.78659 28.08072,-25.7865 28.08119,-25.78643 28.08122,-25.78643 28.08171,-25.78631 28.0828,-25.78614 28.08476,-25.7859 28.08594,-25.78576 28.08714,-25.78552 28.08858,-25.78524 28.08933,-25.78515 28.08861,-25.79274 28.08835,-25.79606 28.08797,-25.79914 28.08929,-25.79922 28.09067,-25.79931 28.09163,-25.79938 28.09256,-25.79945 28.09268,-25.79947 28.09258,-25.80028 28.0925,-25.80134 28.09248,-25.80159 28.09247,-25.80203 28.09256,-25.80204 28.09391,-25.80213 28.0941,-25.80214 28.09644,-25.80234 28.09661,-25.80036 28.09673,-25.79864 28.0968,-25.79807 28.09685,-25.79781 28.09692,-25.79754 28.09698,-25.79735 28.09701,-25.79718 28.10015,-25.79683 28.10199,-25.79663 28.10373,-25.79642 28.10383,-25.79642 28.10387,-25.79642 28.10537,-25.79702 28.10578,-25.79719 28.10597,-25.79669 28.10619,-25.79627 28.1065,-25.79565 28.10719,-25.79429 28.1076,-25.7935 28.10754,-25.79347 28.10767,-25.79324 28.10768,-25.79321 28.10773,-25.79323 28.10775,-25.79324 28.10793,-25.79286 28.10794,-25.79281 28.10788,-25.79281 28.10785,-25.79265 28.10784,-25.79252 28.10777,-25.79201 28.10775,-25.79188 28.10775,-25.79187 28.10765,-25.7913 28.10762,-25.79109 28.10762,-25.79106 28.10753,-25.7904 28.10753,-25.79037 28.10779,-25.79022 28.10777,-25.7902 28.10785,-25.79015 28.10816,-25.78996 28.10844,-25.7898 28.1087,-25.78963 28.10892,-25.7895 28.109,-25.78946 28.10948,-25.78925 28.10944,-25.78913 28.1094,-25.78897 28.10939,-25.78887 28.10937,-25.7876 28.10944,-25.78721 28.10946,-25.78701 28.10946,-25.78695 28.10958,-25.78691 28.1097,-25.78656 28.10975,-25.78641 28.1098,-25.78621 28.10985,-25.78606 28.11014,-25.78646 28.11063,-25.78712 28.1117,-25.78856 28.11199,-25.78898 28.11207,-25.7891 28.11216,-25.78919 28.11325,-25.79073 28.11399,-25.79167 28.11474,-25.79271 28.11572,-25.79408 28.11573,-25.79411 28.11573,-25.79419 28.11593,-25.79444 28.11605,-25.79458 28.11613,-25.79462 28.11623,-25.79472 28.11631,-25.79482 28.11637,-25.79498 28.1165,-25.7951 28.11669,-25.79537 28.11676,-25.79549 28.11709,-25.79593 28.11738,-25.79631 28.11762,-25.79664 28.11751,-25.79693 28.1171,-25.79727 28.11683,-25.79739 28.11696,-25.79742 28.11828,-25.79797 28.11863,-25.79813 28.11889,-25.79833 28.11909,-25.79857 28.11922,-25.79876 28.11943,-25.79907 28.11952,-25.79913 28.11973,-25.79914 28.1198,-25.7992 28.11981,-25.79933 28.11993,-25.79943 28.1202,-25.7996 28.12039,-25.79968 28.12049,-25.79945 28.12117,-25.79934 28.12126,-25.79942 28.1216,-25.79974 28.12201,-25.80011 28.12235,-25.80036 28.12232,-25.8004 28.12285,-25.80067 28.12348,-25.80083 28.12419,-25.80099 28.12442,-25.80102 28.12511,-25.80103 28.12551,-25.80102 28.12603,-25.80106 28.12676,-25.80106 28.12713,-25.8011 28.12792,-25.80122 28.12815,-25.80132 28.12899,-25.80144 28.12927,-25.80154 28.12948,-25.8017 28.12974,-25.80146 28.13009,-25.80115 28.13032,-25.80139 28.1305,-25.8015 28.13071,-25.80154 28.13091,-25.80156 28.1324,-25.80126 28.13328,-25.80108 28.13387,-25.80097 28.13442,-25.80087 28.1351,-25.80074 28.13649,-25.80047 28.13687,-25.8004 28.13811,-25.80017 28.13904,-25.79998 28.14108,-25.79959 28.14188,-25.79944 28.14233,-25.79935 28.14248,-25.79932 28.14357,-25.79911 28.14536,-25.79877 28.146,-25.79864 28.14707,-25.79844 28.15033,-25.79782 28.15315,-25.79727 28.15347,-25.79721 28.15623,-25.7967 28.15812,-25.79632 28.1583,-25.79617 28.15836,-25.79601 28.15835,-25.79583 28.15853,-25.79582 28.15911,-25.79586 28.15975,-25.7959 28.16297,-25.79635 28.16432,-25.7965 28.16476,-25.79656 28.16501,-25.79658 28.16547,-25.79657 28.16594,-25.79644 28.16763,-25.79597 28.16903,-25.79558 28.16983,-25.79535 28.1706,-25.79513 28.17111,-25.79501 28.17168,-25.79493 28.17216,-25.79492 28.17259,-25.79492 28.17321,-25.79501 28.17365,-25.79513 28.1744,-25.79541 28.17504,-25.7958 28.17537,-25.79604 28.17559,-25.79597 28.17595,-25.79569 28.17619,-25.79554 28.17641,-25.79548 28.17674,-25.79552 28.17699,-25.79567 28.17738,-25.79623 28.17793,-25.79707 28.17835,-25.79773 28.1791,-25.7989 28.17938,-25.79923 28.17992,-25.79941 28.1804,-25.7995 28.18044,-25.79894 28.1806,-25.79798 28.1809,-25.79699 28.18133,-25.79594 28.18188,-25.79494 28.18234,-25.79424 28.18323,-25.79319 28.18409,-25.79234 28.18472,-25.79182 28.18685,-25.79025 28.18825,-25.78922 28.1892,-25.78825 28.1896,-25.78778 28.1903,-25.78588 28.19079,-25.78431 28.19102,-25.78288 28.19131,-25.7815 28.19197,-25.78147 28.19256,-25.78145 28.19338,-25.78144 28.19338,-25.78152 28.19344,-25.78219 28.19363,-25.783 28.19412,-25.78475 28.19434,-25.78545 28.19457,-25.78603 28.19536,-25.78815 28.19566,-25.78889 28.19589,-25.78948 28.19612,-25.79008 28.19629,-25.7907 28.19641,-25.79118 28.19646,-25.79163 28.19649,-25.79226 28.19644,-25.79376 28.19641,-25.79476 28.19647,-25.7957 28.19654,-25.79634 28.19668,-25.7973 28.19689,-25.7983 28.19718,-25.79922</coordinates></LinearRing></outerBoundaryIs><innerBoundaryIs><LinearRing><coordinates>28.08871,-25.84314 28.08847,-25.84343 28.08818,-25.84323 28.08806,-25.84317 28.08784,-25.84347 28.08745,-25.8441 28.08778,-25.84432 28.08763,-25.84447 28.08754,-25.84459 28.08744,-25.84474 28.08727,-25.84494 28.08699,-25.84533 28.08666,-25.84581 28.08656,-25.84593 28.08645,-25.84606 28.08627,-25.84628 28.0862,-25.84648 28.08611,-25.84671 28.08608,-25.84697 28.08603,-25.84746 28.08596,-25.84755 28.08593,-25.8476 28.08601,-25.84776 28.08609,-25.84795 28.08613,-25.84802 28.08629,-25.8483 28.08641,-25.84851 28.08646,-25.84852 28.08661,-25.84858 28.08669,-25.84865 28.08667,-25.84871 28.08663,-25.84877 28.08654,-25.84886 28.08657,-25.84889 28.08658,-25.84894 28.08657,-25.84901 28.0866,-25.84905 28.08663,-25.84915 28.08663,-25.84916 28.08664,-25.84934 28.08666,-25.84952 28.08676,-25.84957 28.08694,-25.84966 28.08718,-25.84972 28.0874,-25.84975 28.08778,-25.84965 28.08789,-25.84968 28.08816,-25.84963 28.08845,-25.84959 28.0885,-25.84959 28.08861,-25.84958 28.08896,-25.84964 28.08939,-25.84976 28.08961,-25.84983 28.08978,-25.8499 28.09017,-25.85 28.09044,-25.85006 28.09056,-25.8501 28.09062,-25.85018 28.09048,-25.8504 28.09048,-25.85049 28.09074,-25.85062 28.09091,-25.85058 28.09115,-25.85044 28.09138,-25.85025 28.09157,-25.85012 28.09183,-25.85006 28.0922,-25.85007 28.09246,-25.85008 28.09267,-25.85015 28.09269,-25.85016 28.09293,-25.85036 28.09318,-25.85045 28.09365,-25.84995 28.09373,-25.84986 28.09373,-25.84986 28.09382,-25.84978 28.09417,-25.84935 28.09438,-25.84917 28.09456,-25.84907 28.09497,-25.84881 28.09528,-25.8486 28.09557,-25.84842 28.09569,-25.84826 28.09539,-25.84817 28.09518,-25.84809 28.09532,-25.848 28.09569,-25.84777 28.09593,-25.84735 28.09593,-25.84735 28.09594,-25.84735 28.09614,-25.84746 28.09627,-25.84751 28.09642,-25.84752 28.09662,-25.8475 28.09689,-25.84748 28.09721,-25.84745 28.0974,-25.84744 28.09758,-25.84746 28.09781,-25.8475 28.09806,-25.84752 28.09821,-25.8475 28.09841,-25.84745 28.09865,-25.84737 28.0988,-25.84728 28.09895,-25.84718 28.09902,-25.84716 28.0991,-25.8471 28.09915,-25.84708 28.09913,-25.84701 28.09898,-25.8467 28.09882,-25.84646 28.09874,-25.84643 28.09868,-25.8464 28.09862,-25.84634 28.09857,-25.84631 28.09849,-25.84628 28.09842,-25.84626 28.09838,-25.84622 28.09836,-25.84618 28.09832,-25.84615 28.09821,-25.84613 28.09811,-25.84613 28.0979,-25.84614 28.09785,-25.84612 28.09776,-25.84594 28.09758,-25.84547 28.09754,-25.84539 28.09739,-25.84533 28.09726,-25.84527 28.09723,-25.84518 28.09723,-25.84508 28.09713,-25.84493 28.09701,-25.84472 28.09681,-25.84445 28.0966,-25.84419 28.09633,-25.84389 28.0962,-25.84371 28.09612,-25.8436 28.09592,-25.84343 28.09571,-25.84328 28.09561,-25.84324 28.09553,-25.84322 28.09527,-25.84316 28.09516,-25.84313 28.09492,-25.84311 28.09475,-25.84307 28.09437,-25.84298 28.09409,-25.84289 28.09395,-25.84286 28.09385,-25.84285 28.09379,-25.84283 28.0937,-25.84267 28.09359,-25.84248 28.09343,-25.84233 28.09338,-25.84228 28.09328,-25.84222 28.09318,-25.84217 28.09313,-25.8422 28.09305,-25.84224 28.09288,-25.84224 28.09275,-25.84222 28.09265,-25.84225 28.09243,-25.84228 28.09215,-25.84231 28.09196,-25.84235 28.09178,-25.84236 28.09155,-25.84241 28.09144,-25.84221 28.09134,-25.84196 28.09124,-25.84175 28.0912,-25.8416 28.09108,-25.84132 28.09093,-25.84118 28.09057,-25.8413 28.09005,-25.84164 28.08978,-25.84183 28.08987,-25.84211 28.08999,-25.84231 28.09011,-25.84245 28.0902,-25.84254 28.09022,-25.84265 28.09003,-25.84271 28.08953,-25.84282 28.08932,-25.84288 28.08922,-25.84291 28.08893,-25.84297 28.08884,-25.84302 28.08875,-25.84309 28.08871,-25.84314</coordinates></LinearRing></innerBoundaryIs></Polygon></MultiGeometry></Placemark></Document></kml>