<?xml version="1.0" encoding="UTF-8"?><kml xmlns="http://www.opengis.net/kml/2.2"><Document><Placemark><name>Hammanskraal</name><description>Main Place 799012</description><ExtendedData><Data name="code"><value>799012</value></Data><Data name="name"><value>Hammanskraal</value></Data><Data name="description"><value>Main Place 799012</value></Data></ExtendedData><MultiGeometry><Polygon><outerBoundaryIs><LinearRing><coordinates>28.29819,-25.40065 28.29809,-25.40298 28.29809,-25.40302 28.29798,-25.40455 28.29792,-25.40536 28.29775,-25.40779 28.29759,-25.40991 28.29757,-25.41025 28.29753,-25.41082 28.29747,-25.4117 28.2974,-25.41262 28.29737,-25.41297 28.29736,-25.41322 28.29736,-25.41322 28.2961,-25.41318 28.29239,-25.4128 28.2923,-25.41279 28.29093,-25.41266 28.29041,-25.41261 28.28908,-25.41251 28.28886,-25.41452 28.28878,-25.41464 28.28836,-25.41471 28.28534,-25.4161 28.28372,-25.41689 28.28221,-25.41756 28.28155,-25.41789 28.28123,-25.41794 28.28045,-25.41842 28.28014,-25.41846 28.27952,-25.4182 28.27748,-25.41741 28.27698,-25.41722 28.27424,-25.41617 28.27129,-25.41484 28.27107,-25.41525 28.2705,-25.41629 28.27027,-25.41676 28.26891,-25.41952 28.26796,-25.42084 28.26658,-25.42274 28.26658,-25.42274 28.26462,-25.42227 28.26202,-25.42164 28.26104,-25.4214 28.2588,-25.42087 28.25636,-25.4203 28.25372,-25.41968 28.25163,-25.41919 28.24961,-25.41872 28.24912,-25.4186 28.24911,-25.4186 28.24722,-25.41813 28.24627,-25.41794 28.24639,-25.41738 28.2465,-25.41705 28.24657,-25.41691 28.24665,-25.41683 28.24674,-25.41666 28.24683,-25.41644 28.24687,-25.41634 28.24704,-25.41616 28.24715,-25.41583 28.24724,-25.4156 28.24732,-25.41548 28.24742,-25.41537 28.24759,-25.4152 28.24774,-25.41475 28.24794,-25.41414 28.24806,-25.41366 28.24811,-25.41347 28.2483,-25.41277 28.24822,-25.41279 28.24799,-25.4128 28.24775,-25.41286 28.24761,-25.41292 28.24734,-25.41303 28.24719,-25.41303 28.2467,-25.41298 28.24662,-25.41294 28.2466,-25.41269 28.24661,-25.4124 28.24662,-25.41186 28.24657,-25.41123 28.24655,-25.41083 28.24645,-25.4103 28.24633,-25.4103 28.24608,-25.41035 28.24552,-25.41015 28.24486,-25.40992 28.24458,-25.40985 28.24433,-25.40981 28.24404,-25.40974 28.24367,-25.40956 28.24353,-25.40944 28.24376,-25.40876 28.24397,-25.4084 28.24402,-25.40832 28.24406,-25.40824 28.24409,-25.40818 28.24414,-25.40811 28.24417,-25.40806 28.24426,-25.40794 28.24429,-25.4079 28.24442,-25.40773 28.24451,-25.40763 28.24464,-25.40745 28.24471,-25.40736 28.24483,-25.40721 28.24492,-25.40708 28.24493,-25.40707 28.24493,-25.40707 28.24455,-25.40694 28.24419,-25.40678 28.24437,-25.40639 28.24479,-25.40545 28.24425,-25.40462 28.24391,-25.4042 28.24402,-25.4033 28.24409,-25.4033 28.245,-25.40331 28.24532,-25.40335 28.24595,-25.40331 28.24601,-25.40328 28.2464,-25.40323 28.24647,-25.40318 28.24654,-25.40312 28.24663,-25.40302 28.24677,-25.40281 28.24701,-25.40236 28.24712,-25.40226 28.24716,-25.40223 28.24724,-25.40206 28.24895,-25.40265 28.24907,-25.40269 28.25067,-25.40328 28.2508,-25.40335 28.2508,-25.40335 28.25083,-25.40336 28.2515,-25.4037 28.25165,-25.40378 28.25227,-25.40418 28.25273,-25.40449 28.25311,-25.40479 28.25358,-25.4052 28.25382,-25.40541 28.25485,-25.40637 28.25526,-25.40674 28.25534,-25.40682 28.25565,-25.4071 28.2559,-25.40729 28.25624,-25.40756 28.25676,-25.40786 28.25741,-25.40817 28.25785,-25.40832 28.25797,-25.40835 28.25799,-25.40835 28.25846,-25.40848 28.25899,-25.40856 28.25935,-25.4086 28.25984,-25.40862 28.26021,-25.4086 28.26065,-25.40857 28.26084,-25.40854 28.26123,-25.40846 28.26123,-25.40846 28.26205,-25.40829 28.26242,-25.40822 28.26244,-25.40822 28.264,-25.4079 28.26514,-25.40765 28.2664,-25.40742 28.26642,-25.40741 28.2683,-25.40702 28.26964,-25.40676 28.26973,-25.40674 28.27047,-25.40659 28.27154,-25.40638 28.27205,-25.40628 28.27366,-25.40596 28.27527,-25.40564 28.27585,-25.40552 28.27648,-25.4054 28.27708,-25.40528 28.27737,-25.40522 28.27773,-25.40512 28.27807,-25.40497 28.2785,-25.40465 28.27891,-25.40423 28.27917,-25.40378 28.27947,-25.40281 28.2798,-25.40246 28.28003,-25.40234 28.28036,-25.40217 28.28104,-25.40204 28.28202,-25.40204 28.28285,-25.40206 28.28304,-25.40206 28.2831,-25.40206 28.28301,-25.40277 28.28319,-25.40276 28.28351,-25.40272 28.284,-25.40265 28.28431,-25.40261 28.28438,-25.4026 28.28458,-25.40255 28.28612,-25.40234 28.28673,-25.40225 28.28682,-25.40223 28.28703,-25.4022 28.28714,-25.40218 28.28723,-25.40217 28.28771,-25.40211 28.28784,-25.40209 28.28809,-25.40206 28.28838,-25.40203 28.28868,-25.40199 28.28884,-25.40197 28.28917,-25.40193 28.28942,-25.4019 28.28956,-25.40188 28.28973,-25.40186 28.28988,-25.40184 28.29013,-25.4018 28.29013,-25.4018 28.29051,-25.40175 28.29093,-25.40168 28.29116,-25.40165 28.29124,-25.40164 28.29154,-25.4016 28.29192,-25.40154 28.2924,-25.40147 28.29252,-25.40146 28.29284,-25.40141 28.29317,-25.40136 28.29343,-25.40133 28.29367,-25.40129 28.29401,-25.40124 28.29414,-25.40123 28.29436,-25.4012 28.29442,-25.40119 28.29445,-25.40118 28.29451,-25.40117 28.2953,-25.40106 28.29746,-25.40074 28.29778,-25.40073 28.29819,-25.40065</coordinates></LinearRing></outerBoundaryIs></Polygon></MultiGeometry></Placemark></Document></kml>