<?xml version="1.0" encoding="UTF-8"?><kml xmlns="http://www.opengis.net/kml/2.2"><Document><Placemark><name>Olievenhoutbos</name><description>Main Place 799078</description><ExtendedData><Data name="code"><value>799078</value></Data><Data name="name"><value>Olievenhoutbos</value></Data><Data name="description"><value>Main Place 799078</value></Data></ExtendedData><MultiGeometry><Polygon><outerBoundaryIs><LinearRing><coordinates>28.11255,-25.90436 28.11273,-25.90438 28.1128,-25.90437 28.11284,-25.90433 28.11291,-25.90392 28.11291,-25.90387 28.11304,-25.90299 28.11305,-25.90289 28.11328,-25.90154 28.11467,-25.902 28.11534,-25.9022 28.11673,-25.90266 28.1173,-25.90287 28.11744,-25.90289 28.11746,-25.90286 28.11742,-25.90278 28.11709,-25.9021 28.11723,-25.90196 28.11952,-25.89986 28.11956,-25.89984 28.11967,-25.89978 28.11987,-25.89961 28.12008,-25.89996 28.12027,-25.90028 28.12034,-25.90039 28.12041,-25.90016 28.12047,-25.90002 28.12055,-25.89993 28.12061,-25.89988 28.12062,-25.89991 28.12068,-25.89999 28.12084,-25.90007 28.12095,-25.90015 28.12102,-25.90022 28.12113,-25.90033 28.12116,-25.90037 28.12127,-25.90048 28.12132,-25.90051 28.12137,-25.90055 28.12142,-25.90065 28.12146,-25.90077 28.12148,-25.90084 28.12154,-25.90099 28.12154,-25.9011 28.12152,-25.90126 28.12147,-25.90143 28.12145,-25.90157 28.12145,-25.90165 28.12145,-25.90173 28.12144,-25.90181 28.12156,-25.90182 28.12163,-25.90184 28.12175,-25.90184 28.12187,-25.90185 28.12199,-25.90185 28.12207,-25.90187 28.12218,-25.90191 28.12231,-25.90198 28.12235,-25.90185 28.12236,-25.90177 28.12242,-25.90166 28.12253,-25.90169 28.12259,-25.90172 28.12265,-25.90171 28.12272,-25.90173 28.12279,-25.90181 28.12294,-25.90187 28.12312,-25.90191 28.12323,-25.90192 28.12331,-25.90192 28.12353,-25.90195 28.12371,-25.90196 28.12385,-25.90196 28.124,-25.90194 28.12409,-25.90193 28.12458,-25.90193 28.12457,-25.90251 28.12457,-25.90252 28.12457,-25.90275 28.12456,-25.90319 28.12456,-25.90381 28.12455,-25.90406 28.12454,-25.9042 28.12455,-25.90432 28.12453,-25.90451 28.12453,-25.90485 28.12453,-25.90545 28.12452,-25.90581 28.12452,-25.90656 28.12456,-25.9069 28.12408,-25.90696 28.12399,-25.90698 28.12387,-25.90698 28.1238,-25.90701 28.12361,-25.90703 28.12302,-25.90712 28.12231,-25.90724 28.12182,-25.90733 28.12119,-25.90726 28.12097,-25.90723 28.12084,-25.90724 28.12069,-25.90724 28.1206,-25.90724 28.12048,-25.90724 28.12038,-25.90726 28.12018,-25.90751 28.11989,-25.90773 28.11975,-25.90787 28.11961,-25.90802 28.11948,-25.90818 28.12159,-25.90965 28.12399,-25.91152 28.12523,-25.91223 28.12571,-25.91225 28.12653,-25.9123 28.12569,-25.91303 28.12527,-25.91339 28.12499,-25.91422 28.12497,-25.91434 28.12485,-25.91549 28.12482,-25.91582 28.12391,-25.91513 28.12339,-25.91472 28.12315,-25.9145 28.12305,-25.91439 28.12282,-25.91461 28.12268,-25.91474 28.12236,-25.91492 28.12203,-25.91513 28.12182,-25.9153 28.1217,-25.91547 28.12159,-25.91575 28.12154,-25.91606 28.12152,-25.91618 28.12155,-25.91633 28.12162,-25.91648 28.12152,-25.91699 28.12141,-25.91772 28.12106,-25.91773 28.12102,-25.91794 28.12095,-25.91842 28.12094,-25.9188 28.12081,-25.9191 28.1208,-25.91961 28.12074,-25.92006 28.12075,-25.9202 28.1207,-25.92048 28.12072,-25.92071 28.12071,-25.92083 28.12065,-25.9209 28.1194,-25.92097 28.1182,-25.92104 28.11775,-25.92112 28.11695,-25.92163 28.11621,-25.92196 28.11587,-25.92225 28.11569,-25.92232 28.11507,-25.92222 28.1144,-25.92207 28.11284,-25.92247 28.11267,-25.92249 28.11227,-25.92215 28.11089,-25.92093 28.1107,-25.92097 28.11067,-25.92097 28.10826,-25.92163 28.10732,-25.92191 28.1046,-25.9227 28.10465,-25.92292 28.10478,-25.9236 28.10495,-25.92438 28.10501,-25.92464 28.10507,-25.92496 28.10507,-25.92497 28.10505,-25.92497 28.10339,-25.92525 28.10305,-25.92531 28.1006,-25.92573 28.09817,-25.92615 28.09804,-25.92617 28.09816,-25.92546 28.09841,-25.92422 28.09856,-25.92331 28.09663,-25.92353 28.09582,-25.92362 28.0929,-25.92394 28.09192,-25.92405 28.09146,-25.9241 28.09107,-25.92415 28.09057,-25.92421 28.09016,-25.92426 28.09016,-25.92426 28.08942,-25.92434 28.08783,-25.9245 28.08573,-25.92472 28.0856,-25.92473 28.08336,-25.92497 28.08307,-25.92499 28.0822,-25.92508 28.08191,-25.9251 28.08104,-25.92519 28.08075,-25.92521 28.08048,-25.92522 28.08017,-25.9248 28.07985,-25.92439 28.07923,-25.92355 28.0792,-25.92352 28.07891,-25.92314 28.0787,-25.92286 28.07829,-25.9223 28.07822,-25.92222 28.07789,-25.92178 28.07756,-25.92133 28.07723,-25.92089 28.07723,-25.92089 28.0772,-25.92071 28.07797,-25.91927 28.07862,-25.91807 28.07906,-25.91717 28.07972,-25.91584 28.08036,-25.91455 28.08165,-25.91191 28.08259,-25.90997 28.08395,-25.90713 28.08406,-25.90692 28.08531,-25.90448 28.08532,-25.90426 28.08533,-25.90397 28.08534,-25.90384 28.08527,-25.90335 28.08534,-25.90242 28.0854,-25.90164 28.08551,-25.89994 28.08555,-25.8992 28.08554,-25.89832 28.0856,-25.8973 28.08571,-25.8961 28.08573,-25.89557 28.08706,-25.89524 28.08876,-25.89484 28.09046,-25.89444 28.09123,-25.89429 28.09179,-25.89417 28.09433,-25.89393 28.096,-25.89376 28.09701,-25.89373 28.09775,-25.89371 28.10194,-25.89347 28.10311,-25.89341 28.10304,-25.89371 28.10302,-25.89407 28.10309,-25.89454 28.1031,-25.89463 28.10315,-25.89478 28.1035,-25.89605 28.10349,-25.89647 28.10339,-25.89706 28.10318,-25.89846 28.10298,-25.8995 28.10296,-25.89962 28.10287,-25.90007 28.10264,-25.90133 28.10339,-25.90144 28.10433,-25.90154 28.10539,-25.90167 28.1064,-25.90181 28.10671,-25.90186 28.10695,-25.90192 28.10725,-25.90204 28.10783,-25.90244 28.10793,-25.90249 28.10827,-25.90269 28.10847,-25.90282 28.10871,-25.90289 28.10951,-25.90301 28.10975,-25.90305 28.10991,-25.90309 28.11016,-25.90309 28.11048,-25.90313 28.11077,-25.90315 28.11087,-25.90318 28.11107,-25.90334 28.11198,-25.90425 28.11204,-25.90428 28.11229,-25.90431 28.11255,-25.90436</coordinates></LinearRing></outerBoundaryIs></Polygon></MultiGeometry></Placemark></Document></kml>