<?xml version="1.0" encoding="UTF-8"?><kml xmlns="http://www.opengis.net/kml/2.2"><Document><Placemark><name>Capital Park</name><description>Sub Place 799035055</description><ExtendedData><Data name="code"><value>799035055</value></Data><Data name="name"><value>Capital Park</value></Data><Data name="description"><value>Sub Place 799035055</value></Data></ExtendedData><MultiGeometry><Polygon><outerBoundaryIs><LinearRing><coordinates>28.18983,-25.72219 28.19086,-25.72234 28.19099,-25.72233 28.19186,-25.72233 28.19411,-25.72264 28.19412,-25.72264 28.19586,-25.7227 28.19722,-25.72273 28.1974,-25.72273 28.19879,-25.72272 28.20023,-25.72263 28.20034,-25.72262 28.2004,-25.72261 28.20218,-25.72238 28.20315,-25.72225 28.20331,-25.72335 28.20379,-25.72633 28.20419,-25.72884 28.20421,-25.72897 28.20431,-25.72945 28.20431,-25.72964 28.2043,-25.72995 28.20436,-25.73036 28.20403,-25.73036 28.20383,-25.7304 28.20377,-25.73051 28.2033,-25.7304 28.20239,-25.73039 28.20134,-25.73041 28.20118,-25.73042 28.20101,-25.73053 28.20089,-25.7305 28.20087,-25.73037 28.20079,-25.73034 28.20041,-25.7303 28.20016,-25.73014 28.19996,-25.73012 28.19987,-25.73012 28.19926,-25.7301 28.19879,-25.73015 28.19872,-25.73026 28.19862,-25.73027 28.19853,-25.73029 28.19847,-25.73032 28.1984,-25.73033 28.19836,-25.73038 28.1983,-25.73039 28.19822,-25.7304 28.19812,-25.73043 28.19786,-25.73049 28.19782,-25.73033 28.19776,-25.73031 28.19735,-25.73039 28.19716,-25.73043 28.1966,-25.73052 28.19669,-25.73076 28.19637,-25.73085 28.19608,-25.73085 28.19596,-25.73087 28.19559,-25.73095 28.19401,-25.73121 28.19322,-25.7312 28.19218,-25.73117 28.19077,-25.73114 28.19028,-25.73108 28.18993,-25.73115 28.18931,-25.73107 28.18915,-25.73105 28.18833,-25.73116 28.18783,-25.73116 28.18752,-25.73116 28.187,-25.73116 28.18614,-25.73113 28.18583,-25.73115 28.18546,-25.7312 28.18519,-25.73117 28.18482,-25.73112 28.18452,-25.73111 28.18406,-25.7311 28.18349,-25.73108 28.18335,-25.73107 28.18326,-25.73107 28.18324,-25.73107 28.18309,-25.73106 28.18277,-25.73105 28.18271,-25.73106 28.18264,-25.73106 28.18251,-25.73106 28.1825,-25.73106 28.18239,-25.73106 28.18225,-25.73107 28.18213,-25.73107 28.1821,-25.73107 28.18189,-25.73106 28.18157,-25.73105 28.18156,-25.73105 28.18148,-25.73104 28.1814,-25.73104 28.18127,-25.73104 28.1812,-25.73104 28.181,-25.73105 28.18093,-25.73105 28.18092,-25.73105 28.18085,-25.73104 28.18068,-25.73103 28.18032,-25.73099 28.18026,-25.73099 28.18013,-25.73098 28.18006,-25.73098 28.17988,-25.73097 28.1797,-25.73095 28.17964,-25.73094 28.17955,-25.73093 28.17946,-25.73093 28.17938,-25.73093 28.17938,-25.73093 28.17923,-25.73092 28.17909,-25.7309 28.17896,-25.73088 28.17885,-25.73087 28.17878,-25.73088 28.1786,-25.73088 28.17838,-25.73084 28.17832,-25.73084 28.17796,-25.73077 28.17782,-25.73091 28.17754,-25.73091 28.17641,-25.73089 28.17636,-25.73089 28.17607,-25.73087 28.17514,-25.73086 28.17375,-25.73082 28.17298,-25.73082 28.17153,-25.73076 28.17004,-25.73013 28.16928,-25.72997 28.16901,-25.73009 28.16903,-25.72983 28.16906,-25.72964 28.1691,-25.72939 28.16915,-25.72915 28.16923,-25.72886 28.16931,-25.72863 28.16937,-25.72843 28.16949,-25.72821 28.1696,-25.72802 28.16968,-25.72788 28.1698,-25.72772 28.16995,-25.72754 28.1701,-25.72738 28.17018,-25.72731 28.1703,-25.7272 28.17047,-25.72705 28.17063,-25.72692 28.171,-25.72664 28.17134,-25.72635 28.17186,-25.72581 28.17225,-25.7249 28.17225,-25.7242 28.17197,-25.72336 28.17151,-25.72269 28.17066,-25.72158 28.17003,-25.72003 28.17036,-25.71991 28.1711,-25.71969 28.1717,-25.7197 28.17259,-25.71978 28.17908,-25.72067 28.17926,-25.7207 28.18153,-25.72098 28.18681,-25.72167 28.1869,-25.72169 28.18734,-25.72178 28.18863,-25.72205 28.18983,-25.72219</coordinates></LinearRing></outerBoundaryIs></Polygon></MultiGeometry></Placemark></Document></kml>