<?xml version="1.0" encoding="UTF-8"?><kml xmlns="http://www.opengis.net/kml/2.2"><Document><Placemark><name>Albert Luthuli</name><description>Local Municipality 860</description><ExtendedData><Data name="code"><value>860</value></Data><Data name="name"><value>Albert Luthuli</value></Data><Data name="description"><value>Local Municipality 860</value></Data></ExtendedData><MultiGeometry><Polygon><outerBoundaryIs><LinearRing><coordinates>30.38053,-25.88682 30.38115,-25.8869 30.39499,-25.88438 30.40506,-25.88153 30.40831,-25.8806 30.4174,-25.87803 30.41906,-25.87756 30.42747,-25.86138 30.43057,-25.85547 30.45528,-25.83836 30.45532,-25.83834 30.45537,-25.83826 30.45523,-25.83813 30.45515,-25.83803 30.45508,-25.83789 30.455,-25.83774 30.45491,-25.83759 30.45483,-25.83745 30.45464,-25.83725 30.45443,-25.83704 30.45414,-25.83684 30.45372,-25.83659 30.45353,-25.83648 30.45346,-25.83644 30.45335,-25.83639 30.45309,-25.83617 30.45283,-25.83586 30.45267,-25.83564 30.45252,-25.83543 30.45245,-25.83536 30.45236,-25.83525 30.45225,-25.83514 30.45222,-25.8351 30.45209,-25.83492 30.452,-25.83482 30.45194,-25.83472 30.45188,-25.83464 30.45186,-25.83458 30.45176,-25.83436 30.45163,-25.83413 30.45148,-25.83387 30.45133,-25.83363 30.45121,-25.83345 30.4511,-25.83328 30.45105,-25.83322 30.4509,-25.83299 30.45068,-25.83267 30.45057,-25.83252 30.45047,-25.83238 30.45042,-25.83232 30.4501,-25.83187 30.45,-25.83173 30.44991,-25.83162 30.44985,-25.83154 30.44969,-25.83136 30.44958,-25.83124 30.44943,-25.83111 30.44927,-25.83099 30.44916,-25.83098 30.44916,-25.83093 30.44915,-25.83088 30.44913,-25.83084 30.44912,-25.8308 30.44909,-25.83074 30.44908,-25.83069 30.44904,-25.83063 30.44901,-25.83061 30.44892,-25.83056 30.44906,-25.83029 30.46352,-25.81374 30.46408,-25.81385 30.45964,-25.80988 30.45914,-25.80954 30.45922,-25.80931 30.45922,-25.80898 30.4592,-25.80891 30.45918,-25.80878 30.45913,-25.80864 30.45903,-25.80842 30.45894,-25.80829 30.45882,-25.80813 30.45865,-25.80787 30.45858,-25.80773 30.45854,-25.80764 30.45845,-25.8075 30.45837,-25.80737 30.45818,-25.80712 30.45797,-25.80686 30.45794,-25.80685 30.45793,-25.80682 30.45786,-25.8067 30.45776,-25.80653 30.45771,-25.80635 30.45768,-25.80602 30.45767,-25.80579 30.4577,-25.80575 30.45773,-25.80568 30.45773,-25.80558 30.45774,-25.80542 30.45778,-25.80512 30.45777,-25.80486 30.45774,-25.80478 30.45773,-25.80473 30.45773,-25.8047 30.45761,-25.80454 30.4575,-25.80436 30.45747,-25.80434 30.45721,-25.80408 30.45706,-25.80395 30.45698,-25.80386 30.45694,-25.80381 30.45687,-25.8037 30.45679,-25.80357 30.45727,-25.8033 30.46594,-25.79948 30.47883,-25.79379 30.48399,-25.81859 30.48839,-25.81415 30.50265,-25.79946 30.50781,-25.79457 30.51485,-25.78791 30.50256,-25.77669 30.48638,-25.7622 30.50874,-25.73686 30.51065,-25.73536 30.5193,-25.72855 30.54175,-25.75121 30.54798,-25.7575 30.55864,-25.76826 30.56134,-25.76948 30.57305,-25.77478 30.60612,-25.78973 30.57957,-25.75347 30.59367,-25.73804 30.59489,-25.73671 30.59632,-25.73516 30.59748,-25.7339 30.60488,-25.72588 30.61119,-25.71902 30.61849,-25.72383 30.63847,-25.72398 30.63872,-25.7118 30.64663,-25.71242 30.70473,-25.73196 30.73265,-25.74135 30.73021,-25.7483 30.72509,-25.75919 30.73012,-25.77245 30.73939,-25.7886 30.75227,-25.79827 30.75186,-25.80152 30.74946,-25.80394 30.75219,-25.82262 30.76109,-25.83133 30.77065,-25.85002 30.76868,-25.85274 30.76684,-25.85527 30.77365,-25.86194 30.77492,-25.86201 30.79677,-25.86325 30.81431,-25.86847 30.82304,-25.8765 30.82306,-25.87652 30.82171,-25.89781 30.82098,-25.90932 30.8127,-25.91527 30.81257,-25.91537 30.81703,-25.91668 30.84986,-25.92634 30.85975,-25.92593 30.88033,-25.92508 30.9243,-25.93125 30.92433,-25.93125 30.95719,-25.93388 30.9681,-25.93476 30.96825,-25.93451 30.96844,-25.93419 30.96961,-25.93311 30.97051,-25.93225 30.97175,-25.93106 30.97298,-25.92987 30.97416,-25.92878 30.97625,-25.92676 30.97723,-25.92581 30.97945,-25.92365 30.98018,-25.92299 30.98286,-25.92045 30.98416,-25.91918 30.98547,-25.91791 30.98615,-25.91803 31.01315,-25.8921 31.03952,-25.86626 31.04263,-25.88411 31.04391,-25.9126 31.05569,-25.92392 31.0688,-25.92347 31.12657,-25.92115 31.12651,-25.92141 31.12589,-25.92415 31.12565,-25.92499 31.12565,-25.92511 31.12562,-25.92554 31.12549,-25.92609 31.12538,-25.92649 31.12517,-25.92731 31.12497,-25.92817 31.12484,-25.9287 31.12473,-25.92924 31.12466,-25.92966 31.12452,-25.93018 31.1244,-25.93069 31.12421,-25.93174 31.12405,-25.93227 31.12388,-25.93324 31.12375,-25.93379 31.12367,-25.93398 31.1235,-25.9347 31.12324,-25.93577 31.12317,-25.93626 31.12305,-25.93681 31.1226,-25.9389 31.12242,-25.9394 31.12223,-25.94002 31.12216,-25.94045 31.12208,-25.94094 31.12178,-25.94235 31.12158,-25.94297 31.12134,-25.94391 31.12123,-25.94458 31.12106,-25.94563 31.12081,-25.94629 31.12073,-25.94686 31.12054,-25.94785 31.12033,-25.94884 31.12025,-25.9492 31.12003,-25.95007 31.1199,-25.9506 31.11973,-25.95128 31.11972,-25.95143 31.1194,-25.95279 31.11921,-25.95344 31.11904,-25.95445 31.11877,-25.9555 31.1186,-25.9564 31.11841,-25.95702 31.11831,-25.95759 31.11806,-25.95871 31.11785,-25.95985 31.11766,-25.96057 31.11761,-25.96098 31.11734,-25.96162 31.1173,-25.96196 31.11698,-25.96358 31.11679,-25.96409 31.11678,-25.96458 31.1166,-25.96515 31.11651,-25.96555 31.11625,-25.96701 31.11607,-25.96755 31.11595,-25.96808 31.11583,-25.96873 31.11564,-25.96942 31.11538,-25.97081 31.11534,-25.9712 31.11525,-25.97176 31.11516,-25.97231 31.115,-25.97255 31.11492,-25.97266 31.11479,-25.97339 31.1146,-25.9743 31.11449,-25.97489 31.11441,-25.97523 31.11433,-25.97568 31.11416,-25.97638 31.11382,-25.97759 31.11376,-25.97793 31.11354,-25.97902 31.11338,-25.97957 31.11329,-25.97998 31.11298,-25.98137 31.11282,-25.98206 31.11275,-25.98257 31.11246,-25.98315 31.11212,-25.98379 31.11206,-25.9839 31.11121,-25.98552 31.11091,-25.98604 31.11076,-25.98652 31.11043,-25.98705 31.10979,-25.98833 31.10947,-25.98885 31.10932,-25.98928 31.10874,-25.99038 31.10802,-25.99182 31.1077,-25.99251 31.10747,-25.99296 31.10718,-25.99356 31.10639,-25.99502 31.1061,-25.99549 31.106,-25.99587 31.10572,-25.99645 31.10486,-25.99807 31.10456,-25.99875 31.10409,-25.99969 31.10372,-26.00035 31.10323,-26.00163 31.1029,-26.00214 31.10258,-26.00285 31.10227,-26.00342 31.1019,-26.00406 31.10128,-26.00514 31.10072,-26.00622 31.10044,-26.00674 31.09985,-26.00785 31.09945,-26.00855 31.09866,-26.01 31.09836,-26.0106 31.09777,-26.01167 31.09718,-26.01269 31.09703,-26.01306 31.09616,-26.01462 31.09601,-26.01498 31.09573,-26.01545 31.09454,-26.01766 31.09404,-26.01845 31.09375,-26.0191 31.09323,-26.01996 31.09284,-26.02073 31.09254,-26.02118 31.0921,-26.02186 31.09163,-26.02295 31.09131,-26.02351 31.09059,-26.02472 31.09001,-26.0257 31.08999,-26.0259 31.08965,-26.02616 31.08961,-26.02619 31.08941,-26.02664 31.08589,-26.0344 31.08441,-26.0377 31.08292,-26.04099 31.08144,-26.04428 31.07995,-26.04757 31.07847,-26.05086 31.07654,-26.05513 31.07549,-26.05744 31.07401,-26.06073 31.07252,-26.06402 31.07104,-26.06731 31.06026,-26.08625 31.05012,-26.10407 31.04169,-26.11887 31.02661,-26.14552 31.02588,-26.14682 31.02514,-26.14813 31.0244,-26.14943 31.02367,-26.15073 31.02293,-26.15203 31.0222,-26.15334 31.02146,-26.15464 31.02073,-26.15594 31.01999,-26.15724 31.01925,-26.15855 31.01377,-26.16841 31.01102,-26.17333 31.00828,-26.17826 31.00553,-26.18319 31.00279,-26.18812 31.00004,-26.19305 30.99863,-26.19558 30.99757,-26.1975 30.9951,-26.20194 30.99263,-26.20639 30.99054,-26.21018 30.9863,-26.21766 30.98197,-26.22531 30.98094,-26.22716 30.96836,-26.24971 30.96144,-26.26173 30.92635,-26.29163 30.92109,-26.29611 30.9181,-26.29866 30.91426,-26.30194 30.91422,-26.30198 30.91415,-26.30203 30.89568,-26.31781 30.89186,-26.32082 30.8917,-26.32112 30.88834,-26.32737 30.87694,-26.34856 30.86756,-26.36541 30.85756,-26.38379 30.85022,-26.39139 30.84092,-26.40101 30.83685,-26.40523 30.83591,-26.40621 30.83101,-26.41117 30.80506,-26.46667 30.8029,-26.48349 30.80288,-26.48366 30.80026,-26.50406 30.77597,-26.49876 30.77213,-26.49783 30.74205,-26.49071 30.71792,-26.48579 30.71439,-26.48539 30.69869,-26.44457 30.7033,-26.44333 30.7034,-26.44314 30.70806,-26.43442 30.71004,-26.43079 30.71078,-26.42943 30.71897,-26.41438 30.74036,-26.41377 30.76824,-26.41303 30.76576,-26.40819 30.76173,-26.40032 30.75289,-26.3831 30.74868,-26.37451 30.74709,-26.37369 30.74391,-26.37207 30.74232,-26.37125 30.74073,-26.37044 30.73914,-26.36962 30.73755,-26.36881 30.73596,-26.36799 30.73278,-26.36637 30.73708,-26.36015 30.74926,-26.34256 30.75464,-26.33417 30.75552,-26.33277 30.74719,-26.32661 30.74499,-26.32498 30.73885,-26.32043 30.73607,-26.31838 30.73051,-26.31426 30.72773,-26.3122 30.71578,-26.31035 30.70425,-26.30856 30.69242,-26.30673 30.68858,-26.30611 30.68664,-26.30635 30.65123,-26.31128 30.65004,-26.31134 30.63037,-26.31415 30.62761,-26.31455 30.61073,-26.31695 30.61443,-26.29892 30.62005,-26.27256 30.62101,-26.26507 30.62103,-26.26476 30.62105,-26.26462 30.62149,-26.26462 30.62151,-26.2646 30.62157,-26.26456 30.62162,-26.26458 30.62168,-26.2646 30.62171,-26.2646 30.62173,-26.26458 30.62179,-26.26456 30.62185,-26.26453 30.62201,-26.26446 30.62215,-26.26443 30.62224,-26.26442 30.62231,-26.26438 30.62243,-26.26431 30.6225,-26.26426 30.62256,-26.26417 30.62261,-26.2641 30.62269,-26.264 30.62276,-26.26395 30.62283,-26.26393 30.62289,-26.2639 30.62296,-26.26381 30.62301,-26.26379 30.62309,-26.26377 30.62313,-26.26379 30.62322,-26.26386 30.62329,-26.26391 30.62335,-26.26402 30.62337,-26.26407 30.6234,-26.26416 30.62349,-26.26425 30.62357,-26.26429 30.62362,-26.26428 30.6237,-26.26425 30.62374,-26.26421 30.62379,-26.26414 30.62382,-26.26408 30.62387,-26.264 30.62397,-26.26389 30.62405,-26.26383 30.62411,-26.2638 30.62417,-26.26379 30.62421,-26.26381 30.62425,-26.26384 30.6243,-26.26391 30.62447,-26.26403 30.62453,-26.2641 30.62459,-26.26412 30.62462,-26.26412 30.62466,-26.26413 30.62473,-26.26417 30.62481,-26.26429 30.62486,-26.26439 30.6249,-26.26457 30.62497,-26.26467 30.62504,-26.26474 30.62513,-26.26479 30.6254,-26.26498 30.62551,-26.26508 30.62556,-26.26511 30.6256,-26.26518 30.6256,-26.26529 30.62559,-26.26536 30.62559,-26.26549 30.62561,-26.26558 30.62566,-26.26569 30.62572,-26.26575 30.62588,-26.26604 30.626,-26.26619 30.62611,-26.26626 30.62624,-26.26632 30.6263,-26.26632 30.62632,-26.26629 30.62632,-26.26621 30.62635,-26.26617 30.62643,-26.26612 30.62654,-26.26611 30.62662,-26.26611 30.6267,-26.26612 30.62539,-26.26232 30.62416,-26.25877 30.60965,-26.23541 30.60166,-26.22236 30.59276,-26.20799 30.58715,-26.20946 30.57474,-26.21261 30.57439,-26.2127 30.57552,-26.21421 30.57537,-26.21447 30.574,-26.21501 30.57261,-26.21535 30.56649,-26.21525 30.56512,-26.21541 30.56262,-26.21593 30.56081,-26.21643 30.55435,-26.21883 30.55408,-26.21785 30.54609,-26.21978 30.53274,-26.22321 30.52626,-26.22473 30.52232,-26.22575 30.52098,-26.22615 30.52005,-26.22644 30.50869,-26.22931 30.50472,-26.2303 30.49933,-26.23154 30.49431,-26.23293 30.49389,-26.23304 30.48231,-26.2269 30.47956,-26.22536 30.46208,-26.2161 30.42767,-26.1978 30.42349,-26.1955 30.4189,-26.19316 30.41713,-26.19204 30.41068,-26.18871 30.4048,-26.18562 30.39078,-26.17829 30.38266,-26.17641 30.35825,-26.17074 30.35802,-26.17069 30.35003,-26.1879 30.35593,-26.19874 30.36,-26.20623 30.35369,-26.21208 30.34353,-26.22136 30.34023,-26.21567 30.33811,-26.21184 30.3344,-26.20547 30.33266,-26.20238 30.32805,-26.19454 30.32715,-26.19298 30.3218,-26.1837 30.30802,-26.18878 30.27773,-26.20046 30.26234,-26.2059 30.24691,-26.21148 30.2286,-26.21799 30.21798,-26.21931 30.20947,-26.22013 30.20815,-26.2015 30.18997,-26.22978 30.17719,-26.24971 30.16914,-26.25306 30.15635,-26.25814 30.15476,-26.24081 30.15338,-26.22625 30.15306,-26.2222 30.15238,-26.21566 30.15227,-26.21486 30.13522,-26.21397 30.13291,-26.21381 30.12469,-26.21337 30.10877,-26.21247 30.10317,-26.21211 30.09711,-26.21178 30.07839,-26.21066 30.07057,-26.21019 30.06185,-26.2096 30.04891,-26.19236 30.03714,-26.1982 30.02855,-26.20249 30.01314,-26.21002 30.01225,-26.21054 30.00465,-26.21431 30.00423,-26.21446 30.00382,-26.21464 29.99861,-26.21758 29.99808,-26.21788 29.99345,-26.22214 29.98974,-26.22514 29.98964,-26.22522 29.98398,-26.23026 29.98027,-26.23355 29.97251,-26.24018 29.96906,-26.24336 29.96673,-26.24114 29.96181,-26.23649 29.95882,-26.23361 29.95436,-26.22934 29.94495,-26.2203 29.9411,-26.21664 29.93403,-26.21752 29.93027,-26.21798 29.90987,-26.22014 29.90057,-26.22099 29.89908,-26.21695 29.88652,-26.21815 29.87887,-26.21873 29.86484,-26.21994 29.8447,-26.22163 29.84453,-26.22207 29.84237,-26.22778 29.84208,-26.22856 29.838,-26.24002 29.83651,-26.2444 29.83596,-26.24585 29.83516,-26.2444 29.82755,-26.2307 29.82347,-26.22348 29.82142,-26.21954 29.81909,-26.21556 29.81564,-26.20889 29.80791,-26.19484 29.80749,-26.1942 29.80469,-26.18951 29.80137,-26.16869 29.80058,-26.16351 29.80137,-26.15941 29.80452,-26.14188 29.8054,-26.13657 29.80621,-26.13204 29.80733,-26.1258 29.80865,-26.11775 29.81106,-26.1053 29.81696,-26.09244 29.81994,-26.08653 29.82742,-26.07097 29.83053,-26.07349 29.83123,-26.07236 29.83496,-26.06607 29.84237,-26.05361 29.84412,-26.05058 29.84897,-26.04253 29.85626,-26.03034 29.86579,-26.01393 29.8569,-26.00319 29.85698,-26.00076 29.85684,-25.99978 29.85668,-25.99867 29.85645,-25.99708 29.85644,-25.98706 29.85644,-25.98698 29.85655,-25.98256 29.85663,-25.97897 29.85981,-25.97673 29.8628,-25.97477 29.8695,-25.97031 29.87696,-25.96521 29.87589,-25.9639 29.87252,-25.95852 29.85999,-25.93941 29.85682,-25.9345 29.85456,-25.93341 29.8482,-25.9305 29.84315,-25.92817 29.83725,-25.9254 29.83057,-25.92193 29.83318,-25.91746 29.83697,-25.91089 29.83929,-25.90623 29.84388,-25.8897 29.84446,-25.88756 29.84815,-25.87596 29.84879,-25.87533 29.86179,-25.86245 29.87885,-25.86555 29.88518,-25.86681 29.89539,-25.86859 29.89896,-25.86928 29.90414,-25.87352 29.90462,-25.87392 29.90718,-25.87593 29.9152,-25.88209 29.91556,-25.88238 29.91959,-25.88567 29.92511,-25.89018 29.92842,-25.89319 29.93365,-25.89733 29.94375,-25.90566 29.95445,-25.91061 29.95886,-25.9129 29.96675,-25.91393 29.9807,-25.91605 29.9875,-25.91709 29.99773,-25.91867 29.99603,-25.91048 29.99591,-25.90989 29.99393,-25.90133 29.99147,-25.89073 29.98988,-25.88366 30.00212,-25.88183 30.01869,-25.87947 30.0228,-25.87888 30.03437,-25.87724 30.03643,-25.87695 30.05071,-25.87248 30.05309,-25.87168 30.06294,-25.86834 30.08669,-25.86029 30.09151,-25.84622 30.09495,-25.84457 30.09494,-25.84436 30.09557,-25.84418 30.0956,-25.84416 30.1008,-25.8427 30.1189,-25.83789 30.13834,-25.83274 30.14971,-25.82972 30.15174,-25.81929 30.16662,-25.82449 30.17134,-25.82614 30.20083,-25.83643 30.20433,-25.82757 30.20587,-25.82368 30.20623,-25.82276 30.20812,-25.81798 30.21053,-25.81188 30.21375,-25.80402 30.21837,-25.80576 30.22998,-25.81014 30.23096,-25.81051 30.2379,-25.81312 30.25278,-25.81873 30.26673,-25.82399 30.2704,-25.82537 30.26587,-25.83322 30.26001,-25.84338 30.24994,-25.86084 30.24856,-25.86323 30.24344,-25.87211 30.24727,-25.87977 30.254,-25.89327 30.26417,-25.89893 30.27893,-25.90715 30.29905,-25.92638 30.31044,-25.9101 30.32023,-25.89611 30.33111,-25.88054 30.34085,-25.88178 30.35228,-25.88323 30.36882,-25.88533 30.38053,-25.88682</coordinates></LinearRing></outerBoundaryIs></Polygon></MultiGeometry></Placemark></Document></kml>