<?xml version="1.0" encoding="UTF-8"?><kml xmlns="http://www.opengis.net/kml/2.2"><Document><Placemark><name>Lukwatini</name><description>Main Place 860019</description><ExtendedData><Data name="code"><value>860019</value></Data><Data name="name"><value>Lukwatini</value></Data><Data name="description"><value>Main Place 860019</value></Data></ExtendedData><MultiGeometry><Polygon><outerBoundaryIs><LinearRing><coordinates>30.83525,-26.04384 30.83606,-26.04472 30.83634,-26.04539 30.83641,-26.04609 30.83648,-26.04666 30.83634,-26.04718 30.83613,-26.0475 30.83609,-26.04796 30.83609,-26.04835 30.83609,-26.04891 30.83592,-26.04951 30.83581,-26.05018 30.83574,-26.05049 30.83563,-26.05071 30.83547,-26.05121 30.83542,-26.05137 30.8357,-26.05187 30.83578,-26.05229 30.83588,-26.05275 30.83595,-26.05356 30.83623,-26.05423 30.83634,-26.05465 30.83647,-26.05512 30.83804,-26.05549 30.83799,-26.05556 30.8379,-26.05576 30.83778,-26.05595 30.83773,-26.05604 30.83767,-26.05621 30.83761,-26.05633 30.83756,-26.05636 30.83749,-26.0564 30.83738,-26.05649 30.83722,-26.05662 30.83711,-26.05718 30.83715,-26.05775 30.83666,-26.05806 30.83592,-26.05877 30.83553,-26.05905 30.83518,-26.05951 30.83475,-26.0601 30.83426,-26.0606 30.83384,-26.06095 30.83321,-26.06162 30.83247,-26.06183 30.83162,-26.06236 30.83088,-26.0626 30.82986,-26.06313 30.82933,-26.06345 30.82909,-26.06351 30.82888,-26.06355 30.82803,-26.0638 30.82807,-26.06443 30.82792,-26.06524 30.82735,-26.06582 30.82734,-26.06574 30.82734,-26.06568 30.82733,-26.06564 30.82733,-26.0656 30.82731,-26.06555 30.8273,-26.0655 30.8273,-26.06544 30.8273,-26.06536 30.8273,-26.06526 30.82729,-26.06518 30.82726,-26.06511 30.82725,-26.06507 30.82725,-26.06497 30.82722,-26.06491 30.82719,-26.06485 30.82714,-26.06477 30.82711,-26.06471 30.8271,-26.06466 30.82709,-26.06459 30.8271,-26.06456 30.82711,-26.06453 30.82718,-26.06448 30.82729,-26.06441 30.82734,-26.06438 30.82737,-26.06435 30.82739,-26.06431 30.82741,-26.06426 30.82742,-26.06423 30.82742,-26.06418 30.82741,-26.06413 30.82741,-26.06408 30.82739,-26.06403 30.82734,-26.06393 30.82731,-26.06384 30.82729,-26.06378 30.82726,-26.06374 30.82726,-26.06369 30.82723,-26.06357 30.82721,-26.06349 30.82719,-26.06344 30.82718,-26.0633 30.82717,-26.06322 30.82716,-26.06313 30.82714,-26.06301 30.82713,-26.0629 30.82709,-26.06283 30.82706,-26.06277 30.82704,-26.0627 30.82702,-26.06263 30.82699,-26.06251 30.82696,-26.06242 30.82696,-26.06238 30.82695,-26.06234 30.82694,-26.06229 30.82693,-26.06226 30.8269,-26.06223 30.82684,-26.06211 30.82675,-26.06199 30.82672,-26.06192 30.82669,-26.06184 30.82666,-26.06177 30.82663,-26.06172 30.82657,-26.06164 30.82655,-26.0616 30.82653,-26.06159 30.82647,-26.06151 30.82642,-26.06143 30.82635,-26.06136 30.82626,-26.06128 30.82619,-26.0612 30.82614,-26.06116 30.82608,-26.06111 30.82605,-26.0611 30.82602,-26.06108 30.82594,-26.06102 30.8259,-26.061 30.82588,-26.06099 30.82584,-26.06098 30.82583,-26.06097 30.82575,-26.06091 30.82567,-26.06087 30.82562,-26.06082 30.82556,-26.06078 30.82543,-26.06072 30.82538,-26.06069 30.82532,-26.06068 30.8253,-26.06066 30.82527,-26.06065 30.82524,-26.06064 30.8252,-26.06059 30.82516,-26.06055 30.82511,-26.06053 30.82506,-26.06049 30.82502,-26.06047 30.82498,-26.06048 30.82495,-26.06046 30.82489,-26.06045 30.82485,-26.06042 30.82473,-26.06035 30.82469,-26.06032 30.82462,-26.0603 30.82454,-26.06027 30.82451,-26.06026 30.82444,-26.06022 30.82441,-26.06021 30.82438,-26.0602 30.82434,-26.0602 30.8243,-26.06018 30.82428,-26.06017 30.82423,-26.06016 30.82421,-26.06015 30.82418,-26.06013 30.82415,-26.06011 30.82412,-26.0601 30.82409,-26.06008 30.82404,-26.06006 30.82401,-26.06004 30.82395,-26.06002 30.82391,-26.06001 30.82387,-26.06001 30.82381,-26.06 30.82377,-26.05999 30.82373,-26.05997 30.82368,-26.05996 30.82365,-26.05996 30.82361,-26.05993 30.82358,-26.05992 30.82354,-26.0599 30.82344,-26.05983 30.82326,-26.05971 30.82309,-26.05959 30.82297,-26.0595 30.8229,-26.05944 30.82282,-26.05938 30.82276,-26.05933 30.82269,-26.05927 30.8226,-26.05917 30.82252,-26.05909 30.82248,-26.05903 30.82246,-26.05899 30.82244,-26.05894 30.82242,-26.05891 30.8224,-26.05888 30.82239,-26.05889 30.82216,-26.05916 30.8221,-26.05911 30.82204,-26.05913 30.82195,-26.05916 30.82186,-26.0591 30.82175,-26.05907 30.82166,-26.05905 30.82163,-26.05901 30.82155,-26.05899 30.82146,-26.059 30.82142,-26.05907 30.82135,-26.0591 30.82125,-26.05915 30.82116,-26.05908 30.82109,-26.05908 30.82107,-26.0591 30.82104,-26.05904 30.82091,-26.05883 30.82064,-26.05854 30.82067,-26.0585 30.82074,-26.05844 30.82074,-26.05839 30.82078,-26.05835 30.82076,-26.05831 30.82074,-26.0583 30.82071,-26.05825 30.82066,-26.05819 30.8206,-26.05812 30.82056,-26.05809 30.82045,-26.05803 30.82022,-26.05788 30.81998,-26.05771 30.81972,-26.05751 30.81959,-26.0574 30.81951,-26.0573 30.8194,-26.05715 30.81923,-26.05696 30.81919,-26.05697 30.8191,-26.05698 30.81892,-26.05698 30.81874,-26.05699 30.81868,-26.05698 30.81864,-26.05697 30.81859,-26.05691 30.81849,-26.05687 30.81838,-26.05682 30.8183,-26.05678 30.81825,-26.05676 30.81819,-26.05675 30.81813,-26.05671 30.81805,-26.05666 30.81799,-26.05658 30.81795,-26.05652 30.81786,-26.05644 30.81778,-26.05638 30.81773,-26.05634 30.8177,-26.05632 30.81767,-26.05627 30.81751,-26.05614 30.81744,-26.05612 30.81737,-26.05607 30.81732,-26.05605 30.81726,-26.05605 30.81722,-26.05603 30.81717,-26.05598 30.81707,-26.05591 30.81697,-26.05583 30.81689,-26.05574 30.81685,-26.05569 30.81679,-26.05562 30.81672,-26.05553 30.81664,-26.05541 30.81658,-26.05534 30.81649,-26.05525 30.81639,-26.05515 30.8163,-26.05508 30.81622,-26.05501 30.81614,-26.05495 30.81609,-26.0549 30.81598,-26.05483 30.81592,-26.05482 30.81584,-26.05481 30.81577,-26.05478 30.8156,-26.05471 30.81543,-26.05464 30.81534,-26.0546 30.8153,-26.0546 30.81524,-26.05455 30.81514,-26.0545 30.81519,-26.05464 30.81519,-26.05467 30.8152,-26.05476 30.81523,-26.05487 30.81531,-26.055 30.81536,-26.05513 30.81548,-26.05535 30.81555,-26.05548 30.81564,-26.05563 30.81576,-26.05584 30.8158,-26.05594 30.81583,-26.05601 30.81584,-26.05605 30.81585,-26.05611 30.8159,-26.05617 30.81598,-26.05626 30.81605,-26.05632 30.81608,-26.05636 30.8161,-26.05639 30.81609,-26.05643 30.81609,-26.05652 30.81609,-26.05659 30.8161,-26.05664 30.81614,-26.05671 30.81619,-26.05681 30.8162,-26.05688 30.81621,-26.05695 30.81621,-26.05699 30.8162,-26.05703 30.81619,-26.05709 30.81615,-26.05715 30.81611,-26.05724 30.81606,-26.05731 30.81602,-26.05739 30.81599,-26.05744 30.81592,-26.0575 30.81585,-26.05756 30.81576,-26.05762 30.81571,-26.05768 30.81568,-26.05772 30.81564,-26.05776 30.8156,-26.05779 30.81556,-26.05781 30.81551,-26.05784 30.81547,-26.05785 30.81543,-26.05789 30.81537,-26.05794 30.8153,-26.05801 30.81519,-26.05812 30.81512,-26.05818 30.81505,-26.05825 30.815,-26.05833 30.81492,-26.05845 30.81486,-26.05855 30.81477,-26.05869 30.8147,-26.05879 30.81462,-26.0589 30.81459,-26.05892 30.81455,-26.05894 30.8145,-26.05896 30.81443,-26.05897 30.81437,-26.05897 30.81431,-26.05897 30.81419,-26.05897 30.814,-26.05894 30.81388,-26.05891 30.81376,-26.05888 30.8137,-26.05886 30.81363,-26.05883 30.81349,-26.05878 30.8134,-26.05875 30.81299,-26.05856 30.81275,-26.05848 30.81252,-26.05838 30.81238,-26.05833 30.81229,-26.05829 30.81216,-26.05822 30.81207,-26.05818 30.81201,-26.05816 30.81194,-26.05815 30.81186,-26.05813 30.81173,-26.05809 30.81143,-26.05797 30.81132,-26.05794 30.81117,-26.05788 30.81103,-26.05785 30.8109,-26.05782 30.81066,-26.05776 30.8104,-26.0577 30.81026,-26.05768 30.81024,-26.05767 30.81019,-26.05765 30.81013,-26.05765 30.81003,-26.05764 30.81007,-26.05774 30.81008,-26.05782 30.81008,-26.05795 30.81008,-26.058 30.81007,-26.05805 30.81006,-26.0581 30.81006,-26.05813 30.81006,-26.05818 30.8101,-26.05822 30.81012,-26.05826 30.81016,-26.05832 30.81018,-26.05835 30.81018,-26.05838 30.81022,-26.05843 30.81027,-26.05851 30.81028,-26.05854 30.81028,-26.05857 30.81032,-26.05862 30.81039,-26.05867 30.81042,-26.05872 30.81045,-26.05877 30.81046,-26.05879 30.81045,-26.05882 30.81046,-26.05886 30.81049,-26.0589 30.81053,-26.05895 30.81055,-26.05896 30.81059,-26.05902 30.81065,-26.0591 30.81073,-26.05922 30.81082,-26.05931 30.81091,-26.05939 30.81093,-26.05941 30.81098,-26.05942 30.81104,-26.05954 30.81106,-26.05961 30.81108,-26.05964 30.81114,-26.05975 30.81118,-26.05983 30.81118,-26.05993 30.81118,-26.06001 30.81119,-26.06005 30.8112,-26.06008 30.81125,-26.06013 30.81128,-26.06017 30.81131,-26.06019 30.81132,-26.06022 30.81133,-26.06026 30.81134,-26.0603 30.81134,-26.06034 30.81134,-26.06037 30.81138,-26.06039 30.81141,-26.06041 30.81143,-26.06046 30.81144,-26.0605 30.81145,-26.06055 30.8114,-26.06055 30.81132,-26.06054 30.81127,-26.06052 30.81124,-26.06052 30.81118,-26.0605 30.8111,-26.06051 30.81101,-26.06051 30.811,-26.06049 30.81097,-26.06049 30.81092,-26.06047 30.81087,-26.06043 30.81083,-26.06042 30.81079,-26.0604 30.81076,-26.0604 30.81074,-26.06038 30.8107,-26.06034 30.81066,-26.06029 30.81063,-26.06028 30.81057,-26.06029 30.81054,-26.06029 30.81051,-26.0603 30.81049,-26.06033 30.81047,-26.06033 30.81045,-26.06034 30.81045,-26.06035 30.81035,-26.06038 30.8103,-26.06041 30.81028,-26.06042 30.81027,-26.06045 30.8102,-26.06046 30.81018,-26.06043 30.81013,-26.06043 30.8101,-26.06041 30.81003,-26.06042 30.81002,-26.06041 30.80999,-26.06038 30.80996,-26.06038 30.80991,-26.06038 30.80988,-26.06036 30.80986,-26.06038 30.80983,-26.06037 30.80977,-26.06034 30.80966,-26.06033 30.8096,-26.06032 30.80957,-26.06032 30.80954,-26.06033 30.80952,-26.06033 30.80951,-26.06029 30.80947,-26.06029 30.80944,-26.06027 30.80942,-26.06029 30.80939,-26.0603 30.80935,-26.06032 30.80933,-26.06033 30.80931,-26.06032 30.80929,-26.06033 30.80926,-26.06032 30.80925,-26.06031 30.80921,-26.06031 30.80921,-26.06029 30.80915,-26.06029 30.80911,-26.06028 30.80906,-26.06025 30.80901,-26.06029 30.80898,-26.06027 30.80895,-26.06025 30.80892,-26.06025 30.80885,-26.06024 30.80882,-26.06019 30.80879,-26.0602 30.80877,-26.06019 30.80871,-26.0602 30.80866,-26.06021 30.80859,-26.06021 30.80856,-26.06019 30.80855,-26.06015 30.8085,-26.06015 30.80846,-26.06018 30.80842,-26.06018 30.8084,-26.06018 30.80833,-26.06019 30.80832,-26.0602 30.80829,-26.06026 30.80826,-26.06023 30.80823,-26.06022 30.80819,-26.06019 30.80815,-26.06016 30.80811,-26.06015 30.80807,-26.06017 30.80803,-26.06018 30.80799,-26.06019 30.80798,-26.06018 30.80794,-26.06016 30.8079,-26.06014 30.80786,-26.06009 30.80783,-26.06003 30.8078,-26.05999 30.80777,-26.05998 30.80773,-26.05999 30.80768,-26.05993 30.80763,-26.0599 30.80753,-26.05987 30.80752,-26.05983 30.80745,-26.05979 30.80733,-26.05979 30.80727,-26.05975 30.80721,-26.05973 30.80713,-26.05972 30.80709,-26.05972 30.80702,-26.05969 30.80694,-26.05965 30.80692,-26.0596 30.80686,-26.05958 30.80674,-26.05948 30.8065,-26.0593 30.80627,-26.0594 30.80623,-26.05943 30.80611,-26.05947 30.80599,-26.05953 30.80589,-26.05959 30.80581,-26.05964 30.80577,-26.05968 30.80573,-26.05972 30.80569,-26.05977 30.8056,-26.05988 30.80554,-26.05988 30.80546,-26.05987 30.8054,-26.05985 30.80534,-26.05983 30.80529,-26.05981 30.80523,-26.05978 30.80519,-26.05977 30.80514,-26.05974 30.80508,-26.05971 30.80494,-26.05957 30.80481,-26.05947 30.80477,-26.05944 30.8047,-26.05944 30.80455,-26.05944 30.80451,-26.05944 30.80445,-26.05947 30.80434,-26.05946 30.80426,-26.05945 30.80421,-26.05943 30.80415,-26.05938 30.8041,-26.05933 30.80405,-26.05926 30.80395,-26.05914 30.80389,-26.05908 30.8038,-26.05901 30.80373,-26.05895 30.80371,-26.05893 30.80367,-26.05888 30.80361,-26.05883 30.80356,-26.05879 30.80352,-26.05876 30.80349,-26.05873 30.80348,-26.05872 30.80344,-26.05873 30.80342,-26.05871 30.80339,-26.05869 30.80335,-26.05865 30.80331,-26.0586 30.80326,-26.05858 30.80321,-26.05856 30.80318,-26.05855 30.80309,-26.05855 30.80299,-26.05856 30.80296,-26.05856 30.80295,-26.05857 30.80294,-26.05857 30.80292,-26.05858 30.8029,-26.05858 30.80291,-26.05856 30.80299,-26.05845 30.803,-26.05837 30.80296,-26.05823 30.80297,-26.0581 30.80303,-26.05789 30.80305,-26.0576 30.80312,-26.05727 30.80318,-26.05696 30.8032,-26.05693 30.80254,-26.05664 30.80246,-26.05657 30.8024,-26.05657 30.80236,-26.05649 30.80229,-26.05647 30.80228,-26.05637 30.80228,-26.05627 30.80228,-26.05618 30.80226,-26.05613 30.8022,-26.0561 30.80214,-26.05606 30.80198,-26.05605 30.80166,-26.05608 30.80142,-26.05611 30.80129,-26.05611 30.80123,-26.05609 30.80117,-26.05604 30.80107,-26.05605 30.80102,-26.05605 30.80086,-26.05606 30.80074,-26.05608 30.80059,-26.05613 30.80038,-26.0562 30.8002,-26.05626 30.80011,-26.05628 30.79998,-26.05628 30.79983,-26.05628 30.79968,-26.05629 30.79831,-26.05637 30.79835,-26.05672 30.79836,-26.05692 30.79836,-26.05697 30.79834,-26.05701 30.79833,-26.05704 30.79831,-26.05706 30.79826,-26.05709 30.7981,-26.05715 30.79789,-26.05723 30.79763,-26.05731 30.79742,-26.05738 30.79726,-26.05745 30.79711,-26.05752 30.79701,-26.05758 30.79672,-26.05778 30.79615,-26.05819 30.79607,-26.05828 30.79587,-26.05864 30.79564,-26.05907 30.79555,-26.05926 30.79547,-26.05944 30.79535,-26.05988 30.79519,-26.06078 30.79513,-26.06116 30.79508,-26.0613 30.79504,-26.0614 30.79498,-26.06147 30.7949,-26.06155 30.79479,-26.06163 30.7947,-26.06168 30.79461,-26.06169 30.79445,-26.06171 30.79396,-26.06167 30.7938,-26.06165 30.79341,-26.0616 30.79306,-26.06156 30.79282,-26.06152 30.79256,-26.06147 30.79241,-26.06144 30.79201,-26.06127 30.79151,-26.061 30.79119,-26.06081 30.79107,-26.06073 30.79094,-26.06057 30.79078,-26.06038 30.79068,-26.06021 30.79055,-26.05999 30.79046,-26.06003 30.79043,-26.06005 30.79036,-26.06009 30.79025,-26.06013 30.79012,-26.06018 30.78998,-26.06024 30.7898,-26.06033 30.78973,-26.06038 30.78969,-26.0604 30.78964,-26.06045 30.78958,-26.0605 30.78945,-26.06063 30.78931,-26.06075 30.78915,-26.06088 30.78904,-26.06097 30.78897,-26.06103 30.78894,-26.06106 30.7889,-26.06111 30.78872,-26.06127 30.78861,-26.06138 30.78856,-26.06143 30.7885,-26.06149 30.78844,-26.06157 30.78831,-26.06176 30.78824,-26.06187 30.78822,-26.06189 30.78802,-26.06199 30.78782,-26.06211 30.78752,-26.06229 30.78742,-26.06234 30.78735,-26.06236 30.78698,-26.0624 30.7868,-26.06243 30.78662,-26.06245 30.78652,-26.06247 30.78634,-26.06249 30.78631,-26.06256 30.7863,-26.06263 30.7863,-26.06266 30.78627,-26.06269 30.78627,-26.06273 30.78627,-26.06277 30.78624,-26.06285 30.78624,-26.06291 30.78624,-26.06299 30.78625,-26.06302 30.78633,-26.06315 30.78639,-26.06325 30.78637,-26.0633 30.78638,-26.06336 30.78639,-26.06339 30.78638,-26.06364 30.78636,-26.06379 30.78633,-26.06391 30.78629,-26.06401 30.78624,-26.06411 30.78622,-26.06417 30.78621,-26.06429 30.78623,-26.0645 30.78626,-26.06482 30.7863,-26.065 30.78631,-26.06506 30.78629,-26.06511 30.78627,-26.0652 30.78627,-26.06534 30.78624,-26.0654 30.78619,-26.06557 30.78613,-26.06573 30.78609,-26.06584 30.78607,-26.0659 30.78604,-26.06602 30.786,-26.06617 30.78594,-26.06632 30.78592,-26.06645 30.78591,-26.06654 30.78594,-26.06713 30.78593,-26.06719 30.78589,-26.06725 30.78573,-26.06741 30.78592,-26.06758 30.78596,-26.0676 30.78605,-26.06762 30.7861,-26.06763 30.78614,-26.06763 30.78619,-26.06764 30.78621,-26.06765 30.78628,-26.06767 30.78632,-26.06767 30.78635,-26.06768 30.78637,-26.06769 30.7864,-26.06771 30.78642,-26.06772 30.78645,-26.06773 30.7865,-26.06775 30.78652,-26.06775 30.78657,-26.06776 30.78662,-26.06777 30.78665,-26.06777 30.78668,-26.06779 30.78673,-26.06781 30.78681,-26.06803 30.78674,-26.06852 30.78684,-26.06919 30.78667,-26.06947 30.78663,-26.07 30.78667,-26.07091 30.78671,-26.07159 30.78674,-26.07197 30.78676,-26.07224 30.78673,-26.07225 30.78672,-26.07223 30.78668,-26.07223 30.78666,-26.07223 30.78663,-26.07223 30.7866,-26.07223 30.78656,-26.07225 30.78651,-26.07227 30.78647,-26.07229 30.78644,-26.07231 30.7864,-26.07231 30.78636,-26.07229 30.78634,-26.07231 30.78631,-26.07232 30.78628,-26.07234 30.78626,-26.07232 30.78621,-26.07232 30.7862,-26.07233 30.78618,-26.07235 30.78616,-26.07237 30.78613,-26.07239 30.78611,-26.07242 30.78608,-26.07244 30.78605,-26.07245 30.78601,-26.07244 30.78595,-26.07244 30.78594,-26.07243 30.78591,-26.07244 30.78588,-26.07245 30.78586,-26.07246 30.78585,-26.07246 30.7858,-26.07246 30.7858,-26.07248 30.78582,-26.07256 30.7858,-26.07259 30.78576,-26.07265 30.78569,-26.07272 30.78558,-26.07282 30.7855,-26.07292 30.78545,-26.07299 30.78534,-26.07306 30.78529,-26.07312 30.78524,-26.07317 30.78522,-26.07319 30.78514,-26.07327 30.78507,-26.07336 30.78499,-26.07343 30.78493,-26.07349 30.78487,-26.07352 30.78487,-26.07352 30.78475,-26.07366 30.78416,-26.07428 30.78412,-26.07431 30.78407,-26.07432 30.78403,-26.07434 30.78393,-26.07437 30.78389,-26.0744 30.78385,-26.07443 30.78381,-26.07447 30.78372,-26.07457 30.78365,-26.07456 30.78354,-26.07454 30.78337,-26.07448 30.78329,-26.07445 30.78323,-26.07442 30.78317,-26.07434 30.78275,-26.07401 30.78248,-26.07381 30.78233,-26.07368 30.78209,-26.0735 30.78192,-26.07336 30.78182,-26.07336 30.78179,-26.07335 30.78173,-26.07335 30.78147,-26.07333 30.78134,-26.07333 30.78132,-26.07334 30.78112,-26.07397 30.77924,-26.07591 30.77924,-26.07687 30.77917,-26.07714 30.77839,-26.07616 30.77804,-26.07491 30.77799,-26.07462 30.77799,-26.07442 30.77794,-26.07425 30.77794,-26.07405 30.7779,-26.07388 30.77774,-26.07371 30.77759,-26.0735 30.77757,-26.07333 30.77749,-26.07321 30.77745,-26.07304 30.77729,-26.07291 30.77729,-26.07273 30.77729,-26.07256 30.77727,-26.07248 30.77722,-26.07231 30.77718,-26.07212 30.77711,-26.07196 30.77699,-26.07187 30.77672,-26.07178 30.77656,-26.07168 30.77644,-26.07159 30.77624,-26.07147 30.7761,-26.07132 30.77602,-26.07116 30.77594,-26.071 30.77575,-26.07072 30.7756,-26.07044 30.7755,-26.07031 30.77542,-26.07007 30.77534,-26.0698 30.77532,-26.06939 30.77528,-26.06909 30.77533,-26.06889 30.77533,-26.06872 30.77538,-26.06848 30.77543,-26.06834 30.77547,-26.06831 30.77557,-26.06822 30.77561,-26.06808 30.7756,-26.06787 30.77557,-26.06763 30.77556,-26.06732 30.77545,-26.06725 30.77537,-26.06711 30.77527,-26.06708 30.77506,-26.06697 30.77488,-26.06686 30.77481,-26.06682 30.77467,-26.06675 30.7746,-26.06647 30.7746,-26.06636 30.77455,-26.0662 30.77455,-26.06612 30.77443,-26.06602 30.77437,-26.06588 30.77429,-26.06575 30.77425,-26.06558 30.77421,-26.06547 30.77421,-26.06534 30.77428,-26.06521 30.77429,-26.0651 30.77435,-26.06496 30.77445,-26.06489 30.77456,-26.06478 30.77463,-26.06464 30.77466,-26.06456 30.77476,-26.06446 30.77489,-26.06442 30.77496,-26.06436 30.77507,-26.06436 30.77512,-26.06425 30.77519,-26.06424 30.77528,-26.06416 30.77537,-26.06409 30.77544,-26.06401 30.77552,-26.06398 30.77574,-26.06389 30.7759,-26.06383 30.77611,-26.0639 30.77614,-26.06382 30.77631,-26.06377 30.77645,-26.06376 30.77663,-26.06373 30.77674,-26.06372 30.77686,-26.06372 30.77698,-26.06368 30.77708,-26.06368 30.77717,-26.06356 30.77729,-26.0635 30.77735,-26.06328 30.77742,-26.06318 30.77749,-26.06307 30.77756,-26.06295 30.77759,-26.06282 30.7776,-26.06275 30.77768,-26.06266 30.77768,-26.06247 30.77774,-26.06233 30.77778,-26.06225 30.77782,-26.06213 30.77782,-26.06199 30.77791,-26.06182 30.77799,-26.06177 30.77799,-26.06168 30.77805,-26.06155 30.7781,-26.06144 30.77814,-26.06131 30.77815,-26.06117 30.77819,-26.06097 30.77815,-26.06074 30.77817,-26.06056 30.77819,-26.06042 30.77814,-26.0603 30.7782,-26.0602 30.77819,-26.06008 30.77818,-26.0599 30.77815,-26.05987 30.77823,-26.05982 30.7785,-26.05977 30.77871,-26.05976 30.77879,-26.05975 30.77887,-26.05972 30.7791,-26.05963 30.77937,-26.05954 30.7795,-26.05935 30.77954,-26.05914 30.77957,-26.05903 30.77977,-26.05891 30.77992,-26.0588 30.78,-26.05871 30.78015,-26.05857 30.7803,-26.05843 30.78043,-26.05828 30.78058,-26.05817 30.78064,-26.05795 30.78066,-26.05778 30.78069,-26.05742 30.7807,-26.05733 30.78072,-26.05719 30.78072,-26.05717 30.78069,-26.05691 30.78056,-26.05667 30.78047,-26.05648 30.78043,-26.05626 30.78037,-26.05604 30.7804,-26.05575 30.78044,-26.05558 30.78046,-26.05554 30.78053,-26.05543 30.7806,-26.05529 30.78066,-26.05515 30.78072,-26.05501 30.78079,-26.05488 30.78105,-26.05488 30.78121,-26.05493 30.78132,-26.055 30.78156,-26.05503 30.78171,-26.05499 30.78177,-26.05494 30.7819,-26.05497 30.78216,-26.05499 30.78231,-26.05494 30.78242,-26.05487 30.78266,-26.05485 30.78286,-26.05472 30.78294,-26.05459 30.78305,-26.05441 30.78317,-26.0544 30.78346,-26.05432 30.7837,-26.05416 30.7838,-26.05401 30.78398,-26.05391 30.78411,-26.05376 30.78429,-26.0536 30.78454,-26.05346 30.78464,-26.05334 30.78466,-26.05307 30.78467,-26.05296 30.78479,-26.05268 30.78489,-26.0525 30.78515,-26.05237 30.78532,-26.05213 30.78533,-26.0521 30.78542,-26.05187 30.78543,-26.05166 30.78553,-26.0515 30.78565,-26.05151 30.7858,-26.05134 30.78592,-26.05125 30.78612,-26.05128 30.78633,-26.05127 30.78642,-26.05135 30.78662,-26.05129 30.78681,-26.05114 30.78696,-26.05105 30.78716,-26.05115 30.78741,-26.05104 30.78758,-26.0509 30.7877,-26.05088 30.78784,-26.05074 30.78788,-26.05062 30.78796,-26.05055 30.78807,-26.05055 30.7882,-26.05046 30.7884,-26.05026 30.78855,-26.05002 30.7887,-26.04979 30.7887,-26.04967 30.78878,-26.04954 30.78882,-26.04937 30.78894,-26.04923 30.78908,-26.04909 30.78912,-26.04904 30.78919,-26.04892 30.78927,-26.04871 30.78933,-26.04846 30.78936,-26.04835 30.78938,-26.04824 30.78935,-26.04802 30.78941,-26.04779 30.7895,-26.04755 30.78961,-26.04742 30.7897,-26.04723 30.79002,-26.04678 30.79016,-26.04666 30.79031,-26.04657 30.79042,-26.04647 30.79061,-26.04651 30.79081,-26.04649 30.79104,-26.04648 30.7914,-26.04644 30.79166,-26.04642 30.7917,-26.04642 30.7921,-26.04641 30.79225,-26.04636 30.79244,-26.04641 30.79261,-26.04653 30.79288,-26.04657 30.79309,-26.0466 30.79335,-26.04676 30.79344,-26.04676 30.79361,-26.04693 30.79384,-26.04708 30.79387,-26.04706 30.794,-26.0471 30.79428,-26.04719 30.7944,-26.04723 30.79458,-26.04725 30.79484,-26.04725 30.79512,-26.04706 30.79542,-26.04708 30.79572,-26.04703 30.79577,-26.047 30.79594,-26.04688 30.79619,-26.04698 30.7964,-26.04713 30.79657,-26.04713 30.79684,-26.04701 30.79707,-26.04683 30.79721,-26.04666 30.7973,-26.04651 30.79754,-26.04638 30.79771,-26.04627 30.79779,-26.04617 30.79799,-26.04608 30.79822,-26.04601 30.79839,-26.04593 30.79844,-26.04586 30.79868,-26.04568 30.79887,-26.04566 30.79905,-26.04557 30.79916,-26.04547 30.79937,-26.04536 30.79962,-26.04514 30.79978,-26.04504 30.79991,-26.04491 30.79997,-26.04483 30.79997,-26.04474 30.80005,-26.04455 30.80022,-26.04443 30.80032,-26.04422 30.80043,-26.04404 30.80055,-26.04387 30.8007,-26.04378 30.80099,-26.04361 30.80094,-26.04346 30.80098,-26.04336 30.80098,-26.04335 30.80098,-26.04335 30.801,-26.0433 30.80104,-26.04312 30.80121,-26.04271 30.80129,-26.0425 30.80129,-26.04232 30.80135,-26.04213 30.80145,-26.04171 30.80145,-26.04155 30.80139,-26.04142 30.80134,-26.04141 30.80114,-26.04125 30.80103,-26.04108 30.80098,-26.04095 30.8009,-26.04076 30.80096,-26.04055 30.80089,-26.04045 30.80083,-26.04034 30.80076,-26.0402 30.8007,-26.03998 30.80065,-26.03986 30.8006,-26.03968 30.80059,-26.03957 30.80059,-26.03951 30.80058,-26.03946 30.80058,-26.03945 30.80064,-26.03928 30.80071,-26.03895 30.80072,-26.03876 30.80082,-26.03863 30.80092,-26.03844 30.80103,-26.03832 30.80112,-26.03811 30.80123,-26.03792 30.80143,-26.03765 30.80157,-26.03759 30.80174,-26.03744 30.80181,-26.03716 30.80195,-26.0371 30.80209,-26.03704 30.80222,-26.03695 30.80225,-26.03681 30.80225,-26.03668 30.80237,-26.0365 30.8025,-26.03639 30.80257,-26.03614 30.80286,-26.03669 30.80367,-26.03712 30.80413,-26.03669 30.80483,-26.03655 30.80599,-26.03659 30.8068,-26.03652 30.80775,-26.03652 30.80835,-26.03648 30.80948,-26.03712 30.81015,-26.03779 30.8105,-26.03789 30.81096,-26.03831 30.8112,-26.03923 30.81124,-26.03993 30.81124,-26.04043 30.81124,-26.04116 30.81141,-26.04173 30.81177,-26.04257 30.81229,-26.04317 30.81258,-26.04345 30.81306,-26.04439 30.8139,-26.04437 30.81415,-26.04436 30.81416,-26.04434 30.81485,-26.04304 30.81502,-26.04268 30.81543,-26.04212 30.81581,-26.04113 30.81631,-26.04028 30.81691,-26.03919 30.8175,-26.03821 30.81831,-26.03807 30.81983,-26.03796 30.82092,-26.0375 30.82183,-26.03747 30.82293,-26.0374 30.82356,-26.03712 30.82405,-26.03655 30.82469,-26.03606 30.82528,-26.03564 30.82599,-26.03437 30.82641,-26.03384 30.8269,-26.03331 30.82692,-26.03335 30.8274,-26.03441 30.82771,-26.03536 30.82845,-26.03655 30.82891,-26.03754 30.82954,-26.03807 30.83057,-26.03916 30.83092,-26.03986 30.83145,-26.04032 30.83229,-26.04109 30.8331,-26.04204 30.83394,-26.04271 30.83525,-26.04384</coordinates></LinearRing></outerBoundaryIs></Polygon></MultiGeometry></Placemark></Document></kml>