<?xml version="1.0" encoding="UTF-8"?><kml xmlns="http://www.opengis.net/kml/2.2"><Document><Placemark><name>Kwaggafontein</name><description>Main Place 871006</description><ExtendedData><Data name="code"><value>871006</value></Data><Data name="name"><value>Kwaggafontein</value></Data><Data name="description"><value>Main Place 871006</value></Data></ExtendedData><MultiGeometry><Polygon><outerBoundaryIs><LinearRing><coordinates>28.93174,-25.28459 28.93186,-25.2846 28.93286,-25.28446 28.93285,-25.28443 28.93286,-25.28441 28.93345,-25.28433 28.9339,-25.28424 28.93402,-25.28453 28.93404,-25.28458 28.93525,-25.28453 28.93536,-25.28442 28.93632,-25.28425 28.93638,-25.28435 28.93642,-25.28442 28.93649,-25.28461 28.93654,-25.28488 28.93665,-25.28571 28.93809,-25.28568 28.93948,-25.28555 28.94008,-25.2855 28.94064,-25.28544 28.94176,-25.28534 28.94226,-25.28501 28.94244,-25.28501 28.94254,-25.28501 28.94284,-25.285 28.94313,-25.28502 28.94325,-25.28522 28.94333,-25.28534 28.9436,-25.28579 28.94387,-25.28568 28.94417,-25.28561 28.94441,-25.2856 28.94458,-25.2855 28.94481,-25.28546 28.94501,-25.2855 28.94514,-25.28571 28.94524,-25.28599 28.94531,-25.2858 28.94535,-25.28571 28.9454,-25.28579 28.94547,-25.28601 28.94562,-25.28621 28.9458,-25.28629 28.94601,-25.28657 28.94619,-25.28676 28.94631,-25.28686 28.94649,-25.287 28.94664,-25.28719 28.94684,-25.28734 28.94693,-25.28763 28.94664,-25.28777 28.94666,-25.28794 28.94672,-25.28829 28.94679,-25.28861 28.94651,-25.28865 28.94639,-25.28858 28.94624,-25.28872 28.9458,-25.28887 28.94585,-25.28936 28.94576,-25.28944 28.94514,-25.28957 28.94495,-25.2898 28.94482,-25.28991 28.94472,-25.29001 28.94466,-25.29001 28.94465,-25.29004 28.94449,-25.29016 28.94461,-25.29051 28.945,-25.29027 28.94514,-25.29021 28.94536,-25.29008 28.94557,-25.29007 28.9457,-25.29015 28.9459,-25.29023 28.94601,-25.29034 28.94612,-25.29047 28.94619,-25.29062 28.94625,-25.2906 28.94633,-25.29058 28.94647,-25.29054 28.94667,-25.29049 28.94676,-25.29047 28.94687,-25.29041 28.94704,-25.29035 28.94747,-25.29025 28.94752,-25.29024 28.94776,-25.29023 28.9479,-25.29022 28.94813,-25.29021 28.9483,-25.29015 28.94843,-25.29012 28.94867,-25.29013 28.94887,-25.29012 28.949,-25.2901 28.9491,-25.29006 28.9492,-25.28996 28.94927,-25.28989 28.9494,-25.28986 28.94951,-25.2897 28.94948,-25.28961 28.94951,-25.28954 28.94957,-25.28942 28.94958,-25.28929 28.94963,-25.28922 28.94965,-25.28916 28.94965,-25.28911 28.94968,-25.28904 28.94973,-25.28896 28.94976,-25.28888 28.94977,-25.28883 28.94982,-25.28874 28.94988,-25.2888 28.94997,-25.28884 28.95012,-25.28884 28.95021,-25.28885 28.95031,-25.28887 28.95077,-25.28921 28.95084,-25.28937 28.95071,-25.2895 28.95081,-25.28948 28.95094,-25.28954 28.951,-25.28965 28.95106,-25.28971 28.95122,-25.28985 28.95129,-25.28996 28.95138,-25.29002 28.95148,-25.29 28.95161,-25.29005 28.95173,-25.29014 28.95185,-25.29015 28.95209,-25.29025 28.95201,-25.29037 28.95192,-25.29048 28.95215,-25.29044 28.95235,-25.29048 28.95244,-25.29053 28.95255,-25.29062 28.95256,-25.29066 28.95268,-25.29076 28.95302,-25.29107 28.95318,-25.29085 28.95329,-25.29076 28.9537,-25.29063 28.95463,-25.29028 28.95476,-25.29018 28.95503,-25.28999 28.95517,-25.28983 28.95487,-25.28966 28.95487,-25.28959 28.95504,-25.28938 28.9549,-25.28919 28.9549,-25.28913 28.95495,-25.28909 28.95495,-25.28897 28.95499,-25.28887 28.95502,-25.28866 28.95553,-25.28794 28.95635,-25.2867 28.95648,-25.28665 28.95657,-25.28678 28.95679,-25.2869 28.95692,-25.28694 28.957,-25.28698 28.95715,-25.28671 28.9573,-25.28659 28.95745,-25.28641 28.95773,-25.28603 28.95684,-25.28543 28.95708,-25.28506 28.95719,-25.28498 28.95724,-25.28486 28.9573,-25.28477 28.95736,-25.28467 28.95735,-25.28462 28.9574,-25.28458 28.95757,-25.28443 28.95773,-25.28423 28.95773,-25.28419 28.95778,-25.28416 28.95791,-25.28405 28.95796,-25.284 28.95803,-25.28395 28.95815,-25.28384 28.95824,-25.28376 28.95921,-25.28434 28.9593,-25.2843 28.95935,-25.28424 28.95943,-25.28428 28.95945,-25.28435 28.95942,-25.28443 28.95956,-25.28443 28.95979,-25.28449 28.96028,-25.28438 28.96042,-25.28443 28.96071,-25.28465 28.96089,-25.28435 28.96095,-25.28425 28.96121,-25.28378 28.96108,-25.28368 28.96114,-25.28362 28.96126,-25.28339 28.96147,-25.28348 28.96154,-25.28356 28.96166,-25.28365 28.96177,-25.28376 28.96181,-25.28384 28.96285,-25.28446 28.96294,-25.28455 28.96305,-25.28456 28.96456,-25.28544 28.96416,-25.28601 28.96428,-25.28611 28.96424,-25.28622 28.96411,-25.28632 28.9639,-25.28644 28.96364,-25.28675 28.96356,-25.28695 28.96326,-25.28764 28.96313,-25.28774 28.9627,-25.28844 28.96218,-25.2892 28.9618,-25.28995 28.96176,-25.29002 28.96164,-25.29044 28.9615,-25.29093 28.96156,-25.29123 28.96232,-25.29063 28.96284,-25.29028 28.9639,-25.29123 28.96456,-25.29158 28.96415,-25.2924 28.96356,-25.29329 28.96291,-25.29364 28.96232,-25.29495 28.96384,-25.29516 28.95938,-25.29907 28.95811,-25.30011 28.95602,-25.30183 28.95632,-25.30208 28.95643,-25.3022 28.95648,-25.30228 28.95659,-25.30234 28.9568,-25.30242 28.95704,-25.30252 28.95739,-25.30266 28.95776,-25.30277 28.95869,-25.30292 28.95964,-25.30321 28.95992,-25.30327 28.96141,-25.30416 28.96389,-25.30565 28.9645,-25.30602 28.96699,-25.30751 28.96765,-25.30801 28.96843,-25.30839 28.96821,-25.30898 28.96817,-25.31048 28.96756,-25.31146 28.96733,-25.31144 28.96692,-25.31214 28.96602,-25.31345 28.96548,-25.31375 28.96492,-25.31405 28.96474,-25.31422 28.9647,-25.31424 28.96411,-25.31463 28.96229,-25.3158 28.96162,-25.31624 28.96,-25.31729 28.95521,-25.32037 28.95463,-25.32074 28.95415,-25.32105 28.95461,-25.32186 28.95419,-25.32209 28.95439,-25.32264 28.95435,-25.32277 28.95427,-25.32281 28.95247,-25.3237 28.95258,-25.32388 28.95278,-25.32421 28.95276,-25.32421 28.95277,-25.32422 28.95246,-25.32436 28.94982,-25.32573 28.94944,-25.32614 28.94925,-25.32639 28.94925,-25.32685 28.94877,-25.32744 28.94875,-25.32796 28.94894,-25.32844 28.94916,-25.32902 28.9494,-25.32956 28.9498,-25.32991 28.94995,-25.33035 28.95012,-25.33092 28.95038,-25.33131 28.95005,-25.3318 28.94896,-25.33266 28.94851,-25.33297 28.94839,-25.33316 28.94815,-25.33348 28.94801,-25.33382 28.94802,-25.33437 28.94811,-25.33483 28.94814,-25.3351 28.94797,-25.33555 28.94825,-25.33586 28.95156,-25.3394 28.95156,-25.3394 28.95177,-25.33966 28.95259,-25.34087 28.95265,-25.34095 28.95331,-25.34191 28.9539,-25.34279 28.95439,-25.34353 28.95449,-25.34368 28.95484,-25.34419 28.95487,-25.34425 28.95504,-25.34449 28.95517,-25.3447 28.9553,-25.34498 28.95542,-25.34524 28.95548,-25.34543 28.95549,-25.34554 28.95547,-25.34558 28.95547,-25.34559 28.95546,-25.34563 28.95534,-25.34569 28.95527,-25.34574 28.9537,-25.34648 28.95389,-25.34679 28.95441,-25.34761 28.95471,-25.34813 28.95502,-25.34864 28.95493,-25.34865 28.95376,-25.34921 28.95466,-25.35076 28.95465,-25.35078 28.95465,-25.35078 28.95446,-25.35109 28.95419,-25.35115 28.95392,-25.35125 28.95384,-25.35162 28.95384,-25.35198 28.9538,-25.3523 28.9536,-25.35268 28.95355,-25.35312 28.95332,-25.35342 28.95316,-25.35343 28.95295,-25.35362 28.95291,-25.35376 28.9528,-25.35381 28.95261,-25.35391 28.95237,-25.35386 28.95164,-25.35357 28.95113,-25.35334 28.95105,-25.35328 28.95105,-25.35315 28.95124,-25.35294 28.95186,-25.35278 28.95195,-25.35252 28.95203,-25.35222 28.95217,-25.3521 28.95288,-25.34947 28.95286,-25.34934 28.9515,-25.34699 28.95122,-25.34656 28.9509,-25.3459 28.95017,-25.34625 28.95033,-25.34738 28.95041,-25.35114 28.95053,-25.35114 28.9505,-25.3512 28.95051,-25.35157 28.94904,-25.35243 28.94875,-25.35261 28.94721,-25.35265 28.94724,-25.35273 28.94658,-25.35273 28.94646,-25.35266 28.94577,-25.35268 28.94539,-25.35309 28.9451,-25.3535 28.94466,-25.35412 28.94428,-25.35468 28.94422,-25.35494 28.9439,-25.35538 28.94354,-25.35553 28.94358,-25.35634 28.94353,-25.35716 28.94423,-25.35734 28.94513,-25.35764 28.94667,-25.35836 28.94671,-25.35838 28.94676,-25.35842 28.94695,-25.35848 28.94722,-25.35862 28.94716,-25.35962 28.94684,-25.36071 28.94659,-25.3618 28.94659,-25.36256 28.94659,-25.36256 28.94652,-25.36363 28.94643,-25.36367 28.94601,-25.36365 28.94561,-25.36358 28.94537,-25.36396 28.94519,-25.36415 28.94484,-25.36441 28.94427,-25.36488 28.94394,-25.365 28.94394,-25.365 28.94393,-25.36501 28.94366,-25.36539 28.9432,-25.3658 28.94337,-25.36592 28.94365,-25.36596 28.94425,-25.36607 28.94498,-25.36647 28.94557,-25.3668 28.94559,-25.36685 28.94548,-25.36702 28.94522,-25.36732 28.94468,-25.36811 28.94241,-25.3665 28.94216,-25.36674 28.94167,-25.36718 28.9415,-25.36744 28.94132,-25.36752 28.94077,-25.36764 28.94055,-25.36831 28.93863,-25.37091 28.93829,-25.37152 28.93459,-25.36486 28.93392,-25.36365 28.93355,-25.36298 28.9312,-25.35876 28.93172,-25.35846 28.93188,-25.35845 28.93207,-25.35834 28.93233,-25.35828 28.93241,-25.35814 28.93255,-25.35806 28.93261,-25.35794 28.93286,-25.358 28.93333,-25.35802 28.93357,-25.35802 28.93374,-25.35809 28.93427,-25.3582 28.93438,-25.35824 28.93468,-25.35825 28.93524,-25.35832 28.93569,-25.35844 28.9359,-25.35853 28.93607,-25.35861 28.93617,-25.35804 28.93619,-25.35764 28.93613,-25.35741 28.93615,-25.35728 28.93654,-25.35662 28.93668,-25.35635 28.93684,-25.35611 28.93718,-25.3555 28.93729,-25.35532 28.93743,-25.35516 28.93763,-25.35499 28.93778,-25.35503 28.9381,-25.35519 28.93825,-25.35529 28.9384,-25.35533 28.93894,-25.35562 28.93904,-25.35558 28.93913,-25.35551 28.93939,-25.35511 28.93943,-25.35502 28.93948,-25.35492 28.93955,-25.35482 28.93962,-25.35473 28.93972,-25.35463 28.93984,-25.3545 28.93997,-25.35437 28.94006,-25.35429 28.94019,-25.35422 28.94031,-25.35415 28.94038,-25.35406 28.94049,-25.35396 28.94064,-25.35388 28.94076,-25.35382 28.94087,-25.35381 28.94098,-25.35371 28.94109,-25.35366 28.94126,-25.35351 28.94138,-25.35339 28.94151,-25.35334 28.94168,-25.35334 28.94182,-25.35344 28.94199,-25.35358 28.94209,-25.35359 28.94225,-25.35362 28.9424,-25.35368 28.94251,-25.35375 28.9426,-25.35385 28.94263,-25.35392 28.94277,-25.35411 28.94306,-25.35419 28.94313,-25.35422 28.9432,-25.35433 28.94328,-25.3544 28.94351,-25.35445 28.94346,-25.35271 28.94338,-25.34956 28.94327,-25.34508 28.94327,-25.34507 28.94321,-25.34237 28.93934,-25.34314 28.93851,-25.34243 28.93828,-25.34212 28.93925,-25.34132 28.93904,-25.34078 28.93934,-25.34065 28.94315,-25.3397 28.94313,-25.3387 28.94312,-25.33765 28.94312,-25.33762 28.94311,-25.33685 28.94306,-25.33296 28.94314,-25.3322 28.94312,-25.3322 28.94293,-25.33218 28.94133,-25.33172 28.9414,-25.33142 28.94057,-25.33118 28.94033,-25.33103 28.94022,-25.33095 28.93995,-25.33073 28.93948,-25.32993 28.93914,-25.32984 28.93896,-25.32985 28.93859,-25.32989 28.93831,-25.32986 28.93805,-25.32965 28.9379,-25.32917 28.93789,-25.32881 28.93788,-25.32857 28.9379,-25.32825 28.93791,-25.32797 28.93806,-25.32768 28.93806,-25.32731 28.93806,-25.32708 28.93812,-25.32685 28.93812,-25.32652 28.93804,-25.32632 28.93793,-25.32604 28.93786,-25.32565 28.93786,-25.32563 28.93778,-25.32531 28.93769,-25.32494 28.9377,-25.32454 28.93749,-25.32394 28.93842,-25.32362 28.93837,-25.32352 28.93776,-25.3222 28.93769,-25.32202 28.93757,-25.32171 28.93736,-25.3205 28.93707,-25.32032 28.93656,-25.32008 28.93628,-25.32006 28.93606,-25.32009 28.93502,-25.32026 28.93423,-25.32043 28.9336,-25.32058 28.93325,-25.32049 28.93297,-25.32067 28.93301,-25.32253 28.93313,-25.32366 28.93323,-25.32406 28.93344,-25.32461 28.93312,-25.32488 28.93289,-25.32529 28.93267,-25.32585 28.93247,-25.32608 28.93202,-25.32648 28.93222,-25.32881 28.92986,-25.32951 28.92972,-25.32932 28.92958,-25.32921 28.9294,-25.32924 28.929,-25.32802 28.92864,-25.32751 28.92749,-25.32512 28.92844,-25.32429 28.92818,-25.32421 28.92675,-25.322 28.92671,-25.32179 28.92614,-25.32222 28.92546,-25.32267 28.92525,-25.32276 28.92341,-25.32454 28.92355,-25.32477 28.92341,-25.32486 28.92321,-25.32494 28.92292,-25.32509 28.9225,-25.32531 28.92238,-25.32552 28.92208,-25.32576 28.92182,-25.32594 28.92145,-25.32613 28.92128,-25.32616 28.921,-25.32626 28.92017,-25.3267 28.91991,-25.32679 28.91974,-25.32691 28.91955,-25.32699 28.91948,-25.32701 28.91923,-25.32704 28.91886,-25.32717 28.91965,-25.32792 28.91857,-25.32892 28.91745,-25.32765 28.91691,-25.32714 28.92014,-25.32444 28.92091,-25.32153 28.91924,-25.32077 28.92014,-25.31916 28.92241,-25.32015 28.92245,-25.32037 28.92216,-25.32153 28.92148,-25.32258 28.92171,-25.32302 28.92375,-25.32143 28.92653,-25.31927 28.92766,-25.3185 28.93022,-25.31694 28.937,-25.31315 28.93837,-25.31239 28.93839,-25.31225 28.93844,-25.31211 28.93842,-25.31196 28.93845,-25.31182 28.93842,-25.31153 28.93845,-25.31147 28.93839,-25.31137 28.9383,-25.31113 28.93831,-25.31109 28.93729,-25.3102 28.93685,-25.3095 28.93683,-25.30949 28.93678,-25.30947 28.93673,-25.30944 28.93667,-25.3094 28.93662,-25.30934 28.93656,-25.30931 28.93654,-25.3093 28.93648,-25.30925 28.9364,-25.3092 28.93635,-25.30915 28.9363,-25.3091 28.93625,-25.30904 28.93618,-25.309 28.9361,-25.30893 28.93603,-25.30886 28.93595,-25.30877 28.9359,-25.30874 28.9356,-25.30873 28.93537,-25.30844 28.93383,-25.30654 28.93376,-25.30611 28.93409,-25.3059 28.93338,-25.30482 28.93231,-25.30279 28.932,-25.30208 28.93172,-25.30145 28.93115,-25.30166 28.93096,-25.2992 28.93091,-25.29921 28.93084,-25.29922 28.9308,-25.29923 28.9307,-25.29921 28.93069,-25.29886 28.93065,-25.29864 28.93065,-25.29848 28.93069,-25.29833 28.93076,-25.29824 28.93086,-25.29819 28.93105,-25.29819 28.93097,-25.29707 28.9307,-25.29358 28.93069,-25.29343 28.93056,-25.29085 28.93055,-25.29054 28.9305,-25.29022 28.93031,-25.28895 28.9303,-25.28887 28.93022,-25.28835 28.93013,-25.28759 28.92996,-25.28608 28.92986,-25.28485 28.92951,-25.28319 28.92991,-25.2831 28.93122,-25.28325 28.93174,-25.28459</coordinates></LinearRing></outerBoundaryIs></Polygon></MultiGeometry></Placemark></Document></kml>