<?xml version="1.0" encoding="UTF-8"?><kml xmlns="http://www.opengis.net/kml/2.2"><Document><Placemark><name>Pilgrim's Rest</name><description>Main Place 873006</description><ExtendedData><Data name="code"><value>873006</value></Data><Data name="name"><value>Pilgrim's Rest</value></Data><Data name="description"><value>Main Place 873006</value></Data></ExtendedData><MultiGeometry><Polygon><outerBoundaryIs><LinearRing><coordinates>30.776,-24.92299 30.77796,-24.92578 30.77004,-24.92393 30.74832,-24.91863 30.73995,-24.91659 30.73181,-24.91461 30.72988,-24.91432 30.72958,-24.91428 30.71855,-24.91267 30.72762,-24.89471 30.73405,-24.88196 30.74182,-24.86648 30.74206,-24.86633 30.74313,-24.86593 30.74685,-24.86457 30.7609,-24.85976 30.76178,-24.85946 30.79182,-24.84918 30.79094,-24.85035 30.78112,-24.86347 30.77954,-24.86572 30.77599,-24.87018 30.77441,-24.87224 30.77217,-24.87523 30.76208,-24.88867 30.76181,-24.88903 30.76115,-24.88991 30.75995,-24.89146 30.75961,-24.8919 30.75904,-24.89267 30.75832,-24.89361 30.75788,-24.8942 30.75776,-24.89436 30.75762,-24.89457 30.75728,-24.89497 30.75666,-24.89576 30.75657,-24.89587 30.75654,-24.89596 30.75653,-24.89606 30.75656,-24.89616 30.75658,-24.8962 30.75663,-24.89627 30.75664,-24.89629 30.75666,-24.89631 30.75667,-24.89632 30.75676,-24.89644 30.75687,-24.89657 30.75703,-24.89675 30.75709,-24.89687 30.75721,-24.89711 30.75737,-24.89735 30.75749,-24.89748 30.7576,-24.89761 30.75772,-24.89768 30.7579,-24.89782 30.75798,-24.89788 30.75804,-24.89804 30.75807,-24.89819 30.75816,-24.89832 30.75949,-24.90013 30.76318,-24.90526 30.76976,-24.91439 30.7752,-24.92188 30.776,-24.92299</coordinates></LinearRing></outerBoundaryIs></Polygon></MultiGeometry></Placemark></Document></kml>