<?xml version="1.0" encoding="UTF-8"?><kml xmlns="http://www.opengis.net/kml/2.2"><Document><Placemark><name>Mbombela</name><description>Local Municipality 874</description><ExtendedData><Data name="code"><value>874</value></Data><Data name="name"><value>Mbombela</value></Data><Data name="description"><value>Local Municipality 874</value></Data></ExtendedData><MultiGeometry><Polygon><outerBoundaryIs><LinearRing><coordinates>31.28359,-25.53187 31.28339,-25.53224 31.28323,-25.53253 31.28014,-25.53839 31.27994,-25.53872 31.27872,-25.5411 31.27738,-25.54996 31.2773,-25.55064 31.27585,-25.56024 31.29048,-25.56751 31.29293,-25.58275 31.28421,-25.59848 31.27963,-25.60647 31.28576,-25.60844 31.28662,-25.60863 31.28697,-25.60871 31.28696,-25.60875 31.28676,-25.60927 31.28659,-25.60971 31.28639,-25.60999 31.28624,-25.61027 31.28598,-25.61077 31.28573,-25.61108 31.28551,-25.61132 31.28523,-25.61161 31.28486,-25.61199 31.28465,-25.61216 31.2844,-25.61232 31.28401,-25.61254 31.28337,-25.6129 31.28303,-25.61304 31.28267,-25.61326 31.28236,-25.61347 31.28207,-25.61365 31.2817,-25.61384 31.28132,-25.61403 31.28108,-25.6141 31.2806,-25.61417 31.27974,-25.61411 31.27946,-25.61409 31.27911,-25.61403 31.2787,-25.61397 31.27823,-25.61396 31.27779,-25.61397 31.27712,-25.61399 31.27626,-25.614 31.27596,-25.61398 31.2755,-25.61395 31.27517,-25.61396 31.27483,-25.61395 31.27448,-25.61392 31.27426,-25.61389 31.27382,-25.61381 31.27355,-25.61366 31.27318,-25.61344 31.27285,-25.61314 31.27242,-25.61273 31.27197,-25.61223 31.27168,-25.61183 31.2712,-25.61133 31.27082,-25.61099 31.27058,-25.61074 31.27026,-25.61023 31.27004,-25.6098 31.26978,-25.60933 31.26937,-25.60881 31.26911,-25.60841 31.26883,-25.60797 31.26872,-25.60772 31.26864,-25.60738 31.26858,-25.60696 31.26854,-25.60655 31.26864,-25.60615 31.2687,-25.60585 31.26878,-25.6055 31.26876,-25.6052 31.26869,-25.60471 31.26852,-25.60427 31.26839,-25.60393 31.26818,-25.6036 31.26807,-25.60344 31.26797,-25.60336 31.26772,-25.60327 31.26728,-25.60315 31.26647,-25.60302 31.26559,-25.60294 31.26475,-25.60294 31.26425,-25.60297 31.26388,-25.60302 31.26358,-25.60305 31.26324,-25.60306 31.26255,-25.60307 31.26198,-25.60306 31.26139,-25.60303 31.26068,-25.60296 31.26032,-25.60291 31.26003,-25.60287 31.25925,-25.60287 31.25894,-25.60289 31.25852,-25.60291 31.25805,-25.60291 31.25755,-25.6029 31.25731,-25.60291 31.25719,-25.60292 31.25698,-25.60297 31.25678,-25.60307 31.25647,-25.60322 31.25613,-25.60335 31.25576,-25.60341 31.2554,-25.60339 31.25502,-25.60332 31.25452,-25.60316 31.25396,-25.60298 31.25359,-25.60284 31.25323,-25.60271 31.25283,-25.60247 31.25239,-25.60223 31.2521,-25.60209 31.25186,-25.60189 31.25161,-25.6017 31.25126,-25.6015 31.25097,-25.60126 31.25065,-25.60103 31.25041,-25.6009 31.25007,-25.60079 31.24967,-25.60071 31.24938,-25.60063 31.249,-25.60055 31.2486,-25.60054 31.24786,-25.60054 31.2471,-25.60065 31.24674,-25.60072 31.24631,-25.6009 31.24576,-25.60117 31.24519,-25.60143 31.24481,-25.60168 31.24454,-25.60184 31.24417,-25.60202 31.24379,-25.60216 31.24335,-25.60225 31.24287,-25.60234 31.24247,-25.60237 31.24214,-25.60237 31.24177,-25.60232 31.24114,-25.60224 31.24082,-25.60226 31.24024,-25.60229 31.23976,-25.60236 31.23932,-25.60248 31.23883,-25.60265 31.2387,-25.6027 31.23851,-25.60281 31.23831,-25.603 31.2381,-25.60316 31.23796,-25.60336 31.23787,-25.6036 31.23766,-25.60396 31.23756,-25.60417 31.23745,-25.60444 31.23739,-25.60465 31.23731,-25.60494 31.23723,-25.60524 31.23718,-25.60559 31.23718,-25.60599 31.23713,-25.60637 31.23714,-25.60669 31.23713,-25.60703 31.22436,-25.61278 31.20463,-25.62146 31.19423,-25.64384 31.18091,-25.65041 31.17303,-25.65595 31.16852,-25.64485 31.1591,-25.64641 31.14979,-25.64606 31.13788,-25.64563 31.12561,-25.64046 31.1255,-25.64041 31.12536,-25.64043 31.12334,-25.64073 31.11575,-25.63464 31.09787,-25.62925 31.08214,-25.62086 31.0787,-25.62021 31.07825,-25.62012 31.07302,-25.61912 31.06728,-25.61797 31.06088,-25.61669 31.04981,-25.61447 31.04809,-25.61412 31.03134,-25.61356 31.00394,-25.60467 30.99981,-25.60507 30.99455,-25.60559 30.99452,-25.60559 30.98716,-25.60476 30.97769,-25.60058 30.97451,-25.60273 30.97433,-25.60285 30.9743,-25.60284 30.97418,-25.60282 30.97396,-25.60275 30.97376,-25.60267 30.97362,-25.60255 30.97348,-25.60249 30.97322,-25.60233 30.97296,-25.60211 30.9728,-25.60203 30.9724,-25.6019 30.97199,-25.60176 30.97174,-25.60168 30.97161,-25.60163 30.97142,-25.60157 30.97127,-25.60148 30.97118,-25.6014 30.97107,-25.60134 30.97093,-25.60128 30.97075,-25.60124 30.97054,-25.60122 30.97032,-25.60118 30.97009,-25.60114 30.96993,-25.60111 30.96978,-25.60106 30.96962,-25.60093 30.96934,-25.60077 30.96925,-25.60073 30.96905,-25.60064 30.96891,-25.60056 30.96881,-25.60051 30.96862,-25.60042 30.96839,-25.60027 30.96817,-25.60012 30.968,-25.60006 30.96782,-25.59999 30.9676,-25.59993 30.96744,-25.59991 30.96689,-25.59996 30.96622,-25.60005 30.9658,-25.60009 30.9655,-25.60012 30.96497,-25.60017 30.96469,-25.60022 30.96454,-25.60023 30.96433,-25.60021 30.96419,-25.60016 30.96401,-25.60007 30.96385,-25.59991 30.96376,-25.59984 30.96365,-25.59977 30.96351,-25.59961 30.96343,-25.59951 30.96335,-25.59934 30.96326,-25.59912 30.96313,-25.59889 30.96306,-25.59877 30.963,-25.59864 30.9629,-25.5985 30.96269,-25.59833 30.96248,-25.59815 30.96217,-25.59793 30.96197,-25.59783 30.96176,-25.59778 30.96154,-25.59774 30.96126,-25.59775 30.96089,-25.59776 30.96077,-25.5978 30.9606,-25.59782 30.96012,-25.59778 30.95989,-25.59776 30.95967,-25.59775 30.95948,-25.59769 30.95941,-25.59768 30.95927,-25.59769 30.95917,-25.59776 30.95907,-25.5979 30.95899,-25.59808 30.95899,-25.59879 30.95902,-25.59918 30.95905,-25.59951 30.95903,-25.59986 30.95899,-25.60011 30.95896,-25.60037 30.95892,-25.60058 30.95886,-25.60072 30.9588,-25.60078 30.95867,-25.60083 30.95853,-25.60085 30.95827,-25.60089 30.95818,-25.60093 30.95809,-25.601 30.95799,-25.60109 30.95784,-25.60112 30.95752,-25.60116 30.95723,-25.60117 30.95685,-25.60121 30.95618,-25.60126 30.95584,-25.60129 30.95555,-25.60132 30.9552,-25.60133 30.95499,-25.60133 30.95463,-25.60135 30.95437,-25.6013 30.9542,-25.60126 30.95404,-25.6012 30.95389,-25.60112 30.9538,-25.601 30.9537,-25.60085 30.9536,-25.60074 30.95354,-25.60063 30.95353,-25.60028 30.95354,-25.59993 30.95354,-25.59976 30.95352,-25.59964 30.95345,-25.59954 30.95332,-25.59938 30.95321,-25.59929 30.95292,-25.59917 30.95253,-25.59905 30.95221,-25.59897 30.95194,-25.5989 30.95174,-25.59886 30.95149,-25.59885 30.95117,-25.59889 30.95082,-25.59897 30.95038,-25.59913 30.94959,-25.5994 30.94931,-25.59944 30.94892,-25.59947 30.94861,-25.59944 30.94827,-25.59939 30.94808,-25.59931 30.94795,-25.59925 30.94782,-25.59913 30.94771,-25.59903 30.94767,-25.59897 30.94762,-25.5989 30.94758,-25.59881 30.94758,-25.59833 30.94763,-25.59785 30.94768,-25.59766 30.94778,-25.59739 30.94788,-25.59701 30.94804,-25.5966 30.94818,-25.59641 30.94845,-25.59607 30.94857,-25.59594 30.94869,-25.59572 30.94878,-25.59551 30.94888,-25.59537 30.94893,-25.59524 30.94892,-25.59514 30.94889,-25.59501 30.94876,-25.59482 30.94861,-25.59465 30.94832,-25.59449 30.94822,-25.59445 30.9481,-25.59438 30.9479,-25.59427 30.94762,-25.59414 30.94742,-25.59402 30.94722,-25.59395 30.94703,-25.59389 30.9468,-25.59381 30.94669,-25.59375 30.94634,-25.59359 30.94621,-25.59352 30.94602,-25.59348 30.94586,-25.59344 30.94559,-25.59339 30.94549,-25.59333 30.94539,-25.5933 30.94515,-25.59329 30.94476,-25.59327 30.94449,-25.59328 30.94438,-25.59332 30.94416,-25.59346 30.94402,-25.59354 30.9439,-25.59358 30.94378,-25.5936 30.94356,-25.59369 30.94336,-25.59379 30.94317,-25.59388 30.94294,-25.59403 30.94271,-25.59417 30.94243,-25.59423 30.94227,-25.59426 30.942,-25.59433 30.94161,-25.59447 30.94127,-25.59461 30.94114,-25.59465 30.9405,-25.59465 30.94045,-25.59463 30.9403,-25.59456 30.94022,-25.59449 30.94017,-25.59439 30.94012,-25.59419 30.94014,-25.59401 30.94028,-25.59374 30.94033,-25.59355 30.9404,-25.59326 30.94041,-25.59276 30.94037,-25.59239 30.94032,-25.59228 30.94018,-25.5921 30.93997,-25.59184 30.93977,-25.59165 30.93957,-25.5915 30.93932,-25.59139 30.93917,-25.59128 30.93905,-25.5912 30.93897,-25.59107 30.93891,-25.59097 30.93882,-25.59088 30.93868,-25.59078 30.93853,-25.59067 30.93825,-25.59047 30.93789,-25.59018 30.93781,-25.59008 30.93775,-25.58996 30.93768,-25.58983 30.93761,-25.58972 30.93749,-25.58963 30.93734,-25.58952 30.93717,-25.58945 30.937,-25.58941 30.93668,-25.58937 30.93637,-25.58939 30.93622,-25.58943 30.93594,-25.58955 30.93571,-25.58967 30.93546,-25.58974 30.93505,-25.58982 30.93472,-25.58987 30.93432,-25.58994 30.9341,-25.58996 30.93378,-25.58996 30.93364,-25.58993 30.93331,-25.58972 30.93307,-25.58952 30.93299,-25.58943 30.93293,-25.58924 30.93294,-25.58895 30.93296,-25.58812 30.93297,-25.58759 30.93296,-25.58726 30.93292,-25.58693 30.93281,-25.58653 30.93275,-25.58642 30.9327,-25.58623 30.93265,-25.58609 30.93261,-25.58562 30.93259,-25.58524 30.93256,-25.58509 30.93247,-25.58485 30.93238,-25.5846 30.93231,-25.58416 30.93218,-25.58377 30.93209,-25.58352 30.93198,-25.58326 30.93184,-25.58304 30.93167,-25.5829 30.93148,-25.58282 30.93137,-25.58275 30.93122,-25.58266 30.93108,-25.58255 30.93099,-25.58246 30.9309,-25.58241 30.93078,-25.58238 30.9306,-25.58239 30.93037,-25.58241 30.93017,-25.58245 30.93002,-25.58249 30.92985,-25.58257 30.9297,-25.5827 30.9295,-25.5828 30.92928,-25.58296 30.92906,-25.58314 30.9288,-25.5834 30.92846,-25.58369 30.92794,-25.58426 30.92773,-25.5845 30.92735,-25.58493 30.92714,-25.58518 30.92699,-25.58538 30.92689,-25.58553 30.92672,-25.58574 30.92657,-25.58584 30.92635,-25.58593 30.92621,-25.58595 30.92606,-25.58595 30.92588,-25.58593 30.92575,-25.58588 30.92556,-25.58579 30.92543,-25.58569 30.92533,-25.58558 30.92525,-25.58545 30.92516,-25.58526 30.92514,-25.5851 30.92519,-25.5846 30.92521,-25.58435 30.92519,-25.58391 30.92514,-25.58362 30.92512,-25.58338 30.92512,-25.5831 30.92514,-25.58268 30.92513,-25.58246 30.92512,-25.58236 30.92503,-25.58227 30.92493,-25.58216 30.92481,-25.58201 30.92472,-25.58185 30.92465,-25.5816 30.9246,-25.5814 30.92457,-25.58095 30.92455,-25.58052 30.92455,-25.58023 30.92459,-25.57989 30.92465,-25.57937 30.92473,-25.57897 30.92478,-25.57882 30.92495,-25.57858 30.92509,-25.57839 30.92513,-25.57822 30.92515,-25.57806 30.92513,-25.57794 30.92503,-25.57778 30.9248,-25.57765 30.92439,-25.57747 30.92407,-25.57736 30.92396,-25.57732 30.92381,-25.57728 30.92357,-25.57722 30.92332,-25.57713 30.92313,-25.57704 30.92288,-25.57696 30.92254,-25.5768 30.92237,-25.5767 30.92221,-25.57663 30.92205,-25.57657 30.92179,-25.5765 30.92156,-25.57642 30.92136,-25.57638 30.92109,-25.57633 30.92089,-25.57627 30.92066,-25.57617 30.9205,-25.57608 30.92033,-25.57598 30.92007,-25.57589 30.91988,-25.57585 30.91966,-25.57586 30.91938,-25.57588 30.91914,-25.57593 30.9187,-25.5761 30.91866,-25.57613 30.90843,-25.55889 30.90839,-25.55889 30.90268,-25.55847 30.89667,-25.55803 30.89167,-25.55767 30.88819,-25.55741 30.87503,-25.55447 30.87218,-25.55383 30.86006,-25.55113 30.85662,-25.55925 30.8566,-25.55929 30.83545,-25.55887 30.831,-25.56308 30.82064,-25.57289 30.80748,-25.59291 30.8069,-25.59379 30.80558,-25.5958 30.80537,-25.59611 30.80208,-25.59703 30.80008,-25.59754 30.79717,-25.59835 30.79416,-25.59919 30.79115,-25.60001 30.78822,-25.60081 30.78723,-25.60108 30.7872,-25.60107 30.78713,-25.60104 30.78545,-25.59959 30.78292,-25.59749 30.78036,-25.59534 30.77893,-25.5941 30.77885,-25.59403 30.77158,-25.61041 30.76057,-25.63429 30.75,-25.63893 30.74984,-25.63956 30.74832,-25.64544 30.74761,-25.64819 30.74285,-25.67788 30.73699,-25.71431 30.73265,-25.74135 30.70473,-25.73196 30.64663,-25.71242 30.65349,-25.69817 30.6575,-25.68984 30.66562,-25.67298 30.6406,-25.66529 30.63791,-25.66447 30.60807,-25.65529 30.61221,-25.64608 30.61519,-25.63945 30.62566,-25.63726 30.63261,-25.62974 30.62821,-25.62215 30.62132,-25.61023 30.61276,-25.59541 30.6122,-25.59445 30.61206,-25.59421 30.61187,-25.59388 30.6117,-25.59359 30.61075,-25.59193 30.60433,-25.5777 30.59691,-25.56123 30.59371,-25.55413 30.59182,-25.55349 30.58624,-25.5516 30.58607,-25.55168 30.57584,-25.55616 30.57486,-25.55659 30.5739,-25.55701 30.56884,-25.5559 30.56723,-25.55554 30.56035,-25.55524 30.55233,-25.55488 30.54677,-25.55464 30.54077,-25.55437 30.53648,-25.54252 30.53412,-25.536 30.53496,-25.53452 30.5422,-25.52166 30.54963,-25.50848 30.55411,-25.50052 30.55608,-25.49757 30.56535,-25.48124 30.56226,-25.47796 30.55719,-25.47812 30.5501,-25.46929 30.54376,-25.46783 30.53087,-25.4664 30.51053,-25.4758 30.50357,-25.45877 30.50047,-25.45114 30.48071,-25.46177 30.48011,-25.45239 30.47656,-25.44516 30.47223,-25.43624 30.45961,-25.41076 30.45694,-25.41058 30.45249,-25.41032 30.44564,-25.38975 30.4434,-25.38287 30.44243,-25.38082 30.44254,-25.38031 30.44338,-25.37506 30.44354,-25.37425 30.44496,-25.36689 30.44701,-25.35654 30.44924,-25.34496 30.4712,-25.34734 30.48499,-25.34887 30.48523,-25.34887 30.4939,-25.34899 30.49922,-25.34918 30.50325,-25.34933 30.50711,-25.3494 30.51233,-25.34943 30.51495,-25.3494 30.52059,-25.34946 30.52928,-25.34956 30.53197,-25.34959 30.53934,-25.33296 30.5441,-25.32243 30.54826,-25.31311 30.57403,-25.31863 30.57686,-25.31926 30.58196,-25.32031 30.58894,-25.32185 30.59379,-25.3164 30.59383,-25.31637 30.59532,-25.31514 30.60595,-25.30671 30.60805,-25.30502 30.62989,-25.285 30.63442,-25.29018 30.63569,-25.29163 30.64496,-25.3021 30.65338,-25.31159 30.6544,-25.3125 30.67159,-25.32688 30.68175,-25.33739 30.69856,-25.3574 30.69515,-25.36142 30.69718,-25.36702 30.69894,-25.36504 30.70344,-25.36672 30.70324,-25.36154 30.71213,-25.36458 30.71287,-25.36382 30.71535,-25.36498 30.72113,-25.36753 30.73366,-25.3732 30.73862,-25.37545 30.7457,-25.37674 30.75265,-25.37313 30.75723,-25.37074 30.76087,-25.36885 30.76157,-25.36849 30.76241,-25.36805 30.76656,-25.36589 30.77875,-25.35952 30.79068,-25.35331 30.80838,-25.36565 30.80918,-25.3662 30.81548,-25.3706 30.82183,-25.37459 30.82817,-25.37945 30.8297,-25.38052 30.83425,-25.38368 30.83473,-25.38402 30.83557,-25.3846 30.8449,-25.39108 30.84531,-25.39136 30.8644,-25.40467 30.87108,-25.40932 30.87741,-25.41372 30.88082,-25.41091 30.88859,-25.40442 30.89012,-25.40314 30.89125,-25.4022 30.89372,-25.40016 30.89726,-25.39721 30.88181,-25.38371 30.8894,-25.38095 30.88982,-25.3808 30.92118,-25.36943 30.93477,-25.36449 30.94566,-25.35766 30.94475,-25.35693 30.93898,-25.35219 30.9311,-25.34572 30.92641,-25.34187 30.92214,-25.3384 30.91299,-25.3309 30.90391,-25.32349 30.90094,-25.32104 30.91681,-25.31469 30.92685,-25.31067 30.93472,-25.30753 30.93922,-25.30573 30.94177,-25.30473 30.94208,-25.30461 30.94769,-25.30236 30.94908,-25.30179 30.95122,-25.30094 30.95136,-25.30088 30.95537,-25.29928 30.95598,-25.29903 30.95847,-25.29804 30.96263,-25.29638 30.96574,-25.29513 30.97816,-25.29015 30.95407,-25.25579 30.94364,-25.2395 30.94272,-25.2379 30.9384,-25.23114 30.93309,-25.22263 30.93023,-25.21809 30.92716,-25.21582 30.91722,-25.20831 30.92817,-25.18699 30.92923,-25.18497 30.93834,-25.1674 30.93834,-25.16597 30.93895,-25.15673 30.93935,-25.1512 30.93981,-25.14574 30.94025,-25.14016 30.94072,-25.13459 30.94087,-25.1325 30.9411,-25.12933 30.94112,-25.12889 30.94146,-25.12904 30.95059,-25.1331 30.95169,-25.13235 30.95523,-25.12996 30.96726,-25.12182 30.9673,-25.12179 30.96788,-25.12167 30.96786,-25.12156 30.96781,-25.12142 30.96769,-25.12122 30.96758,-25.12104 30.96748,-25.12083 30.96741,-25.1207 30.96733,-25.12059 30.9672,-25.12041 30.96711,-25.12029 30.96704,-25.12018 30.96689,-25.12001 30.9668,-25.11986 30.96666,-25.11969 30.96656,-25.11952 30.96649,-25.11937 30.96645,-25.11924 30.96644,-25.1191 30.96644,-25.11895 30.96645,-25.11875 30.9665,-25.11857 30.96657,-25.11846 30.96664,-25.11833 30.9667,-25.11818 30.96674,-25.11804 30.96677,-25.11792 30.96674,-25.11781 30.96669,-25.11773 30.96659,-25.11762 30.96648,-25.11752 30.96643,-25.11744 30.96641,-25.11726 30.96644,-25.11709 30.96646,-25.11696 30.96651,-25.11682 30.96653,-25.11661 30.96652,-25.11609 30.9665,-25.11557 30.96651,-25.11542 30.96652,-25.11528 30.96659,-25.11517 30.9667,-25.11499 30.96678,-25.11482 30.96684,-25.11456 30.96684,-25.11443 30.96685,-25.11423 30.96684,-25.11418 30.96683,-25.11411 30.96678,-25.11405 30.9667,-25.11401 30.96663,-25.11396 30.96654,-25.11395 30.96643,-25.11391 30.96639,-25.11384 30.96638,-25.11375 30.96637,-25.11365 30.96639,-25.11353 30.96646,-25.11338 30.96655,-25.11327 30.96675,-25.11304 30.96688,-25.11286 30.96693,-25.11281 30.96697,-25.11272 30.96699,-25.1126 30.96701,-25.11247 30.96702,-25.11238 30.96705,-25.11233 30.96712,-25.11225 30.96718,-25.1122 30.96728,-25.11216 30.96741,-25.11212 30.96746,-25.11205 30.96748,-25.11194 30.96746,-25.11187 30.96742,-25.11177 30.96737,-25.11164 30.96737,-25.11149 30.96741,-25.11134 30.96753,-25.11118 30.96779,-25.11092 30.96796,-25.11076 30.96834,-25.1105 30.96883,-25.11023 30.96894,-25.11018 30.96902,-25.11011 30.96914,-25.10987 30.9692,-25.10977 30.96922,-25.10964 30.96919,-25.10939 30.96918,-25.10895 30.96919,-25.10867 30.96922,-25.10855 30.96927,-25.10842 30.96943,-25.1079 30.96947,-25.10774 30.96951,-25.10754 30.96953,-25.10729 30.96956,-25.10707 30.96959,-25.10696 30.96965,-25.10683 30.96988,-25.10649 30.97005,-25.10628 30.97018,-25.10613 30.97031,-25.10596 30.97067,-25.10548 30.97076,-25.1054 30.97094,-25.10529 30.97111,-25.10521 30.97132,-25.10503 30.97147,-25.1049 30.97154,-25.1048 30.97156,-25.10471 30.97156,-25.1046 30.97154,-25.10451 30.97147,-25.10434 30.97141,-25.10422 30.97132,-25.10415 30.97121,-25.10407 30.97112,-25.10398 30.97101,-25.10383 30.97093,-25.10373 30.97083,-25.10359 30.97076,-25.10344 30.97073,-25.10326 30.97073,-25.10297 30.97075,-25.10288 30.97078,-25.10276 30.97084,-25.1027 30.97092,-25.10261 30.97099,-25.10251 30.97106,-25.10243 30.97116,-25.10238 30.97123,-25.10236 30.97135,-25.10236 30.97146,-25.10238 30.97174,-25.10252 30.97185,-25.10253 30.97197,-25.10249 30.97206,-25.10247 30.97214,-25.10242 30.97222,-25.10235 30.97225,-25.10228 30.97225,-25.1021 30.97223,-25.10199 30.97218,-25.10182 30.97207,-25.1016 30.97187,-25.10125 30.9718,-25.10112 30.97171,-25.10097 30.97163,-25.10086 30.97156,-25.10076 30.97148,-25.10058 30.97146,-25.10046 30.97145,-25.10035 30.97148,-25.1002 30.97162,-25.09975 30.97175,-25.09935 30.97178,-25.09913 30.97186,-25.09864 30.97192,-25.09843 30.97197,-25.09826 30.97205,-25.0981 30.97222,-25.09785 30.97229,-25.09769 30.97233,-25.09757 30.97235,-25.0974 30.97233,-25.09723 30.97228,-25.09707 30.97215,-25.09683 30.97206,-25.09669 30.97198,-25.09647 30.97196,-25.09631 30.97197,-25.09611 30.97201,-25.0959 30.97204,-25.09582 30.97217,-25.09554 30.97229,-25.09537 30.97246,-25.09519 30.97251,-25.09514 30.97255,-25.09507 30.97261,-25.09485 30.97272,-25.09419 30.97292,-25.09313 30.97297,-25.09286 30.97303,-25.09256 30.97311,-25.09238 30.9732,-25.09214 30.97332,-25.09169 30.97338,-25.09144 30.97343,-25.09124 30.97345,-25.09105 30.97345,-25.0907 30.97339,-25.09052 30.97325,-25.09028 30.97316,-25.0902 30.97311,-25.09012 30.97308,-25.09001 30.97306,-25.08987 30.97306,-25.08978 30.97309,-25.08974 30.97316,-25.08967 30.97329,-25.08962 30.97342,-25.08958 30.9737,-25.08959 30.97408,-25.08956 30.97419,-25.08951 30.97436,-25.08939 30.97448,-25.08928 30.9746,-25.08907 30.97476,-25.08866 30.97482,-25.08841 30.97482,-25.08792 30.97474,-25.08734 30.97469,-25.08716 30.97466,-25.08702 30.97464,-25.08682 30.97461,-25.08659 30.97459,-25.08639 30.97457,-25.08614 30.97458,-25.08596 30.97461,-25.08588 30.97465,-25.08576 30.97471,-25.08565 30.97481,-25.08551 30.9749,-25.08538 30.97499,-25.08531 30.97514,-25.08525 30.97524,-25.0852 30.9753,-25.08514 30.97538,-25.08501 30.97545,-25.08485 30.97548,-25.08468 30.97554,-25.08436 30.97556,-25.0841 30.97557,-25.0839 30.97559,-25.08374 30.97559,-25.08352 30.97563,-25.08338 30.97568,-25.08324 30.97576,-25.08306 30.97582,-25.08289 30.9759,-25.08269 30.97593,-25.08257 30.97598,-25.08229 30.976,-25.08201 30.97602,-25.08169 30.9761,-25.08105 30.97613,-25.08068 30.97616,-25.08051 30.97618,-25.08036 30.9762,-25.08009 30.9762,-25.07962 30.97621,-25.07946 30.97625,-25.07922 30.97628,-25.07913 30.97631,-25.07908 30.97634,-25.07896 30.97637,-25.07867 30.97641,-25.07852 30.9765,-25.07826 30.97657,-25.07793 30.97662,-25.07775 30.97669,-25.07764 30.97679,-25.07744 30.97686,-25.07725 30.97693,-25.07714 30.97698,-25.07707 30.97709,-25.07699 30.97715,-25.07689 30.97721,-25.07677 30.97724,-25.07673 30.97732,-25.07662 30.97746,-25.07648 30.97752,-25.07643 30.97758,-25.07636 30.97765,-25.0763 30.97774,-25.07616 30.9778,-25.07606 30.97784,-25.07597 30.97788,-25.07592 30.97792,-25.07579 30.97793,-25.07563 30.97795,-25.07548 30.97798,-25.07537 30.978,-25.07531 30.97807,-25.07521 30.97812,-25.07515 30.97817,-25.07512 30.97823,-25.0751 30.97839,-25.0751 30.97844,-25.07511 30.97848,-25.07516 30.97852,-25.07522 30.97853,-25.0753 30.97853,-25.07564 30.97858,-25.07572 30.97863,-25.07577 30.9787,-25.07583 30.97882,-25.07584 30.97894,-25.07584 30.9791,-25.07586 30.97926,-25.07582 30.97955,-25.07576 30.97968,-25.07572 30.98006,-25.07558 30.98021,-25.07551 30.98037,-25.07547 30.98054,-25.0754 30.98068,-25.07535 30.98085,-25.07526 30.98099,-25.0752 30.98114,-25.07513 30.98128,-25.07507 30.98141,-25.07501 30.98156,-25.07494 30.98173,-25.07485 30.98185,-25.07479 30.98194,-25.07472 30.98205,-25.07463 30.98217,-25.07447 30.98225,-25.07434 30.98231,-25.07426 30.98239,-25.07414 30.98243,-25.074 30.98246,-25.07384 30.98249,-25.07359 30.98249,-25.07327 30.98248,-25.07317 30.98244,-25.07309 30.98238,-25.07303 30.98228,-25.07298 30.98207,-25.07287 30.98194,-25.07283 30.98179,-25.07282 30.98162,-25.07283 30.98118,-25.07296 30.98102,-25.07301 30.98094,-25.07302 30.98088,-25.07302 30.9808,-25.073 30.98073,-25.07296 30.98066,-25.07289 30.9806,-25.07284 30.98046,-25.07265 30.98038,-25.07257 30.98034,-25.07246 30.98027,-25.07233 30.98021,-25.0722 30.98011,-25.07203 30.98001,-25.07188 30.97994,-25.07177 30.97984,-25.07168 30.97965,-25.07159 30.97944,-25.0715 30.97932,-25.07142 30.97928,-25.07136 30.97923,-25.07122 30.97914,-25.07109 30.97911,-25.07097 30.97911,-25.07081 30.97916,-25.07043 30.97919,-25.07029 30.97924,-25.07007 30.97929,-25.06981 30.97934,-25.06942 30.97934,-25.06932 30.97936,-25.06923 30.9794,-25.06917 30.97955,-25.0691 30.97966,-25.06904 30.97982,-25.06898 30.97995,-25.06888 30.98006,-25.06878 30.98014,-25.06867 30.98022,-25.0685 30.98034,-25.06826 30.9804,-25.06806 30.98043,-25.06791 30.9805,-25.06758 30.98055,-25.06744 30.98059,-25.06733 30.98065,-25.06724 30.98072,-25.06704 30.98077,-25.06681 30.98089,-25.06631 30.98094,-25.06622 30.98105,-25.06606 30.98113,-25.06588 30.98121,-25.06565 30.98127,-25.0655 30.98131,-25.06542 30.98138,-25.06533 30.98147,-25.06516 30.98154,-25.06504 30.98158,-25.06494 30.9816,-25.06487 30.98163,-25.06472 30.98165,-25.06454 30.98165,-25.06439 30.98163,-25.06424 30.98161,-25.06413 30.98154,-25.06396 30.98147,-25.0638 30.98144,-25.06365 30.98138,-25.06347 30.98134,-25.06336 30.98126,-25.06317 30.98121,-25.06305 30.98117,-25.06296 30.98112,-25.06281 30.9811,-25.06269 30.98112,-25.06259 30.98115,-25.06248 30.98122,-25.06231 30.98128,-25.06218 30.98134,-25.06209 30.9814,-25.06199 30.98142,-25.06189 30.98142,-25.06177 30.98139,-25.06169 30.98134,-25.06161 30.98127,-25.06153 30.98124,-25.06146 30.98122,-25.06135 30.98122,-25.06125 30.98123,-25.06117 30.98125,-25.06111 30.98131,-25.06106 30.98138,-25.06101 30.98147,-25.06095 30.98159,-25.0609 30.98166,-25.06086 30.98171,-25.06085 30.98185,-25.06085 30.98191,-25.06086 30.98204,-25.06092 30.98219,-25.06099 30.98234,-25.06105 30.9825,-25.06113 30.98261,-25.06119 30.98276,-25.06127 30.98287,-25.06136 30.98303,-25.06145 30.98324,-25.06156 30.98415,-25.0621 30.98434,-25.0622 30.98454,-25.06227 30.98473,-25.0623 30.98491,-25.06233 30.9851,-25.06234 30.98531,-25.06235 30.98553,-25.06237 30.98578,-25.06237 30.98605,-25.06238 30.98623,-25.06239 30.98639,-25.06241 30.98656,-25.06243 30.98673,-25.06244 30.98737,-25.0626 30.98758,-25.06266 30.98775,-25.0627 30.98801,-25.06275 30.98877,-25.06296 30.9892,-25.06305 30.98936,-25.06309 30.98958,-25.06311 30.98967,-25.06311 30.98983,-25.06306 30.98994,-25.06303 30.99002,-25.06299 30.99015,-25.06292 30.99026,-25.06284 30.99037,-25.06274 30.99044,-25.06267 30.9905,-25.06255 30.99056,-25.0624 30.99063,-25.06229 30.99068,-25.06218 30.99075,-25.06209 30.99082,-25.06199 30.99092,-25.06181 30.99104,-25.06156 30.99115,-25.06135 30.9912,-25.06119 30.99122,-25.0611 30.99121,-25.06092 30.99118,-25.06085 30.99115,-25.06081 30.99107,-25.06077 30.99096,-25.06073 30.99084,-25.06072 30.99071,-25.06069 30.99062,-25.06066 30.99056,-25.06061 30.99053,-25.0605 30.99053,-25.06039 30.99055,-25.06034 30.99062,-25.06028 30.99069,-25.06025 30.99077,-25.06021 30.99089,-25.06014 30.99102,-25.06004 30.99113,-25.05998 30.99121,-25.0599 30.99127,-25.05976 30.99135,-25.05961 30.99141,-25.05954 30.99146,-25.05951 30.99151,-25.0595 30.99166,-25.05936 30.9918,-25.05925 30.99213,-25.05905 30.99233,-25.05892 30.99252,-25.0588 30.99277,-25.0587 30.99297,-25.05864 30.99314,-25.05862 30.99336,-25.05861 30.99354,-25.05861 30.99394,-25.05855 30.99417,-25.05848 30.99442,-25.0584 30.99463,-25.05828 30.99476,-25.05819 30.99485,-25.05809 30.99489,-25.05802 30.99497,-25.05791 30.99513,-25.05775 30.99526,-25.05763 30.99546,-25.05748 30.99576,-25.05727 30.996,-25.05716 30.99621,-25.05704 30.99647,-25.05694 30.9967,-25.05686 30.99688,-25.0568 30.9971,-25.05673 30.99729,-25.05664 30.99758,-25.05653 30.99849,-25.05627 30.99868,-25.05621 30.99943,-25.05593 30.9998,-25.05577 31,-25.05565 31.00018,-25.05548 31.00033,-25.05533 31.00047,-25.05516 31.00056,-25.05503 31.00063,-25.05494 31.00066,-25.05489 31.00073,-25.05473 31.00085,-25.05454 31.00098,-25.05438 31.00107,-25.0543 31.00114,-25.05421 31.00123,-25.05411 31.00155,-25.05366 31.00167,-25.05352 31.00186,-25.05329 31.00202,-25.0531 31.00217,-25.05289 31.00225,-25.0528 31.00246,-25.0525 31.00259,-25.05231 31.00272,-25.05215 31.00293,-25.05189 31.00304,-25.05173 31.00314,-25.05164 31.00333,-25.05145 31.00359,-25.05121 31.00374,-25.05105 31.00393,-25.05089 31.0041,-25.05077 31.00428,-25.05063 31.00448,-25.05049 31.00459,-25.05039 31.00482,-25.05023 31.00496,-25.05008 31.00506,-25.04995 31.00519,-25.04979 31.00538,-25.0496 31.00554,-25.04942 31.00571,-25.04929 31.00582,-25.04921 31.00597,-25.04913 31.00636,-25.04889 31.00657,-25.04874 31.00666,-25.04865 31.00686,-25.04835 31.00689,-25.04823 31.00694,-25.04813 31.00696,-25.04799 31.00697,-25.04786 31.00699,-25.04758 31.00699,-25.04741 31.00701,-25.047 31.00706,-25.04685 31.00711,-25.04675 31.00721,-25.04667 31.00734,-25.0466 31.00753,-25.04653 31.00778,-25.04643 31.00795,-25.04635 31.00823,-25.04625 31.00836,-25.04621 31.00851,-25.04616 31.00878,-25.04611 31.00908,-25.04607 31.00938,-25.04606 31.00977,-25.04604 31.00995,-25.04601 31.01014,-25.04596 31.01044,-25.04587 31.01066,-25.04579 31.01093,-25.04567 31.01108,-25.0456 31.0113,-25.04549 31.01151,-25.04537 31.01183,-25.04516 31.012,-25.04505 31.01225,-25.04492 31.01235,-25.04487 31.01247,-25.04482 31.01261,-25.04477 31.01273,-25.04473 31.01291,-25.0447 31.01323,-25.04463 31.0134,-25.04459 31.01358,-25.04451 31.01367,-25.04444 31.01383,-25.04431 31.01396,-25.0442 31.01407,-25.0441 31.0142,-25.04402 31.01433,-25.0439 31.01441,-25.04381 31.01455,-25.04369 31.01474,-25.04353 31.01507,-25.04336 31.01526,-25.04328 31.01554,-25.04321 31.01601,-25.04313 31.01623,-25.0431 31.01637,-25.04306 31.01648,-25.04302 31.0168,-25.04291 31.01731,-25.04275 31.01788,-25.04258 31.01815,-25.04251 31.01838,-25.04247 31.01857,-25.04246 31.01897,-25.04249 31.01925,-25.04252 31.01945,-25.04254 31.02045,-25.04253 31.02076,-25.04246 31.0209,-25.04239 31.02116,-25.04223 31.02123,-25.04215 31.02133,-25.04199 31.02138,-25.04188 31.02144,-25.04173 31.02154,-25.04151 31.02172,-25.04104 31.02179,-25.04077 31.0219,-25.04034 31.02199,-25.03985 31.02204,-25.03954 31.02202,-25.03933 31.022,-25.03916 31.0219,-25.03892 31.02184,-25.03879 31.02178,-25.03863 31.02167,-25.0384 31.02156,-25.03816 31.02148,-25.03806 31.02139,-25.03792 31.02124,-25.03771 31.02107,-25.03751 31.0209,-25.03734 31.02076,-25.03719 31.02053,-25.03704 31.02022,-25.03688 31.01966,-25.03655 31.0194,-25.03641 31.01924,-25.03628 31.01906,-25.03614 31.01893,-25.03598 31.01888,-25.03583 31.01885,-25.03571 31.01887,-25.03546 31.01889,-25.03528 31.01894,-25.03516 31.019,-25.035 31.01908,-25.03489 31.01917,-25.03479 31.01938,-25.03458 31.01958,-25.03442 31.01971,-25.03432 31.01985,-25.0342 31.02003,-25.03407 31.02036,-25.03386 31.02051,-25.03376 31.02066,-25.03365 31.02083,-25.03354 31.02102,-25.03342 31.0212,-25.03332 31.02136,-25.03324 31.02178,-25.03302 31.02193,-25.03292 31.02225,-25.03266 31.02245,-25.03251 31.02267,-25.03237 31.02302,-25.03212 31.0232,-25.03197 31.02338,-25.03183 31.02367,-25.03163 31.02388,-25.0315 31.02407,-25.03133 31.02469,-25.03075 31.02481,-25.03064 31.02503,-25.03039 31.02516,-25.03024 31.0252,-25.03015 31.02523,-25.0301 31.02527,-25.03011 31.02551,-25.03013 31.02573,-25.03014 31.02595,-25.03017 31.02616,-25.03027 31.02649,-25.03027 31.02673,-25.03032 31.02703,-25.03043 31.02727,-25.03054 31.02748,-25.03063 31.02775,-25.0307 31.02799,-25.03076 31.02819,-25.0308 31.02843,-25.03086 31.02866,-25.03091 31.02914,-25.03098 31.02944,-25.03102 31.02976,-25.03104 31.03005,-25.03106 31.03033,-25.03109 31.03063,-25.03109 31.03089,-25.03104 31.03122,-25.03098 31.03146,-25.03091 31.0319,-25.0307 31.03219,-25.03052 31.03244,-25.03033 31.03259,-25.03021 31.03267,-25.03012 31.03274,-25.02996 31.03282,-25.02973 31.03285,-25.02956 31.03291,-25.02944 31.033,-25.02933 31.03311,-25.02927 31.03333,-25.02914 31.03358,-25.02902 31.03387,-25.02886 31.03406,-25.02868 31.03419,-25.02849 31.03435,-25.02833 31.0346,-25.02814 31.03477,-25.028 31.03495,-25.02784 31.03505,-25.02771 31.03517,-25.02761 31.03534,-25.02749 31.03545,-25.02744 31.03563,-25.0274 31.03582,-25.02737 31.03603,-25.02732 31.03629,-25.02724 31.03645,-25.02719 31.03668,-25.02711 31.03682,-25.02703 31.037,-25.027 31.03728,-25.02704 31.03752,-25.02704 31.03784,-25.02709 31.03873,-25.0272 31.03942,-25.0273 31.03998,-25.02744 31.04046,-25.02755 31.04082,-25.02766 31.04118,-25.02778 31.04156,-25.02797 31.04179,-25.02815 31.04206,-25.02838 31.04229,-25.02862 31.04247,-25.02881 31.04259,-25.02899 31.04271,-25.02918 31.04285,-25.02933 31.04307,-25.02948 31.04339,-25.02956 31.04378,-25.02965 31.04411,-25.02978 31.04457,-25.02994 31.04504,-25.03009 31.04551,-25.03026 31.04581,-25.0304 31.04606,-25.0305 31.04626,-25.03054 31.04651,-25.0306 31.04678,-25.03068 31.04708,-25.0308 31.04736,-25.031 31.04758,-25.03106 31.04777,-25.03107 31.04832,-25.03107 31.04853,-25.0311 31.04875,-25.03115 31.04898,-25.03116 31.04919,-25.03111 31.04929,-25.03103 31.04942,-25.03094 31.0495,-25.03086 31.04958,-25.03077 31.04965,-25.03065 31.04968,-25.03053 31.04972,-25.03035 31.0498,-25.03016 31.04991,-25.02996 31.04999,-25.02988 31.05016,-25.02972 31.05032,-25.02958 31.05048,-25.02947 31.05064,-25.02939 31.05097,-25.02928 31.05134,-25.0291 31.05143,-25.02904 31.05153,-25.02895 31.05161,-25.02878 31.05165,-25.02857 31.05167,-25.02836 31.05167,-25.0281 31.05173,-25.028 31.05182,-25.02798 31.05197,-25.02802 31.0522,-25.02814 31.05234,-25.02814 31.05251,-25.0281 31.05265,-25.02807 31.05289,-25.02808 31.05307,-25.0281 31.05333,-25.02813 31.05358,-25.02815 31.05376,-25.02823 31.05398,-25.0284 31.05431,-25.0286 31.05444,-25.02865 31.05459,-25.02869 31.05473,-25.02874 31.05527,-25.02892 31.05547,-25.02902 31.05577,-25.02918 31.05602,-25.02932 31.05622,-25.02943 31.05663,-25.02967 31.05734,-25.02997 31.05773,-25.03015 31.05809,-25.03037 31.05844,-25.03061 31.05892,-25.03088 31.05926,-25.03107 31.05952,-25.0312 31.05971,-25.03127 31.06,-25.03136 31.06026,-25.0314 31.06045,-25.03142 31.06064,-25.03148 31.06089,-25.03157 31.06114,-25.0316 31.06136,-25.0316 31.06161,-25.03155 31.06205,-25.03143 31.06249,-25.0313 31.06287,-25.03124 31.06307,-25.03119 31.06335,-25.03106 31.06357,-25.03089 31.06388,-25.03061 31.06408,-25.03035 31.06424,-25.03013 31.06441,-25.02994 31.06463,-25.02976 31.06492,-25.0295 31.06527,-25.02916 31.06545,-25.02902 31.06567,-25.02885 31.06581,-25.02873 31.06601,-25.02864 31.06626,-25.02855 31.06655,-25.02851 31.06679,-25.02849 31.06707,-25.02856 31.06736,-25.02866 31.06766,-25.02877 31.06778,-25.0288 31.0679,-25.0288 31.06804,-25.02877 31.0682,-25.02869 31.06841,-25.02861 31.06869,-25.02857 31.06905,-25.02855 31.06953,-25.02859 31.06996,-25.02868 31.07051,-25.02886 31.07121,-25.02912 31.07152,-25.02927 31.07158,-25.02935 31.0717,-25.02949 31.07183,-25.02969 31.07193,-25.02986 31.07208,-25.03005 31.07237,-25.03023 31.07278,-25.03037 31.07316,-25.03047 31.07348,-25.0305 31.07395,-25.03057 31.07455,-25.03061 31.07493,-25.03066 31.07519,-25.03067 31.07542,-25.03068 31.07569,-25.03072 31.07597,-25.03079 31.07624,-25.0309 31.07651,-25.03103 31.07671,-25.03109 31.07694,-25.03109 31.07725,-25.03111 31.07755,-25.03111 31.07782,-25.03109 31.07807,-25.03105 31.07837,-25.03099 31.07875,-25.03088 31.07889,-25.03085 31.07914,-25.03083 31.07943,-25.03084 31.07971,-25.03088 31.08009,-25.03098 31.08036,-25.03103 31.08069,-25.03108 31.08121,-25.03116 31.08145,-25.03126 31.08166,-25.03136 31.08178,-25.03139 31.08199,-25.03142 31.08231,-25.03142 31.08256,-25.03139 31.08273,-25.03137 31.08291,-25.03131 31.08308,-25.03121 31.08321,-25.03112 31.08333,-25.03101 31.08344,-25.03087 31.0836,-25.03075 31.08391,-25.03072 31.08417,-25.03073 31.08441,-25.03068 31.08461,-25.03058 31.08482,-25.03047 31.08521,-25.03025 31.08552,-25.03013 31.08581,-25.03 31.08617,-25.02984 31.08651,-25.02967 31.08663,-25.02961 31.08646,-25.02938 31.08478,-25.02705 31.08387,-25.02565 31.08254,-25.02392 31.08001,-25.02057 31.07747,-25.01723 31.07241,-25.01053 31.06974,-25.00701 31.06713,-25.00393 31.06453,-25.00085 31.06422,-25.00049 31.06199,-24.99727 31.0607,-24.9954 31.06114,-24.99387 31.07033,-24.9927 31.07518,-24.99213 31.09086,-24.99026 31.10823,-24.98724 31.11014,-24.98691 31.11158,-24.98666 31.13951,-24.98216 31.14006,-24.98234 31.14009,-24.98235 31.14003,-24.98243 31.13854,-24.98511 31.13714,-24.98764 31.13624,-24.98927 31.13714,-24.99059 31.13834,-24.99233 31.14127,-24.99661 31.13943,-25.00319 31.14439,-25.00461 31.14661,-25.00525 31.14759,-25.00585 31.14807,-25.00615 31.15294,-25.02185 31.1531,-25.02238 31.15318,-25.02264 31.15319,-25.02266 31.15345,-25.02266 31.15388,-25.02271 31.1542,-25.02276 31.1546,-25.02282 31.15497,-25.02286 31.15521,-25.02289 31.15553,-25.02295 31.1558,-25.02301 31.15628,-25.02315 31.15656,-25.02327 31.15684,-25.02337 31.15698,-25.02342 31.15735,-25.02353 31.15789,-25.02361 31.15835,-25.02371 31.15874,-25.02373 31.159,-25.02372 31.15915,-25.02372 31.15964,-25.02372 31.16032,-25.02366 31.1608,-25.02363 31.16122,-25.02363 31.16156,-25.02366 31.16193,-25.02367 31.16234,-25.02368 31.16291,-25.0237 31.16323,-25.0237 31.16334,-25.02371 31.16362,-25.02375 31.16395,-25.02385 31.16428,-25.02396 31.16453,-25.02402 31.16485,-25.02408 31.16507,-25.02412 31.16549,-25.02418 31.16637,-25.02418 31.16708,-25.02416 31.16728,-25.02416 31.16781,-25.02411 31.16823,-25.02406 31.1688,-25.02399 31.16913,-25.02397 31.16948,-25.02389 31.16985,-25.02376 31.17007,-25.02366 31.17038,-25.02354 31.17069,-25.02338 31.17102,-25.02323 31.17121,-25.02316 31.17144,-25.02304 31.17162,-25.02294 31.17188,-25.02276 31.17221,-25.0226 31.17253,-25.02238 31.17283,-25.02219 31.17315,-25.02205 31.17342,-25.02199 31.17367,-25.02194 31.174,-25.02188 31.17424,-25.02189 31.17451,-25.0219 31.17473,-25.02188 31.17495,-25.02184 31.17554,-25.02179 31.17618,-25.02173 31.17661,-25.02174 31.17695,-25.02177 31.17727,-25.0218 31.17749,-25.02181 31.17781,-25.02178 31.17808,-25.02174 31.17858,-25.02166 31.17904,-25.02155 31.17939,-25.02145 31.17964,-25.0213 31.17987,-25.02114 31.17999,-25.02103 31.18017,-25.02077 31.18046,-25.02033 31.18065,-25.02007 31.18084,-25.01992 31.18099,-25.0198 31.18126,-25.01965 31.18164,-25.01943 31.18184,-25.01932 31.1822,-25.01914 31.18222,-25.01913 31.18255,-25.01902 31.18284,-25.01896 31.18304,-25.01892 31.18347,-25.01898 31.18373,-25.01904 31.18405,-25.01905 31.1843,-25.01902 31.18482,-25.01896 31.18518,-25.01892 31.18547,-25.0189 31.1857,-25.0189 31.18599,-25.01892 31.18624,-25.01894 31.18648,-25.01898 31.18671,-25.019 31.18696,-25.019 31.18717,-25.01898 31.18735,-25.01897 31.18771,-25.01898 31.18805,-25.01902 31.18828,-25.01906 31.18853,-25.01907 31.18895,-25.01908 31.18933,-25.0191 31.18965,-25.01916 31.18997,-25.01926 31.19029,-25.01929 31.19056,-25.01928 31.19092,-25.01924 31.19118,-25.01921 31.19174,-25.01926 31.19264,-25.01928 31.19303,-25.01927 31.19307,-25.01927 31.19332,-25.01924 31.19369,-25.0192 31.19434,-25.01906 31.19472,-25.01901 31.19497,-25.01903 31.1952,-25.01904 31.19539,-25.01905 31.19575,-25.01907 31.19609,-25.01914 31.19635,-25.01917 31.19661,-25.01918 31.19686,-25.01917 31.19715,-25.01916 31.1981,-25.01913 31.19861,-25.01908 31.19899,-25.01905 31.19931,-25.01906 31.19957,-25.01911 31.19988,-25.01913 31.20033,-25.0191 31.20077,-25.01904 31.20128,-25.01904 31.20156,-25.01906 31.20203,-25.01915 31.20259,-25.0192 31.2029,-25.01923 31.20325,-25.01935 31.20349,-25.01942 31.20382,-25.01945 31.20422,-25.01948 31.20452,-25.01951 31.20489,-25.01946 31.20523,-25.0194 31.20548,-25.01941 31.2058,-25.01943 31.20603,-25.01943 31.20622,-25.0194 31.20651,-25.01935 31.207,-25.01935 31.20734,-25.01938 31.20769,-25.01944 31.20825,-25.01949 31.20861,-25.01948 31.20889,-25.01949 31.20922,-25.01954 31.20951,-25.01954 31.20991,-25.01948 31.2102,-25.01949 31.21079,-25.01948 31.21163,-25.01953 31.21228,-25.01948 31.21282,-25.01948 31.21331,-25.01951 31.21396,-25.01954 31.2144,-25.01953 31.2156,-25.01942 31.21632,-25.01936 31.21683,-25.01931 31.21723,-25.01933 31.21772,-25.01933 31.21823,-25.01936 31.21894,-25.01929 31.21937,-25.01926 31.21958,-25.01929 31.21986,-25.01937 31.22004,-25.01942 31.22022,-25.01944 31.22079,-25.01945 31.22134,-25.01946 31.22181,-25.01949 31.22219,-25.01948 31.22256,-25.01943 31.22298,-25.01935 31.22405,-25.01924 31.22504,-25.01916 31.22568,-25.01906 31.22663,-25.01898 31.2272,-25.01895 31.22775,-25.01889 31.2284,-25.01881 31.22887,-25.01877 31.22931,-25.01877 31.22957,-25.01888 31.23008,-25.01898 31.23046,-25.019 31.23088,-25.01894 31.23128,-25.01903 31.23161,-25.01912 31.23199,-25.01919 31.23268,-25.01923 31.23287,-25.01924 31.23375,-25.0193 31.23427,-25.01932 31.23485,-25.01935 31.23546,-25.01935 31.2361,-25.01928 31.23643,-25.01922 31.23726,-25.01894 31.238,-25.01874 31.23856,-25.01861 31.23919,-25.01859 31.23959,-25.01857 31.24043,-25.01857 31.24109,-25.01844 31.24174,-25.01839 31.24245,-25.01833 31.24319,-25.01826 31.24378,-25.01824 31.24422,-25.01822 31.24439,-25.0182 31.24452,-25.0182 31.24443,-25.01863 31.24462,-25.01861 31.24484,-25.01859 31.2493,-25.01836 31.24931,-25.01836 31.24936,-25.01834 31.25047,-25.01802 31.25069,-25.01795 31.25184,-25.01729 31.25234,-25.0168 31.25251,-25.01664 31.25251,-25.01664 31.25302,-25.01467 31.25216,-25.01368 31.25199,-25.01348 31.25099,-25.01295 31.25052,-25.01271 31.25043,-25.01266 31.24991,-25.01237 31.24948,-25.01216 31.24927,-25.01198 31.24873,-25.01153 31.24857,-25.00991 31.24862,-25.00984 31.24917,-25.00908 31.24961,-25.0088 31.25062,-25.00802 31.25194,-25.0067 31.25201,-25.00659 31.25282,-25.00545 31.25306,-25.00532 31.25312,-25.00519 31.25316,-25.0051 31.25325,-25.00494 31.2533,-25.00486 31.25343,-25.00472 31.25348,-25.00467 31.25357,-25.00432 31.25358,-25.00426 31.2538,-25.00368 31.25386,-25.00351 31.2539,-25.00337 31.25398,-25.00306 31.25403,-25.00241 31.25402,-25.00237 31.254,-25.00222 31.25403,-25.00212 31.25411,-25.00188 31.2541,-25.00185 31.25409,-25.00178 31.25393,-25.0014 31.25352,-25.00096 31.25271,-25.00015 31.25256,-24.99997 31.2521,-24.9994 31.25176,-24.99907 31.2515,-24.99881 31.25113,-24.99845 31.25097,-24.9983 31.25097,-24.9983 31.25097,-24.9983 31.25065,-24.99831 31.25043,-24.99832 31.25037,-24.99828 31.24998,-24.998 31.24957,-24.99742 31.24955,-24.99712 31.24955,-24.99708 31.24955,-24.99638 31.24955,-24.99634 31.24957,-24.99609 31.2495,-24.99562 31.24947,-24.99541 31.24946,-24.99482 31.24946,-24.99431 31.24953,-24.99407 31.24973,-24.99338 31.24978,-24.99298 31.24979,-24.99287 31.25015,-24.99205 31.25043,-24.99185 31.25065,-24.9917 31.25141,-24.99088 31.25163,-24.99058 31.25176,-24.9904 31.25198,-24.9903 31.25225,-24.99018 31.25225,-24.99018 31.25225,-24.99018 31.25233,-24.99007 31.25272,-24.9895 31.25282,-24.98937 31.25336,-24.9886 31.25384,-24.98789 31.25397,-24.98771 31.25433,-24.98707 31.25437,-24.98699 31.25457,-24.98664 31.25457,-24.98661 31.25458,-24.98618 31.25455,-24.98591 31.25452,-24.98566 31.25445,-24.98553 31.25405,-24.98481 31.25368,-24.98421 31.25368,-24.98421 31.25368,-24.98421 31.25355,-24.9841 31.25321,-24.9838 31.25297,-24.98348 31.25257,-24.98293 31.2524,-24.98237 31.25239,-24.98196 31.25248,-24.98164 31.25258,-24.98146 31.25266,-24.98132 31.25272,-24.98126 31.25284,-24.98115 31.25335,-24.98095 31.25437,-24.9809 31.25461,-24.98091 31.25461,-24.98091 31.25557,-24.98094 31.25568,-24.98095 31.25577,-24.98095 31.25609,-24.981 31.25609,-24.981 31.25644,-24.98105 31.25666,-24.98109 31.25737,-24.98118 31.25789,-24.98104 31.25818,-24.98092 31.25878,-24.9808 31.25911,-24.98074 31.25916,-24.98072 31.25925,-24.98067 31.25934,-24.98063 31.25958,-24.98055 31.25986,-24.98046 31.26036,-24.98027 31.2607,-24.98014 31.26152,-24.9797 31.26221,-24.97942 31.26227,-24.97941 31.26291,-24.97927 31.26335,-24.9792 31.26398,-24.97916 31.26442,-24.97913 31.26446,-24.97915 31.26482,-24.97939 31.26524,-24.97955 31.26573,-24.97964 31.26611,-24.97974 31.26611,-24.97974 31.26628,-24.97978 31.26628,-24.97978 31.26632,-24.97977 31.26663,-24.97971 31.26729,-24.97962 31.26773,-24.9797 31.26793,-24.97985 31.2682,-24.98006 31.26888,-24.9803 31.26942,-24.98049 31.27043,-24.98071 31.27081,-24.98084 31.27081,-24.98084 31.27096,-24.98089 31.27099,-24.98099 31.27107,-24.98128 31.2713,-24.98143 31.2713,-24.98143 31.27142,-24.98151 31.27152,-24.98151 31.27192,-24.98153 31.27275,-24.98166 31.27361,-24.98179 31.27409,-24.98196 31.27543,-24.98212 31.27597,-24.98234 31.27648,-24.98255 31.27696,-24.98274 31.27696,-24.98274 31.27886,-24.98347 31.28,-24.98401 31.28058,-24.98431 31.28154,-24.98482 31.28226,-24.98529 31.2834,-24.98603 31.28488,-24.98697 31.28493,-24.987 31.28581,-24.9876 31.28632,-24.98803 31.28646,-24.98811 31.28646,-24.98811 31.28681,-24.98833 31.28885,-24.9887 31.29039,-24.9883 31.29194,-24.98748 31.29315,-24.98624 31.29342,-24.98591 31.29364,-24.98571 31.29377,-24.9856 31.29475,-24.98449 31.29521,-24.98389 31.29528,-24.98379 31.29603,-24.98313 31.29624,-24.98291 31.29647,-24.98267 31.29704,-24.9822 31.29759,-24.98188 31.29775,-24.9818 31.29818,-24.98157 31.29844,-24.98138 31.29865,-24.98122 31.29896,-24.9808 31.29922,-24.98061 31.29945,-24.98045 31.29967,-24.98038 31.30015,-24.98022 31.30047,-24.98024 31.3007,-24.98025 31.3012,-24.98037 31.30175,-24.98077 31.30178,-24.98079 31.3021,-24.9811 31.30245,-24.98109 31.30334,-24.981 31.30368,-24.98089 31.30378,-24.98086 31.30388,-24.98088 31.30434,-24.98096 31.30488,-24.98109 31.30538,-24.98112 31.30573,-24.98115 31.30601,-24.98114 31.30654,-24.98113 31.30738,-24.98096 31.30872,-24.98055 31.30957,-24.98019 31.31,-24.97993 31.31095,-24.97947 31.31107,-24.97941 31.31126,-24.97929 31.31146,-24.97917 31.31211,-24.97854 31.31222,-24.97802 31.31226,-24.97785 31.31259,-24.977 31.31259,-24.97607 31.31243,-24.97523 31.31225,-24.97483 31.312,-24.97427 31.31175,-24.97395 31.31169,-24.97387 31.31157,-24.97293 31.31136,-24.972 31.31136,-24.97144 31.31137,-24.97064 31.31154,-24.96966 31.31171,-24.9689 31.31182,-24.96828 31.31198,-24.96735 31.31252,-24.96645 31.31366,-24.96546 31.31392,-24.96529 31.31477,-24.96474 31.31489,-24.96466 31.31503,-24.96457 31.31577,-24.96448 31.31629,-24.96444 31.31654,-24.96442 31.31763,-24.96453 31.31816,-24.96488 31.31822,-24.96492 31.31829,-24.96496 31.31883,-24.96524 31.31988,-24.9657 31.32036,-24.96591 31.32079,-24.96614 31.32079,-24.96614 31.32127,-24.9664 31.32177,-24.96662 31.32252,-24.96695 31.32309,-24.96709 31.32345,-24.96718 31.32384,-24.96717 31.32495,-24.96716 31.32595,-24.96719 31.3263,-24.96722 31.3263,-24.96722 31.32674,-24.96726 31.32731,-24.96738 31.32757,-24.96758 31.32822,-24.96809 31.32915,-24.96844 31.32986,-24.96863 31.33039,-24.96863 31.331,-24.96872 31.33225,-24.96909 31.3329,-24.96912 31.33292,-24.96912 31.33362,-24.96928 31.33391,-24.96938 31.33489,-24.96971 31.33596,-24.97017 31.33663,-24.97049 31.33699,-24.97063 31.33739,-24.97079 31.33771,-24.97093 31.33811,-24.97111 31.3383,-24.97134 31.33843,-24.97149 31.33844,-24.97152 31.33879,-24.97218 31.33921,-24.97265 31.33923,-24.97267 31.33923,-24.97267 31.33923,-24.97267 31.33974,-24.97264 31.34052,-24.97335 31.34061,-24.97343 31.34108,-24.97407 31.34108,-24.97407 31.34108,-24.97407 31.34143,-24.97457 31.34192,-24.97514 31.34237,-24.97556 31.34241,-24.9756 31.34271,-24.9759 31.34285,-24.97603 31.34308,-24.97624 31.34322,-24.97631 31.34322,-24.97631 31.34372,-24.97657 31.3444,-24.97714 31.34477,-24.97747 31.34477,-24.97747 31.34541,-24.9775 31.34586,-24.97745 31.34617,-24.97741 31.3465,-24.97734 31.34691,-24.97726 31.34715,-24.97708 31.3475,-24.97691 31.34795,-24.97676 31.34802,-24.97674 31.34835,-24.97652 31.34846,-24.97644 31.34864,-24.97623 31.34889,-24.97595 31.34942,-24.97536 31.34948,-24.97529 31.34957,-24.97518 31.35,-24.97468 31.35085,-24.97396 31.35163,-24.97355 31.35198,-24.97343 31.35248,-24.97344 31.35272,-24.97345 31.35326,-24.97366 31.3535,-24.97381 31.35363,-24.97389 31.35401,-24.97419 31.3545,-24.97468 31.35479,-24.97505 31.35522,-24.9752 31.35536,-24.97525 31.35557,-24.97531 31.35581,-24.97563 31.35613,-24.97604 31.35639,-24.97624 31.35657,-24.97637 31.35657,-24.97637 31.35657,-24.97637 31.3567,-24.97637 31.35694,-24.97636 31.35731,-24.97637 31.35746,-24.97637 31.35784,-24.97637 31.3586,-24.9765 31.3591,-24.9766 31.35911,-24.9766 31.35936,-24.97665 31.36012,-24.97677 31.36045,-24.97682 31.36045,-24.97682 31.36045,-24.97682 31.36136,-24.97673 31.36166,-24.97666 31.36187,-24.97662 31.36296,-24.97642 31.36299,-24.9764 31.36334,-24.97619 31.36351,-24.9759 31.36374,-24.97534 31.36362,-24.97485 31.36364,-24.97436 31.36365,-24.97396 31.36385,-24.97342 31.3643,-24.97298 31.3644,-24.97288 31.36479,-24.97224 31.36525,-24.97174 31.36551,-24.97149 31.36598,-24.97108 31.36644,-24.97094 31.36659,-24.9709 31.36664,-24.97087 31.36688,-24.97072 31.36716,-24.97003 31.3672,-24.97001 31.36743,-24.96992 31.36773,-24.96974 31.36803,-24.96956 31.36829,-24.9691 31.36882,-24.96866 31.36923,-24.96866 31.3698,-24.96838 31.3701,-24.96815 31.37045,-24.96788 31.37072,-24.96758 31.37092,-24.96735 31.37094,-24.96733 31.37143,-24.9671 31.37156,-24.96704 31.37167,-24.96699 31.37176,-24.96695 31.37224,-24.96669 31.37256,-24.96652 31.37309,-24.96636 31.37351,-24.96613 31.37378,-24.96599 31.37397,-24.96594 31.37451,-24.96582 31.37496,-24.9658 31.37519,-24.96579 31.37567,-24.96575 31.37613,-24.96564 31.37638,-24.96558 31.37683,-24.96568 31.37734,-24.96587 31.37783,-24.96599 31.37783,-24.96599 31.37783,-24.96599 31.37847,-24.96599 31.37851,-24.96599 31.37899,-24.96596 31.37921,-24.96591 31.37965,-24.96581 31.38,-24.96582 31.38,-24.96582 31.38,-24.96582 31.38008,-24.96572 31.38026,-24.96552 31.38055,-24.96495 31.38107,-24.96465 31.3811,-24.96463 31.38116,-24.96462 31.38167,-24.96457 31.38186,-24.96482 31.38186,-24.96482 31.38186,-24.96482 31.38218,-24.96507 31.38236,-24.96521 31.38256,-24.96535 31.38289,-24.96562 31.38311,-24.96576 31.38329,-24.96587 31.38369,-24.96619 31.38416,-24.96654 31.3846,-24.96698 31.38533,-24.9675 31.38567,-24.96779 31.38575,-24.96785 31.386,-24.96796 31.386,-24.96796 31.38668,-24.96828 31.38717,-24.9685 31.38768,-24.96872 31.38838,-24.96912 31.38838,-24.96912 31.38839,-24.96912 31.38889,-24.96948 31.38947,-24.96985 31.3902,-24.97006 31.39036,-24.9701 31.39079,-24.97021 31.39122,-24.97034 31.39125,-24.97035 31.39151,-24.97071 31.39151,-24.97071 31.39154,-24.97075 31.39171,-24.97102 31.39238,-24.97124 31.39287,-24.97131 31.39328,-24.97148 31.39377,-24.97161 31.39439,-24.97178 31.39564,-24.97191 31.3957,-24.97192 31.39645,-24.97206 31.39676,-24.97204 31.39705,-24.97203 31.39758,-24.97183 31.39778,-24.97183 31.39832,-24.97171 31.39903,-24.97156 31.39933,-24.97159 31.39939,-24.97159 31.39968,-24.97173 31.39973,-24.97175 31.39973,-24.97175 31.39973,-24.97175 31.40004,-24.97174 31.4006,-24.97171 31.4013,-24.97137 31.40212,-24.9711 31.40261,-24.97099 31.40336,-24.97081 31.40339,-24.9708 31.40389,-24.97066 31.40435,-24.97061 31.4045,-24.97058 31.40508,-24.97046 31.40548,-24.97026 31.40592,-24.96989 31.40613,-24.96981 31.40638,-24.96971 31.40659,-24.96965 31.40679,-24.9696 31.40721,-24.96965 31.40729,-24.96966 31.4078,-24.96954 31.4078,-24.96954 31.4078,-24.96954 31.40819,-24.96931 31.40848,-24.96928 31.4089,-24.96937 31.40898,-24.96941 31.40928,-24.96954 31.40967,-24.96959 31.40996,-24.96952 31.41009,-24.96948 31.41023,-24.96942 31.41053,-24.9693 31.41102,-24.96901 31.41118,-24.96901 31.41118,-24.96901 31.4114,-24.96902 31.41182,-24.96907 31.41224,-24.96928 31.41266,-24.96948 31.41288,-24.96952 31.41326,-24.96959 31.41382,-24.96966 31.41479,-24.96984 31.41489,-24.96986 31.41495,-24.96987 31.41611,-24.97012 31.41625,-24.9702 31.41649,-24.97035 31.41655,-24.97038 31.41655,-24.97038 31.41721,-24.97076 31.4176,-24.97096 31.41791,-24.97111 31.41846,-24.9714 31.41888,-24.97168 31.41898,-24.97171 31.41908,-24.97174 31.41933,-24.97163 31.41936,-24.97163 31.41969,-24.97165 31.42017,-24.97194 31.42045,-24.97209 31.42067,-24.9722 31.42113,-24.97246 31.42158,-24.97274 31.42164,-24.97283 31.42172,-24.97297 31.42173,-24.97305 31.42175,-24.97313 31.42173,-24.97324 31.42172,-24.97329 31.42167,-24.97346 31.42166,-24.97355 31.42166,-24.97361 31.4217,-24.97366 31.42177,-24.97375 31.42209,-24.97387 31.4223,-24.97406 31.42236,-24.97413 31.42248,-24.9743 31.4226,-24.97454 31.42264,-24.97461 31.42289,-24.9749 31.42341,-24.97506 31.42369,-24.97528 31.42369,-24.97528 31.4237,-24.97529 31.42402,-24.9757 31.4241,-24.97622 31.42422,-24.97655 31.42425,-24.97662 31.42426,-24.97665 31.42429,-24.97671 31.42429,-24.97671 31.42458,-24.97683 31.42472,-24.97689 31.42518,-24.97689 31.42556,-24.97717 31.42582,-24.97747 31.42594,-24.9778 31.42601,-24.97799 31.42605,-24.97851 31.4262,-24.97901 31.42637,-24.97956 31.42657,-24.98028 31.42691,-24.98095 31.42752,-24.98149 31.42796,-24.98188 31.42822,-24.98204 31.42864,-24.98231 31.4295,-24.98267 31.43049,-24.98318 31.43197,-24.98363 31.4332,-24.98437 31.43504,-24.98554 31.43504,-24.98554 31.43581,-24.98603 31.43595,-24.98614 31.4361,-24.98626 31.43668,-24.98671 31.43758,-24.9872 31.43817,-24.98741 31.43817,-24.98741 31.43836,-24.98748 31.43842,-24.98751 31.43923,-24.98795 31.44019,-24.98803 31.44153,-24.9879 31.44316,-24.98757 31.44349,-24.98746 31.4438,-24.98735 31.4445,-24.98704 31.44485,-24.98688 31.44606,-24.98647 31.44726,-24.98619 31.4474,-24.98616 31.44859,-24.98624 31.44887,-24.98629 31.44935,-24.98639 31.44987,-24.98659 31.45082,-24.98696 31.45214,-24.9874 31.45231,-24.9875 31.45269,-24.98771 31.45373,-24.98796 31.45458,-24.98803 31.45504,-24.98807 31.45554,-24.98792 31.45596,-24.9878 31.45701,-24.98714 31.45714,-24.98705 31.45752,-24.98678 31.45794,-24.98649 31.45843,-24.98618 31.45904,-24.98568 31.45974,-24.98551 31.46035,-24.98548 31.46096,-24.98552 31.46096,-24.98552 31.46128,-24.98554 31.4616,-24.9856 31.46261,-24.98577 31.46289,-24.98577 31.46317,-24.98578 31.46463,-24.98615 31.46599,-24.98643 31.46675,-24.98659 31.46735,-24.9868 31.46742,-24.98682 31.4675,-24.98685 31.4675,-24.98685 31.46854,-24.98731 31.46956,-24.98748 31.46956,-24.98748 31.47075,-24.98748 31.47165,-24.98723 31.47284,-24.98727 31.47313,-24.98728 31.47389,-24.98725 31.47417,-24.9872 31.47424,-24.98719 31.47424,-24.98719 31.47424,-24.98719 31.47444,-24.98688 31.47451,-24.98675 31.47458,-24.98662 31.47459,-24.98662 31.47487,-24.98659 31.47601,-24.98613 31.47691,-24.98584 31.4775,-24.98548 31.4775,-24.98548 31.4775,-24.98548 31.47767,-24.98531 31.47805,-24.98491 31.47844,-24.98463 31.47891,-24.9843 31.47946,-24.98385 31.48023,-24.98302 31.4803,-24.98264 31.48063,-24.98218 31.48086,-24.9819 31.48123,-24.98145 31.48164,-24.98086 31.48185,-24.98035 31.48187,-24.98032 31.48209,-24.98005 31.48248,-24.97944 31.48292,-24.97909 31.48344,-24.9786 31.48344,-24.9786 31.48344,-24.9786 31.48367,-24.97826 31.48379,-24.97808 31.48423,-24.97734 31.4858,-24.97659 31.48789,-24.97598 31.48878,-24.97583 31.49033,-24.97554 31.49108,-24.97518 31.49161,-24.9747 31.492,-24.9742 31.49214,-24.97376 31.49221,-24.97345 31.49236,-24.97251 31.49309,-24.97095 31.49375,-24.97 31.49415,-24.96948 31.49472,-24.96899 31.49539,-24.96866 31.49541,-24.96866 31.49638,-24.9685 31.49642,-24.9685 31.49675,-24.96848 31.49702,-24.96846 31.49706,-24.96845 31.49711,-24.96845 31.4972,-24.96845 31.49727,-24.96844 31.49737,-24.96842 31.49741,-24.96841 31.49758,-24.96837 31.49789,-24.96823 31.49796,-24.96821 31.49902,-24.96793 31.49902,-24.96793 31.49917,-24.96791 31.49917,-24.96791 31.49929,-24.9679 31.49935,-24.9679 31.49964,-24.96787 31.49969,-24.96786 31.50036,-24.96779 31.50049,-24.96788 31.50053,-24.96792 31.50065,-24.96802 31.50083,-24.96821 31.50086,-24.96825 31.50095,-24.96833 31.50097,-24.96835 31.50101,-24.96839 31.50128,-24.96863 31.50158,-24.9689 31.50164,-24.96895 31.5021,-24.9693 31.50246,-24.96956 31.50264,-24.96966 31.50277,-24.96974 31.50285,-24.96978 31.50309,-24.96991 31.50331,-24.97004 31.50352,-24.97012 31.50373,-24.97019 31.50382,-24.97021 31.50396,-24.97023 31.50408,-24.97024 31.50432,-24.97026 31.50437,-24.97026 31.50462,-24.97029 31.50472,-24.97027 31.50481,-24.97026 31.50487,-24.97025 31.50492,-24.97023 31.50501,-24.97022 31.50503,-24.97021 31.50504,-24.97021 31.50577,-24.96994 31.50587,-24.96992 31.50606,-24.96987 31.50632,-24.96978 31.50636,-24.96977 31.50659,-24.9697 31.50705,-24.96954 31.50711,-24.96952 31.50712,-24.96951 31.50714,-24.96951 31.50777,-24.96926 31.50777,-24.96926 31.50845,-24.96902 31.50908,-24.96895 31.50912,-24.96895 31.50929,-24.96896 31.50982,-24.96897 31.51,-24.96895 31.51015,-24.96894 31.51055,-24.96892 31.51066,-24.96892 31.51067,-24.96891 31.51069,-24.96891 31.51087,-24.96887 31.51094,-24.96886 31.5111,-24.96884 31.51113,-24.96882 31.51116,-24.96881 31.5112,-24.9688 31.51186,-24.96865 31.51293,-24.96841 31.51293,-24.96841 31.51294,-24.96841 31.51297,-24.9684 31.51335,-24.96833 31.51338,-24.96833 31.51346,-24.96832 31.51427,-24.96831 31.51427,-24.96831 31.51437,-24.96832 31.51464,-24.96835 31.51488,-24.96838 31.5151,-24.9684 31.51535,-24.96843 31.51544,-24.96844 31.51567,-24.96847 31.51585,-24.9685 31.51599,-24.96853 31.51603,-24.96854 31.51609,-24.96853 31.5161,-24.96853 31.51652,-24.96859 31.51656,-24.9686 31.51686,-24.96866 31.51698,-24.96868 31.51714,-24.96873 31.51724,-24.96876 31.51747,-24.96883 31.51753,-24.96883 31.51755,-24.96884 31.51765,-24.96885 31.51785,-24.96889 31.51812,-24.96894 31.51834,-24.969 31.51846,-24.96901 31.51863,-24.96904 31.51875,-24.96907 31.51879,-24.96908 31.51898,-24.96913 31.51915,-24.9692 31.51926,-24.96925 31.51937,-24.96931 31.51953,-24.9694 31.51965,-24.96947 31.51974,-24.96953 31.5199,-24.96966 31.52017,-24.96984 31.52037,-24.96995 31.52042,-24.96999 31.52054,-24.97008 31.52065,-24.97016 31.52073,-24.97024 31.52091,-24.97035 31.52102,-24.97042 31.52111,-24.97048 31.52128,-24.9706 31.52138,-24.97067 31.52146,-24.97073 31.5216,-24.97082 31.52178,-24.97095 31.52192,-24.97101 31.52199,-24.97106 31.52205,-24.9711 31.52214,-24.97114 31.52236,-24.97125 31.5227,-24.97142 31.52304,-24.97155 31.52328,-24.9716 31.52338,-24.97162 31.52342,-24.97163 31.52349,-24.97163 31.52353,-24.97164 31.52361,-24.97166 31.52365,-24.97167 31.52377,-24.9717 31.52387,-24.97173 31.52392,-24.97174 31.52398,-24.97175 31.52409,-24.97178 31.52438,-24.97189 31.52446,-24.97193 31.52461,-24.97201 31.52476,-24.97209 31.52496,-24.9722 31.52509,-24.97228 31.52521,-24.97234 31.52524,-24.97236 31.52533,-24.97241 31.52544,-24.97246 31.52551,-24.9725 31.52551,-24.9725 31.5257,-24.97262 31.52588,-24.97273 31.52592,-24.97276 31.52609,-24.97287 31.52619,-24.97294 31.52625,-24.97298 31.52631,-24.97302 31.52645,-24.97313 31.52661,-24.97321 31.52678,-24.97332 31.52685,-24.97336 31.52695,-24.97342 31.52699,-24.97346 31.5271,-24.97354 31.52727,-24.97367 31.52737,-24.97374 31.52758,-24.9739 31.52773,-24.97399 31.52778,-24.97401 31.52798,-24.97414 31.52826,-24.97433 31.52865,-24.97459 31.52894,-24.97477 31.52921,-24.9749 31.52938,-24.97497 31.52948,-24.97502 31.52972,-24.97509 31.52995,-24.97515 31.53008,-24.97515 31.5302,-24.97517 31.53023,-24.97517 31.53027,-24.97517 31.53034,-24.97514 31.53038,-24.97511 31.5304,-24.9751 31.53042,-24.9751 31.53076,-24.97477 31.53116,-24.97395 31.53161,-24.9731 31.53214,-24.97208 31.53247,-24.97166 31.53321,-24.97098 31.53382,-24.97074 31.53407,-24.97076 31.53429,-24.97077 31.5345,-24.97077 31.53473,-24.97077 31.53529,-24.97068 31.53585,-24.9706 31.53603,-24.9706 31.53638,-24.9706 31.5366,-24.9706 31.53685,-24.97063 31.53707,-24.97065 31.53721,-24.97066 31.53732,-24.97068 31.53739,-24.9707 31.53746,-24.97071 31.53752,-24.97072 31.53819,-24.97091 31.53828,-24.97095 31.53849,-24.97107 31.53869,-24.97118 31.53882,-24.97124 31.5389,-24.97128 31.53892,-24.9713 31.539,-24.97134 31.53908,-24.97136 31.53933,-24.97143 31.53956,-24.97151 31.53963,-24.97151 31.53976,-24.97157 31.53987,-24.97161 31.53996,-24.97163 31.54011,-24.97167 31.54026,-24.97172 31.54058,-24.97181 31.54065,-24.97183 31.54084,-24.97188 31.541,-24.97192 31.54107,-24.97194 31.5411,-24.97194 31.54118,-24.97196 31.54129,-24.97199 31.54136,-24.972 31.54149,-24.97203 31.54155,-24.97204 31.54175,-24.97207 31.54179,-24.97207 31.54193,-24.97209 31.54203,-24.97211 31.54223,-24.97211 31.5423,-24.9721 31.54237,-24.97211 31.54238,-24.97212 31.54241,-24.97213 31.54244,-24.97213 31.5427,-24.97209 31.54299,-24.97204 31.54308,-24.97201 31.54311,-24.972 31.54312,-24.97199 31.54314,-24.97199 31.54361,-24.97184 31.54375,-24.97179 31.54381,-24.97177 31.54406,-24.97169 31.54407,-24.97169 31.54409,-24.97168 31.54447,-24.97158 31.5445,-24.97157 31.54453,-24.97156 31.54454,-24.97156 31.54507,-24.97152 31.54512,-24.97151 31.54513,-24.97151 31.54515,-24.97151 31.54526,-24.97147 31.54534,-24.97143 31.5455,-24.97136 31.54555,-24.97134 31.54641,-24.97074 31.54697,-24.97037 31.54763,-24.9699 31.54812,-24.96955 31.54856,-24.96908 31.54877,-24.96886 31.54908,-24.9681 31.54914,-24.96784 31.54915,-24.96784 31.54919,-24.96767 31.54925,-24.96743 31.54927,-24.96735 31.54941,-24.96678 31.5496,-24.96573 31.5498,-24.96484 31.54988,-24.96451 31.55013,-24.96369 31.55039,-24.96321 31.55094,-24.96273 31.55131,-24.96255 31.55194,-24.96231 31.55212,-24.96225 31.5522,-24.96222 31.55254,-24.9621 31.55303,-24.96196 31.55303,-24.96196 31.55303,-24.96196 31.55306,-24.96195 31.5534,-24.96184 31.55344,-24.96183 31.55393,-24.96185 31.55404,-24.96186 31.55418,-24.96189 31.55445,-24.96199 31.55472,-24.96211 31.55492,-24.9622 31.55496,-24.96221 31.555,-24.96222 31.55505,-24.96224 31.55508,-24.96226 31.55511,-24.96227 31.55514,-24.96228 31.55522,-24.9623 31.5553,-24.96233 31.55534,-24.96234 31.55542,-24.96237 31.55555,-24.96238 31.5556,-24.96239 31.55574,-24.96241 31.55581,-24.96241 31.55594,-24.96242 31.55608,-24.96243 31.55611,-24.96244 31.55628,-24.96244 31.55653,-24.96243 31.55671,-24.96242 31.5569,-24.96241 31.55698,-24.9624 31.55702,-24.96239 31.55713,-24.96237 31.55714,-24.96237 31.55716,-24.96237 31.55723,-24.96236 31.55725,-24.96235 31.55733,-24.96233 31.55738,-24.96233 31.55756,-24.96229 31.55759,-24.96228 31.55772,-24.96225 31.5578,-24.96223 31.55788,-24.96221 31.55798,-24.96218 31.55821,-24.96211 31.55824,-24.9621 31.5583,-24.96207 31.55832,-24.96207 31.5584,-24.96204 31.55855,-24.96195 31.55857,-24.96194 31.55871,-24.96186 31.55877,-24.96183 31.55888,-24.96176 31.55899,-24.96169 31.55939,-24.96142 31.55959,-24.9613 31.56,-24.96118 31.5601,-24.96117 31.56019,-24.96118 31.56025,-24.96119 31.56057,-24.9612 31.56077,-24.96121 31.56087,-24.96121 31.56095,-24.9612 31.56115,-24.9612 31.56139,-24.96119 31.56141,-24.96118 31.56142,-24.96118 31.56165,-24.96112 31.56178,-24.96109 31.56181,-24.96108 31.56194,-24.96105 31.56197,-24.96105 31.56207,-24.96101 31.56212,-24.96099 31.56214,-24.96098 31.56215,-24.96098 31.56286,-24.96072 31.5635,-24.96055 31.56354,-24.96054 31.56367,-24.96052 31.56374,-24.9605 31.564,-24.96046 31.56404,-24.96046 31.56405,-24.96045 31.56425,-24.96042 31.56428,-24.96042 31.56435,-24.96042 31.56443,-24.96041 31.56453,-24.96041 31.5646,-24.9604 31.5651,-24.96039 31.56524,-24.9604 31.56528,-24.9604 31.56547,-24.96041 31.56548,-24.96041 31.56563,-24.96043 31.5658,-24.96046 31.5661,-24.9605 31.56619,-24.96051 31.56627,-24.96054 31.56636,-24.96057 31.56655,-24.96064 31.56663,-24.96066 31.56675,-24.9607 31.56685,-24.96074 31.567,-24.9608 31.56713,-24.96085 31.56717,-24.96088 31.56734,-24.96098 31.56758,-24.96112 31.56761,-24.96113 31.56764,-24.96114 31.56776,-24.96124 31.56794,-24.96142 31.56806,-24.96154 31.56814,-24.96161 31.56835,-24.9618 31.56868,-24.96211 31.56889,-24.96234 31.56893,-24.96238 31.56909,-24.96253 31.56934,-24.96279 31.56942,-24.96289 31.56948,-24.96296 31.56968,-24.96321 31.56978,-24.96333 31.56984,-24.9634 31.56988,-24.96344 31.56992,-24.96349 31.56999,-24.96357 31.57009,-24.96369 31.57011,-24.96371 31.57023,-24.96386 31.57038,-24.96405 31.57043,-24.96411 31.57048,-24.96419 31.57051,-24.96424 31.57053,-24.96428 31.57058,-24.96437 31.57062,-24.96449 31.57064,-24.96455 31.57066,-24.96462 31.57072,-24.96478 31.57073,-24.96481 31.5708,-24.96503 31.57082,-24.96512 31.57084,-24.96523 31.57087,-24.96533 31.57088,-24.96541 31.57091,-24.96559 31.57094,-24.96571 31.57098,-24.96588 31.57101,-24.96597 31.57107,-24.96613 31.57121,-24.96641 31.57137,-24.96667 31.57145,-24.96679 31.57165,-24.967 31.57177,-24.96709 31.5718,-24.96711 31.57182,-24.96713 31.57192,-24.96719 31.57202,-24.96724 31.57213,-24.96728 31.57224,-24.96733 31.57227,-24.96733 31.57234,-24.96735 31.57244,-24.96738 31.57269,-24.96743 31.57273,-24.96743 31.57279,-24.96743 31.57297,-24.96741 31.57316,-24.9674 31.57327,-24.96739 31.57337,-24.96739 31.57344,-24.9674 31.57364,-24.96751 31.57366,-24.96753 31.57381,-24.96763 31.5739,-24.96765 31.57403,-24.96757 31.57404,-24.96757 31.57407,-24.96756 31.57433,-24.96745 31.57433,-24.96745 31.57444,-24.96746 31.57447,-24.96746 31.57456,-24.96748 31.57463,-24.96752 31.57474,-24.96763 31.57483,-24.9677 31.57495,-24.96777 31.57521,-24.96798 31.5755,-24.9682 31.57573,-24.96832 31.57584,-24.96837 31.57598,-24.96844 31.57625,-24.96855 31.57653,-24.96864 31.57689,-24.96865 31.57728,-24.96866 31.57758,-24.96871 31.57777,-24.96878 31.57793,-24.96885 31.5781,-24.96896 31.57815,-24.96899 31.57824,-24.96903 31.57844,-24.96914 31.57852,-24.96918 31.57877,-24.96936 31.57887,-24.96943 31.57891,-24.96945 31.57899,-24.96948 31.5792,-24.9696 31.57943,-24.96974 31.57957,-24.96983 31.5796,-24.96985 31.57963,-24.96986 31.57984,-24.97014 31.58009,-24.97043 31.5805,-24.97077 31.58062,-24.97088 31.5807,-24.97095 31.58092,-24.97108 31.58117,-24.97119 31.58132,-24.97124 31.58139,-24.97126 31.58148,-24.97128 31.58164,-24.97131 31.5819,-24.97138 31.58204,-24.97143 31.58217,-24.97153 31.5823,-24.97163 31.58234,-24.9717 31.58237,-24.97179 31.58255,-24.97219 31.58275,-24.97255 31.5829,-24.97279 31.58299,-24.97293 31.58326,-24.97326 31.58339,-24.97345 31.58347,-24.97356 31.58356,-24.97371 31.58359,-24.97376 31.58363,-24.97386 31.58383,-24.97405 31.58416,-24.97435 31.58436,-24.97454 31.58446,-24.97465 31.5845,-24.97469 31.58461,-24.97486 31.58472,-24.97503 31.58483,-24.97523 31.58488,-24.97533 31.58501,-24.97557 31.58505,-24.97564 31.58509,-24.97571 31.58518,-24.97587 31.5853,-24.97617 31.58531,-24.97629 31.58531,-24.97638 31.58531,-24.97647 31.58531,-24.97653 31.5853,-24.97666 31.58528,-24.97692 31.58526,-24.97714 31.58523,-24.97731 31.58523,-24.97741 31.58519,-24.97773 31.58522,-24.97778 31.58524,-24.97784 31.58525,-24.97789 31.58528,-24.97796 31.58533,-24.97805 31.58542,-24.97818 31.58549,-24.97828 31.58555,-24.97846 31.58557,-24.97861 31.58557,-24.97866 31.58556,-24.97877 31.58554,-24.97886 31.5855,-24.97901 31.58546,-24.97915 31.58549,-24.97932 31.58556,-24.97958 31.58565,-24.97974 31.58569,-24.97981 31.58575,-24.98007 31.5858,-24.98034 31.58578,-24.98046 31.58575,-24.98059 31.58574,-24.98073 31.58572,-24.98082 31.58574,-24.98093 31.58575,-24.981 31.58579,-24.98109 31.58579,-24.98112 31.58586,-24.98123 31.586,-24.98143 31.58612,-24.98159 31.5862,-24.98183 31.58621,-24.98195 31.58621,-24.98201 31.58621,-24.98213 31.58623,-24.98223 31.58626,-24.9824 31.58628,-24.98261 31.5863,-24.98268 31.5863,-24.98273 31.58635,-24.98288 31.58641,-24.98307 31.58642,-24.9831 31.58646,-24.98318 31.58651,-24.98327 31.58655,-24.98335 31.5866,-24.98342 31.58673,-24.98364 31.58682,-24.9838 31.58683,-24.98388 31.58683,-24.98396 31.58679,-24.9841 31.58678,-24.98414 31.58675,-24.98427 31.58671,-24.98441 31.58667,-24.98455 31.58666,-24.98465 31.58665,-24.98477 31.58669,-24.98486 31.58671,-24.98492 31.58674,-24.98503 31.58678,-24.98514 31.58691,-24.9854 31.58693,-24.98545 31.58696,-24.98552 31.58701,-24.98566 31.58708,-24.9858 31.58713,-24.98594 31.5872,-24.98607 31.58727,-24.98618 31.58735,-24.98633 31.58742,-24.98644 31.58745,-24.98651 31.58749,-24.98657 31.58788,-24.98708 31.58801,-24.98726 31.58807,-24.98735 31.58811,-24.9874 31.58829,-24.98767 31.58837,-24.9878 31.58847,-24.98801 31.58853,-24.98812 31.58856,-24.98816 31.58861,-24.98825 31.58866,-24.98833 31.58877,-24.98849 31.58887,-24.98865 31.58892,-24.98873 31.58902,-24.98888 31.58908,-24.98896 31.5892,-24.98912 31.58928,-24.98922 31.58963,-24.98958 31.58983,-24.98978 31.58993,-24.98989 31.58998,-24.98996 31.59002,-24.99 31.59012,-24.99012 31.59021,-24.99022 31.59041,-24.99039 31.59073,-24.9906 31.5909,-24.99069 31.59095,-24.99072 31.59105,-24.99077 31.59127,-24.99097 31.59153,-24.9912 31.59193,-24.99158 31.59198,-24.99159 31.59203,-24.99162 31.59215,-24.99168 31.59227,-24.99173 31.59242,-24.99178 31.59257,-24.99182 31.59268,-24.99185 31.59275,-24.99186 31.59284,-24.99187 31.59291,-24.99188 31.59302,-24.99188 31.59337,-24.99191 31.59366,-24.99192 31.59375,-24.9919 31.5939,-24.99189 31.59408,-24.99187 31.59432,-24.99182 31.59447,-24.9918 31.59479,-24.99174 31.59497,-24.99171 31.59512,-24.99167 31.59523,-24.99165 31.59543,-24.99161 31.5956,-24.9916 31.59566,-24.9916 31.59582,-24.99157 31.59591,-24.99154 31.59602,-24.99153 31.59605,-24.99153 31.59623,-24.99151 31.59635,-24.99147 31.59645,-24.99144 31.59657,-24.9914 31.59662,-24.99138 31.59664,-24.99137 31.59674,-24.99134 31.59692,-24.99126 31.59712,-24.99117 31.59733,-24.99109 31.59746,-24.99104 31.59748,-24.99104 31.59751,-24.99102 31.59762,-24.99099 31.59774,-24.99095 31.59785,-24.99089 31.59809,-24.99083 31.59809,-24.99083 31.59832,-24.9908 31.59849,-24.99079 31.59882,-24.99076 31.59893,-24.99075 31.59901,-24.99076 31.59911,-24.99077 31.59935,-24.99079 31.59949,-24.9908 31.59963,-24.99081 31.59983,-24.99082 31.6,-24.99083 31.60014,-24.99083 31.60025,-24.99083 31.6004,-24.99081 31.60059,-24.99078 31.60076,-24.99076 31.60093,-24.99075 31.6012,-24.99072 31.60128,-24.99072 31.60132,-24.99071 31.60171,-24.99068 31.60186,-24.99066 31.60248,-24.99058 31.60294,-24.99051 31.60299,-24.9905 31.60312,-24.99049 31.60315,-24.99049 31.60332,-24.99045 31.60353,-24.99042 31.6036,-24.99041 31.60371,-24.99039 31.60379,-24.99038 31.60401,-24.99033 31.60424,-24.99031 31.60429,-24.99031 31.6045,-24.99028 31.60451,-24.99027 31.60454,-24.99027 31.60465,-24.99025 31.60506,-24.99016 31.60542,-24.99008 31.60542,-24.99008 31.60546,-24.99007 31.60551,-24.99003 31.60571,-24.98996 31.60577,-24.98994 31.60583,-24.98993 31.60591,-24.98992 31.60603,-24.9899 31.60603,-24.9899 31.60611,-24.98989 31.60628,-24.98989 31.60645,-24.98989 31.60654,-24.98989 31.60674,-24.98987 31.6069,-24.98984 31.60695,-24.98982 31.60697,-24.98981 31.60702,-24.9898 31.60726,-24.98962 31.60745,-24.98946 31.60776,-24.98932 31.60814,-24.98931 31.60815,-24.98931 31.60822,-24.98931 31.60835,-24.98931 31.60853,-24.98932 31.60861,-24.98932 31.60871,-24.98933 31.60881,-24.98932 31.60892,-24.98931 31.60901,-24.9893 31.60937,-24.98932 31.60975,-24.98933 31.60991,-24.98932 31.61012,-24.9893 31.61022,-24.98929 31.61029,-24.98928 31.61031,-24.98927 31.61033,-24.98927 31.61045,-24.98926 31.61049,-24.98927 31.61073,-24.98926 31.61086,-24.98925 31.61089,-24.98925 31.61052,-24.99157 31.61031,-24.99333 31.61025,-24.9959 31.60976,-24.99762 31.60847,-24.99921 31.60651,-25.00112 31.60393,-25.00289 31.60197,-25.00381 31.59921,-25.00412 31.59504,-25.00412 31.59422,-25.00395 31.59381,-25.00599 31.59292,-25.00745 31.59115,-25.00906 31.58937,-25.01059 31.58848,-25.01172 31.58824,-25.01366 31.58719,-25.0202 31.58638,-25.02513 31.58663,-25.02682 31.58735,-25.02892 31.588,-25.03481 31.5888,-25.03804 31.58929,-25.04095 31.58945,-25.04418 31.58897,-25.04555 31.58868,-25.04603 31.58875,-25.04615 31.59021,-25.04845 31.59153,-25.0502 31.59336,-25.05239 31.59494,-25.05476 31.59556,-25.05633 31.59626,-25.05817 31.5981,-25.06019 31.59871,-25.0615 31.59915,-25.06527 31.59967,-25.06737 31.59985,-25.07 31.59994,-25.07105 31.6009,-25.07254 31.60142,-25.07412 31.60169,-25.07797 31.6016,-25.0806 31.60186,-25.08437 31.60161,-25.09063 31.60171,-25.09181 31.60169,-25.09291 31.60271,-25.09448 31.60306,-25.09558 31.60295,-25.09681 31.60179,-25.107 31.60234,-25.10886 31.60336,-25.111 31.60407,-25.11291 31.60446,-25.11524 31.60447,-25.11818 31.60511,-25.12212 31.6062,-25.1253 31.60646,-25.12655 31.60676,-25.12826 31.60762,-25.13045 31.60801,-25.13249 31.60759,-25.13723 31.60783,-25.13908 31.60919,-25.14351 31.61116,-25.14903 31.61256,-25.1545 31.61388,-25.15717 31.61665,-25.16142 31.61777,-25.16352 31.61927,-25.16491 31.61963,-25.16562 31.61947,-25.16614 31.61857,-25.1667 31.61804,-25.1676 31.61787,-25.1685 31.61822,-25.17035 31.61872,-25.17221 31.61915,-25.17577 31.61961,-25.17672 31.62099,-25.17845 31.62176,-25.17964 31.62221,-25.18154 31.62282,-25.18738 31.62258,-25.19065 31.62197,-25.19387 31.62166,-25.19518 31.6212,-25.19709 31.61993,-25.19931 31.61844,-25.20167 31.61774,-25.20351 31.61772,-25.20532 31.61832,-25.20741 31.61924,-25.20908 31.62162,-25.21119 31.62239,-25.21238 31.62287,-25.21566 31.6233,-25.22383 31.62307,-25.2261 31.62227,-25.22739 31.62084,-25.23072 31.62059,-25.2321 31.62138,-25.2354 31.62203,-25.23934 31.6213,-25.24231 31.62187,-25.2438 31.6236,-25.24531 31.6252,-25.24851 31.62655,-25.25352 31.62675,-25.25596 31.62671,-25.25958 31.62732,-25.26273 31.62754,-25.26607 31.62754,-25.27139 31.62703,-25.27292 31.62471,-25.27564 31.62324,-25.27754 31.62176,-25.27943 31.61977,-25.28203 31.6191,-25.28289 31.61697,-25.2852 31.61576,-25.28651 31.61418,-25.28884 31.61367,-25.29014 31.61355,-25.29246 31.61355,-25.29461 31.61299,-25.29586 31.61021,-25.29965 31.60749,-25.30305 31.60659,-25.30418 31.60602,-25.30571 31.60574,-25.3073 31.60228,-25.31285 31.59968,-25.31653 31.59781,-25.31896 31.59548,-25.32083 31.59458,-25.32225 31.59041,-25.32598 31.58733,-25.32978 31.58607,-25.33232 31.58481,-25.33486 31.58241,-25.34057 31.58132,-25.34397 31.58116,-25.34694 31.58193,-25.35109 31.58214,-25.35386 31.58153,-25.35598 31.5816,-25.35959 31.58088,-25.36118 31.57828,-25.36392 31.57778,-25.36593 31.57661,-25.3686 31.57571,-25.37081 31.57538,-25.37165 31.57171,-25.3748 31.57052,-25.3766 31.5698,-25.3785 31.56755,-25.38061 31.56647,-25.38262 31.56561,-25.38611 31.56487,-25.38993 31.56456,-25.39578 31.564,-25.39875 31.56344,-25.40172 31.56185,-25.40787 31.56028,-25.41146 31.56245,-25.41446 31.56209,-25.41491 31.56171,-25.41537 31.56024,-25.41809 31.56024,-25.41809 31.56024,-25.41809 31.5602,-25.4183 31.56007,-25.41896 31.56002,-25.42108 31.55948,-25.42353 31.55917,-25.42542 31.55917,-25.42542 31.55909,-25.42587 31.55903,-25.426 31.55844,-25.42729 31.55665,-25.42919 31.55624,-25.42955 31.55425,-25.43132 31.55251,-25.43246 31.55088,-25.43338 31.54968,-25.43436 31.54734,-25.43589 31.54549,-25.43708 31.54288,-25.43774 31.54048,-25.43774 31.53974,-25.438 31.53781,-25.43866 31.53502,-25.43891 31.53471,-25.43894 31.53451,-25.439 31.53188,-25.43981 31.53038,-25.44001 31.52628,-25.44057 31.5255,-25.44095 31.52426,-25.44155 31.52228,-25.44312 31.52214,-25.44323 31.52094,-25.4459 31.52045,-25.44784 31.52034,-25.4483 31.52034,-25.4483 31.52034,-25.4483 31.52049,-25.44944 31.52067,-25.4508 31.52067,-25.4508 31.52274,-25.45314 31.52375,-25.45364 31.52448,-25.45401 31.52878,-25.45521 31.53063,-25.45605 31.53063,-25.45605 31.53128,-25.45635 31.532,-25.45686 31.53417,-25.45837 31.53553,-25.46011 31.53553,-25.46012 31.53581,-25.46083 31.53624,-25.46196 31.53679,-25.46392 31.53681,-25.46402 31.53683,-25.46408 31.53674,-25.46485 31.53674,-25.46486 31.53673,-25.46495 31.53607,-25.46593 31.53554,-25.46623 31.53493,-25.46658 31.53368,-25.46691 31.53316,-25.46703 31.53275,-25.46713 31.53194,-25.46762 31.52991,-25.46881 31.52943,-25.46909 31.527,-25.47029 31.52404,-25.47175 31.51947,-25.47447 31.51545,-25.47676 31.51259,-25.47863 31.51087,-25.47975 31.50952,-25.4809 31.50793,-25.48226 31.50527,-25.48454 31.50381,-25.48534 31.50304,-25.48576 31.50168,-25.4865 31.50168,-25.4865 31.50143,-25.48672 31.49944,-25.48852 31.49662,-25.48986 31.49602,-25.49015 31.49569,-25.49032 31.49248,-25.49195 31.4891,-25.49363 31.48622,-25.49499 31.48268,-25.49663 31.48029,-25.49701 31.47762,-25.49761 31.47588,-25.49818 31.47495,-25.49848 31.47212,-25.49924 31.47016,-25.49995 31.46939,-25.50018 31.46799,-25.5006 31.46537,-25.50131 31.46479,-25.50156 31.46358,-25.50207 31.46261,-25.5024 31.46146,-25.50278 31.4607,-25.50316 31.46015,-25.50343 31.4577,-25.50397 31.45574,-25.50441 31.45517,-25.50448 31.45356,-25.50468 31.45101,-25.50501 31.44897,-25.50539 31.44872,-25.50544 31.44872,-25.50544 31.44869,-25.50545 31.44611,-25.50615 31.44471,-25.5071 31.44426,-25.5074 31.44192,-25.50871 31.44012,-25.5098 31.43935,-25.51026 31.4386,-25.51072 31.43631,-25.5117 31.43479,-25.51208 31.43439,-25.51212 31.43424,-25.51214 31.43343,-25.51192 31.43299,-25.51148 31.43087,-25.5111 31.42913,-25.51078 31.4269,-25.51007 31.42423,-25.50963 31.42361,-25.5096 31.42205,-25.50952 31.42106,-25.50985 31.42026,-25.51012 31.41797,-25.51029 31.41641,-25.51044 31.41585,-25.5105 31.41569,-25.51051 31.41427,-25.51061 31.41387,-25.5111 31.41378,-25.51121 31.41378,-25.51121 31.41318,-25.51268 31.41297,-25.51301 31.41258,-25.51361 31.41171,-25.51437 31.41158,-25.51439 31.41051,-25.51459 31.40943,-25.51459 31.40796,-25.51439 31.40779,-25.51437 31.40737,-25.51427 31.40589,-25.51393 31.40567,-25.51374 31.40513,-25.51328 31.40115,-25.51317 31.40038,-25.51312 31.3993,-25.51306 31.398,-25.51344 31.39722,-25.51375 31.3962,-25.51415 31.39561,-25.51441 31.39473,-25.5148 31.39419,-25.5154 31.39408,-25.51622 31.39408,-25.51753 31.39391,-25.51783 31.39359,-25.5184 31.39298,-25.51924 31.39298,-25.51924 31.39272,-25.51959 31.39206,-25.52166 31.39156,-25.5225 31.39125,-25.52302 31.39098,-25.52366 31.39098,-25.52366 31.3907,-25.52433 31.39054,-25.52453 31.39005,-25.52514 31.38874,-25.52569 31.38717,-25.52623 31.38692,-25.52632 31.38553,-25.52678 31.38292,-25.52712 31.38221,-25.52721 31.38205,-25.52727 31.38145,-25.52748 31.37764,-25.52781 31.37574,-25.52825 31.37459,-25.52852 31.37405,-25.52879 31.3734,-25.52912 31.37268,-25.52928 31.37268,-25.52928 31.37268,-25.52928 31.37221,-25.52954 31.3716,-25.52973 31.37104,-25.52995 31.37073,-25.53009 31.37059,-25.53016 31.37012,-25.53035 31.3696,-25.53057 31.36907,-25.5308 31.36875,-25.53099 31.36841,-25.53112 31.36803,-25.53115 31.36768,-25.53121 31.36717,-25.53134 31.36673,-25.53144 31.36642,-25.53155 31.36613,-25.53168 31.36558,-25.53182 31.36523,-25.53184 31.36468,-25.5318 31.36423,-25.53163 31.364,-25.53157 31.36346,-25.53161 31.36306,-25.53167 31.36258,-25.5318 31.36193,-25.5319 31.36073,-25.53209 31.36022,-25.53213 31.35977,-25.53213 31.35938,-25.53211 31.35896,-25.53203 31.35861,-25.53191 31.35833,-25.53171 31.35806,-25.53147 31.35781,-25.53118 31.35768,-25.53093 31.3575,-25.53048 31.35731,-25.53017 31.35697,-25.52989 31.35666,-25.52964 31.35634,-25.52952 31.35594,-25.52946 31.35551,-25.52941 31.35546,-25.52941 31.35492,-25.52938 31.35447,-25.52939 31.35393,-25.5294 31.35349,-25.52946 31.35321,-25.52957 31.35284,-25.52958 31.35238,-25.52948 31.35197,-25.52932 31.35154,-25.52918 31.35104,-25.52904 31.35064,-25.52899 31.35026,-25.52885 31.35004,-25.52867 31.34981,-25.5284 31.34948,-25.52803 31.34914,-25.5277 31.34876,-25.52745 31.3482,-25.52706 31.34767,-25.5268 31.34726,-25.5266 31.3469,-25.52642 31.34657,-25.52622 31.34627,-25.52604 31.34615,-25.52597 31.34603,-25.52588 31.34591,-25.52579 31.3456,-25.52556 31.34551,-25.52546 31.34543,-25.52536 31.34524,-25.52506 31.34498,-25.52475 31.34467,-25.52448 31.34438,-25.52435 31.34415,-25.52432 31.34397,-25.52432 31.34358,-25.52423 31.34333,-25.5241 31.34298,-25.52383 31.34253,-25.52353 31.34209,-25.5233 31.34169,-25.52312 31.34137,-25.52303 31.34089,-25.52286 31.34068,-25.52279 31.34052,-25.52274 31.34029,-25.52269 31.33923,-25.52241 31.33892,-25.5223 31.33858,-25.52217 31.33821,-25.52204 31.33774,-25.52199 31.33731,-25.522 31.33687,-25.52208 31.33654,-25.52216 31.3359,-25.52236 31.33545,-25.52256 31.33512,-25.52275 31.33486,-25.52291 31.33463,-25.5231 31.33431,-25.5232 31.33399,-25.52333 31.33376,-25.52343 31.33344,-25.52363 31.33293,-25.52398 31.3324,-25.52436 31.33196,-25.5246 31.33159,-25.52485 31.33112,-25.52513 31.3308,-25.52537 31.33055,-25.52551 31.33011,-25.52587 31.3298,-25.52613 31.32946,-25.52644 31.329,-25.52689 31.32805,-25.52776 31.3277,-25.52811 31.32725,-25.52842 31.32693,-25.52861 31.32655,-25.52887 31.32622,-25.52905 31.32595,-25.52918 31.3256,-25.52928 31.32514,-25.52941 31.32462,-25.5296 31.32407,-25.5298 31.32207,-25.53055 31.3213,-25.53095 31.32091,-25.53112 31.32047,-25.53133 31.32009,-25.5315 31.31889,-25.53191 31.31828,-25.5321 31.31793,-25.53225 31.31763,-25.53239 31.31742,-25.53252 31.31708,-25.53273 31.31687,-25.53286 31.31631,-25.53316 31.31596,-25.53337 31.31554,-25.53361 31.31519,-25.53387 31.31488,-25.53416 31.31466,-25.53434 31.31426,-25.53459 31.31375,-25.53483 31.3134,-25.535 31.31313,-25.53521 31.31301,-25.53535 31.31269,-25.53576 31.31243,-25.53601 31.31219,-25.53625 31.31202,-25.53644 31.31174,-25.53681 31.3115,-25.53719 31.3114,-25.53748 31.31138,-25.53769 31.31136,-25.53803 31.31143,-25.53844 31.31149,-25.53868 31.3115,-25.53891 31.31143,-25.53907 31.31125,-25.53917 31.31102,-25.53924 31.31074,-25.53942 31.31045,-25.53957 31.31025,-25.53965 31.31008,-25.53966 31.30987,-25.53964 31.30966,-25.53953 31.30947,-25.53947 31.30931,-25.53946 31.30907,-25.53948 31.30876,-25.53955 31.30849,-25.53959 31.30812,-25.5396 31.30779,-25.53962 31.30747,-25.53969 31.30728,-25.53975 31.30708,-25.53985 31.30685,-25.53996 31.30665,-25.54004 31.3065,-25.54013 31.30628,-25.5402 31.30595,-25.54027 31.3056,-25.54032 31.3051,-25.54037 31.30469,-25.54044 31.30444,-25.5405 31.30415,-25.54056 31.30391,-25.54059 31.30363,-25.54058 31.30307,-25.54061 31.3025,-25.54062 31.30199,-25.54061 31.30101,-25.54065 31.30073,-25.54075 31.30061,-25.54089 31.30047,-25.54109 31.30037,-25.54127 31.30027,-25.54143 31.30015,-25.54151 31.29999,-25.5415 31.29985,-25.54144 31.2997,-25.54134 31.29954,-25.54122 31.29938,-25.54114 31.29926,-25.54109 31.29916,-25.54103 31.29881,-25.54088 31.29853,-25.54078 31.29827,-25.54072 31.29802,-25.54062 31.2975,-25.54037 31.29715,-25.54022 31.29679,-25.54005 31.29635,-25.53987 31.29589,-25.53976 31.29549,-25.53969 31.29509,-25.53958 31.29474,-25.53942 31.29426,-25.53921 31.29356,-25.53894 31.2931,-25.53875 31.29274,-25.53859 31.29258,-25.53846 31.29213,-25.53822 31.29131,-25.53772 31.2908,-25.53737 31.29047,-25.53714 31.29034,-25.53685 31.29021,-25.53648 31.29011,-25.53607 31.29002,-25.5359 31.28983,-25.53574 31.28961,-25.53558 31.28922,-25.53541 31.28888,-25.53523 31.28848,-25.53487 31.28817,-25.53458 31.28782,-25.53431 31.28745,-25.53406 31.28709,-25.53386 31.28652,-25.53353 31.28604,-25.53324 31.28567,-25.53304 31.28531,-25.53285 31.28491,-25.53263 31.28461,-25.53244 31.28442,-25.53237 31.28415,-25.53226 31.28392,-25.53214 31.28373,-25.532 31.28359,-25.53187</coordinates></LinearRing></outerBoundaryIs></Polygon></MultiGeometry></Placemark></Document></kml>