<?xml version="1.0" encoding="UTF-8"?><kml xmlns="http://www.opengis.net/kml/2.2"><Document><Placemark><name>Nkomazi</name><description>Local Municipality 876</description><ExtendedData><Data name="code"><value>876</value></Data><Data name="name"><value>Nkomazi</value></Data><Data name="description"><value>Local Municipality 876</value></Data></ExtendedData><MultiGeometry><Polygon><outerBoundaryIs><LinearRing><coordinates>31.86786,-25.9996 31.79284,-25.95308 31.75989,-25.93265 31.75986,-25.93263 31.72039,-25.90811 31.72036,-25.90809 31.69247,-25.89073 31.69232,-25.89064 31.6893,-25.88876 31.67663,-25.88088 31.66785,-25.87542 31.60341,-25.83531 31.60339,-25.83529 31.59407,-25.8294 31.59136,-25.82768 31.53964,-25.79497 31.53962,-25.79496 31.52517,-25.78604 31.49249,-25.76585 31.48878,-25.76356 31.46809,-25.75078 31.46263,-25.74741 31.4163,-25.71876 31.33352,-25.7388 31.31594,-25.74304 31.28848,-25.74993 31.29455,-25.73005 31.28174,-25.71405 31.27672,-25.71999 31.27669,-25.72002 31.27657,-25.72003 31.27647,-25.72007 31.27626,-25.72011 31.27603,-25.72014 31.27581,-25.72014 31.27559,-25.72015 31.27511,-25.72015 31.27484,-25.72017 31.27452,-25.72016 31.27424,-25.72015 31.27403,-25.72013 31.27382,-25.72009 31.27366,-25.72006 31.27344,-25.72 31.27308,-25.71998 31.27292,-25.71999 31.27274,-25.71996 31.27257,-25.71993 31.27245,-25.71986 31.27238,-25.71973 31.27231,-25.71959 31.27228,-25.71944 31.27228,-25.71916 31.2723,-25.71903 31.27232,-25.71892 31.27238,-25.71879 31.27245,-25.71864 31.27255,-25.71849 31.27265,-25.7184 31.27282,-25.7183 31.27303,-25.71816 31.27319,-25.71807 31.27333,-25.71799 31.27349,-25.71785 31.27366,-25.71772 31.27381,-25.71753 31.27395,-25.71734 31.27413,-25.71708 31.27422,-25.71694 31.27436,-25.71679 31.27451,-25.7166 31.27464,-25.71642 31.27473,-25.71629 31.27479,-25.71618 31.2749,-25.71585 31.27497,-25.71561 31.27501,-25.71536 31.27503,-25.71516 31.27503,-25.71496 31.27501,-25.71473 31.27499,-25.71451 31.27496,-25.71425 31.27493,-25.71405 31.27491,-25.71386 31.27489,-25.71369 31.27487,-25.71347 31.27482,-25.71328 31.27476,-25.71307 31.2747,-25.71288 31.27463,-25.71271 31.27453,-25.71249 31.27443,-25.71226 31.27436,-25.71205 31.27426,-25.71173 31.27415,-25.71133 31.27403,-25.71089 31.27394,-25.71045 31.27387,-25.71001 31.2738,-25.70965 31.27369,-25.70895 31.27367,-25.70859 31.27366,-25.70827 31.27366,-25.70793 31.27365,-25.70759 31.27365,-25.70699 31.27364,-25.70678 31.27363,-25.70663 31.27363,-25.7064 31.27365,-25.70627 31.27369,-25.70607 31.27375,-25.70585 31.27383,-25.70561 31.2739,-25.70549 31.27394,-25.70543 31.27399,-25.7053 31.27405,-25.70513 31.27408,-25.70493 31.2741,-25.70465 31.27412,-25.70435 31.27413,-25.70428 31.26208,-25.69232 31.25979,-25.68101 31.25716,-25.66797 31.2831,-25.67131 31.28551,-25.67139 31.28551,-25.67098 31.28552,-25.67079 31.28554,-25.67048 31.28562,-25.6701 31.28571,-25.66982 31.28584,-25.66947 31.28593,-25.66919 31.28597,-25.66899 31.28591,-25.66886 31.28578,-25.66876 31.2856,-25.66868 31.28543,-25.66854 31.28529,-25.66839 31.28515,-25.66821 31.28505,-25.66804 31.28501,-25.66788 31.28503,-25.66774 31.28506,-25.66759 31.2851,-25.66741 31.28516,-25.66725 31.28521,-25.66711 31.28527,-25.66699 31.28532,-25.6669 31.2854,-25.66674 31.28548,-25.66656 31.28551,-25.66636 31.28551,-25.66612 31.28545,-25.66587 31.2854,-25.66565 31.28534,-25.66547 31.28532,-25.66532 31.28532,-25.665 31.28533,-25.66462 31.30327,-25.66385 31.30379,-25.66237 31.30525,-25.65821 31.30751,-25.65154 31.31015,-25.64344 31.31022,-25.64324 31.3077,-25.64298 31.30751,-25.64195 31.30602,-25.63889 31.30068,-25.64192 31.30048,-25.63879 31.29769,-25.63503 31.29676,-25.63429 31.2964,-25.63401 31.29651,-25.63401 31.29669,-25.634 31.29689,-25.634 31.29715,-25.63391 31.29737,-25.63383 31.29753,-25.6337 31.29763,-25.63363 31.29772,-25.6336 31.29783,-25.63346 31.29799,-25.63338 31.2981,-25.63334 31.29816,-25.63327 31.29832,-25.63308 31.29848,-25.63294 31.29861,-25.63277 31.29877,-25.63254 31.29889,-25.63237 31.29897,-25.63225 31.29904,-25.63212 31.29915,-25.63198 31.29934,-25.63178 31.29947,-25.63162 31.29945,-25.63149 31.29945,-25.63138 31.29944,-25.63131 31.29945,-25.63124 31.29947,-25.63115 31.2995,-25.63108 31.29955,-25.63102 31.29967,-25.63092 31.30004,-25.63079 31.30057,-25.63074 31.30085,-25.63069 31.30122,-25.63063 31.30144,-25.63049 31.3015,-25.63043 31.30155,-25.63035 31.30158,-25.63021 31.3016,-25.6301 31.30166,-25.62995 31.3017,-25.62977 31.30172,-25.62957 31.30145,-25.62889 31.30124,-25.6286 31.30113,-25.62845 31.30069,-25.62813 31.30058,-25.62795 31.30056,-25.62786 31.30054,-25.62772 31.30055,-25.62761 31.30058,-25.62747 31.30063,-25.62734 31.30072,-25.62707 31.30086,-25.62691 31.30109,-25.62671 31.3015,-25.62644 31.30205,-25.62621 31.30223,-25.62614 31.30241,-25.62606 31.30258,-25.62595 31.30281,-25.62583 31.30291,-25.62576 31.30266,-25.62553 31.30264,-25.62547 31.30263,-25.62542 31.30268,-25.62526 31.30687,-25.6267 31.3116,-25.6291 31.31479,-25.63101 31.31482,-25.63089 31.31526,-25.62892 31.31536,-25.62855 31.316,-25.62752 31.31606,-25.62738 31.31689,-25.62632 31.31845,-25.62443 31.31962,-25.62302 31.33065,-25.60966 31.33074,-25.60936 31.33078,-25.60898 31.32795,-25.60621 31.32418,-25.60269 31.32023,-25.59888 31.31672,-25.59551 31.31429,-25.59315 31.31348,-25.59244 31.31179,-25.59078 31.30838,-25.58751 31.30836,-25.58761 31.30833,-25.58775 31.30833,-25.58793 31.30836,-25.58807 31.3084,-25.58825 31.30845,-25.58848 31.30849,-25.58873 31.30854,-25.58895 31.30855,-25.58912 31.30852,-25.58932 31.30843,-25.58952 31.30823,-25.58979 31.30805,-25.58999 31.30794,-25.59007 31.30767,-25.59016 31.30735,-25.59023 31.30704,-25.5903 31.30666,-25.59032 31.30636,-25.59028 31.30619,-25.59024 31.30603,-25.5902 31.30589,-25.59017 31.30573,-25.59018 31.30545,-25.59022 31.30495,-25.59028 31.30452,-25.59038 31.30424,-25.59045 31.30376,-25.59058 31.30305,-25.59076 31.30261,-25.59091 31.30236,-25.59099 31.30207,-25.59108 31.30176,-25.59115 31.30148,-25.59128 31.30115,-25.59141 31.30086,-25.59152 31.30068,-25.59162 31.30049,-25.59176 31.30031,-25.59189 31.30012,-25.59204 31.3,-25.59213 31.29984,-25.5922 31.29955,-25.59234 31.29917,-25.59252 31.29898,-25.59263 31.29888,-25.59269 31.29872,-25.59278 31.29855,-25.59287 31.29842,-25.59296 31.29825,-25.59305 31.29801,-25.59314 31.29776,-25.5932 31.29752,-25.59327 31.29744,-25.59331 31.29721,-25.59343 31.29687,-25.59363 31.29646,-25.59388 31.29609,-25.5941 31.29554,-25.59457 31.29519,-25.59492 31.29508,-25.59505 31.29501,-25.59517 31.29485,-25.59539 31.2947,-25.59566 31.29458,-25.59584 31.2945,-25.59607 31.29444,-25.59641 31.29437,-25.59674 31.29425,-25.59728 31.29418,-25.5975 31.29405,-25.59784 31.29396,-25.59832 31.29389,-25.59862 31.29359,-25.59912 31.2934,-25.59946 31.29313,-25.5999 31.29281,-25.60046 31.29253,-25.60084 31.29223,-25.60112 31.29191,-25.60134 31.2915,-25.60161 31.29108,-25.60188 31.29068,-25.60225 31.29041,-25.60253 31.29018,-25.60274 31.28999,-25.60284 31.28975,-25.60299 31.28942,-25.60316 31.28916,-25.60334 31.28896,-25.60355 31.28877,-25.60375 31.28861,-25.60404 31.28851,-25.60436 31.28843,-25.60474 31.28832,-25.60518 31.28814,-25.60573 31.28796,-25.60609 31.28783,-25.60654 31.28773,-25.60689 31.28759,-25.60741 31.28742,-25.60769 31.28725,-25.60805 31.28707,-25.60841 31.28697,-25.60871 31.28662,-25.60863 31.28576,-25.60844 31.27963,-25.60647 31.28421,-25.59848 31.29293,-25.58275 31.29048,-25.56751 31.27585,-25.56024 31.2773,-25.55064 31.27738,-25.54996 31.27872,-25.5411 31.27994,-25.53872 31.28014,-25.53839 31.28323,-25.53253 31.28339,-25.53224 31.28359,-25.53187 31.28373,-25.532 31.28392,-25.53214 31.28415,-25.53226 31.28442,-25.53237 31.28461,-25.53244 31.28491,-25.53263 31.28531,-25.53285 31.28567,-25.53304 31.28604,-25.53324 31.28652,-25.53353 31.28709,-25.53386 31.28745,-25.53406 31.28782,-25.53431 31.28817,-25.53458 31.28848,-25.53487 31.28888,-25.53523 31.28922,-25.53541 31.28961,-25.53558 31.28983,-25.53574 31.29002,-25.5359 31.29011,-25.53607 31.29021,-25.53648 31.29034,-25.53685 31.29047,-25.53714 31.2908,-25.53737 31.29131,-25.53772 31.29213,-25.53822 31.29258,-25.53846 31.29274,-25.53859 31.2931,-25.53875 31.29356,-25.53894 31.29426,-25.53921 31.29474,-25.53942 31.29509,-25.53958 31.29549,-25.53969 31.29589,-25.53976 31.29635,-25.53987 31.29679,-25.54005 31.29715,-25.54022 31.2975,-25.54037 31.29802,-25.54062 31.29827,-25.54072 31.29853,-25.54078 31.29881,-25.54088 31.29916,-25.54103 31.29926,-25.54109 31.29938,-25.54114 31.29954,-25.54122 31.2997,-25.54134 31.29985,-25.54144 31.29999,-25.5415 31.30015,-25.54151 31.30027,-25.54143 31.30037,-25.54127 31.30047,-25.54109 31.30061,-25.54089 31.30073,-25.54075 31.30101,-25.54065 31.30199,-25.54061 31.3025,-25.54062 31.30307,-25.54061 31.30363,-25.54058 31.30391,-25.54059 31.30415,-25.54056 31.30444,-25.5405 31.30469,-25.54044 31.3051,-25.54037 31.3056,-25.54032 31.30595,-25.54027 31.30628,-25.5402 31.3065,-25.54013 31.30665,-25.54004 31.30685,-25.53996 31.30708,-25.53985 31.30728,-25.53975 31.30747,-25.53969 31.30779,-25.53962 31.30812,-25.5396 31.30849,-25.53959 31.30876,-25.53955 31.30907,-25.53948 31.30931,-25.53946 31.30947,-25.53947 31.30966,-25.53953 31.30987,-25.53964 31.31008,-25.53966 31.31025,-25.53965 31.31045,-25.53957 31.31074,-25.53942 31.31102,-25.53924 31.31125,-25.53917 31.31143,-25.53907 31.3115,-25.53891 31.31149,-25.53868 31.31143,-25.53844 31.31136,-25.53803 31.31138,-25.53769 31.3114,-25.53748 31.3115,-25.53719 31.31174,-25.53681 31.31202,-25.53644 31.31219,-25.53625 31.31243,-25.53601 31.31269,-25.53576 31.31301,-25.53535 31.31313,-25.53521 31.3134,-25.535 31.31375,-25.53483 31.31426,-25.53459 31.31466,-25.53434 31.31488,-25.53416 31.31519,-25.53387 31.31554,-25.53361 31.31596,-25.53337 31.31631,-25.53316 31.31687,-25.53286 31.31708,-25.53273 31.31742,-25.53252 31.31763,-25.53239 31.31793,-25.53225 31.31828,-25.5321 31.31889,-25.53191 31.32009,-25.5315 31.32047,-25.53133 31.32091,-25.53112 31.3213,-25.53095 31.32207,-25.53055 31.32407,-25.5298 31.32462,-25.5296 31.32514,-25.52941 31.3256,-25.52928 31.32595,-25.52918 31.32622,-25.52905 31.32655,-25.52887 31.32693,-25.52861 31.32725,-25.52842 31.3277,-25.52811 31.32805,-25.52776 31.329,-25.52689 31.32946,-25.52644 31.3298,-25.52613 31.33011,-25.52587 31.33055,-25.52551 31.3308,-25.52537 31.33112,-25.52513 31.33159,-25.52485 31.33196,-25.5246 31.3324,-25.52436 31.33293,-25.52398 31.33344,-25.52363 31.33376,-25.52343 31.33399,-25.52333 31.33431,-25.5232 31.33463,-25.5231 31.33486,-25.52291 31.33512,-25.52275 31.33545,-25.52256 31.3359,-25.52236 31.33654,-25.52216 31.33687,-25.52208 31.33731,-25.522 31.33774,-25.52199 31.33821,-25.52204 31.33858,-25.52217 31.33892,-25.5223 31.33923,-25.52241 31.34029,-25.52269 31.34052,-25.52274 31.34068,-25.52279 31.34089,-25.52286 31.34137,-25.52303 31.34169,-25.52312 31.34209,-25.5233 31.34253,-25.52353 31.34298,-25.52383 31.34333,-25.5241 31.34358,-25.52423 31.34397,-25.52432 31.34415,-25.52432 31.34438,-25.52435 31.34467,-25.52448 31.34498,-25.52475 31.34524,-25.52506 31.34543,-25.52536 31.34551,-25.52546 31.3456,-25.52556 31.34591,-25.52579 31.34603,-25.52588 31.34615,-25.52597 31.34627,-25.52604 31.34657,-25.52622 31.3469,-25.52642 31.34726,-25.5266 31.34767,-25.5268 31.3482,-25.52706 31.34876,-25.52745 31.34914,-25.5277 31.34948,-25.52803 31.34981,-25.5284 31.35004,-25.52867 31.35026,-25.52885 31.35064,-25.52899 31.35104,-25.52904 31.35154,-25.52918 31.35197,-25.52932 31.35238,-25.52948 31.35284,-25.52958 31.35321,-25.52957 31.35349,-25.52946 31.35393,-25.5294 31.35447,-25.52939 31.35492,-25.52938 31.35546,-25.52941 31.35551,-25.52941 31.35594,-25.52946 31.35634,-25.52952 31.35666,-25.52964 31.35697,-25.52989 31.35731,-25.53017 31.3575,-25.53048 31.35768,-25.53093 31.35781,-25.53118 31.35806,-25.53147 31.35833,-25.53171 31.35861,-25.53191 31.35896,-25.53203 31.35938,-25.53211 31.35977,-25.53213 31.36022,-25.53213 31.36073,-25.53209 31.36193,-25.5319 31.36258,-25.5318 31.36306,-25.53167 31.36346,-25.53161 31.364,-25.53157 31.36423,-25.53163 31.36468,-25.5318 31.36523,-25.53184 31.36558,-25.53182 31.36613,-25.53168 31.36642,-25.53155 31.36673,-25.53144 31.36717,-25.53134 31.36768,-25.53121 31.36803,-25.53115 31.36841,-25.53112 31.36875,-25.53099 31.36907,-25.5308 31.3696,-25.53057 31.37012,-25.53035 31.37059,-25.53016 31.37073,-25.53009 31.37104,-25.52995 31.3716,-25.52973 31.37221,-25.52954 31.37268,-25.52928 31.37268,-25.52928 31.37268,-25.52928 31.3734,-25.52912 31.37405,-25.52879 31.37459,-25.52852 31.37574,-25.52825 31.37764,-25.52781 31.38145,-25.52748 31.38205,-25.52727 31.38221,-25.52721 31.38292,-25.52712 31.38553,-25.52678 31.38692,-25.52632 31.38717,-25.52623 31.38874,-25.52569 31.39005,-25.52514 31.39054,-25.52453 31.3907,-25.52433 31.39098,-25.52366 31.39098,-25.52366 31.39125,-25.52302 31.39156,-25.5225 31.39206,-25.52166 31.39272,-25.51959 31.39298,-25.51924 31.39298,-25.51924 31.39359,-25.5184 31.39391,-25.51783 31.39408,-25.51753 31.39408,-25.51622 31.39419,-25.5154 31.39473,-25.5148 31.39561,-25.51441 31.3962,-25.51415 31.39722,-25.51375 31.398,-25.51344 31.3993,-25.51306 31.40038,-25.51312 31.40115,-25.51317 31.40513,-25.51328 31.40567,-25.51374 31.40589,-25.51393 31.40737,-25.51427 31.40779,-25.51437 31.40796,-25.51439 31.40943,-25.51459 31.41051,-25.51459 31.41158,-25.51439 31.41171,-25.51437 31.41258,-25.51361 31.41297,-25.51301 31.41318,-25.51268 31.41378,-25.51121 31.41378,-25.51121 31.41387,-25.5111 31.41427,-25.51061 31.41569,-25.51051 31.41585,-25.5105 31.41641,-25.51044 31.41797,-25.51029 31.42026,-25.51012 31.42106,-25.50985 31.42205,-25.50952 31.42361,-25.5096 31.42423,-25.50963 31.4269,-25.51007 31.42913,-25.51078 31.43087,-25.5111 31.43299,-25.51148 31.43343,-25.51192 31.43424,-25.51214 31.43439,-25.51212 31.43479,-25.51208 31.43631,-25.5117 31.4386,-25.51072 31.43935,-25.51026 31.44012,-25.5098 31.44192,-25.50871 31.44426,-25.5074 31.44471,-25.5071 31.44611,-25.50615 31.44869,-25.50545 31.44872,-25.50544 31.44872,-25.50544 31.44897,-25.50539 31.45101,-25.50501 31.45356,-25.50468 31.45517,-25.50448 31.45574,-25.50441 31.4577,-25.50397 31.46015,-25.50343 31.4607,-25.50316 31.46146,-25.50278 31.46261,-25.5024 31.46358,-25.50207 31.46479,-25.50156 31.46537,-25.50131 31.46799,-25.5006 31.46939,-25.50018 31.47016,-25.49995 31.47212,-25.49924 31.47495,-25.49848 31.47588,-25.49818 31.47762,-25.49761 31.48029,-25.49701 31.48268,-25.49663 31.48622,-25.49499 31.4891,-25.49363 31.49248,-25.49195 31.49569,-25.49032 31.49602,-25.49015 31.49662,-25.48986 31.49944,-25.48852 31.50143,-25.48672 31.50168,-25.4865 31.50168,-25.4865 31.50304,-25.48576 31.50381,-25.48534 31.50527,-25.48454 31.50793,-25.48226 31.50952,-25.4809 31.51087,-25.47975 31.51259,-25.47863 31.51545,-25.47676 31.51947,-25.47447 31.52404,-25.47175 31.527,-25.47029 31.52943,-25.46909 31.52991,-25.46881 31.53194,-25.46762 31.53275,-25.46713 31.53316,-25.46703 31.53368,-25.46691 31.53493,-25.46658 31.53554,-25.46623 31.53607,-25.46593 31.53673,-25.46495 31.53674,-25.46486 31.53674,-25.46485 31.53683,-25.46408 31.53681,-25.46402 31.53679,-25.46392 31.53624,-25.46196 31.53581,-25.46083 31.53553,-25.46012 31.53553,-25.46011 31.53417,-25.45837 31.532,-25.45686 31.53128,-25.45635 31.53063,-25.45605 31.53063,-25.45605 31.52878,-25.45521 31.52448,-25.45401 31.52375,-25.45364 31.52274,-25.45314 31.52067,-25.4508 31.52067,-25.4508 31.52049,-25.44944 31.52034,-25.4483 31.52034,-25.4483 31.52034,-25.4483 31.52045,-25.44784 31.52094,-25.4459 31.52214,-25.44323 31.52228,-25.44312 31.52426,-25.44155 31.5255,-25.44095 31.52628,-25.44057 31.53038,-25.44001 31.53188,-25.43981 31.53451,-25.439 31.53471,-25.43894 31.53502,-25.43891 31.53781,-25.43866 31.53974,-25.438 31.54048,-25.43774 31.54288,-25.43774 31.54549,-25.43708 31.54734,-25.43589 31.54968,-25.43436 31.55088,-25.43338 31.55251,-25.43246 31.55425,-25.43132 31.55624,-25.42955 31.55665,-25.42919 31.55844,-25.42729 31.55903,-25.426 31.55909,-25.42587 31.55917,-25.42542 31.55917,-25.42542 31.55948,-25.42353 31.56002,-25.42108 31.56007,-25.41896 31.5602,-25.4183 31.56024,-25.41809 31.56024,-25.41809 31.56024,-25.41809 31.56171,-25.41537 31.56209,-25.41491 31.56245,-25.41446 31.56028,-25.41146 31.56185,-25.40787 31.56344,-25.40172 31.564,-25.39875 31.56456,-25.39578 31.56487,-25.38993 31.56561,-25.38611 31.56647,-25.38262 31.56755,-25.38061 31.5698,-25.3785 31.57052,-25.3766 31.57171,-25.3748 31.57538,-25.37165 31.57571,-25.37081 31.57661,-25.3686 31.57778,-25.36593 31.57828,-25.36392 31.58088,-25.36118 31.5816,-25.35959 31.58153,-25.35598 31.58214,-25.35386 31.58193,-25.35109 31.58116,-25.34694 31.58132,-25.34397 31.58241,-25.34057 31.58481,-25.33486 31.58607,-25.33232 31.58733,-25.32978 31.59041,-25.32598 31.59458,-25.32225 31.59548,-25.32083 31.59781,-25.31896 31.59968,-25.31653 31.60228,-25.31285 31.60574,-25.3073 31.60602,-25.30571 31.60659,-25.30418 31.60749,-25.30305 31.61021,-25.29965 31.61299,-25.29586 31.61355,-25.29461 31.61355,-25.29246 31.61367,-25.29014 31.61418,-25.28884 31.61576,-25.28651 31.61697,-25.2852 31.6191,-25.28289 31.61977,-25.28203 31.62176,-25.27943 31.62324,-25.27754 31.62471,-25.27564 31.62703,-25.27292 31.62754,-25.27139 31.62754,-25.26607 31.62732,-25.26273 31.62671,-25.25958 31.62675,-25.25596 31.62655,-25.25352 31.6252,-25.24851 31.6236,-25.24531 31.62187,-25.2438 31.6213,-25.24231 31.62203,-25.23934 31.62138,-25.2354 31.62059,-25.2321 31.62084,-25.23072 31.62227,-25.22739 31.62307,-25.2261 31.6233,-25.22383 31.62287,-25.21566 31.62239,-25.21238 31.62162,-25.21119 31.61924,-25.20908 31.61832,-25.20741 31.61772,-25.20532 31.61774,-25.20351 31.61844,-25.20167 31.61993,-25.19931 31.6212,-25.19709 31.62166,-25.19518 31.62197,-25.19387 31.62258,-25.19065 31.62282,-25.18738 31.62221,-25.18154 31.62176,-25.17964 31.62099,-25.17845 31.61961,-25.17672 31.61915,-25.17577 31.61872,-25.17221 31.61822,-25.17035 31.61787,-25.1685 31.61804,-25.1676 31.61857,-25.1667 31.61947,-25.16614 31.61963,-25.16562 31.61927,-25.16491 31.61777,-25.16352 31.61665,-25.16142 31.61388,-25.15717 31.61256,-25.1545 31.61116,-25.14903 31.60919,-25.14351 31.60783,-25.13908 31.60759,-25.13723 31.60801,-25.13249 31.60762,-25.13045 31.60676,-25.12826 31.60646,-25.12655 31.6062,-25.1253 31.60511,-25.12212 31.60447,-25.11818 31.60446,-25.11524 31.60407,-25.11291 31.60336,-25.111 31.60234,-25.10886 31.60179,-25.107 31.60295,-25.09681 31.60306,-25.09558 31.60271,-25.09448 31.60169,-25.09291 31.60171,-25.09181 31.60161,-25.09063 31.60186,-25.08437 31.6016,-25.0806 31.60169,-25.07797 31.60142,-25.07412 31.6009,-25.07254 31.59994,-25.07105 31.59985,-25.07 31.59967,-25.06737 31.59915,-25.06527 31.59871,-25.0615 31.5981,-25.06019 31.59626,-25.05817 31.59556,-25.05633 31.59494,-25.05476 31.59336,-25.05239 31.59153,-25.0502 31.59021,-25.04845 31.58875,-25.04615 31.58868,-25.04603 31.58897,-25.04555 31.58945,-25.04418 31.58929,-25.04095 31.5888,-25.03804 31.588,-25.03481 31.58735,-25.02892 31.58663,-25.02682 31.58638,-25.02513 31.58719,-25.0202 31.58824,-25.01366 31.58848,-25.01172 31.58937,-25.01059 31.59115,-25.00906 31.59292,-25.00745 31.59381,-25.00599 31.59422,-25.00395 31.59504,-25.00412 31.59921,-25.00412 31.60197,-25.00381 31.60393,-25.00289 31.60651,-25.00112 31.60847,-24.99921 31.60976,-24.99762 31.61025,-24.9959 31.61031,-24.99333 31.61052,-24.99157 31.61089,-24.98925 31.61092,-24.98924 31.61104,-24.98923 31.61129,-24.9892 31.61165,-24.98916 31.61184,-24.98916 31.61188,-24.98914 31.61197,-24.98912 31.6121,-24.98912 31.61217,-24.98909 31.61224,-24.98908 31.61231,-24.98908 31.61234,-24.98907 31.61244,-24.98904 31.61254,-24.98902 31.61271,-24.98893 31.61304,-24.98878 31.61327,-24.98871 31.61332,-24.9887 31.6135,-24.98865 31.61367,-24.98862 31.6138,-24.98861 31.61416,-24.9887 31.61456,-24.98882 31.6146,-24.98882 31.61478,-24.98884 31.61483,-24.98885 31.61514,-24.9889 31.61525,-24.98889 31.6153,-24.98889 31.61535,-24.9889 31.61559,-24.98892 31.61586,-24.98895 31.61591,-24.98895 31.61595,-24.98896 31.61618,-24.98897 31.61639,-24.98898 31.6165,-24.98895 31.6166,-24.98893 31.61665,-24.98891 31.61671,-24.98889 31.6168,-24.98887 31.61683,-24.98886 31.61699,-24.9888 31.61704,-24.98878 31.6172,-24.98872 31.61732,-24.98867 31.61737,-24.98865 31.61743,-24.98862 31.61762,-24.98851 31.61766,-24.98849 31.61783,-24.98839 31.6179,-24.98834 31.61799,-24.9883 31.61804,-24.98826 31.61809,-24.98823 31.61816,-24.98818 31.61821,-24.98815 31.61827,-24.98812 31.61835,-24.98808 31.61839,-24.98806 31.61845,-24.98803 31.61857,-24.98795 31.61865,-24.9879 31.61873,-24.98786 31.61878,-24.98783 31.61883,-24.98781 31.61892,-24.98776 31.61902,-24.98769 31.61907,-24.98766 31.61911,-24.98763 31.61914,-24.98761 31.61917,-24.98759 31.61932,-24.98748 31.61947,-24.98738 31.61958,-24.98731 31.61977,-24.9872 31.61983,-24.98716 31.61987,-24.98715 31.62006,-24.98702 31.62072,-24.9866 31.62122,-24.98629 31.62132,-24.98626 31.62143,-24.9862 31.62148,-24.98617 31.62152,-24.98616 31.6216,-24.98613 31.62165,-24.98611 31.62191,-24.98598 31.62223,-24.98582 31.62226,-24.9858 31.62249,-24.98568 31.62288,-24.98546 31.62299,-24.9854 31.62307,-24.98535 31.62315,-24.98532 31.62318,-24.98531 31.62323,-24.98529 31.6233,-24.98525 31.62355,-24.98513 31.62361,-24.9851 31.62367,-24.98507 31.62372,-24.98504 31.6239,-24.98495 31.62406,-24.98487 31.62434,-24.98476 31.62438,-24.98476 31.62455,-24.9847 31.62511,-24.98452 31.62519,-24.98449 31.62553,-24.98439 31.62567,-24.98433 31.62583,-24.98426 31.62595,-24.98423 31.62605,-24.9842 31.62612,-24.98418 31.62631,-24.98414 31.62637,-24.98412 31.62655,-24.98407 31.62666,-24.98406 31.62671,-24.98405 31.62678,-24.98405 31.62686,-24.98403 31.62691,-24.98402 31.62716,-24.98398 31.62725,-24.98395 31.62731,-24.98394 31.62737,-24.98393 31.62747,-24.98392 31.62777,-24.98381 31.6279,-24.98375 31.62798,-24.98372 31.62803,-24.98367 31.62808,-24.98363 31.62826,-24.98354 31.62858,-24.98339 31.6289,-24.98325 31.629,-24.9832 31.62907,-24.98317 31.62913,-24.98315 31.62923,-24.98311 31.62934,-24.98307 31.62939,-24.98304 31.62973,-24.98294 31.63004,-24.98282 31.63065,-24.98268 31.63076,-24.98266 31.63126,-24.98254 31.6318,-24.9823 31.63214,-24.98215 31.63242,-24.98207 31.63328,-24.98182 31.63467,-24.98143 31.63507,-24.98132 31.63543,-24.98115 31.6363,-24.98074 31.63709,-24.98039 31.63741,-24.98025 31.6384,-24.97994 31.63939,-24.97956 31.63991,-24.97929 31.6405,-24.97899 31.64186,-24.97833 31.64279,-24.97781 31.64285,-24.97781 31.64334,-24.97775 31.64351,-24.9777 31.64364,-24.97768 31.64381,-24.97765 31.64384,-24.97764 31.644,-24.97761 31.64409,-24.97759 31.64443,-24.97754 31.64477,-24.97751 31.64505,-24.97749 31.64515,-24.97748 31.64531,-24.97746 31.64543,-24.97746 31.64549,-24.97746 31.64558,-24.97745 31.64567,-24.97744 31.64613,-24.97737 31.6462,-24.97736 31.64623,-24.97735 31.64644,-24.97733 31.64665,-24.97729 31.6467,-24.97728 31.64684,-24.97727 31.64701,-24.97726 31.64707,-24.97725 31.64713,-24.97724 31.64738,-24.97722 31.64753,-24.97721 31.64767,-24.97721 31.64784,-24.9772 31.64799,-24.97719 31.64812,-24.9772 31.64821,-24.9772 31.64826,-24.97721 31.64836,-24.97722 31.64842,-24.97722 31.64864,-24.97725 31.64901,-24.97724 31.64904,-24.97724 31.64922,-24.97723 31.64932,-24.97718 31.64945,-24.9771 31.64949,-24.97707 31.64952,-24.97705 31.64959,-24.977 31.64978,-24.97686 31.64997,-24.97673 31.65003,-24.97669 31.65008,-24.97666 31.65013,-24.97663 31.65018,-24.9766 31.65023,-24.97658 31.65034,-24.97652 31.65042,-24.97648 31.65049,-24.97645 31.65065,-24.97638 31.65072,-24.97634 31.65075,-24.97633 31.65082,-24.9763 31.65094,-24.97627 31.65097,-24.97626 31.6512,-24.97619 31.65124,-24.97618 31.65139,-24.97615 31.65149,-24.97612 31.65165,-24.97608 31.65188,-24.97602 31.65191,-24.97601 31.65201,-24.97599 31.6522,-24.97594 31.65237,-24.97591 31.65272,-24.97585 31.65318,-24.97571 31.65368,-24.97555 31.65387,-24.97549 31.65393,-24.97547 31.65413,-24.97542 31.65433,-24.97535 31.65437,-24.97534 31.65444,-24.9753 31.65453,-24.97526 31.65464,-24.97521 31.65499,-24.97505 31.65526,-24.97491 31.65534,-24.9749 31.65566,-24.97473 31.65581,-24.97465 31.65597,-24.97457 31.6562,-24.97449 31.6565,-24.97439 31.65657,-24.97437 31.65661,-24.97436 31.65671,-24.97433 31.65685,-24.97428 31.65691,-24.97426 31.65704,-24.97421 31.65719,-24.97416 31.65723,-24.97415 31.65726,-24.97414 31.65736,-24.97412 31.65749,-24.97407 31.65754,-24.97405 31.65763,-24.97403 31.65776,-24.974 31.65781,-24.97399 31.65798,-24.97394 31.65847,-24.97382 31.65852,-24.97381 31.6586,-24.97379 31.6587,-24.97377 31.65877,-24.97375 31.65888,-24.97372 31.65926,-24.97362 31.65941,-24.97357 31.65946,-24.97356 31.65973,-24.97349 31.65993,-24.97344 31.65997,-24.97343 31.66012,-24.9734 31.66036,-24.97332 31.66052,-24.97327 31.6606,-24.97324 31.66072,-24.9732 31.66075,-24.97319 31.66082,-24.97317 31.66087,-24.97316 31.66091,-24.97314 31.66093,-24.97313 31.66099,-24.97312 31.66107,-24.9731 31.66119,-24.97306 31.66144,-24.97296 31.66167,-24.97288 31.66178,-24.97283 31.66212,-24.97269 31.66245,-24.97253 31.66259,-24.97246 31.66281,-24.97236 31.66295,-24.97228 31.66316,-24.97217 31.66342,-24.97203 31.66359,-24.97193 31.66367,-24.9719 31.66372,-24.97187 31.66376,-24.97185 31.66378,-24.97183 31.66389,-24.97177 31.66409,-24.97167 31.66424,-24.9716 31.66435,-24.97153 31.66446,-24.97147 31.66451,-24.97143 31.66475,-24.97127 31.66491,-24.97117 31.66512,-24.97104 31.66548,-24.97077 31.66569,-24.97057 31.66573,-24.97054 31.66594,-24.9701 31.66597,-24.97005 31.66634,-24.96955 31.66678,-24.96915 31.66686,-24.96908 31.6674,-24.96875 31.668,-24.9684 31.66853,-24.96802 31.6686,-24.96796 31.66899,-24.9676 31.66905,-24.96757 31.66915,-24.96752 31.6694,-24.96741 31.66956,-24.96731 31.6698,-24.96718 31.66996,-24.96711 31.67035,-24.96696 31.67068,-24.96685 31.67076,-24.96681 31.67086,-24.96676 31.67103,-24.96668 31.67108,-24.96667 31.6712,-24.96664 31.67133,-24.96659 31.67144,-24.96655 31.67172,-24.96646 31.67177,-24.96644 31.6718,-24.96643 31.67187,-24.96642 31.6719,-24.96643 31.67202,-24.96638 31.67219,-24.96633 31.67231,-24.96629 31.67241,-24.96627 31.67249,-24.96625 31.67262,-24.96621 31.67271,-24.96618 31.67282,-24.96616 31.67298,-24.96611 31.6731,-24.96607 31.67316,-24.96606 31.67331,-24.96595 31.67349,-24.96581 31.67357,-24.96575 31.67363,-24.9657 31.67384,-24.96551 31.67419,-24.96527 31.67435,-24.96519 31.67442,-24.96517 31.6745,-24.96515 31.67453,-24.96514 31.67459,-24.96512 31.6748,-24.96506 31.67491,-24.96504 31.67507,-24.96501 31.6751,-24.965 31.67523,-24.96498 31.6754,-24.96495 31.67563,-24.96493 31.6759,-24.9649 31.67607,-24.96489 31.6763,-24.96487 31.67633,-24.96487 31.67651,-24.96483 31.67668,-24.9648 31.67691,-24.96475 31.67708,-24.96471 31.67712,-24.9647 31.6772,-24.96469 31.67725,-24.96468 31.67737,-24.96465 31.67754,-24.96461 31.67771,-24.96458 31.67792,-24.96455 31.67803,-24.96453 31.67808,-24.96452 31.67828,-24.96449 31.67837,-24.96448 31.67854,-24.96445 31.67868,-24.96443 31.6788,-24.96443 31.67897,-24.96442 31.67917,-24.9644 31.67933,-24.9644 31.67939,-24.9644 31.67955,-24.96438 31.67971,-24.96438 31.67975,-24.96438 31.6798,-24.96438 31.67995,-24.96438 31.68013,-24.96437 31.68026,-24.96436 31.68033,-24.96435 31.68046,-24.96433 31.68063,-24.9643 31.68074,-24.96429 31.68083,-24.96428 31.68095,-24.96426 31.68105,-24.96425 31.68128,-24.9642 31.68157,-24.96414 31.6817,-24.96413 31.68177,-24.96413 31.6818,-24.96412 31.68194,-24.96409 31.68217,-24.96405 31.68231,-24.96403 31.68251,-24.96401 31.68266,-24.964 31.68278,-24.96397 31.68294,-24.96397 31.683,-24.96396 31.68308,-24.96395 31.6832,-24.96394 31.68345,-24.96391 31.68357,-24.9639 31.68366,-24.96389 31.68381,-24.96388 31.68399,-24.96386 31.6841,-24.96384 31.68417,-24.96384 31.68423,-24.96386 31.6843,-24.96386 31.68442,-24.96386 31.68463,-24.96386 31.68477,-24.96385 31.68483,-24.96384 31.68488,-24.96384 31.68493,-24.96383 31.68496,-24.96382 31.68506,-24.96382 31.68515,-24.96383 31.6854,-24.96383 31.68549,-24.96383 31.68566,-24.96384 31.68582,-24.96381 31.68594,-24.96381 31.68613,-24.96379 31.68659,-24.96374 31.68671,-24.96373 31.68682,-24.96372 31.68696,-24.96372 31.68707,-24.96372 31.68711,-24.96371 31.68714,-24.96369 31.68722,-24.9637 31.68729,-24.9637 31.68753,-24.96369 31.68763,-24.96369 31.68767,-24.9637 31.68772,-24.96372 31.68801,-24.96379 31.68814,-24.96382 31.68821,-24.96384 31.68923,-24.96383 31.69025,-24.96388 31.69139,-24.96397 31.69233,-24.96387 31.69241,-24.96388 31.693,-24.96391 31.6936,-24.96393 31.69366,-24.96393 31.69373,-24.96392 31.69421,-24.96382 31.69437,-24.9637 31.69448,-24.96362 31.69456,-24.96357 31.69473,-24.96345 31.69485,-24.96338 31.69505,-24.96331 31.69518,-24.96329 31.69526,-24.96329 31.6953,-24.96328 31.69559,-24.96336 31.69588,-24.96344 31.69605,-24.96345 31.69623,-24.96345 31.69634,-24.96344 31.69647,-24.96342 31.69675,-24.96338 31.69706,-24.96333 31.6971,-24.96333 31.69725,-24.9633 31.69746,-24.9633 31.69829,-24.96327 31.69842,-24.96327 31.69853,-24.96327 31.69961,-24.96327 31.69971,-24.96327 31.70169,-24.9631 31.70188,-24.96306 31.70316,-24.96282 31.70386,-24.96249 31.70392,-24.96243 31.7046,-24.96177 31.70503,-24.96148 31.70529,-24.96131 31.70607,-24.96099 31.70666,-24.96075 31.70699,-24.96061 31.70756,-24.96046 31.70786,-24.96044 31.7082,-24.96054 31.70866,-24.96049 31.70912,-24.96045 31.70919,-24.96046 31.70927,-24.96045 31.70935,-24.96045 31.70948,-24.96044 31.70968,-24.96046 31.70972,-24.96046 31.70983,-24.96046 31.70995,-24.96047 31.71009,-24.96046 31.71023,-24.96044 31.71062,-24.96038 31.71083,-24.9603 31.71092,-24.96027 31.71122,-24.96013 31.71141,-24.96003 31.71146,-24.96 31.71157,-24.95995 31.71167,-24.95989 31.71195,-24.95971 31.71201,-24.95966 31.71219,-24.95951 31.71237,-24.95934 31.71239,-24.95932 31.71251,-24.95919 31.7126,-24.9591 31.71266,-24.95903 31.71278,-24.95892 31.71287,-24.95884 31.7129,-24.95881 31.71313,-24.95857 31.71316,-24.95855 31.71351,-24.9582 31.71368,-24.95801 31.71397,-24.95772 31.71399,-24.9577 31.71428,-24.9574 31.71444,-24.95723 31.71462,-24.95703 31.71474,-24.95692 31.71493,-24.95675 31.71502,-24.95664 31.71504,-24.9566 31.71506,-24.95657 31.71528,-24.9563 31.71587,-24.95511 31.71691,-24.9543 31.71863,-24.95365 31.72047,-24.95327 31.72222,-24.95323 31.72279,-24.95338 31.72317,-24.95347 31.7241,-24.95361 31.72532,-24.95382 31.72536,-24.95383 31.72558,-24.9539 31.72585,-24.95399 31.72673,-24.95428 31.72696,-24.95442 31.72797,-24.95506 31.72944,-24.95626 31.73121,-24.95745 31.7325,-24.95809 31.73319,-24.95843 31.73405,-24.95909 31.73412,-24.95914 31.73508,-24.95984 31.7364,-24.9602 31.73795,-24.96031 31.73902,-24.96056 31.73958,-24.9607 31.74192,-24.96171 31.74525,-24.96305 31.74698,-24.96381 31.74823,-24.96436 31.75055,-24.96514 31.75305,-24.96633 31.75472,-24.96738 31.7561,-24.96788 31.75656,-24.96822 31.75707,-24.96858 31.75759,-24.96917 31.75835,-24.97003 31.75955,-24.9711 31.7602,-24.97168 31.76043,-24.97196 31.76057,-24.97215 31.76064,-24.97222 31.76083,-24.97241 31.76098,-24.97253 31.76117,-24.97262 31.76138,-24.9727 31.76155,-24.97272 31.76176,-24.97278 31.76183,-24.97281 31.76204,-24.97281 31.76229,-24.97281 31.76237,-24.97282 31.76243,-24.97281 31.76245,-24.97281 31.76254,-24.97283 31.76261,-24.97284 31.76264,-24.97285 31.76284,-24.97284 31.76303,-24.97285 31.7632,-24.97286 31.76346,-24.97288 31.7636,-24.97291 31.76375,-24.97294 31.76383,-24.97297 31.7639,-24.97297 31.76394,-24.97298 31.764,-24.97299 31.76412,-24.97301 31.76422,-24.97303 31.76427,-24.97305 31.76437,-24.97307 31.76445,-24.97307 31.76455,-24.97308 31.76469,-24.97308 31.76482,-24.97312 31.76494,-24.97315 31.76504,-24.97318 31.76511,-24.9732 31.76519,-24.97322 31.76526,-24.97325 31.76536,-24.97329 31.76542,-24.9733 31.76547,-24.97331 31.76551,-24.97333 31.76566,-24.97337 31.76576,-24.97338 31.76583,-24.97341 31.76591,-24.97344 31.76604,-24.97349 31.76609,-24.9735 31.76614,-24.97352 31.76618,-24.97354 31.76633,-24.97357 31.76655,-24.97367 31.7667,-24.97374 31.76673,-24.97375 31.76678,-24.97377 31.76682,-24.97378 31.76692,-24.97381 31.7672,-24.97386 31.76742,-24.97393 31.76763,-24.97403 31.76781,-24.97414 31.76784,-24.97416 31.76808,-24.97433 31.76831,-24.97448 31.76844,-24.97466 31.76847,-24.97484 31.76849,-24.97513 31.76842,-24.97552 31.76838,-24.97591 31.76837,-24.9761 31.76835,-24.97635 31.76836,-24.97651 31.76843,-24.97676 31.76848,-24.97701 31.76847,-24.97716 31.76846,-24.97719 31.76842,-24.97743 31.76837,-24.97756 31.76832,-24.97767 31.76832,-24.97781 31.7684,-24.97793 31.76848,-24.97808 31.76853,-24.97818 31.76856,-24.97822 31.76861,-24.97829 31.76868,-24.97837 31.76872,-24.97844 31.76882,-24.97865 31.76902,-24.97882 31.7691,-24.97888 31.76917,-24.97894 31.76926,-24.97902 31.76932,-24.97921 31.76928,-24.97941 31.7692,-24.97963 31.76914,-24.97989 31.76914,-24.97998 31.76911,-24.98004 31.76912,-24.9801 31.76914,-24.98016 31.7691,-24.98035 31.76907,-24.98048 31.76908,-24.98056 31.76908,-24.98067 31.7691,-24.98082 31.76912,-24.98095 31.76914,-24.98104 31.76916,-24.98116 31.76916,-24.9812 31.76916,-24.98125 31.76916,-24.98161 31.76916,-24.98172 31.76915,-24.98184 31.76916,-24.98203 31.76912,-24.98213 31.76909,-24.98218 31.76905,-24.98227 31.76901,-24.98234 31.76901,-24.98243 31.769,-24.98251 31.76902,-24.9826 31.76905,-24.98268 31.76904,-24.98289 31.76909,-24.98321 31.76916,-24.98363 31.76917,-24.98366 31.76917,-24.98372 31.76915,-24.98415 31.76909,-24.98441 31.76894,-24.9848 31.76881,-24.98516 31.76877,-24.98548 31.76869,-24.98585 31.76853,-24.98615 31.76842,-24.98635 31.7682,-24.98687 31.76814,-24.98725 31.76813,-24.98733 31.76813,-24.98773 31.76814,-24.98778 31.76822,-24.98807 31.76842,-24.98845 31.76864,-24.98874 31.76879,-24.98907 31.76892,-24.98958 31.76915,-24.99002 31.7692,-24.99014 31.76936,-24.99052 31.76947,-24.99114 31.76954,-24.99149 31.76955,-24.99153 31.76947,-24.99194 31.76941,-24.9922 31.76927,-24.99274 31.76915,-24.99328 31.76911,-24.99348 31.76905,-24.99411 31.76908,-24.99466 31.76912,-24.9948 31.76933,-24.9955 31.76963,-24.99618 31.76985,-24.99657 31.7702,-24.99676 31.77063,-24.99687 31.77096,-24.99688 31.77125,-24.99703 31.77149,-24.99725 31.7716,-24.99729 31.7718,-24.99737 31.77203,-24.99743 31.77225,-24.99752 31.77226,-24.99755 31.77231,-24.9977 31.77233,-24.9978 31.77235,-24.9979 31.7724,-24.99817 31.77243,-24.99848 31.77243,-24.99856 31.77245,-24.99876 31.77248,-24.99895 31.77249,-24.99901 31.77268,-24.99937 31.77301,-24.99967 31.77309,-24.99972 31.77339,-24.99991 31.77367,-25.00015 31.77392,-25.00041 31.77431,-25.00073 31.77466,-25.00092 31.7748,-25.001 31.77511,-25.00112 31.77535,-25.00113 31.77548,-25.00125 31.77551,-25.00128 31.77559,-25.00136 31.77577,-25.00156 31.7761,-25.00172 31.77637,-25.00186 31.77663,-25.00217 31.77702,-25.0026 31.77729,-25.00272 31.77746,-25.00279 31.77757,-25.00284 31.77769,-25.00288 31.77783,-25.00311 31.77804,-25.00332 31.77848,-25.00379 31.77891,-25.00412 31.77909,-25.00432 31.77916,-25.0044 31.77937,-25.00489 31.77965,-25.00531 31.77994,-25.00569 31.78047,-25.00626 31.78056,-25.00642 31.78063,-25.00648 31.7807,-25.00655 31.78077,-25.00664 31.78084,-25.00675 31.78086,-25.00678 31.78089,-25.00681 31.78093,-25.00699 31.78098,-25.0072 31.78105,-25.0074 31.78114,-25.00754 31.78117,-25.0076 31.78125,-25.0077 31.7813,-25.00776 31.78133,-25.00779 31.78142,-25.00789 31.78152,-25.00799 31.78157,-25.00805 31.78163,-25.00811 31.78174,-25.00824 31.78184,-25.00841 31.78193,-25.00858 31.78199,-25.00886 31.78204,-25.00914 31.78204,-25.00938 31.78204,-25.00958 31.78202,-25.00962 31.78217,-25.0101 31.78242,-25.01074 31.78261,-25.01114 31.78303,-25.01175 31.78343,-25.01211 31.78405,-25.01262 31.78449,-25.01292 31.78454,-25.01295 31.78488,-25.01319 31.78517,-25.01352 31.78548,-25.01413 31.78592,-25.01476 31.7867,-25.0157 31.78713,-25.01622 31.7872,-25.01626 31.78743,-25.01639 31.78776,-25.01664 31.78801,-25.01694 31.78808,-25.01734 31.78826,-25.01761 31.78854,-25.01793 31.78882,-25.01839 31.7889,-25.01848 31.78913,-25.01872 31.78937,-25.01895 31.78942,-25.01899 31.78947,-25.01913 31.7895,-25.01918 31.7895,-25.01923 31.78948,-25.0195 31.78946,-25.01954 31.78943,-25.01967 31.78944,-25.01975 31.7895,-25.01987 31.78964,-25.02009 31.78974,-25.02017 31.79004,-25.02065 31.7902,-25.02086 31.79029,-25.02098 31.79052,-25.02118 31.7909,-25.02129 31.79107,-25.02138 31.79133,-25.02151 31.79176,-25.02186 31.7924,-25.02248 31.79243,-25.02252 31.79251,-25.0226 31.79285,-25.02297 31.79338,-25.0237 31.79384,-25.02486 31.79391,-25.02503 31.79449,-25.02603 31.79484,-25.02646 31.7953,-25.02704 31.79619,-25.02796 31.79655,-25.02855 31.79685,-25.02905 31.79837,-25.03058 31.79882,-25.03127 31.7989,-25.03188 31.79911,-25.03284 31.79919,-25.03288 31.79944,-25.03314 31.79962,-25.03335 31.79965,-25.03347 31.79967,-25.03356 31.79967,-25.03364 31.79971,-25.03389 31.79973,-25.03405 31.79975,-25.03414 31.79978,-25.03447 31.79979,-25.03476 31.79981,-25.03488 31.79983,-25.03491 31.79986,-25.03495 31.79989,-25.035 31.79991,-25.03503 31.79993,-25.03507 31.79996,-25.03511 31.79999,-25.03518 31.80015,-25.03535 31.80019,-25.03539 31.80028,-25.03549 31.80056,-25.03576 31.80097,-25.0361 31.8012,-25.03624 31.80133,-25.03631 31.80181,-25.0366 31.80202,-25.03672 31.80222,-25.03695 31.80232,-25.03706 31.80266,-25.03744 31.8028,-25.03761 31.80308,-25.03794 31.80324,-25.0382 31.80343,-25.03854 31.80369,-25.03881 31.80404,-25.03915 31.80413,-25.03927 31.80428,-25.03946 31.80435,-25.0396 31.80447,-25.03983 31.80472,-25.04029 31.80488,-25.04052 31.80496,-25.04064 31.8053,-25.04101 31.80538,-25.04111 31.80551,-25.04129 31.80558,-25.04148 31.80569,-25.04171 31.80584,-25.04189 31.80606,-25.04205 31.80626,-25.04218 31.80649,-25.04239 31.80652,-25.04241 31.80665,-25.0425 31.80704,-25.04283 31.80725,-25.04305 31.80742,-25.04321 31.80773,-25.04354 31.80806,-25.04383 31.80824,-25.04399 31.80849,-25.04419 31.80872,-25.04439 31.80875,-25.04442 31.80895,-25.04458 31.80914,-25.04483 31.80933,-25.0451 31.80954,-25.04544 31.80976,-25.04574 31.80998,-25.04596 31.81005,-25.046 31.81027,-25.04613 31.81059,-25.04625 31.81068,-25.04628 31.81084,-25.04635 31.81093,-25.04644 31.81105,-25.04657 31.81131,-25.04693 31.81142,-25.04723 31.81145,-25.04732 31.81146,-25.04736 31.81153,-25.04763 31.81161,-25.04786 31.81163,-25.04791 31.81175,-25.04814 31.81193,-25.04829 31.8121,-25.04845 31.81234,-25.0488 31.81265,-25.04933 31.81278,-25.04956 31.81281,-25.04964 31.81294,-25.05012 31.81314,-25.05071 31.81347,-25.05127 31.81394,-25.05175 31.81431,-25.05219 31.81459,-25.05264 31.81489,-25.05309 31.81522,-25.05392 31.81552,-25.05442 31.81589,-25.05482 31.81628,-25.05516 31.81639,-25.05522 31.8167,-25.05539 31.81707,-25.05573 31.81757,-25.05621 31.81788,-25.05649 31.81793,-25.05653 31.81814,-25.05693 31.81847,-25.05739 31.81874,-25.05771 31.81894,-25.05785 31.81914,-25.058 31.8196,-25.05836 31.8199,-25.05865 31.82021,-25.05908 31.82066,-25.0597 31.82093,-25.06005 31.82138,-25.0604 31.82196,-25.06077 31.82239,-25.06109 31.82273,-25.06151 31.82292,-25.06172 31.82309,-25.06186 31.82316,-25.06191 31.82353,-25.06209 31.82399,-25.0623 31.82459,-25.06261 31.82474,-25.06269 31.82513,-25.06291 31.82543,-25.06305 31.82566,-25.06314 31.82618,-25.06329 31.8266,-25.06348 31.82688,-25.06363 31.82726,-25.06394 31.82735,-25.064 31.82774,-25.06425 31.82813,-25.06443 31.82839,-25.06455 31.82892,-25.06468 31.82944,-25.06489 31.82966,-25.065 31.83003,-25.06518 31.83046,-25.06547 31.83056,-25.06553 31.83084,-25.06568 31.8313,-25.06585 31.83181,-25.06611 31.83239,-25.06648 31.83251,-25.06656 31.83361,-25.06712 31.83394,-25.06724 31.83409,-25.06729 31.83428,-25.06735 31.83456,-25.06743 31.83499,-25.06766 31.83514,-25.06773 31.8354,-25.06786 31.8355,-25.06791 31.83565,-25.06799 31.83596,-25.06812 31.83614,-25.0682 31.83629,-25.06827 31.83658,-25.06838 31.83698,-25.06862 31.83736,-25.06886 31.83792,-25.06918 31.83827,-25.06932 31.83847,-25.06939 31.83875,-25.06948 31.83914,-25.0696 31.84012,-25.06981 31.84021,-25.06983 31.84024,-25.06983 31.84043,-25.06988 31.8409,-25.07001 31.84154,-25.07015 31.84252,-25.07022 31.84267,-25.07023 31.84288,-25.07025 31.84368,-25.07034 31.84417,-25.07042 31.84434,-25.07045 31.84516,-25.07049 31.84569,-25.07057 31.84584,-25.07062 31.84598,-25.07068 31.84628,-25.07076 31.84654,-25.07089 31.84681,-25.07107 31.8471,-25.07112 31.84752,-25.0712 31.84788,-25.07124 31.84801,-25.07133 31.84813,-25.07141 31.84826,-25.0715 31.84843,-25.0716 31.84869,-25.07181 31.84891,-25.0719 31.84902,-25.07195 31.84951,-25.0721 31.84989,-25.0723 31.85006,-25.07243 31.85022,-25.07255 31.85049,-25.07268 31.85107,-25.07285 31.85168,-25.07304 31.85194,-25.07314 31.85225,-25.07327 31.85239,-25.07333 31.85262,-25.07343 31.85288,-25.07356 31.853,-25.07367 31.85301,-25.07383 31.85309,-25.074 31.8533,-25.07408 31.85342,-25.0741 31.85374,-25.07416 31.85401,-25.07419 31.85408,-25.0742 31.85411,-25.0742 31.85431,-25.07421 31.85448,-25.07418 31.85454,-25.07419 31.85461,-25.07422 31.85475,-25.07431 31.85494,-25.07441 31.85508,-25.07449 31.85549,-25.07458 31.85558,-25.0746 31.8558,-25.07464 31.85629,-25.07478 31.85659,-25.07491 31.85675,-25.07499 31.85687,-25.07502 31.85719,-25.0751 31.85763,-25.07516 31.85803,-25.07519 31.8581,-25.07519 31.85846,-25.07524 31.85855,-25.07527 31.85882,-25.07534 31.85921,-25.07545 31.85975,-25.07552 31.86045,-25.07554 31.86081,-25.07565 31.86115,-25.07571 31.8617,-25.0757 31.8618,-25.07571 31.86211,-25.07576 31.86259,-25.0759 31.86295,-25.07614 31.86331,-25.07632 31.86358,-25.07661 31.86397,-25.07709 31.86465,-25.07778 31.86468,-25.0778 31.86509,-25.07809 31.86542,-25.07832 31.86568,-25.07861 31.86579,-25.07875 31.86598,-25.079 31.86637,-25.07947 31.86699,-25.08023 31.86741,-25.08095 31.86762,-25.08152 31.86776,-25.08179 31.86782,-25.0819 31.86796,-25.08208 31.86805,-25.0822 31.86824,-25.08237 31.86852,-25.0825 31.86873,-25.08266 31.86889,-25.0829 31.86913,-25.08337 31.86936,-25.08364 31.86973,-25.084 31.86983,-25.08411 31.87,-25.08432 31.87006,-25.08454 31.87013,-25.08478 31.87014,-25.08481 31.87031,-25.08511 31.8706,-25.08542 31.87085,-25.08574 31.87101,-25.08594 31.87119,-25.08609 31.87129,-25.08617 31.87148,-25.08629 31.87152,-25.08632 31.87183,-25.08643 31.87205,-25.08666 31.87233,-25.08697 31.87249,-25.0873 31.87261,-25.08776 31.87262,-25.0878 31.87275,-25.08821 31.87291,-25.08853 31.87326,-25.08926 31.87341,-25.08948 31.87355,-25.0897 31.8737,-25.0899 31.87381,-25.09005 31.87392,-25.09026 31.87398,-25.09038 31.87404,-25.09051 31.87415,-25.09073 31.87445,-25.09111 31.87475,-25.09143 31.87501,-25.09181 31.87534,-25.09227 31.87567,-25.09267 31.87569,-25.09269 31.87615,-25.09303 31.87639,-25.09314 31.87656,-25.09321 31.87683,-25.09339 31.87709,-25.09357 31.87747,-25.09389 31.87777,-25.09415 31.87804,-25.09454 31.87824,-25.09489 31.87838,-25.09532 31.8786,-25.09557 31.8789,-25.09579 31.87938,-25.09625 31.87999,-25.09677 31.88051,-25.0972 31.88077,-25.09743 31.8809,-25.09766 31.88109,-25.09793 31.88136,-25.09814 31.88187,-25.09837 31.88218,-25.09846 31.88229,-25.09844 31.88244,-25.09841 31.88257,-25.09846 31.88268,-25.0985 31.88275,-25.09855 31.88303,-25.09873 31.8835,-25.09889 31.88421,-25.09908 31.88472,-25.09925 31.88505,-25.09927 31.88512,-25.09928 31.88544,-25.09923 31.88571,-25.09925 31.8859,-25.09912 31.88616,-25.09909 31.88657,-25.099 31.8871,-25.09896 31.88741,-25.09902 31.88757,-25.09906 31.88807,-25.09924 31.88864,-25.09926 31.88906,-25.09931 31.88938,-25.09946 31.88972,-25.09981 31.8901,-25.10007 31.89018,-25.10009 31.89049,-25.10019 31.89079,-25.10026 31.89107,-25.10041 31.89156,-25.10061 31.89174,-25.10067 31.89202,-25.10075 31.89252,-25.10082 31.89269,-25.10085 31.89282,-25.10087 31.89333,-25.10096 31.89366,-25.10101 31.89421,-25.10109 31.8944,-25.10113 31.8945,-25.10113 31.8953,-25.10115 31.89595,-25.10122 31.89647,-25.10133 31.89698,-25.10151 31.89748,-25.10172 31.89776,-25.10183 31.89827,-25.10205 31.89868,-25.10222 31.89991,-25.1026 31.90048,-25.10284 31.90093,-25.10304 31.90183,-25.10341 31.9026,-25.10385 31.90285,-25.10404 31.90309,-25.10422 31.90355,-25.10466 31.90404,-25.10519 31.90445,-25.10572 31.90465,-25.10589 31.90483,-25.10604 31.90531,-25.1064 31.90586,-25.10694 31.90643,-25.10762 31.90694,-25.10825 31.90745,-25.10875 31.90798,-25.10931 31.90884,-25.1103 31.90905,-25.11045 31.90928,-25.11061 31.90967,-25.11087 31.90972,-25.1109 31.91011,-25.11112 31.9105,-25.11138 31.91089,-25.11186 31.91133,-25.11233 31.91183,-25.11274 31.91235,-25.11314 31.91289,-25.11362 31.91316,-25.11383 31.91342,-25.11403 31.91383,-25.11437 31.91386,-25.1144 31.91425,-25.11477 31.91448,-25.11501 31.9147,-25.11537 31.91486,-25.11568 31.91496,-25.11587 31.91521,-25.11619 31.91549,-25.1165 31.91586,-25.11669 31.91628,-25.11692 31.91669,-25.11723 31.91713,-25.11747 31.91783,-25.11766 31.91841,-25.11785 31.91873,-25.11804 31.91884,-25.11824 31.91888,-25.1184 31.91893,-25.11842 31.91902,-25.11846 31.91927,-25.11848 31.91946,-25.11853 31.91958,-25.11856 31.91997,-25.11873 31.92042,-25.11893 31.92067,-25.11916 31.92097,-25.1194 31.92135,-25.11957 31.92152,-25.1196 31.92184,-25.11968 31.92247,-25.11994 31.92269,-25.12004 31.92305,-25.12021 31.9234,-25.12034 31.92377,-25.12047 31.92425,-25.12063 31.92465,-25.12076 31.92501,-25.12088 31.92541,-25.12102 31.92578,-25.12109 31.92594,-25.12112 31.92606,-25.12115 31.92647,-25.12123 31.92688,-25.1214 31.92701,-25.12145 31.92735,-25.12157 31.92809,-25.12174 31.92898,-25.12191 31.92973,-25.12214 31.93013,-25.12223 31.93049,-25.12225 31.93087,-25.1223 31.93108,-25.12234 31.93126,-25.12238 31.93169,-25.12242 31.93195,-25.12247 31.93203,-25.12248 31.93222,-25.12258 31.93243,-25.12274 31.93261,-25.12282 31.93273,-25.12288 31.93307,-25.12295 31.93324,-25.12299 31.9333,-25.12299 31.93369,-25.12302 31.93423,-25.12304 31.9343,-25.12304 31.93454,-25.123 31.93475,-25.1229 31.93508,-25.12282 31.93542,-25.12282 31.93577,-25.12288 31.93582,-25.12289 31.93617,-25.12291 31.93646,-25.123 31.93664,-25.12316 31.93691,-25.12327 31.93739,-25.1234 31.93758,-25.12348 31.93781,-25.12357 31.938,-25.12367 31.93807,-25.12371 31.93827,-25.12396 31.93844,-25.12405 31.93865,-25.12403 31.939,-25.12399 31.93937,-25.12399 31.93986,-25.12401 31.94026,-25.12411 31.94062,-25.12426 31.941,-25.12445 31.9411,-25.12445 31.94129,-25.12443 31.94141,-25.12447 31.94155,-25.12451 31.94168,-25.12455 31.94178,-25.12458 31.94189,-25.12467 31.942,-25.12476 31.94201,-25.12479 31.94206,-25.125 31.94213,-25.12537 31.9423,-25.12561 31.94249,-25.12568 31.9428,-25.12575 31.94308,-25.12591 31.94337,-25.12608 31.94363,-25.12636 31.94386,-25.12677 31.94415,-25.12721 31.9444,-25.1275 31.94442,-25.12752 31.94465,-25.12787 31.94483,-25.12834 31.94497,-25.12872 31.94507,-25.12903 31.94536,-25.12996 31.94543,-25.13019 31.94544,-25.13025 31.94557,-25.13096 31.94558,-25.1314 31.9456,-25.13196 31.94563,-25.13207 31.9457,-25.13242 31.94571,-25.13303 31.94574,-25.13374 31.94577,-25.13473 31.94576,-25.1348 31.94572,-25.13496 31.94559,-25.13523 31.94537,-25.13551 31.94519,-25.13586 31.94512,-25.13632 31.94496,-25.13685 31.94494,-25.13708 31.94493,-25.13714 31.94499,-25.13752 31.94504,-25.13778 31.94505,-25.13781 31.94503,-25.1379 31.94498,-25.13816 31.94489,-25.13851 31.94472,-25.13877 31.94444,-25.13897 31.94428,-25.13917 31.94421,-25.13927 31.94406,-25.13969 31.94394,-25.13991 31.94369,-25.14016 31.94349,-25.1404 31.94337,-25.14061 31.94331,-25.141 31.94327,-25.14135 31.9432,-25.14165 31.94316,-25.14179 31.94303,-25.14219 31.94288,-25.14258 31.94289,-25.1427 31.94295,-25.14282 31.94296,-25.14293 31.94294,-25.14298 31.9429,-25.14306 31.94266,-25.1433 31.9425,-25.14349 31.94242,-25.14366 31.94235,-25.1438 31.94222,-25.14412 31.94205,-25.14465 31.94194,-25.1452 31.94177,-25.14571 31.9416,-25.14635 31.94155,-25.14652 31.94141,-25.14699 31.94133,-25.14769 31.9413,-25.14841 31.9413,-25.14849 31.9413,-25.14902 31.94126,-25.14962 31.94124,-25.14976 31.94129,-25.15046 31.94134,-25.15052 31.94154,-25.15055 31.94169,-25.15058 31.94182,-25.15076 31.9419,-25.15086 31.94196,-25.15095 31.94199,-25.15102 31.94205,-25.15112 31.94208,-25.15122 31.94211,-25.15141 31.94213,-25.15161 31.9421,-25.15182 31.94216,-25.15216 31.94215,-25.15222 31.94215,-25.15231 31.94212,-25.15272 31.94212,-25.15278 31.94211,-25.15317 31.94217,-25.15344 31.9423,-25.1537 31.94239,-25.15393 31.94235,-25.15414 31.9423,-25.15437 31.94234,-25.15459 31.94242,-25.15475 31.94247,-25.15485 31.94263,-25.15502 31.94284,-25.15521 31.94289,-25.1553 31.94296,-25.15539 31.94303,-25.15569 31.94307,-25.1559 31.94311,-25.15612 31.9432,-25.1563 31.9434,-25.15656 31.94364,-25.15687 31.94383,-25.15722 31.94397,-25.15753 31.94408,-25.15777 31.94425,-25.15808 31.94435,-25.15825 31.94443,-25.15839 31.94451,-25.15849 31.94465,-25.15868 31.94486,-25.15884 31.94505,-25.15912 31.94534,-25.15982 31.94571,-25.16038 31.94662,-25.16126 31.94673,-25.16137 31.94749,-25.16204 31.94846,-25.16266 31.94985,-25.16323 31.95093,-25.16352 31.95157,-25.16375 31.95189,-25.16387 31.95218,-25.16394 31.95272,-25.16407 31.95388,-25.16422 31.95473,-25.16431 31.95521,-25.16447 31.95586,-25.16449 31.9571,-25.16462 31.958,-25.1647 31.95821,-25.16472 31.95825,-25.16472 31.95895,-25.16479 31.95997,-25.16476 31.9607,-25.16467 31.96152,-25.16468 31.96252,-25.16463 31.96368,-25.16441 31.96499,-25.16426 31.9657,-25.1643 31.96664,-25.16436 31.96757,-25.16431 31.96844,-25.16417 31.96853,-25.16415 31.96874,-25.16411 31.96978,-25.16387 31.97035,-25.16384 31.9706,-25.16379 31.97093,-25.16372 31.97133,-25.16359 31.97191,-25.16336 31.97226,-25.16328 31.97261,-25.16327 31.97265,-25.16326 31.97285,-25.16322 31.973,-25.16316 31.97308,-25.16313 31.9734,-25.16309 31.97363,-25.16313 31.97382,-25.16329 31.97399,-25.16334 31.97434,-25.16336 31.97474,-25.16333 31.97479,-25.16333 31.97511,-25.16335 31.9752,-25.16339 31.97535,-25.16347 31.97563,-25.16348 31.97588,-25.16342 31.97598,-25.16338 31.97618,-25.16331 31.97636,-25.16323 31.97675,-25.16316 31.97722,-25.16271 31.9778,-25.16241 31.97839,-25.16216 31.97925,-25.16209 31.97935,-25.16208 31.98084,-25.16188 31.98166,-25.16169 31.98223,-25.16175 31.98283,-25.16172 31.98348,-25.16147 31.98442,-25.161 31.98624,-25.16017 31.98712,-25.15983 31.98742,-25.1597 31.98774,-25.15958 31.989,-25.15938 31.98913,-25.15935 31.99139,-25.15933 31.99176,-25.15938 31.99335,-25.15959 31.99437,-25.1599 31.99481,-25.16003 31.99556,-25.16036 31.99608,-25.16066 31.99633,-25.16074 31.9967,-25.16084 31.99747,-25.16101 31.99759,-25.16109 31.99813,-25.16143 31.99829,-25.16157 31.99842,-25.16169 31.99896,-25.16185 31.99957,-25.16203 31.99996,-25.16224 32.00023,-25.16239 32.00092,-25.16276 32.0012,-25.16292 32.00184,-25.16312 32.00259,-25.16347 32.00283,-25.16354 32.00309,-25.16391 32.00324,-25.16412 32.0034,-25.16441 32.00349,-25.16514 32.00365,-25.1657 32.00379,-25.16592 32.00393,-25.16614 32.00425,-25.16672 32.00465,-25.16773 32.00513,-25.16873 32.0054,-25.16931 32.00555,-25.16939 32.00573,-25.16928 32.00582,-25.16921 32.0059,-25.16927 32.00599,-25.16958 32.00605,-25.17022 32.00606,-25.17031 32.0061,-25.17081 32.00618,-25.17088 32.00624,-25.17088 32.0063,-25.17071 32.00634,-25.17069 32.00637,-25.17067 32.00641,-25.17065 32.00643,-25.17064 32.00652,-25.17063 32.00659,-25.17064 32.00665,-25.17068 32.00668,-25.1707 32.0067,-25.17073 32.0067,-25.17078 32.00672,-25.17094 32.00672,-25.17106 32.00674,-25.17126 32.00678,-25.17148 32.00682,-25.17163 32.00706,-25.1721 32.00713,-25.17218 32.00728,-25.17235 32.00741,-25.17248 32.00745,-25.17253 32.00761,-25.17294 32.00776,-25.17336 32.00801,-25.17407 32.00813,-25.17428 32.00829,-25.17456 32.00862,-25.17498 32.00874,-25.17528 32.00881,-25.1755 32.00891,-25.1756 32.00907,-25.17558 32.00921,-25.17558 32.00931,-25.17563 32.00938,-25.17566 32.00953,-25.17581 32.00961,-25.17609 32.0096,-25.17641 32.00961,-25.17644 32.00964,-25.1765 32.00974,-25.17651 32.00982,-25.17653 32.00991,-25.17655 32.00995,-25.1766 32.01002,-25.17668 32.01016,-25.17681 32.01019,-25.17684 32.01034,-25.17714 32.01053,-25.17736 32.01083,-25.17751 32.01105,-25.1777 32.0111,-25.17781 32.01112,-25.17784 32.01114,-25.17799 32.01115,-25.17801 32.01118,-25.17808 32.01123,-25.1782 32.01131,-25.17835 32.01157,-25.17851 32.01177,-25.17867 32.01201,-25.17893 32.01223,-25.17918 32.0124,-25.17945 32.01252,-25.17975 32.01252,-25.17999 32.01258,-25.18012 32.01265,-25.18016 32.0127,-25.18019 32.01278,-25.18024 32.01289,-25.1803 32.01292,-25.18035 32.01298,-25.18044 32.01311,-25.1807 32.01329,-25.1809 32.01352,-25.18109 32.01364,-25.18122 32.01377,-25.18145 32.01403,-25.18173 32.01422,-25.18211 32.0142,-25.18222 32.01419,-25.18233 32.01417,-25.18238 32.01421,-25.18251 32.01424,-25.18265 32.01426,-25.18269 32.01429,-25.18279 32.0143,-25.18282 32.01434,-25.18288 32.01438,-25.18294 32.01441,-25.18297 32.01443,-25.18305 32.01447,-25.18319 32.01459,-25.18332 32.0147,-25.18341 32.01473,-25.18348 32.01475,-25.18355 32.01478,-25.18369 32.01488,-25.18397 32.0149,-25.18413 32.01492,-25.1843 32.01496,-25.18454 32.01502,-25.18467 32.01512,-25.18477 32.0152,-25.18478 32.01524,-25.18476 32.01528,-25.18474 32.01535,-25.18476 32.01542,-25.18478 32.01554,-25.18485 32.01558,-25.18487 32.01575,-25.18497 32.01594,-25.18511 32.01596,-25.18512 32.01617,-25.1853 32.01638,-25.18546 32.01647,-25.18553 32.01676,-25.18556 32.01728,-25.18557 32.01771,-25.18559 32.01801,-25.18565 32.01825,-25.18572 32.01841,-25.18576 32.01857,-25.18583 32.0189,-25.18595 32.01975,-25.18662 32.02041,-25.18696 32.02121,-25.18703 32.02139,-25.18705 32.02151,-25.18705 32.0229,-25.18705 32.02376,-25.18724 32.02452,-25.1874 32.02517,-25.18722 32.02563,-25.18678 32.02569,-25.18673 32.02609,-25.18632 32.02664,-25.18603 32.02759,-25.18563 32.02796,-25.18545 32.02841,-25.18522 32.02939,-25.1848 32.03003,-25.18451 32.03048,-25.18411 32.03083,-25.18383 32.03085,-25.18376 32.03092,-25.18367 32.0311,-25.18351 32.03114,-25.18348 32.03128,-25.18339 32.0315,-25.1833 32.03181,-25.18317 32.03198,-25.18309 32.02882,-25.24143 32.02626,-25.26926 32.02256,-25.30986 32.01796,-25.35441 32.01592,-25.37739 32.01528,-25.3825 32.01465,-25.38556 32.0135,-25.38811 32.00877,-25.39629 32.00699,-25.39986 31.99971,-25.41263 31.99396,-25.42309 31.99052,-25.42897 31.9895,-25.43165 31.98899,-25.43535 31.98899,-25.43706 31.98948,-25.43775 31.98864,-25.43946 31.98725,-25.44232 31.98563,-25.44544 31.9844,-25.44781 31.98318,-25.45018 31.98294,-25.45061 31.98128,-25.45383 31.97962,-25.45706 31.97937,-25.46024 31.97912,-25.46341 31.97887,-25.46659 31.97836,-25.46937 31.97791,-25.47185 31.97746,-25.47434 31.9774,-25.47469 31.97741,-25.47592 31.97743,-25.47878 31.97746,-25.48165 31.97755,-25.48476 31.97755,-25.48747 31.9775,-25.49013 31.97752,-25.49121 31.97755,-25.49278 31.97755,-25.49279 31.97756,-25.49355 31.97742,-25.50095 31.97739,-25.50849 31.97738,-25.5098 31.98133,-25.52382 31.99576,-25.52627 32.00091,-25.58532 32.00565,-25.62599 32.0061,-25.64519 31.99594,-25.67669 31.97856,-25.69367 31.97635,-25.70053 31.96916,-25.72233 31.96253,-25.74257 31.96028,-25.74961 31.95704,-25.75976 31.95059,-25.7793 31.94752,-25.7886 31.94465,-25.79728 31.93764,-25.81865 31.93055,-25.84077 31.93056,-25.84081 31.93169,-25.84374 31.94596,-25.88093 31.94884,-25.88845 31.97369,-25.9532 31.93841,-25.96867 31.91112,-25.98063 31.90146,-25.98487 31.86786,-25.9996</coordinates></LinearRing></outerBoundaryIs></Polygon></MultiGeometry></Placemark></Document></kml>