<?xml version="1.0" encoding="UTF-8"?><kml xmlns="http://www.opengis.net/kml/2.2"><Document><Placemark><name>Kamhlushwa</name><description>Main Place 876012</description><ExtendedData><Data name="code"><value>876012</value></Data><Data name="name"><value>Kamhlushwa</value></Data><Data name="description"><value>Main Place 876012</value></Data></ExtendedData><MultiGeometry><Polygon><outerBoundaryIs><LinearRing><coordinates>31.69808,-25.63123 31.69842,-25.63186 31.6989,-25.63197 31.69925,-25.63217 31.69959,-25.63254 31.69944,-25.63288 31.69952,-25.633 31.69913,-25.63297 31.69878,-25.63297 31.69862,-25.63312 31.69845,-25.63307 31.69822,-25.633 31.69801,-25.63314 31.69799,-25.63328 31.69822,-25.63355 31.69799,-25.63372 31.69767,-25.63376 31.69744,-25.63362 31.69727,-25.63325 31.69707,-25.63312 31.69695,-25.63289 31.69675,-25.63289 31.69649,-25.63295 31.69617,-25.63275 31.69561,-25.63258 31.6955,-25.63249 31.69547,-25.63231 31.69554,-25.63212 31.69552,-25.63191 31.69524,-25.63171 31.69497,-25.63166 31.69487,-25.6318 31.69466,-25.6321 31.69438,-25.63237 31.69408,-25.63261 31.69383,-25.63254 31.69374,-25.63235 31.69367,-25.6321 31.69344,-25.63212 31.69328,-25.6323 31.69316,-25.63251 31.69312,-25.63282 31.6932,-25.63323 31.69312,-25.63356 31.69288,-25.63388 31.69272,-25.6343 31.69267,-25.63457 31.69267,-25.63482 31.69254,-25.63522 31.69254,-25.63557 31.69258,-25.63578 31.69254,-25.63605 31.69256,-25.63631 31.69267,-25.63656 31.69275,-25.63672 31.69291,-25.63697 31.6929,-25.63721 31.69297,-25.63744 31.69292,-25.63762 31.69292,-25.63763 31.69292,-25.6377 31.69282,-25.63776 31.6927,-25.63776 31.69254,-25.63776 31.69244,-25.63776 31.69225,-25.63783 31.692,-25.63791 31.69182,-25.63817 31.69178,-25.63841 31.69173,-25.63867 31.69167,-25.63887 31.69158,-25.63907 31.69141,-25.63935 31.69112,-25.6398 31.6909,-25.64018 31.69081,-25.64049 31.69065,-25.64085 31.69049,-25.64142 31.69049,-25.64156 31.69042,-25.64179 31.69039,-25.64192 31.69039,-25.64201 31.69044,-25.64205 31.69041,-25.64216 31.69028,-25.64222 31.69015,-25.64222 31.69009,-25.64229 31.69009,-25.64242 31.69011,-25.6425 31.69029,-25.6426 31.69045,-25.64267 31.69052,-25.64276 31.69062,-25.6428 31.69077,-25.64282 31.69088,-25.64293 31.69089,-25.64307 31.69074,-25.64313 31.69061,-25.64308 31.69051,-25.64311 31.6904,-25.64318 31.69028,-25.64325 31.69018,-25.64326 31.69014,-25.64336 31.69016,-25.64348 31.6902,-25.64361 31.69029,-25.64373 31.69038,-25.64386 31.69054,-25.64401 31.69077,-25.64424 31.69096,-25.64444 31.69106,-25.64451 31.69116,-25.64459 31.69129,-25.64469 31.69134,-25.64492 31.69144,-25.6451 31.69139,-25.64528 31.69149,-25.64551 31.69164,-25.64562 31.69175,-25.64559 31.69204,-25.64547 31.69225,-25.64541 31.69231,-25.64522 31.69235,-25.64514 31.69249,-25.64508 31.69261,-25.64506 31.69288,-25.64519 31.69311,-25.64536 31.69326,-25.64558 31.6932,-25.64576 31.69308,-25.64584 31.69286,-25.64592 31.6928,-25.64598 31.6928,-25.64612 31.69284,-25.64619 31.69284,-25.64629 31.69303,-25.64643 31.69315,-25.64658 31.69332,-25.64657 31.69353,-25.64663 31.69368,-25.64675 31.69374,-25.64681 31.69386,-25.64692 31.69393,-25.6469 31.69399,-25.64694 31.69412,-25.64694 31.69417,-25.64693 31.69425,-25.64714 31.69432,-25.64728 31.69444,-25.64742 31.6945,-25.64757 31.69461,-25.64766 31.69466,-25.64784 31.69464,-25.64805 31.69453,-25.64833 31.69473,-25.64854 31.69544,-25.64929 31.69599,-25.64991 31.69606,-25.65004 31.6963,-25.65046 31.69685,-25.65144 31.69691,-25.65232 31.6973,-25.65403 31.69728,-25.6542 31.69721,-25.65427 31.69726,-25.65439 31.69734,-25.65457 31.69742,-25.65473 31.69741,-25.65479 31.6974,-25.65494 31.69732,-25.65507 31.69717,-25.65517 31.69715,-25.65587 31.69734,-25.65612 31.69737,-25.65626 31.69744,-25.65647 31.69753,-25.65664 31.69778,-25.65688 31.69795,-25.65715 31.69803,-25.65744 31.69821,-25.65765 31.6984,-25.65784 31.69853,-25.65809 31.69871,-25.65844 31.69887,-25.6588 31.69897,-25.65896 31.69902,-25.65905 31.69916,-25.6592 31.69935,-25.65944 31.69944,-25.65956 31.69963,-25.65969 31.69985,-25.65992 31.7,-25.66013 31.70012,-25.66033 31.7003,-25.66042 31.70055,-25.66055 31.70077,-25.66065 31.70088,-25.66067 31.70099,-25.66073 31.70099,-25.66081 31.70092,-25.66091 31.70079,-25.66098 31.70066,-25.66098 31.70059,-25.66107 31.70058,-25.66118 31.70061,-25.66135 31.70063,-25.66147 31.70075,-25.66156 31.70086,-25.6616 31.70098,-25.66169 31.70117,-25.66189 31.70134,-25.66204 31.70141,-25.66219 31.70145,-25.66222 31.70063,-25.66339 31.69889,-25.66586 31.69821,-25.66681 31.6974,-25.66802 31.69707,-25.66843 31.69635,-25.66807 31.69583,-25.66779 31.69539,-25.66756 31.69499,-25.66732 31.69472,-25.66718 31.69473,-25.6672 31.69486,-25.66761 31.69486,-25.66792 31.69468,-25.66847 31.69466,-25.66888 31.69445,-25.66879 31.69413,-25.66847 31.6939,-25.66835 31.69341,-25.6685 31.6932,-25.66852 31.69247,-25.66912 31.6901,-25.67068 31.68975,-25.67091 31.68965,-25.67098 31.68964,-25.67098 31.68952,-25.67094 31.68931,-25.67088 31.68917,-25.67061 31.68901,-25.6703 31.68877,-25.66992 31.68859,-25.6697 31.68846,-25.66956 31.68838,-25.66932 31.68873,-25.66921 31.68895,-25.66909 31.68895,-25.66886 31.68888,-25.66724 31.68887,-25.66724 31.68873,-25.66733 31.6879,-25.66787 31.68737,-25.6682 31.68703,-25.66833 31.68683,-25.66835 31.68656,-25.66838 31.6863,-25.66837 31.686,-25.66832 31.68557,-25.66812 31.68527,-25.66791 31.68517,-25.66785 31.6851,-25.66781 31.68495,-25.66793 31.6847,-25.66807 31.6836,-25.66811 31.68355,-25.66814 31.68293,-25.6685 31.68291,-25.66851 31.67992,-25.66855 31.67798,-25.66852 31.67732,-25.66827 31.6772,-25.66822 31.67654,-25.66791 31.67649,-25.66779 31.6761,-25.66687 31.67605,-25.66674 31.67605,-25.66597 31.67606,-25.66486 31.67603,-25.66478 31.67602,-25.66477 31.676,-25.66477 31.67423,-25.66481 31.67422,-25.66258 31.67402,-25.66244 31.6739,-25.66232 31.67338,-25.66202 31.67306,-25.66175 31.67262,-25.6614 31.67217,-25.66093 31.67102,-25.66152 31.67048,-25.66181 31.67013,-25.662 31.67009,-25.66187 31.67005,-25.6618 31.67003,-25.66168 31.67003,-25.6614 31.67003,-25.6609 31.66986,-25.66036 31.66944,-25.66036 31.66925,-25.66005 31.66951,-25.65965 31.66988,-25.65953 31.66993,-25.6592 31.66967,-25.65878 31.66967,-25.65854 31.66977,-25.65814 31.6699,-25.65775 31.67019,-25.65755 31.67054,-25.65732 31.67072,-25.65724 31.67091,-25.65712 31.67118,-25.65697 31.67134,-25.65692 31.67154,-25.65692 31.67217,-25.65687 31.67278,-25.65687 31.67289,-25.65675 31.67295,-25.65666 31.67299,-25.65644 31.67309,-25.65612 31.67316,-25.6559 31.67318,-25.6557 31.67324,-25.65555 31.67352,-25.65484 31.67366,-25.65432 31.67387,-25.65364 31.67376,-25.65321 31.67359,-25.65251 31.67346,-25.65175 31.67349,-25.65149 31.67346,-25.65122 31.67339,-25.65103 31.67327,-25.65082 31.67313,-25.65065 31.67304,-25.65062 31.67293,-25.65065 31.6725,-25.65012 31.67219,-25.64981 31.67125,-25.64888 31.66944,-25.64733 31.66843,-25.64656 31.66799,-25.64646 31.66718,-25.6466 31.66692,-25.64677 31.66639,-25.647 31.66631,-25.64679 31.66597,-25.64633 31.66575,-25.64615 31.66574,-25.64614 31.66777,-25.64487 31.66817,-25.64462 31.67122,-25.64228 31.67153,-25.64205 31.67171,-25.64192 31.67404,-25.64018 31.67417,-25.64008 31.67495,-25.6395 31.67549,-25.6391 31.67847,-25.63702 31.67852,-25.63698 31.68337,-25.63328 31.69088,-25.62784 31.69484,-25.62464 31.69491,-25.62474 31.69549,-25.62551 31.69551,-25.62554 31.69587,-25.62581 31.69605,-25.62619 31.6964,-25.62701 31.69668,-25.62778 31.69705,-25.62878 31.69725,-25.62935 31.69756,-25.63032 31.69808,-25.63123</coordinates></LinearRing></outerBoundaryIs></Polygon></MultiGeometry></Placemark></Document></kml>