<?xml version="1.0" encoding="UTF-8"?><kml xmlns="http://www.opengis.net/kml/2.2"><Document><Placemark><name>Driekoppies</name><description>Main Place 876032</description><ExtendedData><Data name="code"><value>876032</value></Data><Data name="name"><value>Driekoppies</value></Data><Data name="description"><value>Main Place 876032</value></Data></ExtendedData><MultiGeometry><Polygon><outerBoundaryIs><LinearRing><coordinates>31.54554,-25.6887 31.54932,-25.68968 31.54975,-25.68965 31.54975,-25.68965 31.5534,-25.68862 31.55438,-25.68882 31.55574,-25.68927 31.55674,-25.6896 31.55867,-25.69026 31.56216,-25.69143 31.56217,-25.69143 31.56304,-25.69171 31.56371,-25.69196 31.56418,-25.69217 31.56448,-25.69234 31.56504,-25.69264 31.56536,-25.69281 31.56689,-25.69364 31.56833,-25.69444 31.56851,-25.69439 31.56854,-25.69439 31.56947,-25.69434 31.57207,-25.6942 31.57209,-25.6942 31.57393,-25.69411 31.57781,-25.69391 31.57886,-25.69387 31.57886,-25.69387 31.57927,-25.69385 31.58417,-25.69362 31.58472,-25.69364 31.58459,-25.69376 31.58444,-25.6939 31.58445,-25.69407 31.58462,-25.69413 31.58482,-25.6942 31.58502,-25.69441 31.58514,-25.69465 31.58519,-25.69489 31.58514,-25.69507 31.58483,-25.69551 31.58464,-25.69585 31.5846,-25.69618 31.5846,-25.69633 31.58469,-25.69649 31.5848,-25.69663 31.58489,-25.6968 31.58491,-25.69719 31.58483,-25.69757 31.58483,-25.698 31.58486,-25.69829 31.58495,-25.6985 31.58494,-25.69867 31.58502,-25.69879 31.58508,-25.69884 31.58511,-25.69906 31.58514,-25.69925 31.58511,-25.6995 31.58516,-25.69975 31.58508,-25.69989 31.58488,-25.69995 31.5848,-25.7002 31.58481,-25.70045 31.58486,-25.70066 31.58487,-25.70086 31.58496,-25.70103 31.58494,-25.70125 31.58479,-25.70159 31.58457,-25.70185 31.58436,-25.70216 31.58434,-25.7024 31.58439,-25.70263 31.58429,-25.70281 31.58431,-25.70315 31.58434,-25.70346 31.58444,-25.70372 31.58455,-25.70396 31.58469,-25.70432 31.5847,-25.70435 31.58496,-25.70517 31.58506,-25.70545 31.58505,-25.7055 31.58508,-25.7056 31.58505,-25.70565 31.58506,-25.70572 31.58507,-25.70583 31.58509,-25.70593 31.58509,-25.706 31.58508,-25.70606 31.58508,-25.70612 31.5851,-25.70615 31.58511,-25.70618 31.58507,-25.70623 31.58503,-25.70625 31.58494,-25.70634 31.58492,-25.70638 31.58497,-25.70647 31.58502,-25.70651 31.58504,-25.70657 31.58496,-25.70661 31.58487,-25.70666 31.58481,-25.70667 31.58474,-25.70667 31.58467,-25.70666 31.58462,-25.70662 31.58457,-25.70657 31.5845,-25.70654 31.58443,-25.70656 31.58436,-25.70662 31.58433,-25.70666 31.58429,-25.70668 31.58425,-25.70671 31.5842,-25.70676 31.58413,-25.70683 31.58409,-25.70686 31.58407,-25.70689 31.58406,-25.70692 31.58405,-25.70696 31.58402,-25.707 31.584,-25.70702 31.58398,-25.70706 31.58395,-25.70709 31.58387,-25.70716 31.5838,-25.70728 31.58375,-25.70739 31.58372,-25.70754 31.58367,-25.70763 31.58367,-25.70774 31.58369,-25.7078 31.58371,-25.70789 31.5838,-25.70796 31.58383,-25.70801 31.58377,-25.70811 31.58375,-25.7082 31.5837,-25.70828 31.58364,-25.70843 31.58355,-25.70854 31.58346,-25.70862 31.58335,-25.70869 31.58326,-25.70878 31.58317,-25.70882 31.58305,-25.70883 31.58294,-25.70891 31.58288,-25.70897 31.58274,-25.70902 31.58269,-25.70904 31.58267,-25.7091 31.58262,-25.70913 31.58236,-25.70915 31.58227,-25.70906 31.58215,-25.70902 31.58204,-25.70906 31.58194,-25.70909 31.58185,-25.70915 31.58177,-25.70923 31.58175,-25.70934 31.58177,-25.7094 31.58187,-25.70944 31.58193,-25.70943 31.582,-25.70944 31.58208,-25.70943 31.58215,-25.70945 31.58222,-25.70956 31.58217,-25.70965 31.5821,-25.70969 31.58197,-25.70969 31.58185,-25.70967 31.58177,-25.70966 31.5816,-25.70957 31.5815,-25.70952 31.58143,-25.70952 31.58135,-25.70956 31.58131,-25.70963 31.58118,-25.70972 31.58108,-25.70985 31.58071,-25.70998 31.5804,-25.70999 31.58014,-25.71007 31.58008,-25.71024 31.57995,-25.71024 31.57994,-25.71024 31.5799,-25.71024 31.57989,-25.71022 31.57973,-25.71005 31.57951,-25.70985 31.57928,-25.70967 31.57903,-25.70958 31.57869,-25.70958 31.57854,-25.70953 31.57846,-25.70941 31.57838,-25.70931 31.57826,-25.70927 31.57817,-25.70926 31.57808,-25.70931 31.57798,-25.70938 31.57796,-25.70938 31.57786,-25.70939 31.57747,-25.70955 31.57712,-25.70966 31.57706,-25.70981 31.57686,-25.70995 31.57655,-25.71 31.57632,-25.71007 31.57605,-25.71034 31.57567,-25.71034 31.57528,-25.7105 31.57508,-25.71071 31.57465,-25.71081 31.5745,-25.71092 31.57425,-25.71111 31.57392,-25.71121 31.57372,-25.71136 31.57354,-25.71128 31.57324,-25.71139 31.57311,-25.71158 31.57284,-25.71172 31.57264,-25.71185 31.57254,-25.71204 31.57237,-25.71226 31.57221,-25.71254 31.57199,-25.71266 31.57173,-25.71287 31.57154,-25.71308 31.57148,-25.71314 31.57121,-25.71335 31.57122,-25.71361 31.57116,-25.71367 31.57077,-25.71357 31.57027,-25.71366 31.57006,-25.71386 31.57004,-25.71388 31.56967,-25.71432 31.56943,-25.71463 31.56946,-25.71494 31.56941,-25.71542 31.56916,-25.71636 31.56906,-25.71749 31.56904,-25.71773 31.56902,-25.71816 31.56872,-25.7195 31.56846,-25.71984 31.5685,-25.72031 31.56868,-25.72085 31.56891,-25.72119 31.5657,-25.71999 31.56339,-25.71917 31.56318,-25.71914 31.56296,-25.71923 31.56259,-25.71948 31.56222,-25.71968 31.56198,-25.71988 31.56177,-25.71987 31.56165,-25.71945 31.56197,-25.71866 31.56224,-25.71817 31.5621,-25.71782 31.56186,-25.71723 31.56178,-25.71682 31.56176,-25.71669 31.56181,-25.71626 31.56185,-25.71591 31.56146,-25.71564 31.56137,-25.71558 31.56083,-25.71524 31.56041,-25.71468 31.56005,-25.71456 31.55934,-25.71454 31.55879,-25.71446 31.55805,-25.71426 31.55792,-25.71423 31.55764,-25.71411 31.55728,-25.71396 31.55675,-25.71365 31.55647,-25.71338 31.55625,-25.71312 31.55636,-25.71287 31.55656,-25.71259 31.55644,-25.71232 31.55561,-25.71208 31.55508,-25.71178 31.5548,-25.71134 31.55474,-25.71123 31.5549,-25.71016 31.55494,-25.70933 31.5549,-25.7089 31.55486,-25.70889 31.55419,-25.70874 31.55342,-25.70827 31.55287,-25.70789 31.55275,-25.70716 31.55271,-25.70695 31.55267,-25.70676 31.5519,-25.70613 31.55052,-25.7056 31.5505,-25.70559 31.54999,-25.70553 31.54901,-25.70581 31.54809,-25.706 31.54711,-25.70591 31.5466,-25.70575 31.546,-25.70537 31.54568,-25.70506 31.54576,-25.70494 31.54605,-25.70447 31.54607,-25.70443 31.54609,-25.70441 31.54618,-25.70421 31.54625,-25.70405 31.54625,-25.70405 31.5463,-25.70387 31.54636,-25.70366 31.54641,-25.70338 31.54643,-25.70308 31.5464,-25.7027 31.54637,-25.70255 31.54621,-25.70131 31.54613,-25.70081 31.5461,-25.70043 31.5461,-25.70041 31.54605,-25.69994 31.54603,-25.69938 31.54596,-25.69868 31.54593,-25.69846 31.54588,-25.69818 31.54582,-25.69796 31.54563,-25.69719 31.54542,-25.69643 31.5454,-25.69635 31.54531,-25.69599 31.54525,-25.69573 31.54519,-25.69547 31.54515,-25.69526 31.54514,-25.6951 31.54506,-25.69452 31.54496,-25.69393 31.54488,-25.69357 31.54474,-25.693 31.54462,-25.69262 31.54448,-25.69223 31.54444,-25.6921 31.54429,-25.69216 31.54289,-25.69261 31.54284,-25.69248 31.54149,-25.68859 31.54256,-25.68802 31.54554,-25.6887</coordinates></LinearRing></outerBoundaryIs></Polygon></MultiGeometry></Placemark></Document></kml>