<?xml version="1.0" encoding="UTF-8"?><kml xmlns="http://www.opengis.net/kml/2.2"><Document><Placemark><name>Bushbuckridge</name><description>Local Municipality 877</description><ExtendedData><Data name="code"><value>877</value></Data><Data name="name"><value>Bushbuckridge</value></Data><Data name="description"><value>Local Municipality 877</value></Data></ExtendedData><MultiGeometry><Polygon><outerBoundaryIs><LinearRing><coordinates>31.14759,-25.00585 31.14661,-25.00525 31.14439,-25.00461 31.13943,-25.00319 31.14127,-24.99661 31.13834,-24.99233 31.13714,-24.99059 31.13624,-24.98927 31.13714,-24.98764 31.13854,-24.98511 31.14003,-24.98243 31.14009,-24.98235 31.14006,-24.98234 31.13951,-24.98216 31.11158,-24.98666 31.11014,-24.98691 31.10823,-24.98724 31.09086,-24.99026 31.07518,-24.99213 31.07033,-24.9927 31.06114,-24.99387 31.0607,-24.9954 31.06199,-24.99727 31.06422,-25.00049 31.06453,-25.00085 31.06713,-25.00393 31.06974,-25.00701 31.07241,-25.01053 31.07747,-25.01723 31.08001,-25.02057 31.08254,-25.02392 31.08387,-25.02565 31.08478,-25.02705 31.08646,-25.02938 31.08663,-25.02961 31.08651,-25.02967 31.08617,-25.02984 31.08581,-25.03 31.08552,-25.03013 31.08521,-25.03025 31.08482,-25.03047 31.08461,-25.03058 31.08441,-25.03068 31.08417,-25.03073 31.08391,-25.03072 31.0836,-25.03075 31.08344,-25.03087 31.08333,-25.03101 31.08321,-25.03112 31.08308,-25.03121 31.08291,-25.03131 31.08273,-25.03137 31.08256,-25.03139 31.08231,-25.03142 31.08199,-25.03142 31.08178,-25.03139 31.08166,-25.03136 31.08145,-25.03126 31.08121,-25.03116 31.08069,-25.03108 31.08036,-25.03103 31.08009,-25.03098 31.07971,-25.03088 31.07943,-25.03084 31.07914,-25.03083 31.07889,-25.03085 31.07875,-25.03088 31.07837,-25.03099 31.07807,-25.03105 31.07782,-25.03109 31.07755,-25.03111 31.07725,-25.03111 31.07694,-25.03109 31.07671,-25.03109 31.07651,-25.03103 31.07624,-25.0309 31.07597,-25.03079 31.07569,-25.03072 31.07542,-25.03068 31.07519,-25.03067 31.07493,-25.03066 31.07455,-25.03061 31.07395,-25.03057 31.07348,-25.0305 31.07316,-25.03047 31.07278,-25.03037 31.07237,-25.03023 31.07208,-25.03005 31.07193,-25.02986 31.07183,-25.02969 31.0717,-25.02949 31.07158,-25.02935 31.07152,-25.02927 31.07121,-25.02912 31.07051,-25.02886 31.06996,-25.02868 31.06953,-25.02859 31.06905,-25.02855 31.06869,-25.02857 31.06841,-25.02861 31.0682,-25.02869 31.06804,-25.02877 31.0679,-25.0288 31.06778,-25.0288 31.06766,-25.02877 31.06736,-25.02866 31.06707,-25.02856 31.06679,-25.02849 31.06655,-25.02851 31.06626,-25.02855 31.06601,-25.02864 31.06581,-25.02873 31.06567,-25.02885 31.06545,-25.02902 31.06527,-25.02916 31.06492,-25.0295 31.06463,-25.02976 31.06441,-25.02994 31.06424,-25.03013 31.06408,-25.03035 31.06388,-25.03061 31.06357,-25.03089 31.06335,-25.03106 31.06307,-25.03119 31.06287,-25.03124 31.06249,-25.0313 31.06205,-25.03143 31.06161,-25.03155 31.06136,-25.0316 31.06114,-25.0316 31.06089,-25.03157 31.06064,-25.03148 31.06045,-25.03142 31.06026,-25.0314 31.06,-25.03136 31.05971,-25.03127 31.05952,-25.0312 31.05926,-25.03107 31.05892,-25.03088 31.05844,-25.03061 31.05809,-25.03037 31.05773,-25.03015 31.05734,-25.02997 31.05663,-25.02967 31.05622,-25.02943 31.05602,-25.02932 31.05577,-25.02918 31.05547,-25.02902 31.05527,-25.02892 31.05473,-25.02874 31.05459,-25.02869 31.05444,-25.02865 31.05431,-25.0286 31.05398,-25.0284 31.05376,-25.02823 31.05358,-25.02815 31.05333,-25.02813 31.05307,-25.0281 31.05289,-25.02808 31.05265,-25.02807 31.05251,-25.0281 31.05234,-25.02814 31.0522,-25.02814 31.05197,-25.02802 31.05182,-25.02798 31.05173,-25.028 31.05167,-25.0281 31.05167,-25.02836 31.05165,-25.02857 31.05161,-25.02878 31.05153,-25.02895 31.05143,-25.02904 31.05134,-25.0291 31.05097,-25.02928 31.05064,-25.02939 31.05048,-25.02947 31.05032,-25.02958 31.05016,-25.02972 31.04999,-25.02988 31.04991,-25.02996 31.0498,-25.03016 31.04972,-25.03035 31.04968,-25.03053 31.04965,-25.03065 31.04958,-25.03077 31.0495,-25.03086 31.04942,-25.03094 31.04929,-25.03103 31.04919,-25.03111 31.04898,-25.03116 31.04875,-25.03115 31.04853,-25.0311 31.04832,-25.03107 31.04777,-25.03107 31.04758,-25.03106 31.04736,-25.031 31.04708,-25.0308 31.04678,-25.03068 31.04651,-25.0306 31.04626,-25.03054 31.04606,-25.0305 31.04581,-25.0304 31.04551,-25.03026 31.04504,-25.03009 31.04457,-25.02994 31.04411,-25.02978 31.04378,-25.02965 31.04339,-25.02956 31.04307,-25.02948 31.04285,-25.02933 31.04271,-25.02918 31.04259,-25.02899 31.04247,-25.02881 31.04229,-25.02862 31.04206,-25.02838 31.04179,-25.02815 31.04156,-25.02797 31.04118,-25.02778 31.04082,-25.02766 31.04046,-25.02755 31.03998,-25.02744 31.03942,-25.0273 31.03873,-25.0272 31.03784,-25.02709 31.03752,-25.02704 31.03728,-25.02704 31.037,-25.027 31.03682,-25.02703 31.03668,-25.02711 31.03645,-25.02719 31.03629,-25.02724 31.03603,-25.02732 31.03582,-25.02737 31.03563,-25.0274 31.03545,-25.02744 31.03534,-25.02749 31.03517,-25.02761 31.03505,-25.02771 31.03495,-25.02784 31.03477,-25.028 31.0346,-25.02814 31.03435,-25.02833 31.03419,-25.02849 31.03406,-25.02868 31.03387,-25.02886 31.03358,-25.02902 31.03333,-25.02914 31.03311,-25.02927 31.033,-25.02933 31.03291,-25.02944 31.03285,-25.02956 31.03282,-25.02973 31.03274,-25.02996 31.03267,-25.03012 31.03259,-25.03021 31.03244,-25.03033 31.03219,-25.03052 31.0319,-25.0307 31.03146,-25.03091 31.03122,-25.03098 31.03089,-25.03104 31.03063,-25.03109 31.03033,-25.03109 31.03005,-25.03106 31.02976,-25.03104 31.02944,-25.03102 31.02914,-25.03098 31.02866,-25.03091 31.02843,-25.03086 31.02819,-25.0308 31.02799,-25.03076 31.02775,-25.0307 31.02748,-25.03063 31.02727,-25.03054 31.02703,-25.03043 31.02673,-25.03032 31.02649,-25.03027 31.02616,-25.03027 31.02595,-25.03017 31.02573,-25.03014 31.02551,-25.03013 31.02527,-25.03011 31.02523,-25.0301 31.02505,-25.03006 31.02489,-25.03003 31.02458,-25.02998 31.02435,-25.02992 31.02355,-25.02983 31.02309,-25.0298 31.02262,-25.02977 31.02217,-25.02974 31.02131,-25.02974 31.02095,-25.02982 31.02069,-25.02989 31.02057,-25.02995 31.0204,-25.03004 31.02026,-25.03017 31.02011,-25.03032 31.01996,-25.03045 31.01977,-25.03056 31.01949,-25.03064 31.01925,-25.03063 31.01901,-25.03061 31.01871,-25.03059 31.01842,-25.03054 31.01824,-25.03054 31.01794,-25.03049 31.01762,-25.03044 31.01736,-25.03035 31.01709,-25.03021 31.01691,-25.03006 31.01677,-25.0299 31.0167,-25.02977 31.01661,-25.02961 31.0165,-25.02945 31.0163,-25.02929 31.01612,-25.02921 31.01595,-25.0292 31.0158,-25.02921 31.01566,-25.02922 31.01639,-25.02633 31.02402,-24.99522 31.03159,-24.99686 31.03143,-24.99248 31.03089,-24.9773 31.03047,-24.96565 31.02939,-24.95052 31.02876,-24.94138 31.02831,-24.93486 31.02756,-24.92446 31.02722,-24.9197 31.02681,-24.91411 31.02527,-24.90763 31.02176,-24.89284 31.01741,-24.87449 31.01738,-24.87438 31.01532,-24.86796 31.01398,-24.86375 31.01147,-24.85591 31.00894,-24.848 31.00747,-24.84342 31.00591,-24.83853 31.00554,-24.83739 31.00542,-24.83702 31.00525,-24.83693 30.99969,-24.83417 30.97426,-24.82037 30.95885,-24.81628 30.93052,-24.80836 30.93048,-24.80835 30.91941,-24.80516 30.91198,-24.79033 30.9093,-24.78483 30.90332,-24.75084 30.90268,-24.74672 30.89879,-24.74041 30.90696,-24.72291 30.89616,-24.71417 30.88993,-24.70875 30.91016,-24.67764 30.91321,-24.67285 30.91207,-24.66591 30.90913,-24.64435 30.90811,-24.64296 30.90708,-24.64156 30.90504,-24.63876 30.90402,-24.63737 30.903,-24.63597 30.90197,-24.63457 30.90095,-24.63318 30.89891,-24.63038 30.89891,-24.63035 30.89888,-24.63033 30.89205,-24.62761 30.88883,-24.62632 30.87878,-24.62231 30.86872,-24.6183 30.85867,-24.61429 30.8537,-24.61135 30.84327,-24.60532 30.83283,-24.5993 30.82242,-24.59328 30.8224,-24.59327 30.81329,-24.58801 30.80418,-24.58274 30.79504,-24.57749 30.85294,-24.54806 30.87171,-24.5385 30.87248,-24.53824 30.87325,-24.53797 30.87403,-24.5377 30.8748,-24.53743 30.87557,-24.53717 30.87634,-24.5369 30.87712,-24.53663 30.87789,-24.53637 30.87943,-24.53583 30.88027,-24.53555 30.88193,-24.53497 30.88277,-24.53468 30.8836,-24.53439 30.88444,-24.53411 30.8861,-24.53353 30.88694,-24.53324 30.88777,-24.53295 30.88814,-24.53283 30.88972,-24.53228 30.89131,-24.53173 30.89433,-24.53069 30.89569,-24.53022 30.89715,-24.52971 30.89862,-24.52921 30.89974,-24.52882 30.90157,-24.52819 30.90342,-24.5276 30.90525,-24.52699 30.90893,-24.52577 30.9104,-24.52553 30.9109,-24.52545 30.91286,-24.52513 30.91335,-24.52503 30.91381,-24.52497 30.91386,-24.52497 30.91789,-24.5246 30.93409,-24.52312 30.93671,-24.52288 30.93813,-24.52275 30.94113,-24.52248 30.94124,-24.52247 30.94181,-24.52242 30.94219,-24.52238 30.94233,-24.52237 30.94622,-24.52202 30.95027,-24.52165 30.95091,-24.52159 30.952,-24.52149 30.9543,-24.52128 30.95433,-24.52128 30.95482,-24.52732 30.95532,-24.5334 30.95582,-24.53949 30.95588,-24.54026 30.95632,-24.54557 30.95682,-24.55165 30.95732,-24.55774 30.95832,-24.5699 30.95882,-24.57599 30.95927,-24.58148 30.95932,-24.58207 30.97732,-24.57971 30.98181,-24.57911 30.9884,-24.57825 30.99981,-24.57675 31.00043,-24.57667 31.0036,-24.57625 31.00398,-24.5762 31.00912,-24.57559 31.02883,-24.57323 31.03026,-24.57306 31.0387,-24.57205 31.03897,-24.57202 31.03905,-24.57201 31.0534,-24.57032 31.05374,-24.57028 31.0602,-24.56978 31.06757,-24.56938 31.06775,-24.56937 31.06909,-24.56929 31.07342,-24.56903 31.08621,-24.56814 31.09221,-24.56759 31.09938,-24.56687 31.10033,-24.56683 31.10434,-24.56664 31.11108,-24.56612 31.11163,-24.56604 31.11238,-24.56592 31.11382,-24.56581 31.11854,-24.5654 31.12566,-24.5646 31.12745,-24.56451 31.12857,-24.56445 31.13119,-24.56419 31.13391,-24.56389 31.13511,-24.56376 31.13883,-24.56336 31.14476,-24.56292 31.15015,-24.56229 31.1592,-24.56146 31.16805,-24.56067 31.16809,-24.56066 31.16809,-24.56063 31.17958,-24.55966 31.18504,-24.5592 31.20592,-24.55742 31.20595,-24.55742 31.22497,-24.55609 31.22618,-24.55601 31.25271,-24.50091 31.25277,-24.5008 31.25366,-24.49912 31.22647,-24.46025 31.21954,-24.4504 31.20324,-24.42646 31.15995,-24.43741 31.15995,-24.436 31.15991,-24.42999 31.15991,-24.42626 31.16004,-24.42346 31.16004,-24.41662 31.15997,-24.41442 31.16004,-24.4025 31.15985,-24.39904 31.16005,-24.3959 31.16007,-24.39133 31.1601,-24.38626 31.15997,-24.37557 31.16382,-24.37509 31.19895,-24.37076 31.24203,-24.36543 31.22889,-24.34688 31.21955,-24.33319 31.2068,-24.31504 31.20006,-24.30495 31.16585,-24.31461 31.16176,-24.31589 31.15252,-24.31867 31.13932,-24.32009 31.10221,-24.32373 31.07352,-24.32254 31.0574,-24.322 31.05719,-24.32199 31.05602,-24.32189 31.05616,-24.32031 31.05677,-24.31343 31.05682,-24.31318 31.05712,-24.31137 31.05719,-24.31055 31.06043,-24.2718 31.05865,-24.26092 31.05801,-24.25515 31.05775,-24.25415 31.05771,-24.25384 31.0573,-24.25091 31.05729,-24.25079 31.05558,-24.24051 31.055,-24.23529 31.05445,-24.23236 31.05437,-24.23193 31.04994,-24.18732 31.0519,-24.18595 31.07935,-24.16649 31.10277,-24.14917 31.10727,-24.14573 31.09841,-24.12305 31.09615,-24.11736 31.1151,-24.11921 31.11787,-24.10484 31.11885,-24.09981 31.12057,-24.09026 31.1153,-24.09101 31.09971,-24.09284 31.08599,-24.09452 31.08103,-24.09383 31.0749,-24.09301 31.06622,-24.09186 31.06501,-24.0917 31.06343,-24.09146 31.06374,-24.09142 31.06444,-24.09126 31.06477,-24.09114 31.0651,-24.09095 31.06566,-24.09061 31.06608,-24.09026 31.06652,-24.08996 31.0669,-24.08963 31.06729,-24.08917 31.06787,-24.08843 31.06823,-24.08804 31.06857,-24.08775 31.06878,-24.08747 31.06897,-24.08713 31.0692,-24.08676 31.06938,-24.08659 31.06976,-24.0862 31.07011,-24.08587 31.07035,-24.0855 31.07056,-24.0852 31.07086,-24.08482 31.07111,-24.08448 31.07144,-24.08405 31.07163,-24.08378 31.07187,-24.08353 31.07214,-24.08333 31.07262,-24.08305 31.07309,-24.08271 31.07352,-24.08256 31.07406,-24.08226 31.07474,-24.08195 31.07554,-24.08158 31.07642,-24.08119 31.077,-24.08097 31.07769,-24.08074 31.07857,-24.08043 31.0794,-24.0801 31.08027,-24.0798 31.0806,-24.07966 31.08101,-24.07954 31.08175,-24.07929 31.08266,-24.07899 31.08372,-24.07868 31.0842,-24.07851 31.08511,-24.07821 31.08563,-24.07801 31.08646,-24.07767 31.08707,-24.07742 31.0876,-24.07726 31.08787,-24.0772 31.08879,-24.07686 31.09013,-24.07651 31.09145,-24.07618 31.09185,-24.07611 31.09274,-24.07596 31.09336,-24.0758 31.09381,-24.07569 31.09425,-24.07552 31.09491,-24.0752 31.09514,-24.07508 31.09559,-24.07484 31.09613,-24.0743 31.09683,-24.07355 31.09748,-24.07293 31.09826,-24.07219 31.09897,-24.07164 31.09954,-24.07132 31.10021,-24.07102 31.10094,-24.07077 31.10155,-24.07064 31.10187,-24.07061 31.10288,-24.07054 31.10311,-24.07052 31.1045,-24.07048 31.10549,-24.0703 31.10636,-24.07029 31.10769,-24.07012 31.10901,-24.06987 31.10994,-24.0698 31.11118,-24.0696 31.11249,-24.06942 31.11347,-24.06924 31.11495,-24.06899 31.11582,-24.0688 31.11632,-24.06864 31.11715,-24.0685 31.11825,-24.06832 31.1188,-24.06824 31.11944,-24.06823 31.11991,-24.06821 31.12055,-24.0682 31.12156,-24.06834 31.12214,-24.06846 31.12306,-24.06866 31.12357,-24.06889 31.12425,-24.0692 31.12561,-24.07016 31.12635,-24.07073 31.12712,-24.07136 31.1278,-24.07191 31.12934,-24.07292 31.13058,-24.07326 31.13117,-24.07354 31.13253,-24.07366 31.13378,-24.0737 31.13417,-24.07364 31.13475,-24.07351 31.136,-24.07315 31.13689,-24.07278 31.13783,-24.07235 31.13901,-24.07213 31.14047,-24.07177 31.14141,-24.07141 31.14247,-24.07112 31.14385,-24.07071 31.14506,-24.07025 31.14585,-24.07004 31.14605,-24.06999 31.14708,-24.06968 31.14771,-24.06931 31.14826,-24.06895 31.14856,-24.06868 31.1499,-24.06815 31.15025,-24.06801 31.15083,-24.06765 31.15127,-24.06724 31.15173,-24.06696 31.15212,-24.06662 31.15267,-24.06592 31.15296,-24.06568 31.15359,-24.06535 31.15424,-24.06494 31.15459,-24.06477 31.15533,-24.06443 31.1562,-24.06381 31.15706,-24.06338 31.15947,-24.06195 31.16053,-24.06125 31.16109,-24.0609 31.16263,-24.06005 31.16367,-24.05959 31.16428,-24.05937 31.16451,-24.05932 31.16503,-24.05933 31.16628,-24.05915 31.16709,-24.05908 31.16774,-24.05899 31.16822,-24.05904 31.16899,-24.05904 31.16948,-24.05889 31.16985,-24.05863 31.17008,-24.0583 31.17027,-24.05787 31.17041,-24.05747 31.17063,-24.05697 31.17095,-24.05619 31.17097,-24.05522 31.17098,-24.05388 31.17097,-24.05342 31.17076,-24.05228 31.17079,-24.05166 31.17063,-24.05104 31.17053,-24.04977 31.17067,-24.04913 31.17082,-24.04859 31.17104,-24.04816 31.17105,-24.04652 31.17123,-24.04612 31.17126,-24.04538 31.17131,-24.04418 31.17151,-24.0435 31.17173,-24.04304 31.17197,-24.04255 31.1727,-24.04089 31.17282,-24.04044 31.17308,-24.03984 31.17336,-24.03913 31.17368,-24.03869 31.17395,-24.03831 31.17432,-24.03792 31.17468,-24.03751 31.17513,-24.03685 31.17566,-24.03638 31.17611,-24.03606 31.1765,-24.03578 31.17705,-24.03548 31.17753,-24.03521 31.1781,-24.03499 31.17853,-24.03487 31.17905,-24.0347 31.18028,-24.03433 31.18107,-24.03411 31.18201,-24.03381 31.18391,-24.03309 31.18576,-24.03252 31.18705,-24.03206 31.18816,-24.03169 31.18977,-24.0314 31.19081,-24.03113 31.19187,-24.03107 31.19339,-24.03104 31.19425,-24.03115 31.19448,-24.03131 31.19527,-24.0317 31.19676,-24.03271 31.19767,-24.03366 31.19802,-24.03412 31.19908,-24.03517 31.20012,-24.03635 31.20055,-24.03675 31.20094,-24.03727 31.20148,-24.03783 31.20226,-24.03844 31.20288,-24.03903 31.20332,-24.03934 31.20395,-24.03971 31.20532,-24.04052 31.20603,-24.04103 31.20681,-24.04133 31.2089,-24.04216 31.21043,-24.04263 31.21129,-24.04268 31.21134,-24.04269 31.21133,-24.04243 31.21257,-24.04279 31.21606,-24.04381 31.22002,-24.04557 31.22834,-24.05158 31.2347,-24.05757 31.23847,-24.06293 31.24247,-24.06717 31.24524,-24.07142 31.24701,-24.075 31.24783,-24.08018 31.24811,-24.08266 31.2497,-24.08964 31.25228,-24.09773 31.25428,-24.09996 31.25481,-24.10015 31.25702,-24.10097 31.25725,-24.10105 31.26411,-24.09983 31.2724,-24.09543 31.27508,-24.09382 31.28356,-24.08581 31.28764,-24.07966 31.29345,-24.07439 31.29639,-24.07323 31.29885,-24.07342 31.30156,-24.07383 31.30478,-24.0756 31.31001,-24.07981 31.31323,-24.08135 31.31767,-24.08287 31.32062,-24.0826 31.32672,-24.08004 31.33114,-24.07953 31.33652,-24.07765 31.34237,-24.07486 31.34946,-24.07274 31.36001,-24.07124 31.36512,-24.06846 31.3682,-24.0639 31.37355,-24.05751 31.37911,-24.05225 31.38352,-24.05129 31.38644,-24.0522 31.38778,-24.05664 31.39009,-24.06225 31.3926,-24.06583 31.39558,-24.06759 31.39902,-24.06755 31.40902,-24.06289 31.41583,-24.05851 31.41997,-24.05642 31.42805,-24.0545 31.4312,-24.05235 31.43386,-24.04946 31.43603,-24.04672 31.43866,-24.04217 31.44056,-24.0383 31.4407,-24.03176 31.44058,-24.02476 31.44094,-24.02098 31.44762,-24.01992 31.45035,-24.02124 31.45259,-24.02324 31.45956,-24.02833 31.46253,-24.02964 31.47114,-24.0302 31.48197,-24.03162 31.49336,-24.03687 31.49757,-24.03839 31.50029,-24.03948 31.50547,-24.04076 31.50993,-24.04318 31.51344,-24.04696 31.51903,-24.05261 31.52094,-24.0543 31.52909,-24.05667 31.53155,-24.05685 31.53792,-24.05586 31.54256,-24.05399 31.54373,-24.05081 31.54387,-24.04494 31.54457,-24.04245 31.54624,-24.03972 31.54865,-24.0372 31.55206,-24.03557 31.56112,-24.03363 31.56824,-24.03307 31.57096,-24.03439 31.57372,-24.03728 31.57651,-24.0422 31.58028,-24.04711 31.58687,-24.05278 31.5947,-24.05637 31.59814,-24.05632 31.60009,-24.05539 31.60318,-24.05281 31.6059,-24.05056 31.6083,-24.04759 31.60924,-24.04509 31.60915,-24.04013 31.60957,-24.03629 31.6115,-24.03423 31.6139,-24.03103 31.62089,-24.02325 31.62672,-24.01978 31.63258,-24.01789 31.63944,-24.01643 31.65242,-24.0142 31.6593,-24.01409 31.663,-24.01494 31.66598,-24.0167 31.66876,-24.02095 31.66957,-24.02499 31.6706,-24.02746 31.6714,-24.03106 31.67196,-24.03511 31.67379,-24.04073 31.67432,-24.04297 31.67534,-24.04521 31.67613,-24.04791 31.6774,-24.04992 31.67818,-24.05239 31.67872,-24.05509 31.67998,-24.05665 31.68372,-24.05953 31.69036,-24.0601 31.70191,-24.05992 31.70877,-24.05869 31.7187,-24.05684 31.72605,-24.05305 31.7317,-24.04975 31.73581,-24.04608 31.73764,-24.03905 31.73727,-24.03206 31.73598,-24.02892 31.73543,-24.02555 31.73357,-24.01836 31.7335,-24.01452 31.73491,-24.01134 31.73708,-24.00882 31.7417,-24.00627 31.74486,-24.00464 31.74656,-24.00348 31.74888,-24.00072 31.75177,-23.99765 31.75467,-23.9958 31.75906,-23.99164 31.76398,-23.98791 31.76748,-23.98462 31.76997,-23.98319 31.7764,-23.98124 31.78054,-23.98141 31.78269,-23.98208 31.78747,-23.98649 31.79161,-23.98837 31.79461,-23.99193 31.79847,-23.99337 31.80121,-23.99409 31.8047,-23.99718 31.80952,-23.99884 31.81254,-23.99931 31.81796,-23.99908 31.82036,-23.99838 31.82212,-23.99651 31.82238,-23.99298 31.82161,-23.99085 31.82298,-23.98826 31.82497,-23.98616 31.82891,-23.98597 31.83266,-23.9869 31.84014,-23.98672 31.84488,-23.98593 31.84793,-23.98617 31.85268,-23.98685 31.88383,-23.98459 31.88676,-24.00133 31.89537,-24.07471 31.90801,-24.18243 31.9518,-24.25089 31.98128,-24.29734 31.98713,-24.3022 31.99948,-24.37469 32.0131,-24.45459 32.00891,-24.57515 31.99827,-24.68974 32.01548,-24.92512 32.03017,-25.06569 32.03017,-25.06572 32.03359,-25.13252 32.03198,-25.18309 32.03181,-25.18317 32.0315,-25.1833 32.03128,-25.18339 32.03114,-25.18348 32.0311,-25.18351 32.03092,-25.18367 32.03085,-25.18376 32.03083,-25.18383 32.03048,-25.18411 32.03003,-25.18451 32.02939,-25.1848 32.02841,-25.18522 32.02796,-25.18545 32.02759,-25.18563 32.02664,-25.18603 32.02609,-25.18632 32.02569,-25.18673 32.02563,-25.18678 32.02517,-25.18722 32.02452,-25.1874 32.02376,-25.18724 32.0229,-25.18705 32.02151,-25.18705 32.02139,-25.18705 32.02121,-25.18703 32.02041,-25.18696 32.01975,-25.18662 32.0189,-25.18595 32.01857,-25.18583 32.01841,-25.18576 32.01825,-25.18572 32.01801,-25.18565 32.01771,-25.18559 32.01728,-25.18557 32.01676,-25.18556 32.01647,-25.18553 32.01638,-25.18546 32.01617,-25.1853 32.01596,-25.18512 32.01594,-25.18511 32.01575,-25.18497 32.01558,-25.18487 32.01554,-25.18485 32.01542,-25.18478 32.01535,-25.18476 32.01528,-25.18474 32.01524,-25.18476 32.0152,-25.18478 32.01512,-25.18477 32.01502,-25.18467 32.01496,-25.18454 32.01492,-25.1843 32.0149,-25.18413 32.01488,-25.18397 32.01478,-25.18369 32.01475,-25.18355 32.01473,-25.18348 32.0147,-25.18341 32.01459,-25.18332 32.01447,-25.18319 32.01443,-25.18305 32.01441,-25.18297 32.01438,-25.18294 32.01434,-25.18288 32.0143,-25.18282 32.01429,-25.18279 32.01426,-25.18269 32.01424,-25.18265 32.01421,-25.18251 32.01417,-25.18238 32.01419,-25.18233 32.0142,-25.18222 32.01422,-25.18211 32.01403,-25.18173 32.01377,-25.18145 32.01364,-25.18122 32.01352,-25.18109 32.01329,-25.1809 32.01311,-25.1807 32.01298,-25.18044 32.01292,-25.18035 32.01289,-25.1803 32.01278,-25.18024 32.0127,-25.18019 32.01265,-25.18016 32.01258,-25.18012 32.01252,-25.17999 32.01252,-25.17975 32.0124,-25.17945 32.01223,-25.17918 32.01201,-25.17893 32.01177,-25.17867 32.01157,-25.17851 32.01131,-25.17835 32.01123,-25.1782 32.01118,-25.17808 32.01115,-25.17801 32.01114,-25.17799 32.01112,-25.17784 32.0111,-25.17781 32.01105,-25.1777 32.01083,-25.17751 32.01053,-25.17736 32.01034,-25.17714 32.01019,-25.17684 32.01016,-25.17681 32.01002,-25.17668 32.00995,-25.1766 32.00991,-25.17655 32.00982,-25.17653 32.00974,-25.17651 32.00964,-25.1765 32.00961,-25.17644 32.0096,-25.17641 32.00961,-25.17609 32.00953,-25.17581 32.00938,-25.17566 32.00931,-25.17563 32.00921,-25.17558 32.00907,-25.17558 32.00891,-25.1756 32.00881,-25.1755 32.00874,-25.17528 32.00862,-25.17498 32.00829,-25.17456 32.00813,-25.17428 32.00801,-25.17407 32.00776,-25.17336 32.00761,-25.17294 32.00745,-25.17253 32.00741,-25.17248 32.00728,-25.17235 32.00713,-25.17218 32.00706,-25.1721 32.00682,-25.17163 32.00678,-25.17148 32.00674,-25.17126 32.00672,-25.17106 32.00672,-25.17094 32.0067,-25.17078 32.0067,-25.17073 32.00668,-25.1707 32.00665,-25.17068 32.00659,-25.17064 32.00652,-25.17063 32.00643,-25.17064 32.00641,-25.17065 32.00637,-25.17067 32.00634,-25.17069 32.0063,-25.17071 32.00624,-25.17088 32.00618,-25.17088 32.0061,-25.17081 32.00606,-25.17031 32.00605,-25.17022 32.00599,-25.16958 32.0059,-25.16927 32.00582,-25.16921 32.00573,-25.16928 32.00555,-25.16939 32.0054,-25.16931 32.00513,-25.16873 32.00465,-25.16773 32.00425,-25.16672 32.00393,-25.16614 32.00379,-25.16592 32.00365,-25.1657 32.00349,-25.16514 32.0034,-25.16441 32.00324,-25.16412 32.00309,-25.16391 32.00283,-25.16354 32.00259,-25.16347 32.00184,-25.16312 32.0012,-25.16292 32.00092,-25.16276 32.00023,-25.16239 31.99996,-25.16224 31.99957,-25.16203 31.99896,-25.16185 31.99842,-25.16169 31.99829,-25.16157 31.99813,-25.16143 31.99759,-25.16109 31.99747,-25.16101 31.9967,-25.16084 31.99633,-25.16074 31.99608,-25.16066 31.99556,-25.16036 31.99481,-25.16003 31.99437,-25.1599 31.99335,-25.15959 31.99176,-25.15938 31.99139,-25.15933 31.98913,-25.15935 31.989,-25.15938 31.98774,-25.15958 31.98742,-25.1597 31.98712,-25.15983 31.98624,-25.16017 31.98442,-25.161 31.98348,-25.16147 31.98283,-25.16172 31.98223,-25.16175 31.98166,-25.16169 31.98084,-25.16188 31.97935,-25.16208 31.97925,-25.16209 31.97839,-25.16216 31.9778,-25.16241 31.97722,-25.16271 31.97675,-25.16316 31.97636,-25.16323 31.97618,-25.16331 31.97598,-25.16338 31.97588,-25.16342 31.97563,-25.16348 31.97535,-25.16347 31.9752,-25.16339 31.97511,-25.16335 31.97479,-25.16333 31.97474,-25.16333 31.97434,-25.16336 31.97399,-25.16334 31.97382,-25.16329 31.97363,-25.16313 31.9734,-25.16309 31.97308,-25.16313 31.973,-25.16316 31.97285,-25.16322 31.97265,-25.16326 31.97261,-25.16327 31.97226,-25.16328 31.97191,-25.16336 31.97133,-25.16359 31.97093,-25.16372 31.9706,-25.16379 31.97035,-25.16384 31.96978,-25.16387 31.96874,-25.16411 31.96853,-25.16415 31.96844,-25.16417 31.96757,-25.16431 31.96664,-25.16436 31.9657,-25.1643 31.96499,-25.16426 31.96368,-25.16441 31.96252,-25.16463 31.96152,-25.16468 31.9607,-25.16467 31.95997,-25.16476 31.95895,-25.16479 31.95825,-25.16472 31.95821,-25.16472 31.958,-25.1647 31.9571,-25.16462 31.95586,-25.16449 31.95521,-25.16447 31.95473,-25.16431 31.95388,-25.16422 31.95272,-25.16407 31.95218,-25.16394 31.95189,-25.16387 31.95157,-25.16375 31.95093,-25.16352 31.94985,-25.16323 31.94846,-25.16266 31.94749,-25.16204 31.94673,-25.16137 31.94662,-25.16126 31.94571,-25.16038 31.94534,-25.15982 31.94505,-25.15912 31.94486,-25.15884 31.94465,-25.15868 31.94451,-25.15849 31.94443,-25.15839 31.94435,-25.15825 31.94425,-25.15808 31.94408,-25.15777 31.94397,-25.15753 31.94383,-25.15722 31.94364,-25.15687 31.9434,-25.15656 31.9432,-25.1563 31.94311,-25.15612 31.94307,-25.1559 31.94303,-25.15569 31.94296,-25.15539 31.94289,-25.1553 31.94284,-25.15521 31.94263,-25.15502 31.94247,-25.15485 31.94242,-25.15475 31.94234,-25.15459 31.9423,-25.15437 31.94235,-25.15414 31.94239,-25.15393 31.9423,-25.1537 31.94217,-25.15344 31.94211,-25.15317 31.94212,-25.15278 31.94212,-25.15272 31.94215,-25.15231 31.94215,-25.15222 31.94216,-25.15216 31.9421,-25.15182 31.94213,-25.15161 31.94211,-25.15141 31.94208,-25.15122 31.94205,-25.15112 31.94199,-25.15102 31.94196,-25.15095 31.9419,-25.15086 31.94182,-25.15076 31.94169,-25.15058 31.94154,-25.15055 31.94134,-25.15052 31.94129,-25.15046 31.94124,-25.14976 31.94126,-25.14962 31.9413,-25.14902 31.9413,-25.14849 31.9413,-25.14841 31.94133,-25.14769 31.94141,-25.14699 31.94155,-25.14652 31.9416,-25.14635 31.94177,-25.14571 31.94194,-25.1452 31.94205,-25.14465 31.94222,-25.14412 31.94235,-25.1438 31.94242,-25.14366 31.9425,-25.14349 31.94266,-25.1433 31.9429,-25.14306 31.94294,-25.14298 31.94296,-25.14293 31.94295,-25.14282 31.94289,-25.1427 31.94288,-25.14258 31.94303,-25.14219 31.94316,-25.14179 31.9432,-25.14165 31.94327,-25.14135 31.94331,-25.141 31.94337,-25.14061 31.94349,-25.1404 31.94369,-25.14016 31.94394,-25.13991 31.94406,-25.13969 31.94421,-25.13927 31.94428,-25.13917 31.94444,-25.13897 31.94472,-25.13877 31.94489,-25.13851 31.94498,-25.13816 31.94503,-25.1379 31.94505,-25.13781 31.94504,-25.13778 31.94499,-25.13752 31.94493,-25.13714 31.94494,-25.13708 31.94496,-25.13685 31.94512,-25.13632 31.94519,-25.13586 31.94537,-25.13551 31.94559,-25.13523 31.94572,-25.13496 31.94576,-25.1348 31.94577,-25.13473 31.94574,-25.13374 31.94571,-25.13303 31.9457,-25.13242 31.94563,-25.13207 31.9456,-25.13196 31.94558,-25.1314 31.94557,-25.13096 31.94544,-25.13025 31.94543,-25.13019 31.94536,-25.12996 31.94507,-25.12903 31.94497,-25.12872 31.94483,-25.12834 31.94465,-25.12787 31.94442,-25.12752 31.9444,-25.1275 31.94415,-25.12721 31.94386,-25.12677 31.94363,-25.12636 31.94337,-25.12608 31.94308,-25.12591 31.9428,-25.12575 31.94249,-25.12568 31.9423,-25.12561 31.94213,-25.12537 31.94206,-25.125 31.94201,-25.12479 31.942,-25.12476 31.94189,-25.12467 31.94178,-25.12458 31.94168,-25.12455 31.94155,-25.12451 31.94141,-25.12447 31.94129,-25.12443 31.9411,-25.12445 31.941,-25.12445 31.94062,-25.12426 31.94026,-25.12411 31.93986,-25.12401 31.93937,-25.12399 31.939,-25.12399 31.93865,-25.12403 31.93844,-25.12405 31.93827,-25.12396 31.93807,-25.12371 31.938,-25.12367 31.93781,-25.12357 31.93758,-25.12348 31.93739,-25.1234 31.93691,-25.12327 31.93664,-25.12316 31.93646,-25.123 31.93617,-25.12291 31.93582,-25.12289 31.93577,-25.12288 31.93542,-25.12282 31.93508,-25.12282 31.93475,-25.1229 31.93454,-25.123 31.9343,-25.12304 31.93423,-25.12304 31.93369,-25.12302 31.9333,-25.12299 31.93324,-25.12299 31.93307,-25.12295 31.93273,-25.12288 31.93261,-25.12282 31.93243,-25.12274 31.93222,-25.12258 31.93203,-25.12248 31.93195,-25.12247 31.93169,-25.12242 31.93126,-25.12238 31.93108,-25.12234 31.93087,-25.1223 31.93049,-25.12225 31.93013,-25.12223 31.92973,-25.12214 31.92898,-25.12191 31.92809,-25.12174 31.92735,-25.12157 31.92701,-25.12145 31.92688,-25.1214 31.92647,-25.12123 31.92606,-25.12115 31.92594,-25.12112 31.92578,-25.12109 31.92541,-25.12102 31.92501,-25.12088 31.92465,-25.12076 31.92425,-25.12063 31.92377,-25.12047 31.9234,-25.12034 31.92305,-25.12021 31.92269,-25.12004 31.92247,-25.11994 31.92184,-25.11968 31.92152,-25.1196 31.92135,-25.11957 31.92097,-25.1194 31.92067,-25.11916 31.92042,-25.11893 31.91997,-25.11873 31.91958,-25.11856 31.91946,-25.11853 31.91927,-25.11848 31.91902,-25.11846 31.91893,-25.11842 31.91888,-25.1184 31.91884,-25.11824 31.91873,-25.11804 31.91841,-25.11785 31.91783,-25.11766 31.91713,-25.11747 31.91669,-25.11723 31.91628,-25.11692 31.91586,-25.11669 31.91549,-25.1165 31.91521,-25.11619 31.91496,-25.11587 31.91486,-25.11568 31.9147,-25.11537 31.91448,-25.11501 31.91425,-25.11477 31.91386,-25.1144 31.91383,-25.11437 31.91342,-25.11403 31.91316,-25.11383 31.91289,-25.11362 31.91235,-25.11314 31.91183,-25.11274 31.91133,-25.11233 31.91089,-25.11186 31.9105,-25.11138 31.91011,-25.11112 31.90972,-25.1109 31.90967,-25.11087 31.90928,-25.11061 31.90905,-25.11045 31.90884,-25.1103 31.90798,-25.10931 31.90745,-25.10875 31.90694,-25.10825 31.90643,-25.10762 31.90586,-25.10694 31.90531,-25.1064 31.90483,-25.10604 31.90465,-25.10589 31.90445,-25.10572 31.90404,-25.10519 31.90355,-25.10466 31.90309,-25.10422 31.90285,-25.10404 31.9026,-25.10385 31.90183,-25.10341 31.90093,-25.10304 31.90048,-25.10284 31.89991,-25.1026 31.89868,-25.10222 31.89827,-25.10205 31.89776,-25.10183 31.89748,-25.10172 31.89698,-25.10151 31.89647,-25.10133 31.89595,-25.10122 31.8953,-25.10115 31.8945,-25.10113 31.8944,-25.10113 31.89421,-25.10109 31.89366,-25.10101 31.89333,-25.10096 31.89282,-25.10087 31.89269,-25.10085 31.89252,-25.10082 31.89202,-25.10075 31.89174,-25.10067 31.89156,-25.10061 31.89107,-25.10041 31.89079,-25.10026 31.89049,-25.10019 31.89018,-25.10009 31.8901,-25.10007 31.88972,-25.09981 31.88938,-25.09946 31.88906,-25.09931 31.88864,-25.09926 31.88807,-25.09924 31.88757,-25.09906 31.88741,-25.09902 31.8871,-25.09896 31.88657,-25.099 31.88616,-25.09909 31.8859,-25.09912 31.88571,-25.09925 31.88544,-25.09923 31.88512,-25.09928 31.88505,-25.09927 31.88472,-25.09925 31.88421,-25.09908 31.8835,-25.09889 31.88303,-25.09873 31.88275,-25.09855 31.88268,-25.0985 31.88257,-25.09846 31.88244,-25.09841 31.88229,-25.09844 31.88218,-25.09846 31.88187,-25.09837 31.88136,-25.09814 31.88109,-25.09793 31.8809,-25.09766 31.88077,-25.09743 31.88051,-25.0972 31.87999,-25.09677 31.87938,-25.09625 31.8789,-25.09579 31.8786,-25.09557 31.87838,-25.09532 31.87824,-25.09489 31.87804,-25.09454 31.87777,-25.09415 31.87747,-25.09389 31.87709,-25.09357 31.87683,-25.09339 31.87656,-25.09321 31.87639,-25.09314 31.87615,-25.09303 31.87569,-25.09269 31.87567,-25.09267 31.87534,-25.09227 31.87501,-25.09181 31.87475,-25.09143 31.87445,-25.09111 31.87415,-25.09073 31.87404,-25.09051 31.87398,-25.09038 31.87392,-25.09026 31.87381,-25.09005 31.8737,-25.0899 31.87355,-25.0897 31.87341,-25.08948 31.87326,-25.08926 31.87291,-25.08853 31.87275,-25.08821 31.87262,-25.0878 31.87261,-25.08776 31.87249,-25.0873 31.87233,-25.08697 31.87205,-25.08666 31.87183,-25.08643 31.87152,-25.08632 31.87148,-25.08629 31.87129,-25.08617 31.87119,-25.08609 31.87101,-25.08594 31.87085,-25.08574 31.8706,-25.08542 31.87031,-25.08511 31.87014,-25.08481 31.87013,-25.08478 31.87006,-25.08454 31.87,-25.08432 31.86983,-25.08411 31.86973,-25.084 31.86936,-25.08364 31.86913,-25.08337 31.86889,-25.0829 31.86873,-25.08266 31.86852,-25.0825 31.86824,-25.08237 31.86805,-25.0822 31.86796,-25.08208 31.86782,-25.0819 31.86776,-25.08179 31.86762,-25.08152 31.86741,-25.08095 31.86699,-25.08023 31.86637,-25.07947 31.86598,-25.079 31.86579,-25.07875 31.86568,-25.07861 31.86542,-25.07832 31.86509,-25.07809 31.86468,-25.0778 31.86465,-25.07778 31.86397,-25.07709 31.86358,-25.07661 31.86331,-25.07632 31.86295,-25.07614 31.86259,-25.0759 31.86211,-25.07576 31.8618,-25.07571 31.8617,-25.0757 31.86115,-25.07571 31.86081,-25.07565 31.86045,-25.07554 31.85975,-25.07552 31.85921,-25.07545 31.85882,-25.07534 31.85855,-25.07527 31.85846,-25.07524 31.8581,-25.07519 31.85803,-25.07519 31.85763,-25.07516 31.85719,-25.0751 31.85687,-25.07502 31.85675,-25.07499 31.85659,-25.07491 31.85629,-25.07478 31.8558,-25.07464 31.85558,-25.0746 31.85549,-25.07458 31.85508,-25.07449 31.85494,-25.07441 31.85475,-25.07431 31.85461,-25.07422 31.85454,-25.07419 31.85448,-25.07418 31.85431,-25.07421 31.85411,-25.0742 31.85408,-25.0742 31.85401,-25.07419 31.85374,-25.07416 31.85342,-25.0741 31.8533,-25.07408 31.85309,-25.074 31.85301,-25.07383 31.853,-25.07367 31.85288,-25.07356 31.85262,-25.07343 31.85239,-25.07333 31.85225,-25.07327 31.85194,-25.07314 31.85168,-25.07304 31.85107,-25.07285 31.85049,-25.07268 31.85022,-25.07255 31.85006,-25.07243 31.84989,-25.0723 31.84951,-25.0721 31.84902,-25.07195 31.84891,-25.0719 31.84869,-25.07181 31.84843,-25.0716 31.84826,-25.0715 31.84813,-25.07141 31.84801,-25.07133 31.84788,-25.07124 31.84752,-25.0712 31.8471,-25.07112 31.84681,-25.07107 31.84654,-25.07089 31.84628,-25.07076 31.84598,-25.07068 31.84584,-25.07062 31.84569,-25.07057 31.84516,-25.07049 31.84434,-25.07045 31.84417,-25.07042 31.84368,-25.07034 31.84288,-25.07025 31.84267,-25.07023 31.84252,-25.07022 31.84154,-25.07015 31.8409,-25.07001 31.84043,-25.06988 31.84024,-25.06983 31.84021,-25.06983 31.84012,-25.06981 31.83914,-25.0696 31.83875,-25.06948 31.83847,-25.06939 31.83827,-25.06932 31.83792,-25.06918 31.83736,-25.06886 31.83698,-25.06862 31.83658,-25.06838 31.83629,-25.06827 31.83614,-25.0682 31.83596,-25.06812 31.83565,-25.06799 31.8355,-25.06791 31.8354,-25.06786 31.83514,-25.06773 31.83499,-25.06766 31.83456,-25.06743 31.83428,-25.06735 31.83409,-25.06729 31.83394,-25.06724 31.83361,-25.06712 31.83251,-25.06656 31.83239,-25.06648 31.83181,-25.06611 31.8313,-25.06585 31.83084,-25.06568 31.83056,-25.06553 31.83046,-25.06547 31.83003,-25.06518 31.82966,-25.065 31.82944,-25.06489 31.82892,-25.06468 31.82839,-25.06455 31.82813,-25.06443 31.82774,-25.06425 31.82735,-25.064 31.82726,-25.06394 31.82688,-25.06363 31.8266,-25.06348 31.82618,-25.06329 31.82566,-25.06314 31.82543,-25.06305 31.82513,-25.06291 31.82474,-25.06269 31.82459,-25.06261 31.82399,-25.0623 31.82353,-25.06209 31.82316,-25.06191 31.82309,-25.06186 31.82292,-25.06172 31.82273,-25.06151 31.82239,-25.06109 31.82196,-25.06077 31.82138,-25.0604 31.82093,-25.06005 31.82066,-25.0597 31.82021,-25.05908 31.8199,-25.05865 31.8196,-25.05836 31.81914,-25.058 31.81894,-25.05785 31.81874,-25.05771 31.81847,-25.05739 31.81814,-25.05693 31.81793,-25.05653 31.81788,-25.05649 31.81757,-25.05621 31.81707,-25.05573 31.8167,-25.05539 31.81639,-25.05522 31.81628,-25.05516 31.81589,-25.05482 31.81552,-25.05442 31.81522,-25.05392 31.81489,-25.05309 31.81459,-25.05264 31.81431,-25.05219 31.81394,-25.05175 31.81347,-25.05127 31.81314,-25.05071 31.81294,-25.05012 31.81281,-25.04964 31.81278,-25.04956 31.81265,-25.04933 31.81234,-25.0488 31.8121,-25.04845 31.81193,-25.04829 31.81175,-25.04814 31.81163,-25.04791 31.81161,-25.04786 31.81153,-25.04763 31.81146,-25.04736 31.81145,-25.04732 31.81142,-25.04723 31.81131,-25.04693 31.81105,-25.04657 31.81093,-25.04644 31.81084,-25.04635 31.81068,-25.04628 31.81059,-25.04625 31.81027,-25.04613 31.81005,-25.046 31.80998,-25.04596 31.80976,-25.04574 31.80954,-25.04544 31.80933,-25.0451 31.80914,-25.04483 31.80895,-25.04458 31.80875,-25.04442 31.80872,-25.04439 31.80849,-25.04419 31.80824,-25.04399 31.80806,-25.04383 31.80773,-25.04354 31.80742,-25.04321 31.80725,-25.04305 31.80704,-25.04283 31.80665,-25.0425 31.80652,-25.04241 31.80649,-25.04239 31.80626,-25.04218 31.80606,-25.04205 31.80584,-25.04189 31.80569,-25.04171 31.80558,-25.04148 31.80551,-25.04129 31.80538,-25.04111 31.8053,-25.04101 31.80496,-25.04064 31.80488,-25.04052 31.80472,-25.04029 31.80447,-25.03983 31.80435,-25.0396 31.80428,-25.03946 31.80413,-25.03927 31.80404,-25.03915 31.80369,-25.03881 31.80343,-25.03854 31.80324,-25.0382 31.80308,-25.03794 31.8028,-25.03761 31.80266,-25.03744 31.80232,-25.03706 31.80222,-25.03695 31.80202,-25.03672 31.80181,-25.0366 31.80133,-25.03631 31.8012,-25.03624 31.80097,-25.0361 31.80056,-25.03576 31.80028,-25.03549 31.80019,-25.03539 31.80015,-25.03535 31.79999,-25.03518 31.79996,-25.03511 31.79993,-25.03507 31.79991,-25.03503 31.79989,-25.035 31.79986,-25.03495 31.79983,-25.03491 31.79981,-25.03488 31.79979,-25.03476 31.79978,-25.03447 31.79975,-25.03414 31.79973,-25.03405 31.79971,-25.03389 31.79967,-25.03364 31.79967,-25.03356 31.79965,-25.03347 31.79962,-25.03335 31.79944,-25.03314 31.79919,-25.03288 31.79911,-25.03284 31.7989,-25.03188 31.79882,-25.03127 31.79837,-25.03058 31.79685,-25.02905 31.79655,-25.02855 31.79619,-25.02796 31.7953,-25.02704 31.79484,-25.02646 31.79449,-25.02603 31.79391,-25.02503 31.79384,-25.02486 31.79338,-25.0237 31.79285,-25.02297 31.79251,-25.0226 31.79243,-25.02252 31.7924,-25.02248 31.79176,-25.02186 31.79133,-25.02151 31.79107,-25.02138 31.7909,-25.02129 31.79052,-25.02118 31.79029,-25.02098 31.7902,-25.02086 31.79004,-25.02065 31.78974,-25.02017 31.78964,-25.02009 31.7895,-25.01987 31.78944,-25.01975 31.78943,-25.01967 31.78946,-25.01954 31.78948,-25.0195 31.7895,-25.01923 31.7895,-25.01918 31.78947,-25.01913 31.78942,-25.01899 31.78937,-25.01895 31.78913,-25.01872 31.7889,-25.01848 31.78882,-25.01839 31.78854,-25.01793 31.78826,-25.01761 31.78808,-25.01734 31.78801,-25.01694 31.78776,-25.01664 31.78743,-25.01639 31.7872,-25.01626 31.78713,-25.01622 31.7867,-25.0157 31.78592,-25.01476 31.78548,-25.01413 31.78517,-25.01352 31.78488,-25.01319 31.78454,-25.01295 31.78449,-25.01292 31.78405,-25.01262 31.78343,-25.01211 31.78303,-25.01175 31.78261,-25.01114 31.78242,-25.01074 31.78217,-25.0101 31.78202,-25.00962 31.78204,-25.00958 31.78204,-25.00938 31.78204,-25.00914 31.78199,-25.00886 31.78193,-25.00858 31.78184,-25.00841 31.78174,-25.00824 31.78163,-25.00811 31.78157,-25.00805 31.78152,-25.00799 31.78142,-25.00789 31.78133,-25.00779 31.7813,-25.00776 31.78125,-25.0077 31.78117,-25.0076 31.78114,-25.00754 31.78105,-25.0074 31.78098,-25.0072 31.78093,-25.00699 31.78089,-25.00681 31.78086,-25.00678 31.78084,-25.00675 31.78077,-25.00664 31.7807,-25.00655 31.78063,-25.00648 31.78056,-25.00642 31.78047,-25.00626 31.77994,-25.00569 31.77965,-25.00531 31.77937,-25.00489 31.77916,-25.0044 31.77909,-25.00432 31.77891,-25.00412 31.77848,-25.00379 31.77804,-25.00332 31.77783,-25.00311 31.77769,-25.00288 31.77757,-25.00284 31.77746,-25.00279 31.77729,-25.00272 31.77702,-25.0026 31.77663,-25.00217 31.77637,-25.00186 31.7761,-25.00172 31.77577,-25.00156 31.77559,-25.00136 31.77551,-25.00128 31.77548,-25.00125 31.77535,-25.00113 31.77511,-25.00112 31.7748,-25.001 31.77466,-25.00092 31.77431,-25.00073 31.77392,-25.00041 31.77367,-25.00015 31.77339,-24.99991 31.77309,-24.99972 31.77301,-24.99967 31.77268,-24.99937 31.77249,-24.99901 31.77248,-24.99895 31.77245,-24.99876 31.77243,-24.99856 31.77243,-24.99848 31.7724,-24.99817 31.77235,-24.9979 31.77233,-24.9978 31.77231,-24.9977 31.77226,-24.99755 31.77225,-24.99752 31.77203,-24.99743 31.7718,-24.99737 31.7716,-24.99729 31.77149,-24.99725 31.77125,-24.99703 31.77096,-24.99688 31.77063,-24.99687 31.7702,-24.99676 31.76985,-24.99657 31.76963,-24.99618 31.76933,-24.9955 31.76912,-24.9948 31.76908,-24.99466 31.76905,-24.99411 31.76911,-24.99348 31.76915,-24.99328 31.76927,-24.99274 31.76941,-24.9922 31.76947,-24.99194 31.76955,-24.99153 31.76954,-24.99149 31.76947,-24.99114 31.76936,-24.99052 31.7692,-24.99014 31.76915,-24.99002 31.76892,-24.98958 31.76879,-24.98907 31.76864,-24.98874 31.76842,-24.98845 31.76822,-24.98807 31.76814,-24.98778 31.76813,-24.98773 31.76813,-24.98733 31.76814,-24.98725 31.7682,-24.98687 31.76842,-24.98635 31.76853,-24.98615 31.76869,-24.98585 31.76877,-24.98548 31.76881,-24.98516 31.76894,-24.9848 31.76909,-24.98441 31.76915,-24.98415 31.76917,-24.98372 31.76917,-24.98366 31.76916,-24.98363 31.76909,-24.98321 31.76904,-24.98289 31.76905,-24.98268 31.76902,-24.9826 31.769,-24.98251 31.76901,-24.98243 31.76901,-24.98234 31.76905,-24.98227 31.76909,-24.98218 31.76912,-24.98213 31.76916,-24.98203 31.76915,-24.98184 31.76916,-24.98172 31.76916,-24.98161 31.76916,-24.98125 31.76916,-24.9812 31.76916,-24.98116 31.76914,-24.98104 31.76912,-24.98095 31.7691,-24.98082 31.76908,-24.98067 31.76908,-24.98056 31.76907,-24.98048 31.7691,-24.98035 31.76914,-24.98016 31.76912,-24.9801 31.76911,-24.98004 31.76914,-24.97998 31.76914,-24.97989 31.7692,-24.97963 31.76928,-24.97941 31.76932,-24.97921 31.76926,-24.97902 31.76917,-24.97894 31.7691,-24.97888 31.76902,-24.97882 31.76882,-24.97865 31.76872,-24.97844 31.76868,-24.97837 31.76861,-24.97829 31.76856,-24.97822 31.76853,-24.97818 31.76848,-24.97808 31.7684,-24.97793 31.76832,-24.97781 31.76832,-24.97767 31.76837,-24.97756 31.76842,-24.97743 31.76846,-24.97719 31.76847,-24.97716 31.76848,-24.97701 31.76843,-24.97676 31.76836,-24.97651 31.76835,-24.97635 31.76837,-24.9761 31.76838,-24.97591 31.76842,-24.97552 31.76849,-24.97513 31.76847,-24.97484 31.76844,-24.97466 31.76831,-24.97448 31.76808,-24.97433 31.76784,-24.97416 31.76781,-24.97414 31.76763,-24.97403 31.76742,-24.97393 31.7672,-24.97386 31.76692,-24.97381 31.76682,-24.97378 31.76678,-24.97377 31.76673,-24.97375 31.7667,-24.97374 31.76655,-24.97367 31.76633,-24.97357 31.76618,-24.97354 31.76614,-24.97352 31.76609,-24.9735 31.76604,-24.97349 31.76591,-24.97344 31.76583,-24.97341 31.76576,-24.97338 31.76566,-24.97337 31.76551,-24.97333 31.76547,-24.97331 31.76542,-24.9733 31.76536,-24.97329 31.76526,-24.97325 31.76519,-24.97322 31.76511,-24.9732 31.76504,-24.97318 31.76494,-24.97315 31.76482,-24.97312 31.76469,-24.97308 31.76455,-24.97308 31.76445,-24.97307 31.76437,-24.97307 31.76427,-24.97305 31.76422,-24.97303 31.76412,-24.97301 31.764,-24.97299 31.76394,-24.97298 31.7639,-24.97297 31.76383,-24.97297 31.76375,-24.97294 31.7636,-24.97291 31.76346,-24.97288 31.7632,-24.97286 31.76303,-24.97285 31.76284,-24.97284 31.76264,-24.97285 31.76261,-24.97284 31.76254,-24.97283 31.76245,-24.97281 31.76243,-24.97281 31.76237,-24.97282 31.76229,-24.97281 31.76204,-24.97281 31.76183,-24.97281 31.76176,-24.97278 31.76155,-24.97272 31.76138,-24.9727 31.76117,-24.97262 31.76098,-24.97253 31.76083,-24.97241 31.76064,-24.97222 31.76057,-24.97215 31.76043,-24.97196 31.7602,-24.97168 31.75955,-24.9711 31.75835,-24.97003 31.75759,-24.96917 31.75707,-24.96858 31.75656,-24.96822 31.7561,-24.96788 31.75472,-24.96738 31.75305,-24.96633 31.75055,-24.96514 31.74823,-24.96436 31.74698,-24.96381 31.74525,-24.96305 31.74192,-24.96171 31.73958,-24.9607 31.73902,-24.96056 31.73795,-24.96031 31.7364,-24.9602 31.73508,-24.95984 31.73412,-24.95914 31.73405,-24.95909 31.73319,-24.95843 31.7325,-24.95809 31.73121,-24.95745 31.72944,-24.95626 31.72797,-24.95506 31.72696,-24.95442 31.72673,-24.95428 31.72585,-24.95399 31.72558,-24.9539 31.72536,-24.95383 31.72532,-24.95382 31.7241,-24.95361 31.72317,-24.95347 31.72279,-24.95338 31.72222,-24.95323 31.72047,-24.95327 31.71863,-24.95365 31.71691,-24.9543 31.71587,-24.95511 31.71528,-24.9563 31.71506,-24.95657 31.71504,-24.9566 31.71502,-24.95664 31.71493,-24.95675 31.71474,-24.95692 31.71462,-24.95703 31.71444,-24.95723 31.71428,-24.9574 31.71399,-24.9577 31.71397,-24.95772 31.71368,-24.95801 31.71351,-24.9582 31.71316,-24.95855 31.71313,-24.95857 31.7129,-24.95881 31.71287,-24.95884 31.71278,-24.95892 31.71266,-24.95903 31.7126,-24.9591 31.71251,-24.95919 31.71239,-24.95932 31.71237,-24.95934 31.71219,-24.95951 31.71201,-24.95966 31.71195,-24.95971 31.71167,-24.95989 31.71157,-24.95995 31.71146,-24.96 31.71141,-24.96003 31.71122,-24.96013 31.71092,-24.96027 31.71083,-24.9603 31.71062,-24.96038 31.71023,-24.96044 31.71009,-24.96046 31.70995,-24.96047 31.70983,-24.96046 31.70972,-24.96046 31.70968,-24.96046 31.70948,-24.96044 31.70935,-24.96045 31.70927,-24.96045 31.70919,-24.96046 31.70912,-24.96045 31.70866,-24.96049 31.7082,-24.96054 31.70786,-24.96044 31.70756,-24.96046 31.70699,-24.96061 31.70666,-24.96075 31.70607,-24.96099 31.70529,-24.96131 31.70503,-24.96148 31.7046,-24.96177 31.70392,-24.96243 31.70386,-24.96249 31.70316,-24.96282 31.70188,-24.96306 31.70169,-24.9631 31.69971,-24.96327 31.69961,-24.96327 31.69853,-24.96327 31.69842,-24.96327 31.69829,-24.96327 31.69746,-24.9633 31.69725,-24.9633 31.6971,-24.96333 31.69706,-24.96333 31.69675,-24.96338 31.69647,-24.96342 31.69634,-24.96344 31.69623,-24.96345 31.69605,-24.96345 31.69588,-24.96344 31.69559,-24.96336 31.6953,-24.96328 31.69526,-24.96329 31.69518,-24.96329 31.69505,-24.96331 31.69485,-24.96338 31.69473,-24.96345 31.69456,-24.96357 31.69448,-24.96362 31.69437,-24.9637 31.69421,-24.96382 31.69373,-24.96392 31.69366,-24.96393 31.6936,-24.96393 31.693,-24.96391 31.69241,-24.96388 31.69233,-24.96387 31.69139,-24.96397 31.69025,-24.96388 31.68923,-24.96383 31.68821,-24.96384 31.68814,-24.96382 31.68801,-24.96379 31.68772,-24.96372 31.68767,-24.9637 31.68763,-24.96369 31.68753,-24.96369 31.68729,-24.9637 31.68722,-24.9637 31.68714,-24.96369 31.68711,-24.96371 31.68707,-24.96372 31.68696,-24.96372 31.68682,-24.96372 31.68671,-24.96373 31.68659,-24.96374 31.68613,-24.96379 31.68594,-24.96381 31.68582,-24.96381 31.68566,-24.96384 31.68549,-24.96383 31.6854,-24.96383 31.68515,-24.96383 31.68506,-24.96382 31.68496,-24.96382 31.68493,-24.96383 31.68488,-24.96384 31.68483,-24.96384 31.68477,-24.96385 31.68463,-24.96386 31.68442,-24.96386 31.6843,-24.96386 31.68423,-24.96386 31.68417,-24.96384 31.6841,-24.96384 31.68399,-24.96386 31.68381,-24.96388 31.68366,-24.96389 31.68357,-24.9639 31.68345,-24.96391 31.6832,-24.96394 31.68308,-24.96395 31.683,-24.96396 31.68294,-24.96397 31.68278,-24.96397 31.68266,-24.964 31.68251,-24.96401 31.68231,-24.96403 31.68217,-24.96405 31.68194,-24.96409 31.6818,-24.96412 31.68177,-24.96413 31.6817,-24.96413 31.68157,-24.96414 31.68128,-24.9642 31.68105,-24.96425 31.68095,-24.96426 31.68083,-24.96428 31.68074,-24.96429 31.68063,-24.9643 31.68046,-24.96433 31.68033,-24.96435 31.68026,-24.96436 31.68013,-24.96437 31.67995,-24.96438 31.6798,-24.96438 31.67975,-24.96438 31.67971,-24.96438 31.67955,-24.96438 31.67939,-24.9644 31.67933,-24.9644 31.67917,-24.9644 31.67897,-24.96442 31.6788,-24.96443 31.67868,-24.96443 31.67854,-24.96445 31.67837,-24.96448 31.67828,-24.96449 31.67808,-24.96452 31.67803,-24.96453 31.67792,-24.96455 31.67771,-24.96458 31.67754,-24.96461 31.67737,-24.96465 31.67725,-24.96468 31.6772,-24.96469 31.67712,-24.9647 31.67708,-24.96471 31.67691,-24.96475 31.67668,-24.9648 31.67651,-24.96483 31.67633,-24.96487 31.6763,-24.96487 31.67607,-24.96489 31.6759,-24.9649 31.67563,-24.96493 31.6754,-24.96495 31.67523,-24.96498 31.6751,-24.965 31.67507,-24.96501 31.67491,-24.96504 31.6748,-24.96506 31.67459,-24.96512 31.67453,-24.96514 31.6745,-24.96515 31.67442,-24.96517 31.67435,-24.96519 31.67419,-24.96527 31.67384,-24.96551 31.67363,-24.9657 31.67357,-24.96575 31.67349,-24.96581 31.67331,-24.96595 31.67316,-24.96606 31.6731,-24.96607 31.67298,-24.96611 31.67282,-24.96616 31.67271,-24.96618 31.67262,-24.96621 31.67249,-24.96625 31.67241,-24.96627 31.67231,-24.96629 31.67219,-24.96633 31.67202,-24.96638 31.6719,-24.96643 31.67187,-24.96642 31.6718,-24.96643 31.67177,-24.96644 31.67172,-24.96646 31.67144,-24.96655 31.67133,-24.96659 31.6712,-24.96664 31.67108,-24.96667 31.67103,-24.96668 31.67086,-24.96676 31.67076,-24.96681 31.67068,-24.96685 31.67035,-24.96696 31.66996,-24.96711 31.6698,-24.96718 31.66956,-24.96731 31.6694,-24.96741 31.66915,-24.96752 31.66905,-24.96757 31.66899,-24.9676 31.6686,-24.96796 31.66853,-24.96802 31.668,-24.9684 31.6674,-24.96875 31.66686,-24.96908 31.66678,-24.96915 31.66634,-24.96955 31.66597,-24.97005 31.66594,-24.9701 31.66573,-24.97054 31.66569,-24.97057 31.66548,-24.97077 31.66512,-24.97104 31.66491,-24.97117 31.66475,-24.97127 31.66451,-24.97143 31.66446,-24.97147 31.66435,-24.97153 31.66424,-24.9716 31.66409,-24.97167 31.66389,-24.97177 31.66378,-24.97183 31.66376,-24.97185 31.66372,-24.97187 31.66367,-24.9719 31.66359,-24.97193 31.66342,-24.97203 31.66316,-24.97217 31.66295,-24.97228 31.66281,-24.97236 31.66259,-24.97246 31.66245,-24.97253 31.66212,-24.97269 31.66178,-24.97283 31.66167,-24.97288 31.66144,-24.97296 31.66119,-24.97306 31.66107,-24.9731 31.66099,-24.97312 31.66093,-24.97313 31.66091,-24.97314 31.66087,-24.97316 31.66082,-24.97317 31.66075,-24.97319 31.66072,-24.9732 31.6606,-24.97324 31.66052,-24.97327 31.66036,-24.97332 31.66012,-24.9734 31.65997,-24.97343 31.65993,-24.97344 31.65973,-24.97349 31.65946,-24.97356 31.65941,-24.97357 31.65926,-24.97362 31.65888,-24.97372 31.65877,-24.97375 31.6587,-24.97377 31.6586,-24.97379 31.65852,-24.97381 31.65847,-24.97382 31.65798,-24.97394 31.65781,-24.97399 31.65776,-24.974 31.65763,-24.97403 31.65754,-24.97405 31.65749,-24.97407 31.65736,-24.97412 31.65726,-24.97414 31.65723,-24.97415 31.65719,-24.97416 31.65704,-24.97421 31.65691,-24.97426 31.65685,-24.97428 31.65671,-24.97433 31.65661,-24.97436 31.65657,-24.97437 31.6565,-24.97439 31.6562,-24.97449 31.65597,-24.97457 31.65581,-24.97465 31.65566,-24.97473 31.65534,-24.9749 31.65526,-24.97491 31.65499,-24.97505 31.65464,-24.97521 31.65453,-24.97526 31.65444,-24.9753 31.65437,-24.97534 31.65433,-24.97535 31.65413,-24.97542 31.65393,-24.97547 31.65387,-24.97549 31.65368,-24.97555 31.65318,-24.97571 31.65272,-24.97585 31.65237,-24.97591 31.6522,-24.97594 31.65201,-24.97599 31.65191,-24.97601 31.65188,-24.97602 31.65165,-24.97608 31.65149,-24.97612 31.65139,-24.97615 31.65124,-24.97618 31.6512,-24.97619 31.65097,-24.97626 31.65094,-24.97627 31.65082,-24.9763 31.65075,-24.97633 31.65072,-24.97634 31.65065,-24.97638 31.65049,-24.97645 31.65042,-24.97648 31.65034,-24.97652 31.65023,-24.97658 31.65018,-24.9766 31.65013,-24.97663 31.65008,-24.97666 31.65003,-24.97669 31.64997,-24.97673 31.64978,-24.97686 31.64959,-24.977 31.64952,-24.97705 31.64949,-24.97707 31.64945,-24.9771 31.64932,-24.97718 31.64922,-24.97723 31.64904,-24.97724 31.64901,-24.97724 31.64864,-24.97725 31.64842,-24.97722 31.64836,-24.97722 31.64826,-24.97721 31.64821,-24.9772 31.64812,-24.9772 31.64799,-24.97719 31.64784,-24.9772 31.64767,-24.97721 31.64753,-24.97721 31.64738,-24.97722 31.64713,-24.97724 31.64707,-24.97725 31.64701,-24.97726 31.64684,-24.97727 31.6467,-24.97728 31.64665,-24.97729 31.64644,-24.97733 31.64623,-24.97735 31.6462,-24.97736 31.64613,-24.97737 31.64567,-24.97744 31.64558,-24.97745 31.64549,-24.97746 31.64543,-24.97746 31.64531,-24.97746 31.64515,-24.97748 31.64505,-24.97749 31.64477,-24.97751 31.64443,-24.97754 31.64409,-24.97759 31.644,-24.97761 31.64384,-24.97764 31.64381,-24.97765 31.64364,-24.97768 31.64351,-24.9777 31.64334,-24.97775 31.64285,-24.97781 31.64279,-24.97781 31.64186,-24.97833 31.6405,-24.97899 31.63991,-24.97929 31.63939,-24.97956 31.6384,-24.97994 31.63741,-24.98025 31.63709,-24.98039 31.6363,-24.98074 31.63543,-24.98115 31.63507,-24.98132 31.63467,-24.98143 31.63328,-24.98182 31.63242,-24.98207 31.63214,-24.98215 31.6318,-24.9823 31.63126,-24.98254 31.63076,-24.98266 31.63065,-24.98268 31.63004,-24.98282 31.62973,-24.98294 31.62939,-24.98304 31.62934,-24.98307 31.62923,-24.98311 31.62913,-24.98315 31.62907,-24.98317 31.629,-24.9832 31.6289,-24.98325 31.62858,-24.98339 31.62826,-24.98354 31.62808,-24.98363 31.62803,-24.98367 31.62798,-24.98372 31.6279,-24.98375 31.62777,-24.98381 31.62747,-24.98392 31.62737,-24.98393 31.62731,-24.98394 31.62725,-24.98395 31.62716,-24.98398 31.62691,-24.98402 31.62686,-24.98403 31.62678,-24.98405 31.62671,-24.98405 31.62666,-24.98406 31.62655,-24.98407 31.62637,-24.98412 31.62631,-24.98414 31.62612,-24.98418 31.62605,-24.9842 31.62595,-24.98423 31.62583,-24.98426 31.62567,-24.98433 31.62553,-24.98439 31.62519,-24.98449 31.62511,-24.98452 31.62455,-24.9847 31.62438,-24.98476 31.62434,-24.98476 31.62406,-24.98487 31.6239,-24.98495 31.62372,-24.98504 31.62367,-24.98507 31.62361,-24.9851 31.62355,-24.98513 31.6233,-24.98525 31.62323,-24.98529 31.62318,-24.98531 31.62315,-24.98532 31.62307,-24.98535 31.62299,-24.9854 31.62288,-24.98546 31.62249,-24.98568 31.62226,-24.9858 31.62223,-24.98582 31.62191,-24.98598 31.62165,-24.98611 31.6216,-24.98613 31.62152,-24.98616 31.62148,-24.98617 31.62143,-24.9862 31.62132,-24.98626 31.62122,-24.98629 31.62072,-24.9866 31.62006,-24.98702 31.61987,-24.98715 31.61983,-24.98716 31.61977,-24.9872 31.61958,-24.98731 31.61947,-24.98738 31.61932,-24.98748 31.61917,-24.98759 31.61914,-24.98761 31.61911,-24.98763 31.61907,-24.98766 31.61902,-24.98769 31.61892,-24.98776 31.61883,-24.98781 31.61878,-24.98783 31.61873,-24.98786 31.61865,-24.9879 31.61857,-24.98795 31.61845,-24.98803 31.61839,-24.98806 31.61835,-24.98808 31.61827,-24.98812 31.61821,-24.98815 31.61816,-24.98818 31.61809,-24.98823 31.61804,-24.98826 31.61799,-24.9883 31.6179,-24.98834 31.61783,-24.98839 31.61766,-24.98849 31.61762,-24.98851 31.61743,-24.98862 31.61737,-24.98865 31.61732,-24.98867 31.6172,-24.98872 31.61704,-24.98878 31.61699,-24.9888 31.61683,-24.98886 31.6168,-24.98887 31.61671,-24.98889 31.61665,-24.98891 31.6166,-24.98893 31.6165,-24.98895 31.61639,-24.98898 31.61618,-24.98897 31.61595,-24.98896 31.61591,-24.98895 31.61586,-24.98895 31.61559,-24.98892 31.61535,-24.9889 31.6153,-24.98889 31.61525,-24.98889 31.61514,-24.9889 31.61483,-24.98885 31.61478,-24.98884 31.6146,-24.98882 31.61456,-24.98882 31.61416,-24.9887 31.6138,-24.98861 31.61367,-24.98862 31.6135,-24.98865 31.61332,-24.9887 31.61327,-24.98871 31.61304,-24.98878 31.61271,-24.98893 31.61254,-24.98902 31.61244,-24.98904 31.61234,-24.98907 31.61231,-24.98908 31.61224,-24.98908 31.61217,-24.98909 31.6121,-24.98912 31.61197,-24.98912 31.61188,-24.98914 31.61184,-24.98916 31.61165,-24.98916 31.61129,-24.9892 31.61104,-24.98923 31.61092,-24.98924 31.61089,-24.98925 31.61086,-24.98925 31.61073,-24.98926 31.61049,-24.98927 31.61045,-24.98926 31.61033,-24.98927 31.61031,-24.98927 31.61029,-24.98928 31.61022,-24.98929 31.61012,-24.9893 31.60991,-24.98932 31.60975,-24.98933 31.60937,-24.98932 31.60901,-24.9893 31.60892,-24.98931 31.60881,-24.98932 31.60871,-24.98933 31.60861,-24.98932 31.60853,-24.98932 31.60835,-24.98931 31.60822,-24.98931 31.60815,-24.98931 31.60814,-24.98931 31.60776,-24.98932 31.60745,-24.98946 31.60726,-24.98962 31.60702,-24.9898 31.60697,-24.98981 31.60695,-24.98982 31.6069,-24.98984 31.60674,-24.98987 31.60654,-24.98989 31.60645,-24.98989 31.60628,-24.98989 31.60611,-24.98989 31.60603,-24.9899 31.60603,-24.9899 31.60591,-24.98992 31.60583,-24.98993 31.60577,-24.98994 31.60571,-24.98996 31.60551,-24.99003 31.60546,-24.99007 31.60542,-24.99008 31.60542,-24.99008 31.60506,-24.99016 31.60465,-24.99025 31.60454,-24.99027 31.60451,-24.99027 31.6045,-24.99028 31.60429,-24.99031 31.60424,-24.99031 31.60401,-24.99033 31.60379,-24.99038 31.60371,-24.99039 31.6036,-24.99041 31.60353,-24.99042 31.60332,-24.99045 31.60315,-24.99049 31.60312,-24.99049 31.60299,-24.9905 31.60294,-24.99051 31.60248,-24.99058 31.60186,-24.99066 31.60171,-24.99068 31.60132,-24.99071 31.60128,-24.99072 31.6012,-24.99072 31.60093,-24.99075 31.60076,-24.99076 31.60059,-24.99078 31.6004,-24.99081 31.60025,-24.99083 31.60014,-24.99083 31.6,-24.99083 31.59983,-24.99082 31.59963,-24.99081 31.59949,-24.9908 31.59935,-24.99079 31.59911,-24.99077 31.59901,-24.99076 31.59893,-24.99075 31.59882,-24.99076 31.59849,-24.99079 31.59832,-24.9908 31.59809,-24.99083 31.59809,-24.99083 31.59785,-24.99089 31.59774,-24.99095 31.59762,-24.99099 31.59751,-24.99102 31.59748,-24.99104 31.59746,-24.99104 31.59733,-24.99109 31.59712,-24.99117 31.59692,-24.99126 31.59674,-24.99134 31.59664,-24.99137 31.59662,-24.99138 31.59657,-24.9914 31.59645,-24.99144 31.59635,-24.99147 31.59623,-24.99151 31.59605,-24.99153 31.59602,-24.99153 31.59591,-24.99154 31.59582,-24.99157 31.59566,-24.9916 31.5956,-24.9916 31.59543,-24.99161 31.59523,-24.99165 31.59512,-24.99167 31.59497,-24.99171 31.59479,-24.99174 31.59447,-24.9918 31.59432,-24.99182 31.59408,-24.99187 31.5939,-24.99189 31.59375,-24.9919 31.59366,-24.99192 31.59337,-24.99191 31.59302,-24.99188 31.59291,-24.99188 31.59284,-24.99187 31.59275,-24.99186 31.59268,-24.99185 31.59257,-24.99182 31.59242,-24.99178 31.59227,-24.99173 31.59215,-24.99168 31.59203,-24.99162 31.59198,-24.99159 31.59193,-24.99158 31.59153,-24.9912 31.59127,-24.99097 31.59105,-24.99077 31.59095,-24.99072 31.5909,-24.99069 31.59073,-24.9906 31.59041,-24.99039 31.59021,-24.99022 31.59012,-24.99012 31.59002,-24.99 31.58998,-24.98996 31.58993,-24.98989 31.58983,-24.98978 31.58963,-24.98958 31.58928,-24.98922 31.5892,-24.98912 31.58908,-24.98896 31.58902,-24.98888 31.58892,-24.98873 31.58887,-24.98865 31.58877,-24.98849 31.58866,-24.98833 31.58861,-24.98825 31.58856,-24.98816 31.58853,-24.98812 31.58847,-24.98801 31.58837,-24.9878 31.58829,-24.98767 31.58811,-24.9874 31.58807,-24.98735 31.58801,-24.98726 31.58788,-24.98708 31.58749,-24.98657 31.58745,-24.98651 31.58742,-24.98644 31.58735,-24.98633 31.58727,-24.98618 31.5872,-24.98607 31.58713,-24.98594 31.58708,-24.9858 31.58701,-24.98566 31.58696,-24.98552 31.58693,-24.98545 31.58691,-24.9854 31.58678,-24.98514 31.58674,-24.98503 31.58671,-24.98492 31.58669,-24.98486 31.58665,-24.98477 31.58666,-24.98465 31.58667,-24.98455 31.58671,-24.98441 31.58675,-24.98427 31.58678,-24.98414 31.58679,-24.9841 31.58683,-24.98396 31.58683,-24.98388 31.58682,-24.9838 31.58673,-24.98364 31.5866,-24.98342 31.58655,-24.98335 31.58651,-24.98327 31.58646,-24.98318 31.58642,-24.9831 31.58641,-24.98307 31.58635,-24.98288 31.5863,-24.98273 31.5863,-24.98268 31.58628,-24.98261 31.58626,-24.9824 31.58623,-24.98223 31.58621,-24.98213 31.58621,-24.98201 31.58621,-24.98195 31.5862,-24.98183 31.58612,-24.98159 31.586,-24.98143 31.58586,-24.98123 31.58579,-24.98112 31.58579,-24.98109 31.58575,-24.981 31.58574,-24.98093 31.58572,-24.98082 31.58574,-24.98073 31.58575,-24.98059 31.58578,-24.98046 31.5858,-24.98034 31.58575,-24.98007 31.58569,-24.97981 31.58565,-24.97974 31.58556,-24.97958 31.58549,-24.97932 31.58546,-24.97915 31.5855,-24.97901 31.58554,-24.97886 31.58556,-24.97877 31.58557,-24.97866 31.58557,-24.97861 31.58555,-24.97846 31.58549,-24.97828 31.58542,-24.97818 31.58533,-24.97805 31.58528,-24.97796 31.58525,-24.97789 31.58524,-24.97784 31.58522,-24.97778 31.58519,-24.97773 31.58523,-24.97741 31.58523,-24.97731 31.58526,-24.97714 31.58528,-24.97692 31.5853,-24.97666 31.58531,-24.97653 31.58531,-24.97647 31.58531,-24.97638 31.58531,-24.97629 31.5853,-24.97617 31.58518,-24.97587 31.58509,-24.97571 31.58505,-24.97564 31.58501,-24.97557 31.58488,-24.97533 31.58483,-24.97523 31.58472,-24.97503 31.58461,-24.97486 31.5845,-24.97469 31.58446,-24.97465 31.58436,-24.97454 31.58416,-24.97435 31.58383,-24.97405 31.58363,-24.97386 31.58359,-24.97376 31.58356,-24.97371 31.58347,-24.97356 31.58339,-24.97345 31.58326,-24.97326 31.58299,-24.97293 31.5829,-24.97279 31.58275,-24.97255 31.58255,-24.97219 31.58237,-24.97179 31.58234,-24.9717 31.5823,-24.97163 31.58217,-24.97153 31.58204,-24.97143 31.5819,-24.97138 31.58164,-24.97131 31.58148,-24.97128 31.58139,-24.97126 31.58132,-24.97124 31.58117,-24.97119 31.58092,-24.97108 31.5807,-24.97095 31.58062,-24.97088 31.5805,-24.97077 31.58009,-24.97043 31.57984,-24.97014 31.57963,-24.96986 31.5796,-24.96985 31.57957,-24.96983 31.57943,-24.96974 31.5792,-24.9696 31.57899,-24.96948 31.57891,-24.96945 31.57887,-24.96943 31.57877,-24.96936 31.57852,-24.96918 31.57844,-24.96914 31.57824,-24.96903 31.57815,-24.96899 31.5781,-24.96896 31.57793,-24.96885 31.57777,-24.96878 31.57758,-24.96871 31.57728,-24.96866 31.57689,-24.96865 31.57653,-24.96864 31.57625,-24.96855 31.57598,-24.96844 31.57584,-24.96837 31.57573,-24.96832 31.5755,-24.9682 31.57521,-24.96798 31.57495,-24.96777 31.57483,-24.9677 31.57474,-24.96763 31.57463,-24.96752 31.57456,-24.96748 31.57447,-24.96746 31.57444,-24.96746 31.57433,-24.96745 31.57433,-24.96745 31.57407,-24.96756 31.57404,-24.96757 31.57403,-24.96757 31.5739,-24.96765 31.57381,-24.96763 31.57366,-24.96753 31.57364,-24.96751 31.57344,-24.9674 31.57337,-24.96739 31.57327,-24.96739 31.57316,-24.9674 31.57297,-24.96741 31.57279,-24.96743 31.57273,-24.96743 31.57269,-24.96743 31.57244,-24.96738 31.57234,-24.96735 31.57227,-24.96733 31.57224,-24.96733 31.57213,-24.96728 31.57202,-24.96724 31.57192,-24.96719 31.57182,-24.96713 31.5718,-24.96711 31.57177,-24.96709 31.57165,-24.967 31.57145,-24.96679 31.57137,-24.96667 31.57121,-24.96641 31.57107,-24.96613 31.57101,-24.96597 31.57098,-24.96588 31.57094,-24.96571 31.57091,-24.96559 31.57088,-24.96541 31.57087,-24.96533 31.57084,-24.96523 31.57082,-24.96512 31.5708,-24.96503 31.57073,-24.96481 31.57072,-24.96478 31.57066,-24.96462 31.57064,-24.96455 31.57062,-24.96449 31.57058,-24.96437 31.57053,-24.96428 31.57051,-24.96424 31.57048,-24.96419 31.57043,-24.96411 31.57038,-24.96405 31.57023,-24.96386 31.57011,-24.96371 31.57009,-24.96369 31.56999,-24.96357 31.56992,-24.96349 31.56988,-24.96344 31.56984,-24.9634 31.56978,-24.96333 31.56968,-24.96321 31.56948,-24.96296 31.56942,-24.96289 31.56934,-24.96279 31.56909,-24.96253 31.56893,-24.96238 31.56889,-24.96234 31.56868,-24.96211 31.56835,-24.9618 31.56814,-24.96161 31.56806,-24.96154 31.56794,-24.96142 31.56776,-24.96124 31.56764,-24.96114 31.56761,-24.96113 31.56758,-24.96112 31.56734,-24.96098 31.56717,-24.96088 31.56713,-24.96085 31.567,-24.9608 31.56685,-24.96074 31.56675,-24.9607 31.56663,-24.96066 31.56655,-24.96064 31.56636,-24.96057 31.56627,-24.96054 31.56619,-24.96051 31.5661,-24.9605 31.5658,-24.96046 31.56563,-24.96043 31.56548,-24.96041 31.56547,-24.96041 31.56528,-24.9604 31.56524,-24.9604 31.5651,-24.96039 31.5646,-24.9604 31.56453,-24.96041 31.56443,-24.96041 31.56435,-24.96042 31.56428,-24.96042 31.56425,-24.96042 31.56405,-24.96045 31.56404,-24.96046 31.564,-24.96046 31.56374,-24.9605 31.56367,-24.96052 31.56354,-24.96054 31.5635,-24.96055 31.56286,-24.96072 31.56215,-24.96098 31.56214,-24.96098 31.56212,-24.96099 31.56207,-24.96101 31.56197,-24.96105 31.56194,-24.96105 31.56181,-24.96108 31.56178,-24.96109 31.56165,-24.96112 31.56142,-24.96118 31.56141,-24.96118 31.56139,-24.96119 31.56115,-24.9612 31.56095,-24.9612 31.56087,-24.96121 31.56077,-24.96121 31.56057,-24.9612 31.56025,-24.96119 31.56019,-24.96118 31.5601,-24.96117 31.56,-24.96118 31.55959,-24.9613 31.55939,-24.96142 31.55899,-24.96169 31.55888,-24.96176 31.55877,-24.96183 31.55871,-24.96186 31.55857,-24.96194 31.55855,-24.96195 31.5584,-24.96204 31.55832,-24.96207 31.5583,-24.96207 31.55824,-24.9621 31.55821,-24.96211 31.55798,-24.96218 31.55788,-24.96221 31.5578,-24.96223 31.55772,-24.96225 31.55759,-24.96228 31.55756,-24.96229 31.55738,-24.96233 31.55733,-24.96233 31.55725,-24.96235 31.55723,-24.96236 31.55716,-24.96237 31.55714,-24.96237 31.55713,-24.96237 31.55702,-24.96239 31.55698,-24.9624 31.5569,-24.96241 31.55671,-24.96242 31.55653,-24.96243 31.55628,-24.96244 31.55611,-24.96244 31.55608,-24.96243 31.55594,-24.96242 31.55581,-24.96241 31.55574,-24.96241 31.5556,-24.96239 31.55555,-24.96238 31.55542,-24.96237 31.55534,-24.96234 31.5553,-24.96233 31.55522,-24.9623 31.55514,-24.96228 31.55511,-24.96227 31.55508,-24.96226 31.55505,-24.96224 31.555,-24.96222 31.55496,-24.96221 31.55492,-24.9622 31.55472,-24.96211 31.55445,-24.96199 31.55418,-24.96189 31.55404,-24.96186 31.55393,-24.96185 31.55344,-24.96183 31.5534,-24.96184 31.55306,-24.96195 31.55303,-24.96196 31.55303,-24.96196 31.55303,-24.96196 31.55254,-24.9621 31.5522,-24.96222 31.55212,-24.96225 31.55194,-24.96231 31.55131,-24.96255 31.55094,-24.96273 31.55039,-24.96321 31.55013,-24.96369 31.54988,-24.96451 31.5498,-24.96484 31.5496,-24.96573 31.54941,-24.96678 31.54927,-24.96735 31.54925,-24.96743 31.54919,-24.96767 31.54915,-24.96784 31.54914,-24.96784 31.54908,-24.9681 31.54877,-24.96886 31.54856,-24.96908 31.54812,-24.96955 31.54763,-24.9699 31.54697,-24.97037 31.54641,-24.97074 31.54555,-24.97134 31.5455,-24.97136 31.54534,-24.97143 31.54526,-24.97147 31.54515,-24.97151 31.54513,-24.97151 31.54512,-24.97151 31.54507,-24.97152 31.54454,-24.97156 31.54453,-24.97156 31.5445,-24.97157 31.54447,-24.97158 31.54409,-24.97168 31.54407,-24.97169 31.54406,-24.97169 31.54381,-24.97177 31.54375,-24.97179 31.54361,-24.97184 31.54314,-24.97199 31.54312,-24.97199 31.54311,-24.972 31.54308,-24.97201 31.54299,-24.97204 31.5427,-24.97209 31.54244,-24.97213 31.54241,-24.97213 31.54238,-24.97212 31.54237,-24.97211 31.5423,-24.9721 31.54223,-24.97211 31.54203,-24.97211 31.54193,-24.97209 31.54179,-24.97207 31.54175,-24.97207 31.54155,-24.97204 31.54149,-24.97203 31.54136,-24.972 31.54129,-24.97199 31.54118,-24.97196 31.5411,-24.97194 31.54107,-24.97194 31.541,-24.97192 31.54084,-24.97188 31.54065,-24.97183 31.54058,-24.97181 31.54026,-24.97172 31.54011,-24.97167 31.53996,-24.97163 31.53987,-24.97161 31.53976,-24.97157 31.53963,-24.97151 31.53956,-24.97151 31.53933,-24.97143 31.53908,-24.97136 31.539,-24.97134 31.53892,-24.9713 31.5389,-24.97128 31.53882,-24.97124 31.53869,-24.97118 31.53849,-24.97107 31.53828,-24.97095 31.53819,-24.97091 31.53752,-24.97072 31.53746,-24.97071 31.53739,-24.9707 31.53732,-24.97068 31.53721,-24.97066 31.53707,-24.97065 31.53685,-24.97063 31.5366,-24.9706 31.53638,-24.9706 31.53603,-24.9706 31.53585,-24.9706 31.53529,-24.97068 31.53473,-24.97077 31.5345,-24.97077 31.53429,-24.97077 31.53407,-24.97076 31.53382,-24.97074 31.53321,-24.97098 31.53247,-24.97166 31.53214,-24.97208 31.53161,-24.9731 31.53116,-24.97395 31.53076,-24.97477 31.53042,-24.9751 31.5304,-24.9751 31.53038,-24.97511 31.53034,-24.97514 31.53027,-24.97517 31.53023,-24.97517 31.5302,-24.97517 31.53008,-24.97515 31.52995,-24.97515 31.52972,-24.97509 31.52948,-24.97502 31.52938,-24.97497 31.52921,-24.9749 31.52894,-24.97477 31.52865,-24.97459 31.52826,-24.97433 31.52798,-24.97414 31.52778,-24.97401 31.52773,-24.97399 31.52758,-24.9739 31.52737,-24.97374 31.52727,-24.97367 31.5271,-24.97354 31.52699,-24.97346 31.52695,-24.97342 31.52685,-24.97336 31.52678,-24.97332 31.52661,-24.97321 31.52645,-24.97313 31.52631,-24.97302 31.52625,-24.97298 31.52619,-24.97294 31.52609,-24.97287 31.52592,-24.97276 31.52588,-24.97273 31.5257,-24.97262 31.52551,-24.9725 31.52551,-24.9725 31.52544,-24.97246 31.52533,-24.97241 31.52524,-24.97236 31.52521,-24.97234 31.52509,-24.97228 31.52496,-24.9722 31.52476,-24.97209 31.52461,-24.97201 31.52446,-24.97193 31.52438,-24.97189 31.52409,-24.97178 31.52398,-24.97175 31.52392,-24.97174 31.52387,-24.97173 31.52377,-24.9717 31.52365,-24.97167 31.52361,-24.97166 31.52353,-24.97164 31.52349,-24.97163 31.52342,-24.97163 31.52338,-24.97162 31.52328,-24.9716 31.52304,-24.97155 31.5227,-24.97142 31.52236,-24.97125 31.52214,-24.97114 31.52205,-24.9711 31.52199,-24.97106 31.52192,-24.97101 31.52178,-24.97095 31.5216,-24.97082 31.52146,-24.97073 31.52138,-24.97067 31.52128,-24.9706 31.52111,-24.97048 31.52102,-24.97042 31.52091,-24.97035 31.52073,-24.97024 31.52065,-24.97016 31.52054,-24.97008 31.52042,-24.96999 31.52037,-24.96995 31.52017,-24.96984 31.5199,-24.96966 31.51974,-24.96953 31.51965,-24.96947 31.51953,-24.9694 31.51937,-24.96931 31.51926,-24.96925 31.51915,-24.9692 31.51898,-24.96913 31.51879,-24.96908 31.51875,-24.96907 31.51863,-24.96904 31.51846,-24.96901 31.51834,-24.969 31.51812,-24.96894 31.51785,-24.96889 31.51765,-24.96885 31.51755,-24.96884 31.51753,-24.96883 31.51747,-24.96883 31.51724,-24.96876 31.51714,-24.96873 31.51698,-24.96868 31.51686,-24.96866 31.51656,-24.9686 31.51652,-24.96859 31.5161,-24.96853 31.51609,-24.96853 31.51603,-24.96854 31.51599,-24.96853 31.51585,-24.9685 31.51567,-24.96847 31.51544,-24.96844 31.51535,-24.96843 31.5151,-24.9684 31.51488,-24.96838 31.51464,-24.96835 31.51437,-24.96832 31.51427,-24.96831 31.51427,-24.96831 31.51346,-24.96832 31.51338,-24.96833 31.51335,-24.96833 31.51297,-24.9684 31.51294,-24.96841 31.51293,-24.96841 31.51293,-24.96841 31.51186,-24.96865 31.5112,-24.9688 31.51116,-24.96881 31.51113,-24.96882 31.5111,-24.96884 31.51094,-24.96886 31.51087,-24.96887 31.51069,-24.96891 31.51067,-24.96891 31.51066,-24.96892 31.51055,-24.96892 31.51015,-24.96894 31.51,-24.96895 31.50982,-24.96897 31.50929,-24.96896 31.50912,-24.96895 31.50908,-24.96895 31.50845,-24.96902 31.50777,-24.96926 31.50777,-24.96926 31.50714,-24.96951 31.50712,-24.96951 31.50711,-24.96952 31.50705,-24.96954 31.50659,-24.9697 31.50636,-24.96977 31.50632,-24.96978 31.50606,-24.96987 31.50587,-24.96992 31.50577,-24.96994 31.50504,-24.97021 31.50503,-24.97021 31.50501,-24.97022 31.50492,-24.97023 31.50487,-24.97025 31.50481,-24.97026 31.50472,-24.97027 31.50462,-24.97029 31.50437,-24.97026 31.50432,-24.97026 31.50408,-24.97024 31.50396,-24.97023 31.50382,-24.97021 31.50373,-24.97019 31.50352,-24.97012 31.50331,-24.97004 31.50309,-24.96991 31.50285,-24.96978 31.50277,-24.96974 31.50264,-24.96966 31.50246,-24.96956 31.5021,-24.9693 31.50164,-24.96895 31.50158,-24.9689 31.50128,-24.96863 31.50101,-24.96839 31.50097,-24.96835 31.50095,-24.96833 31.50086,-24.96825 31.50083,-24.96821 31.50065,-24.96802 31.50053,-24.96792 31.50049,-24.96788 31.50036,-24.96779 31.49969,-24.96786 31.49964,-24.96787 31.49935,-24.9679 31.49929,-24.9679 31.49917,-24.96791 31.49917,-24.96791 31.49902,-24.96793 31.49902,-24.96793 31.49796,-24.96821 31.49789,-24.96823 31.49758,-24.96837 31.49741,-24.96841 31.49737,-24.96842 31.49727,-24.96844 31.4972,-24.96845 31.49711,-24.96845 31.49706,-24.96845 31.49702,-24.96846 31.49675,-24.96848 31.49642,-24.9685 31.49638,-24.9685 31.49541,-24.96866 31.49539,-24.96866 31.49472,-24.96899 31.49415,-24.96948 31.49375,-24.97 31.49309,-24.97095 31.49236,-24.97251 31.49221,-24.97345 31.49214,-24.97376 31.492,-24.9742 31.49161,-24.9747 31.49108,-24.97518 31.49033,-24.97554 31.48878,-24.97583 31.48789,-24.97598 31.4858,-24.97659 31.48423,-24.97734 31.48379,-24.97808 31.48367,-24.97826 31.48344,-24.9786 31.48344,-24.9786 31.48344,-24.9786 31.48292,-24.97909 31.48248,-24.97944 31.48209,-24.98005 31.48187,-24.98032 31.48185,-24.98035 31.48164,-24.98086 31.48123,-24.98145 31.48086,-24.9819 31.48063,-24.98218 31.4803,-24.98264 31.48023,-24.98302 31.47946,-24.98385 31.47891,-24.9843 31.47844,-24.98463 31.47805,-24.98491 31.47767,-24.98531 31.4775,-24.98548 31.4775,-24.98548 31.4775,-24.98548 31.47691,-24.98584 31.47601,-24.98613 31.47487,-24.98659 31.47459,-24.98662 31.47458,-24.98662 31.47451,-24.98675 31.47444,-24.98688 31.47424,-24.98719 31.47424,-24.98719 31.47424,-24.98719 31.47417,-24.9872 31.47389,-24.98725 31.47313,-24.98728 31.47284,-24.98727 31.47165,-24.98723 31.47075,-24.98748 31.46956,-24.98748 31.46956,-24.98748 31.46854,-24.98731 31.4675,-24.98685 31.4675,-24.98685 31.46742,-24.98682 31.46735,-24.9868 31.46675,-24.98659 31.46599,-24.98643 31.46463,-24.98615 31.46317,-24.98578 31.46289,-24.98577 31.46261,-24.98577 31.4616,-24.9856 31.46128,-24.98554 31.46096,-24.98552 31.46096,-24.98552 31.46035,-24.98548 31.45974,-24.98551 31.45904,-24.98568 31.45843,-24.98618 31.45794,-24.98649 31.45752,-24.98678 31.45714,-24.98705 31.45701,-24.98714 31.45596,-24.9878 31.45554,-24.98792 31.45504,-24.98807 31.45458,-24.98803 31.45373,-24.98796 31.45269,-24.98771 31.45231,-24.9875 31.45214,-24.9874 31.45082,-24.98696 31.44987,-24.98659 31.44935,-24.98639 31.44887,-24.98629 31.44859,-24.98624 31.4474,-24.98616 31.44726,-24.98619 31.44606,-24.98647 31.44485,-24.98688 31.4445,-24.98704 31.4438,-24.98735 31.44349,-24.98746 31.44316,-24.98757 31.44153,-24.9879 31.44019,-24.98803 31.43923,-24.98795 31.43842,-24.98751 31.43836,-24.98748 31.43817,-24.98741 31.43817,-24.98741 31.43758,-24.9872 31.43668,-24.98671 31.4361,-24.98626 31.43595,-24.98614 31.43581,-24.98603 31.43504,-24.98554 31.43504,-24.98554 31.4332,-24.98437 31.43197,-24.98363 31.43049,-24.98318 31.4295,-24.98267 31.42864,-24.98231 31.42822,-24.98204 31.42796,-24.98188 31.42752,-24.98149 31.42691,-24.98095 31.42657,-24.98028 31.42637,-24.97956 31.4262,-24.97901 31.42605,-24.97851 31.42601,-24.97799 31.42594,-24.9778 31.42582,-24.97747 31.42556,-24.97717 31.42518,-24.97689 31.42472,-24.97689 31.42458,-24.97683 31.42429,-24.97671 31.42429,-24.97671 31.42426,-24.97665 31.42425,-24.97662 31.42422,-24.97655 31.4241,-24.97622 31.42402,-24.9757 31.4237,-24.97529 31.42369,-24.97528 31.42369,-24.97528 31.42341,-24.97506 31.42289,-24.9749 31.42264,-24.97461 31.4226,-24.97454 31.42248,-24.9743 31.42236,-24.97413 31.4223,-24.97406 31.42209,-24.97387 31.42177,-24.97375 31.4217,-24.97366 31.42166,-24.97361 31.42166,-24.97355 31.42167,-24.97346 31.42172,-24.97329 31.42173,-24.97324 31.42175,-24.97313 31.42173,-24.97305 31.42172,-24.97297 31.42164,-24.97283 31.42158,-24.97274 31.42113,-24.97246 31.42067,-24.9722 31.42045,-24.97209 31.42017,-24.97194 31.41969,-24.97165 31.41936,-24.97163 31.41933,-24.97163 31.41908,-24.97174 31.41898,-24.97171 31.41888,-24.97168 31.41846,-24.9714 31.41791,-24.97111 31.4176,-24.97096 31.41721,-24.97076 31.41655,-24.97038 31.41655,-24.97038 31.41649,-24.97035 31.41625,-24.9702 31.41611,-24.97012 31.41495,-24.96987 31.41489,-24.96986 31.41479,-24.96984 31.41382,-24.96966 31.41326,-24.96959 31.41288,-24.96952 31.41266,-24.96948 31.41224,-24.96928 31.41182,-24.96907 31.4114,-24.96902 31.41118,-24.96901 31.41118,-24.96901 31.41102,-24.96901 31.41053,-24.9693 31.41023,-24.96942 31.41009,-24.96948 31.40996,-24.96952 31.40967,-24.96959 31.40928,-24.96954 31.40898,-24.96941 31.4089,-24.96937 31.40848,-24.96928 31.40819,-24.96931 31.4078,-24.96954 31.4078,-24.96954 31.4078,-24.96954 31.40729,-24.96966 31.40721,-24.96965 31.40679,-24.9696 31.40659,-24.96965 31.40638,-24.96971 31.40613,-24.96981 31.40592,-24.96989 31.40548,-24.97026 31.40508,-24.97046 31.4045,-24.97058 31.40435,-24.97061 31.40389,-24.97066 31.40339,-24.9708 31.40336,-24.97081 31.40261,-24.97099 31.40212,-24.9711 31.4013,-24.97137 31.4006,-24.97171 31.40004,-24.97174 31.39973,-24.97175 31.39973,-24.97175 31.39973,-24.97175 31.39968,-24.97173 31.39939,-24.97159 31.39933,-24.97159 31.39903,-24.97156 31.39832,-24.97171 31.39778,-24.97183 31.39758,-24.97183 31.39705,-24.97203 31.39676,-24.97204 31.39645,-24.97206 31.3957,-24.97192 31.39564,-24.97191 31.39439,-24.97178 31.39377,-24.97161 31.39328,-24.97148 31.39287,-24.97131 31.39238,-24.97124 31.39171,-24.97102 31.39154,-24.97075 31.39151,-24.97071 31.39151,-24.97071 31.39125,-24.97035 31.39122,-24.97034 31.39079,-24.97021 31.39036,-24.9701 31.3902,-24.97006 31.38947,-24.96985 31.38889,-24.96948 31.38839,-24.96912 31.38838,-24.96912 31.38838,-24.96912 31.38768,-24.96872 31.38717,-24.9685 31.38668,-24.96828 31.386,-24.96796 31.386,-24.96796 31.38575,-24.96785 31.38567,-24.96779 31.38533,-24.9675 31.3846,-24.96698 31.38416,-24.96654 31.38369,-24.96619 31.38329,-24.96587 31.38311,-24.96576 31.38289,-24.96562 31.38256,-24.96535 31.38236,-24.96521 31.38218,-24.96507 31.38186,-24.96482 31.38186,-24.96482 31.38186,-24.96482 31.38167,-24.96457 31.38116,-24.96462 31.3811,-24.96463 31.38107,-24.96465 31.38055,-24.96495 31.38026,-24.96552 31.38008,-24.96572 31.38,-24.96582 31.38,-24.96582 31.38,-24.96582 31.37965,-24.96581 31.37921,-24.96591 31.37899,-24.96596 31.37851,-24.96599 31.37847,-24.96599 31.37783,-24.96599 31.37783,-24.96599 31.37783,-24.96599 31.37734,-24.96587 31.37683,-24.96568 31.37638,-24.96558 31.37613,-24.96564 31.37567,-24.96575 31.37519,-24.96579 31.37496,-24.9658 31.37451,-24.96582 31.37397,-24.96594 31.37378,-24.96599 31.37351,-24.96613 31.37309,-24.96636 31.37256,-24.96652 31.37224,-24.96669 31.37176,-24.96695 31.37167,-24.96699 31.37156,-24.96704 31.37143,-24.9671 31.37094,-24.96733 31.37092,-24.96735 31.37072,-24.96758 31.37045,-24.96788 31.3701,-24.96815 31.3698,-24.96838 31.36923,-24.96866 31.36882,-24.96866 31.36829,-24.9691 31.36803,-24.96956 31.36773,-24.96974 31.36743,-24.96992 31.3672,-24.97001 31.36716,-24.97003 31.36688,-24.97072 31.36664,-24.97087 31.36659,-24.9709 31.36644,-24.97094 31.36598,-24.97108 31.36551,-24.97149 31.36525,-24.97174 31.36479,-24.97224 31.3644,-24.97288 31.3643,-24.97298 31.36385,-24.97342 31.36365,-24.97396 31.36364,-24.97436 31.36362,-24.97485 31.36374,-24.97534 31.36351,-24.9759 31.36334,-24.97619 31.36299,-24.9764 31.36296,-24.97642 31.36187,-24.97662 31.36166,-24.97666 31.36136,-24.97673 31.36045,-24.97682 31.36045,-24.97682 31.36045,-24.97682 31.36012,-24.97677 31.35936,-24.97665 31.35911,-24.9766 31.3591,-24.9766 31.3586,-24.9765 31.35784,-24.97637 31.35746,-24.97637 31.35731,-24.97637 31.35694,-24.97636 31.3567,-24.97637 31.35657,-24.97637 31.35657,-24.97637 31.35657,-24.97637 31.35639,-24.97624 31.35613,-24.97604 31.35581,-24.97563 31.35557,-24.97531 31.35536,-24.97525 31.35522,-24.9752 31.35479,-24.97505 31.3545,-24.97468 31.35401,-24.97419 31.35363,-24.97389 31.3535,-24.97381 31.35326,-24.97366 31.35272,-24.97345 31.35248,-24.97344 31.35198,-24.97343 31.35163,-24.97355 31.35085,-24.97396 31.35,-24.97468 31.34957,-24.97518 31.34948,-24.97529 31.34942,-24.97536 31.34889,-24.97595 31.34864,-24.97623 31.34846,-24.97644 31.34835,-24.97652 31.34802,-24.97674 31.34795,-24.97676 31.3475,-24.97691 31.34715,-24.97708 31.34691,-24.97726 31.3465,-24.97734 31.34617,-24.97741 31.34586,-24.97745 31.34541,-24.9775 31.34477,-24.97747 31.34477,-24.97747 31.3444,-24.97714 31.34372,-24.97657 31.34322,-24.97631 31.34322,-24.97631 31.34308,-24.97624 31.34285,-24.97603 31.34271,-24.9759 31.34241,-24.9756 31.34237,-24.97556 31.34192,-24.97514 31.34143,-24.97457 31.34108,-24.97407 31.34108,-24.97407 31.34108,-24.97407 31.34061,-24.97343 31.34052,-24.97335 31.33974,-24.97264 31.33923,-24.97267 31.33923,-24.97267 31.33923,-24.97267 31.33921,-24.97265 31.33879,-24.97218 31.33844,-24.97152 31.33843,-24.97149 31.3383,-24.97134 31.33811,-24.97111 31.33771,-24.97093 31.33739,-24.97079 31.33699,-24.97063 31.33663,-24.97049 31.33596,-24.97017 31.33489,-24.96971 31.33391,-24.96938 31.33362,-24.96928 31.33292,-24.96912 31.3329,-24.96912 31.33225,-24.96909 31.331,-24.96872 31.33039,-24.96863 31.32986,-24.96863 31.32915,-24.96844 31.32822,-24.96809 31.32757,-24.96758 31.32731,-24.96738 31.32674,-24.96726 31.3263,-24.96722 31.3263,-24.96722 31.32595,-24.96719 31.32495,-24.96716 31.32384,-24.96717 31.32345,-24.96718 31.32309,-24.96709 31.32252,-24.96695 31.32177,-24.96662 31.32127,-24.9664 31.32079,-24.96614 31.32079,-24.96614 31.32036,-24.96591 31.31988,-24.9657 31.31883,-24.96524 31.31829,-24.96496 31.31822,-24.96492 31.31816,-24.96488 31.31763,-24.96453 31.31654,-24.96442 31.31629,-24.96444 31.31577,-24.96448 31.31503,-24.96457 31.31489,-24.96466 31.31477,-24.96474 31.31392,-24.96529 31.31366,-24.96546 31.31252,-24.96645 31.31198,-24.96735 31.31182,-24.96828 31.31171,-24.9689 31.31154,-24.96966 31.31137,-24.97064 31.31136,-24.97144 31.31136,-24.972 31.31157,-24.97293 31.31169,-24.97387 31.31175,-24.97395 31.312,-24.97427 31.31225,-24.97483 31.31243,-24.97523 31.31259,-24.97607 31.31259,-24.977 31.31226,-24.97785 31.31222,-24.97802 31.31211,-24.97854 31.31146,-24.97917 31.31126,-24.97929 31.31107,-24.97941 31.31095,-24.97947 31.31,-24.97993 31.30957,-24.98019 31.30872,-24.98055 31.30738,-24.98096 31.30654,-24.98113 31.30601,-24.98114 31.30573,-24.98115 31.30538,-24.98112 31.30488,-24.98109 31.30434,-24.98096 31.30388,-24.98088 31.30378,-24.98086 31.30368,-24.98089 31.30334,-24.981 31.30245,-24.98109 31.3021,-24.9811 31.30178,-24.98079 31.30175,-24.98077 31.3012,-24.98037 31.3007,-24.98025 31.30047,-24.98024 31.30015,-24.98022 31.29967,-24.98038 31.29945,-24.98045 31.29922,-24.98061 31.29896,-24.9808 31.29865,-24.98122 31.29844,-24.98138 31.29818,-24.98157 31.29775,-24.9818 31.29759,-24.98188 31.29704,-24.9822 31.29647,-24.98267 31.29624,-24.98291 31.29603,-24.98313 31.29528,-24.98379 31.29521,-24.98389 31.29475,-24.98449 31.29377,-24.9856 31.29364,-24.98571 31.29342,-24.98591 31.29315,-24.98624 31.29194,-24.98748 31.29039,-24.9883 31.28885,-24.9887 31.28681,-24.98833 31.28646,-24.98811 31.28646,-24.98811 31.28632,-24.98803 31.28581,-24.9876 31.28493,-24.987 31.28488,-24.98697 31.2834,-24.98603 31.28226,-24.98529 31.28154,-24.98482 31.28058,-24.98431 31.28,-24.98401 31.27886,-24.98347 31.27696,-24.98274 31.27696,-24.98274 31.27648,-24.98255 31.27597,-24.98234 31.27543,-24.98212 31.27409,-24.98196 31.27361,-24.98179 31.27275,-24.98166 31.27192,-24.98153 31.27152,-24.98151 31.27142,-24.98151 31.2713,-24.98143 31.2713,-24.98143 31.27107,-24.98128 31.27099,-24.98099 31.27096,-24.98089 31.27081,-24.98084 31.27081,-24.98084 31.27043,-24.98071 31.26942,-24.98049 31.26888,-24.9803 31.2682,-24.98006 31.26793,-24.97985 31.26773,-24.9797 31.26729,-24.97962 31.26663,-24.97971 31.26632,-24.97977 31.26628,-24.97978 31.26628,-24.97978 31.26611,-24.97974 31.26611,-24.97974 31.26573,-24.97964 31.26524,-24.97955 31.26482,-24.97939 31.26446,-24.97915 31.26442,-24.97913 31.26398,-24.97916 31.26335,-24.9792 31.26291,-24.97927 31.26227,-24.97941 31.26221,-24.97942 31.26152,-24.9797 31.2607,-24.98014 31.26036,-24.98027 31.25986,-24.98046 31.25958,-24.98055 31.25934,-24.98063 31.25925,-24.98067 31.25916,-24.98072 31.25911,-24.98074 31.25878,-24.9808 31.25818,-24.98092 31.25789,-24.98104 31.25737,-24.98118 31.25666,-24.98109 31.25644,-24.98105 31.25609,-24.981 31.25609,-24.981 31.25577,-24.98095 31.25568,-24.98095 31.25557,-24.98094 31.25461,-24.98091 31.25461,-24.98091 31.25437,-24.9809 31.25335,-24.98095 31.25284,-24.98115 31.25272,-24.98126 31.25266,-24.98132 31.25258,-24.98146 31.25248,-24.98164 31.25239,-24.98196 31.2524,-24.98237 31.25257,-24.98293 31.25297,-24.98348 31.25321,-24.9838 31.25355,-24.9841 31.25368,-24.98421 31.25368,-24.98421 31.25368,-24.98421 31.25405,-24.98481 31.25445,-24.98553 31.25452,-24.98566 31.25455,-24.98591 31.25458,-24.98618 31.25457,-24.98661 31.25457,-24.98664 31.25437,-24.98699 31.25433,-24.98707 31.25397,-24.98771 31.25384,-24.98789 31.25336,-24.9886 31.25282,-24.98937 31.25272,-24.9895 31.25233,-24.99007 31.25225,-24.99018 31.25225,-24.99018 31.25225,-24.99018 31.25198,-24.9903 31.25176,-24.9904 31.25163,-24.99058 31.25141,-24.99088 31.25065,-24.9917 31.25043,-24.99185 31.25015,-24.99205 31.24979,-24.99287 31.24978,-24.99298 31.24973,-24.99338 31.24953,-24.99407 31.24946,-24.99431 31.24946,-24.99482 31.24947,-24.99541 31.2495,-24.99562 31.24957,-24.99609 31.24955,-24.99634 31.24955,-24.99638 31.24955,-24.99708 31.24955,-24.99712 31.24957,-24.99742 31.24998,-24.998 31.25037,-24.99828 31.25043,-24.99832 31.25065,-24.99831 31.25097,-24.9983 31.25097,-24.9983 31.25097,-24.9983 31.25113,-24.99845 31.2515,-24.99881 31.25176,-24.99907 31.2521,-24.9994 31.25256,-24.99997 31.25271,-25.00015 31.25352,-25.00096 31.25393,-25.0014 31.25409,-25.00178 31.2541,-25.00185 31.25411,-25.00188 31.25403,-25.00212 31.254,-25.00222 31.25402,-25.00237 31.25403,-25.00241 31.25398,-25.00306 31.2539,-25.00337 31.25386,-25.00351 31.2538,-25.00368 31.25358,-25.00426 31.25357,-25.00432 31.25348,-25.00467 31.25343,-25.00472 31.2533,-25.00486 31.25325,-25.00494 31.25316,-25.0051 31.25312,-25.00519 31.25306,-25.00532 31.25282,-25.00545 31.25201,-25.00659 31.25194,-25.0067 31.25062,-25.00802 31.24961,-25.0088 31.24917,-25.00908 31.24862,-25.00984 31.24857,-25.00991 31.24873,-25.01153 31.24927,-25.01198 31.24948,-25.01216 31.24991,-25.01237 31.25043,-25.01266 31.25052,-25.01271 31.25099,-25.01295 31.25199,-25.01348 31.25216,-25.01368 31.25302,-25.01467 31.25251,-25.01664 31.25251,-25.01664 31.25234,-25.0168 31.25184,-25.01729 31.25069,-25.01795 31.25047,-25.01802 31.24936,-25.01834 31.24931,-25.01836 31.2493,-25.01836 31.24484,-25.01859 31.24462,-25.01861 31.24443,-25.01863 31.24452,-25.0182 31.24439,-25.0182 31.24422,-25.01822 31.24378,-25.01824 31.24319,-25.01826 31.24245,-25.01833 31.24174,-25.01839 31.24109,-25.01844 31.24043,-25.01857 31.23959,-25.01857 31.23919,-25.01859 31.23856,-25.01861 31.238,-25.01874 31.23726,-25.01894 31.23643,-25.01922 31.2361,-25.01928 31.23546,-25.01935 31.23485,-25.01935 31.23427,-25.01932 31.23375,-25.0193 31.23287,-25.01924 31.23268,-25.01923 31.23199,-25.01919 31.23161,-25.01912 31.23128,-25.01903 31.23088,-25.01894 31.23046,-25.019 31.23008,-25.01898 31.22957,-25.01888 31.22931,-25.01877 31.22887,-25.01877 31.2284,-25.01881 31.22775,-25.01889 31.2272,-25.01895 31.22663,-25.01898 31.22568,-25.01906 31.22504,-25.01916 31.22405,-25.01924 31.22298,-25.01935 31.22256,-25.01943 31.22219,-25.01948 31.22181,-25.01949 31.22134,-25.01946 31.22079,-25.01945 31.22022,-25.01944 31.22004,-25.01942 31.21986,-25.01937 31.21958,-25.01929 31.21937,-25.01926 31.21894,-25.01929 31.21823,-25.01936 31.21772,-25.01933 31.21723,-25.01933 31.21683,-25.01931 31.21632,-25.01936 31.2156,-25.01942 31.2144,-25.01953 31.21396,-25.01954 31.21331,-25.01951 31.21282,-25.01948 31.21228,-25.01948 31.21163,-25.01953 31.21079,-25.01948 31.2102,-25.01949 31.20991,-25.01948 31.20951,-25.01954 31.20922,-25.01954 31.20889,-25.01949 31.20861,-25.01948 31.20825,-25.01949 31.20769,-25.01944 31.20734,-25.01938 31.207,-25.01935 31.20651,-25.01935 31.20622,-25.0194 31.20603,-25.01943 31.2058,-25.01943 31.20548,-25.01941 31.20523,-25.0194 31.20489,-25.01946 31.20452,-25.01951 31.20422,-25.01948 31.20382,-25.01945 31.20349,-25.01942 31.20325,-25.01935 31.2029,-25.01923 31.20259,-25.0192 31.20203,-25.01915 31.20156,-25.01906 31.20128,-25.01904 31.20077,-25.01904 31.20033,-25.0191 31.19988,-25.01913 31.19957,-25.01911 31.19931,-25.01906 31.19899,-25.01905 31.19861,-25.01908 31.1981,-25.01913 31.19715,-25.01916 31.19686,-25.01917 31.19661,-25.01918 31.19635,-25.01917 31.19609,-25.01914 31.19575,-25.01907 31.19539,-25.01905 31.1952,-25.01904 31.19497,-25.01903 31.19472,-25.01901 31.19434,-25.01906 31.19369,-25.0192 31.19332,-25.01924 31.19307,-25.01927 31.19303,-25.01927 31.19264,-25.01928 31.19174,-25.01926 31.19118,-25.01921 31.19092,-25.01924 31.19056,-25.01928 31.19029,-25.01929 31.18997,-25.01926 31.18965,-25.01916 31.18933,-25.0191 31.18895,-25.01908 31.18853,-25.01907 31.18828,-25.01906 31.18805,-25.01902 31.18771,-25.01898 31.18735,-25.01897 31.18717,-25.01898 31.18696,-25.019 31.18671,-25.019 31.18648,-25.01898 31.18624,-25.01894 31.18599,-25.01892 31.1857,-25.0189 31.18547,-25.0189 31.18518,-25.01892 31.18482,-25.01896 31.1843,-25.01902 31.18405,-25.01905 31.18373,-25.01904 31.18347,-25.01898 31.18304,-25.01892 31.18284,-25.01896 31.18255,-25.01902 31.18222,-25.01913 31.1822,-25.01914 31.18184,-25.01932 31.18164,-25.01943 31.18126,-25.01965 31.18099,-25.0198 31.18084,-25.01992 31.18065,-25.02007 31.18046,-25.02033 31.18017,-25.02077 31.17999,-25.02103 31.17987,-25.02114 31.17964,-25.0213 31.17939,-25.02145 31.17904,-25.02155 31.17858,-25.02166 31.17808,-25.02174 31.17781,-25.02178 31.17749,-25.02181 31.17727,-25.0218 31.17695,-25.02177 31.17661,-25.02174 31.17618,-25.02173 31.17554,-25.02179 31.17495,-25.02184 31.17473,-25.02188 31.17451,-25.0219 31.17424,-25.02189 31.174,-25.02188 31.17367,-25.02194 31.17342,-25.02199 31.17315,-25.02205 31.17283,-25.02219 31.17253,-25.02238 31.17221,-25.0226 31.17188,-25.02276 31.17162,-25.02294 31.17144,-25.02304 31.17121,-25.02316 31.17102,-25.02323 31.17069,-25.02338 31.17038,-25.02354 31.17007,-25.02366 31.16985,-25.02376 31.16948,-25.02389 31.16913,-25.02397 31.1688,-25.02399 31.16823,-25.02406 31.16781,-25.02411 31.16728,-25.02416 31.16708,-25.02416 31.16637,-25.02418 31.16549,-25.02418 31.16507,-25.02412 31.16485,-25.02408 31.16453,-25.02402 31.16428,-25.02396 31.16395,-25.02385 31.16362,-25.02375 31.16334,-25.02371 31.16323,-25.0237 31.16291,-25.0237 31.16234,-25.02368 31.16193,-25.02367 31.16156,-25.02366 31.16122,-25.02363 31.1608,-25.02363 31.16032,-25.02366 31.15964,-25.02372 31.15915,-25.02372 31.159,-25.02372 31.15874,-25.02373 31.15835,-25.02371 31.15789,-25.02361 31.15735,-25.02353 31.15698,-25.02342 31.15684,-25.02337 31.15656,-25.02327 31.15628,-25.02315 31.1558,-25.02301 31.15553,-25.02295 31.15521,-25.02289 31.15497,-25.02286 31.1546,-25.02282 31.1542,-25.02276 31.15388,-25.02271 31.15345,-25.02266 31.15319,-25.02266 31.15318,-25.02264 31.1531,-25.02238 31.15294,-25.02185 31.14807,-25.00615 31.14759,-25.00585</coordinates></LinearRing></outerBoundaryIs></Polygon></MultiGeometry></Placemark></Document></kml>