<?xml version="1.0" encoding="UTF-8"?><kml xmlns="http://www.opengis.net/kml/2.2"><Document><Placemark><name>Greater Giyani</name><description>Local Municipality 960</description><ExtendedData><Data name="code"><value>960</value></Data><Data name="name"><value>Greater Giyani</value></Data><Data name="description"><value>Local Municipality 960</value></Data></ExtendedData><MultiGeometry><Polygon><outerBoundaryIs><LinearRing><coordinates>30.42047,-23.36887 30.40725,-23.36796 30.40584,-23.36786 30.39113,-23.37944 30.39106,-23.37949 30.39105,-23.37949 30.38981,-23.38047 30.37391,-23.39301 30.37384,-23.39307 30.3721,-23.39462 30.36542,-23.40057 30.36519,-23.40077 30.35985,-23.40553 30.35456,-23.40988 30.33741,-23.42395 30.33738,-23.42394 30.31114,-23.40078 30.29402,-23.38568 30.32596,-23.37821 30.3286,-23.37759 30.32864,-23.37758 30.33057,-23.37551 30.33082,-23.37529 30.33225,-23.37403 30.33361,-23.37307 30.33457,-23.37188 30.33496,-23.37081 30.33536,-23.36917 30.33536,-23.36876 30.33536,-23.3677 30.33524,-23.36533 30.33541,-23.36398 30.33609,-23.36245 30.33711,-23.36093 30.33863,-23.35918 30.33993,-23.35794 30.34106,-23.35642 30.34185,-23.3554 30.34247,-23.35383 30.34258,-23.35354 30.34309,-23.35167 30.3436,-23.34981 30.34366,-23.34964 30.34399,-23.34863 30.34444,-23.3475 30.3454,-23.34524 30.34676,-23.34355 30.34817,-23.3431 30.3506,-23.34197 30.35069,-23.34193 30.3514,-23.34161 30.35149,-23.34157 30.3515,-23.34157 30.3516,-23.34152 30.35161,-23.34152 30.35353,-23.34067 30.35573,-23.33943 30.35669,-23.33869 30.3572,-23.337 30.35689,-23.33533 30.35655,-23.3337 30.35615,-23.33167 30.35604,-23.3298 30.3561,-23.328 30.35615,-23.32647 30.35672,-23.3245 30.35706,-23.32359 30.35831,-23.32209 30.35847,-23.3219 30.35971,-23.32021 30.36265,-23.31874 30.36414,-23.31725 30.36674,-23.3142 30.36757,-23.31281 30.36915,-23.31016 30.36913,-23.31014 30.35991,-23.30044 30.34881,-23.28191 30.34749,-23.27881 30.34748,-23.27878 30.33498,-23.24944 30.34863,-23.24874 30.3605,-23.24813 30.36639,-23.24783 30.36853,-23.24772 30.39831,-23.23625 30.39943,-23.23582 30.39945,-23.23581 30.3995,-23.23579 30.40163,-23.23497 30.40347,-23.23426 30.40351,-23.23424 30.404,-23.23549 30.40453,-23.23682 30.40493,-23.23785 30.40923,-23.24869 30.4098,-23.24998 30.4098,-23.25 30.41279,-23.25677 30.41834,-23.26941 30.41857,-23.27052 30.41861,-23.27073 30.41882,-23.27082 30.41929,-23.27102 30.42046,-23.27125 30.42152,-23.27161 30.42288,-23.27172 30.42394,-23.27154 30.42489,-23.27127 30.42526,-23.27101 30.42553,-23.27045 30.42569,-23.26972 30.42574,-23.26787 30.42601,-23.26541 30.42614,-23.26356 30.42641,-23.26313 30.42655,-23.26277 30.42662,-23.2621 30.42664,-23.26151 30.42666,-23.261 30.42668,-23.26044 30.42682,-23.26008 30.42682,-23.25972 30.42684,-23.25936 30.42695,-23.25889 30.427,-23.25844 30.42702,-23.25786 30.4272,-23.25728 30.42735,-23.25675 30.42773,-23.25615 30.42808,-23.25581 30.42847,-23.25564 30.42874,-23.25559 30.4293,-23.25566 30.42997,-23.25586 30.43075,-23.25593 30.43214,-23.25615 30.43324,-23.25591 30.43489,-23.25573 30.43605,-23.25544 30.43739,-23.25517 30.43847,-23.25507 30.43929,-23.25479 30.43987,-23.25433 30.44084,-23.25363 30.4418,-23.25233 30.44283,-23.25144 30.44371,-23.25092 30.44419,-23.25055 30.44472,-23.25013 30.44525,-23.24986 30.44562,-23.2496 30.44657,-23.24925 30.44723,-23.24912 30.4478,-23.24889 30.44835,-23.24869 30.44895,-23.24852 30.44902,-23.24851 30.44925,-23.24847 30.44927,-23.24847 30.44931,-23.24846 30.4496,-23.24853 30.44992,-23.24894 30.45008,-23.24909 30.45006,-23.24928 30.45029,-23.24947 30.45059,-23.24962 30.45108,-23.24976 30.45155,-23.24971 30.45173,-23.24975 30.45202,-23.24971 30.45239,-23.24967 30.45293,-23.24951 30.45318,-23.24938 30.45336,-23.2492 30.4536,-23.24901 30.45377,-23.2489 30.45401,-23.24873 30.4542,-23.2486 30.4545,-23.24845 30.45493,-23.24829 30.45538,-23.24814 30.45586,-23.24777 30.45615,-23.24751 30.45671,-23.24718 30.45745,-23.24663 30.45763,-23.24634 30.45792,-23.24612 30.45839,-23.24556 30.45883,-23.24486 30.45906,-23.24446 30.45936,-23.24425 30.45953,-23.24403 30.45976,-23.24382 30.45992,-23.24349 30.46015,-23.24317 30.46055,-23.24291 30.4609,-23.24261 30.46124,-23.24236 30.46164,-23.24211 30.46207,-23.24186 30.46244,-23.24163 30.46281,-23.24142 30.46305,-23.24126 30.46338,-23.24097 30.46374,-23.24085 30.46419,-23.24065 30.46479,-23.24033 30.46497,-23.24031 30.46513,-23.24028 30.46523,-23.24027 30.46581,-23.24025 30.46644,-23.24009 30.46692,-23.24002 30.46786,-23.23994 30.46865,-23.23995 30.46926,-23.23997 30.4699,-23.24027 30.47017,-23.24058 30.47079,-23.24074 30.47164,-23.24088 30.47244,-23.24088 30.47287,-23.2407 30.4732,-23.24052 30.47374,-23.24051 30.47408,-23.24056 30.47415,-23.24057 30.47473,-23.24074 30.47512,-23.24088 30.47552,-23.24105 30.47596,-23.24114 30.4765,-23.2411 30.47668,-23.24109 30.47713,-23.24105 30.47738,-23.2411 30.47746,-23.24112 30.47765,-23.24116 30.47772,-23.24118 30.47864,-23.24147 30.47909,-23.24176 30.4799,-23.2421 30.48041,-23.24223 30.48093,-23.2423 30.48236,-23.2427 30.48388,-23.24315 30.48455,-23.24326 30.48512,-23.24324 30.48578,-23.2435 30.48665,-23.24376 30.48757,-23.24424 30.4882,-23.24475 30.48887,-23.24529 30.48926,-23.24581 30.48961,-23.24616 30.49006,-23.24657 30.49057,-23.2469 30.49133,-23.2475 30.49179,-23.24784 30.49214,-23.24793 30.49296,-23.24825 30.49416,-23.24891 30.49444,-23.24912 30.49589,-23.2502 30.49652,-23.25068 30.49714,-23.25124 30.49763,-23.25166 30.4988,-23.25242 30.49999,-23.25321 30.50088,-23.25363 30.50194,-23.25405 30.50363,-23.25474 30.50535,-23.25545 30.50624,-23.25593 30.50779,-23.25689 30.50871,-23.25745 30.50937,-23.2578 30.50974,-23.25815 30.51011,-23.25849 30.51073,-23.2593 30.51143,-23.26039 30.51159,-23.26066 30.51215,-23.26158 30.51271,-23.26286 30.51297,-23.26371 30.51335,-23.26466 30.51386,-23.26573 30.51453,-23.26674 30.51536,-23.2678 30.51623,-23.26863 30.51709,-23.26916 30.51811,-23.26947 30.51935,-23.26954 30.52038,-23.26979 30.52142,-23.27014 30.52258,-23.27058 30.52339,-23.2709 30.52431,-23.2711 30.52503,-23.2713 30.52568,-23.27166 30.52691,-23.27209 30.52805,-23.27276 30.52807,-23.27277 30.52827,-23.27289 30.52848,-23.27303 30.52909,-23.27342 30.5297,-23.27357 30.53008,-23.27387 30.53062,-23.27414 30.53105,-23.27437 30.53155,-23.2746 30.53205,-23.27486 30.53256,-23.27505 30.53284,-23.27519 30.53222,-23.2719 30.53175,-23.26943 30.53164,-23.26883 30.53092,-23.26508 30.52587,-23.23849 30.5247,-23.23233 30.52211,-23.21872 30.53058,-23.20974 30.55241,-23.18657 30.55386,-23.18503 30.55392,-23.18496 30.56266,-23.17569 30.56273,-23.17568 30.56294,-23.17568 30.56304,-23.17566 30.56313,-23.17565 30.56317,-23.17563 30.56323,-23.1756 30.56327,-23.17558 30.56334,-23.17556 30.56338,-23.17553 30.56342,-23.17551 30.56346,-23.17548 30.56348,-23.17546 30.56368,-23.1758 30.56373,-23.17592 30.56373,-23.17604 30.56375,-23.17616 30.56377,-23.17633 30.56379,-23.17652 30.56381,-23.17668 30.56385,-23.17679 30.56387,-23.17692 30.56386,-23.17703 30.56383,-23.17715 30.56382,-23.17726 30.56381,-23.17738 30.56381,-23.17755 30.56386,-23.17765 30.56396,-23.17771 30.56411,-23.17777 30.56433,-23.1778 30.56504,-23.17805 30.56537,-23.17815 30.56572,-23.17832 30.56585,-23.17841 30.56588,-23.17852 30.56585,-23.17861 30.56577,-23.17866 30.5656,-23.17875 30.56533,-23.17885 30.56484,-23.17896 30.56471,-23.17908 30.56466,-23.17917 30.56467,-23.17929 30.56467,-23.17942 30.56472,-23.17954 30.56488,-23.17976 30.56504,-23.17994 30.56521,-23.18004 30.56541,-23.18005 30.56566,-23.18003 30.5659,-23.18 30.56612,-23.17993 30.56636,-23.17986 30.56656,-23.17979 30.56668,-23.17978 30.56683,-23.17976 30.56695,-23.17974 30.56704,-23.17973 30.56718,-23.17967 30.56738,-23.17959 30.56753,-23.17956 30.56772,-23.17955 30.5679,-23.17954 30.5683,-23.17964 30.56858,-23.17973 30.56867,-23.17972 30.56878,-23.1797 30.56895,-23.17961 30.56902,-23.17958 30.56924,-23.17946 30.56968,-23.1793 30.5699,-23.17925 30.56996,-23.17923 30.57006,-23.17921 30.57017,-23.17919 30.57025,-23.17918 30.5705,-23.17917 30.57058,-23.17916 30.5707,-23.17914 30.57083,-23.17912 30.57092,-23.17911 30.5711,-23.17909 30.57132,-23.17901 30.5715,-23.1789 30.57169,-23.17871 30.57191,-23.17851 30.57206,-23.17832 30.57211,-23.17822 30.57212,-23.17804 30.5722,-23.17791 30.57244,-23.17786 30.5725,-23.17784 30.57261,-23.17781 30.57272,-23.17778 30.57279,-23.17776 30.57292,-23.17771 30.57307,-23.17762 30.57321,-23.17751 30.57345,-23.17737 30.5736,-23.17729 30.57378,-23.17724 30.57398,-23.17723 30.57417,-23.17725 30.57431,-23.17725 30.57443,-23.17731 30.5745,-23.17739 30.57458,-23.17757 30.57469,-23.17767 30.57474,-23.17771 30.5749,-23.17777 30.57506,-23.17784 30.57536,-23.17798 30.57552,-23.17805 30.57563,-23.17808 30.57582,-23.17818 30.57604,-23.17827 30.57616,-23.17839 30.57641,-23.17855 30.57677,-23.17877 30.57695,-23.17891 30.57718,-23.17909 30.57748,-23.17929 30.57762,-23.17942 30.57779,-23.17962 30.57781,-23.17965 30.57789,-23.17977 30.57795,-23.18 30.57798,-23.18027 30.57798,-23.18052 30.57815,-23.18073 30.57827,-23.18074 30.5785,-23.18075 30.57888,-23.18076 30.57915,-23.18077 30.57927,-23.18078 30.57938,-23.18078 30.57947,-23.18066 30.57962,-23.18056 30.57978,-23.18046 30.57982,-23.18044 30.57994,-23.18038 30.58008,-23.18032 30.58013,-23.1803 30.58039,-23.18017 30.58062,-23.18012 30.58083,-23.18005 30.581,-23.17996 30.58118,-23.17989 30.58147,-23.17981 30.58173,-23.17975 30.58191,-23.17971 30.582,-23.17971 30.5821,-23.1797 30.58223,-23.17965 30.58228,-23.17963 30.58245,-23.17962 30.58265,-23.17958 30.58288,-23.17962 30.58304,-23.17962 30.58323,-23.17958 30.58326,-23.17942 30.58326,-23.17931 30.58321,-23.17902 30.58328,-23.17894 30.58339,-23.17883 30.58354,-23.17878 30.58362,-23.17876 30.58389,-23.17878 30.58429,-23.17879 30.58461,-23.1788 30.58474,-23.17882 30.58485,-23.17883 30.58502,-23.17886 30.58522,-23.17889 30.58541,-23.17892 30.58558,-23.17897 30.58593,-23.17901 30.5862,-23.17897 30.58641,-23.17898 30.58664,-23.1789 30.58675,-23.17879 30.58689,-23.17873 30.58713,-23.17865 30.58734,-23.17862 30.58766,-23.17854 30.58783,-23.1785 30.58814,-23.17842 30.58841,-23.17836 30.58873,-23.17826 30.58893,-23.17818 30.58931,-23.1781 30.5896,-23.17804 30.58976,-23.17802 30.58991,-23.17802 30.59002,-23.1781 30.59011,-23.17822 30.59011,-23.17842 30.59001,-23.17868 30.58999,-23.17887 30.58996,-23.17912 30.58995,-23.17935 30.58991,-23.17955 30.58992,-23.17972 30.58993,-23.17999 30.58994,-23.18019 30.5899,-23.18053 30.5899,-23.18098 30.58986,-23.18131 30.58984,-23.18167 30.5898,-23.18195 30.58978,-23.18236 30.58976,-23.18265 30.58976,-23.18288 30.58978,-23.18299 30.58983,-23.18321 30.5899,-23.18339 30.58999,-23.18353 30.59014,-23.18377 30.59025,-23.18387 30.59037,-23.18386 30.59045,-23.18374 30.59054,-23.18357 30.59066,-23.18338 30.59077,-23.18329 30.59088,-23.18321 30.591,-23.18316 30.59125,-23.18311 30.59137,-23.18313 30.59167,-23.18331 30.59196,-23.18357 30.59222,-23.18387 30.59242,-23.18408 30.5926,-23.18421 30.59271,-23.18423 30.59289,-23.18412 30.59315,-23.18396 30.59336,-23.18395 30.5936,-23.18427 30.59388,-23.18446 30.59419,-23.1847 30.59449,-23.18487 30.5946,-23.18489 30.59481,-23.18474 30.59528,-23.18447 30.59569,-23.18421 30.59605,-23.18409 30.59641,-23.18381 30.59683,-23.18359 30.59729,-23.18323 30.5976,-23.18301 30.59785,-23.18273 30.59799,-23.18265 30.59803,-23.18263 30.59837,-23.18261 30.59873,-23.18272 30.59932,-23.18297 30.59975,-23.18314 30.60009,-23.18324 30.60033,-23.18327 30.60054,-23.1833 30.60058,-23.1833 30.60089,-23.18331 30.60118,-23.18333 30.60143,-23.18329 30.60171,-23.18323 30.6021,-23.18322 30.60241,-23.18316 30.60252,-23.18292 30.60265,-23.18275 30.6028,-23.18259 30.60308,-23.18199 30.60328,-23.18186 30.60353,-23.18172 30.60387,-23.18174 30.60416,-23.18168 30.6043,-23.18159 30.60448,-23.18134 30.60456,-23.18114 30.6046,-23.18097 30.60459,-23.18071 30.6046,-23.18034 30.60467,-23.18012 30.60467,-23.17985 30.60477,-23.17967 30.60485,-23.17948 30.60493,-23.17926 30.60504,-23.17906 30.60513,-23.17888 30.60524,-23.17861 30.60517,-23.17831 30.60524,-23.17799 30.60534,-23.17759 30.60541,-23.17728 30.60545,-23.17687 30.60545,-23.17662 30.60537,-23.17643 30.60513,-23.17614 30.60485,-23.17592 30.60473,-23.17578 30.60473,-23.17549 30.6048,-23.17531 30.60492,-23.17514 30.60516,-23.17499 30.60528,-23.17494 30.60554,-23.17484 30.6058,-23.17474 30.60593,-23.17469 30.60643,-23.17454 30.60685,-23.17443 30.60731,-23.17439 30.60772,-23.17435 30.60802,-23.17433 30.60836,-23.1743 30.60922,-23.17419 30.60984,-23.17414 30.61027,-23.17412 30.61068,-23.17415 30.61132,-23.1742 30.61158,-23.17407 30.61179,-23.17388 30.61192,-23.17363 30.61188,-23.17343 30.61176,-23.17321 30.61171,-23.17284 30.6118,-23.1726 30.61195,-23.17258 30.61242,-23.17268 30.61332,-23.17295 30.61382,-23.17322 30.61419,-23.17336 30.61451,-23.17347 30.61489,-23.17362 30.61508,-23.17369 30.61528,-23.17374 30.61559,-23.17383 30.61635,-23.17399 30.61723,-23.17401 30.61776,-23.17394 30.61816,-23.17378 30.61934,-23.17362 30.61967,-23.17356 30.61997,-23.17344 30.62038,-23.17331 30.62046,-23.17328 30.62064,-23.17321 30.62087,-23.17319 30.62106,-23.17318 30.62133,-23.17317 30.62143,-23.17319 30.62156,-23.17321 30.62185,-23.17333 30.62188,-23.17335 30.62203,-23.17344 30.62252,-23.17373 30.62287,-23.17407 30.62329,-23.17441 30.62374,-23.17488 30.62406,-23.17533 30.6243,-23.1757 30.62444,-23.17606 30.62467,-23.17644 30.62478,-23.17675 30.62496,-23.17711 30.62503,-23.17724 30.6251,-23.17736 30.62528,-23.17771 30.62546,-23.17857 30.62556,-23.17883 30.6257,-23.17927 30.62588,-23.17984 30.62619,-23.18043 30.62661,-23.18102 30.62732,-23.18159 30.62744,-23.18164 30.62749,-23.18166 30.62751,-23.18164 30.62754,-23.18161 30.62948,-23.17971 30.65212,-23.15753 30.65223,-23.15742 30.66249,-23.14586 30.66494,-23.14309 30.66552,-23.14244 30.66718,-23.14056 30.68003,-23.12606 30.69226,-23.11226 30.70053,-23.10293 30.71275,-23.08933 30.72628,-23.07428 30.72805,-23.07231 30.72815,-23.07221 30.72828,-23.07232 30.72869,-23.07249 30.72889,-23.07257 30.72892,-23.07259 30.72908,-23.07272 30.72939,-23.07285 30.72966,-23.07291 30.72994,-23.07304 30.73025,-23.07316 30.73061,-23.07321 30.73083,-23.07323 30.73089,-23.07323 30.7312,-23.07322 30.7316,-23.07334 30.73201,-23.07348 30.73241,-23.07357 30.73272,-23.07375 30.73292,-23.07386 30.73324,-23.07407 30.73352,-23.0742 30.73381,-23.07432 30.734,-23.0746 30.73418,-23.07468 30.73434,-23.07489 30.73446,-23.07501 30.73466,-23.07518 30.73469,-23.07523 30.73478,-23.07539 30.73488,-23.07554 30.7351,-23.07595 30.73531,-23.07625 30.73556,-23.07653 30.73558,-23.07668 30.73561,-23.07688 30.73573,-23.07715 30.73591,-23.07756 30.736,-23.07795 30.73604,-23.07824 30.73606,-23.07847 30.73612,-23.07881 30.73623,-23.07909 30.73624,-23.07928 30.73627,-23.07975 30.73632,-23.08015 30.73646,-23.08048 30.73673,-23.08079 30.73686,-23.08099 30.73694,-23.08126 30.7371,-23.0815 30.73729,-23.08171 30.73735,-23.0818 30.73779,-23.08196 30.73804,-23.08216 30.73838,-23.08231 30.73864,-23.0824 30.73879,-23.08245 30.73892,-23.08248 30.73911,-23.08252 30.73939,-23.08258 30.73977,-23.08263 30.7399,-23.08269 30.74077,-23.08285 30.74113,-23.08288 30.74158,-23.08298 30.74178,-23.08302 30.74213,-23.08302 30.74246,-23.08311 30.74265,-23.08316 30.74282,-23.08318 30.74302,-23.0832 30.74336,-23.08329 30.7435,-23.08329 30.74353,-23.08328 30.74359,-23.08325 30.74364,-23.08324 30.74367,-23.08324 30.74396,-23.08333 30.74481,-23.08349 30.7452,-23.08372 30.7457,-23.08377 30.74615,-23.08389 30.74651,-23.0839 30.74682,-23.08399 30.747,-23.08399 30.74722,-23.08411 30.74751,-23.08424 30.74765,-23.08427 30.74775,-23.08427 30.74792,-23.08437 30.74802,-23.08439 30.7481,-23.0844 30.74831,-23.0844 30.74837,-23.08442 30.7485,-23.08448 30.74867,-23.08456 30.74887,-23.08461 30.74911,-23.08472 30.74923,-23.08478 30.74932,-23.08475 30.74952,-23.08475 30.74967,-23.0847 30.74986,-23.0847 30.75006,-23.08464 30.75026,-23.08473 30.7506,-23.08486 30.75084,-23.08494 30.75107,-23.085 30.75128,-23.08503 30.75144,-23.08509 30.75192,-23.08522 30.75223,-23.08529 30.75285,-23.08571 30.75301,-23.08582 30.75323,-23.08598 30.75416,-23.08665 30.75433,-23.08678 30.75446,-23.08684 30.75459,-23.08689 30.7555,-23.08712 30.75619,-23.08709 30.75699,-23.08706 30.75858,-23.08677 30.75973,-23.08656 30.76041,-23.08625 30.76147,-23.08619 30.76253,-23.08625 30.76284,-23.08675 30.76265,-23.08756 30.76241,-23.08818 30.76166,-23.08924 30.76135,-23.08986 30.76131,-23.09057 30.76141,-23.09123 30.76166,-23.09191 30.76172,-23.0926 30.76197,-23.09297 30.76234,-23.09341 30.76246,-23.09378 30.76259,-23.09415 30.7629,-23.09443 30.76321,-23.09471 30.76365,-23.09515 30.7639,-23.09533 30.76446,-23.09546 30.76483,-23.09546 30.76576,-23.09496 30.7662,-23.09428 30.76707,-23.09397 30.76825,-23.09334 30.76856,-23.09266 30.76825,-23.0921 30.76816,-23.09193 30.76806,-23.09175 30.76823,-23.09143 30.76837,-23.09117 30.76851,-23.09108 30.76906,-23.09073 30.76964,-23.0907 30.77018,-23.09067 30.77069,-23.09047 30.77075,-23.09046 30.77211,-23.09017 30.77342,-23.08967 30.77466,-23.0893 30.77628,-23.08886 30.77647,-23.08837 30.77631,-23.08763 30.77622,-23.08691 30.7769,-23.08613 30.77768,-23.08602 30.77793,-23.08599 30.77827,-23.08594 30.77877,-23.08594 30.77982,-23.08625 30.78076,-23.087 30.782,-23.08793 30.78245,-23.08822 30.78256,-23.0883 30.78316,-23.08852 30.78374,-23.08874 30.78424,-23.08874 30.78493,-23.08855 30.785,-23.0885 30.78536,-23.08824 30.78586,-23.08756 30.78636,-23.08712 30.78766,-23.08694 30.78799,-23.08716 30.78829,-23.08756 30.78835,-23.08812 30.78866,-23.08886 30.78922,-23.08942 30.78984,-23.08942 30.79046,-23.0893 30.79133,-23.08924 30.79196,-23.08967 30.79277,-23.09005 30.79362,-23.09063 30.79376,-23.09073 30.79419,-23.09114 30.79451,-23.0916 30.79482,-23.09229 30.79507,-23.09285 30.79538,-23.09397 30.79563,-23.0949 30.79556,-23.09577 30.79544,-23.09645 30.79544,-23.09708 30.79569,-23.09758 30.7964,-23.09855 30.79656,-23.09876 30.79673,-23.09889 30.79752,-23.0995 30.79765,-23.0996 30.79768,-23.09963 30.7988,-23.10056 30.7994,-23.10085 30.79992,-23.10111 30.80038,-23.10148 30.80088,-23.10192 30.80136,-23.10235 30.80184,-23.1027 30.80212,-23.10286 30.8023,-23.10297 30.80307,-23.10342 30.80375,-23.10378 30.8046,-23.10442 30.80567,-23.10483 30.80628,-23.10492 30.80634,-23.10489 30.80661,-23.10474 30.8071,-23.10454 30.80731,-23.10446 30.80761,-23.1042 30.80801,-23.10376 30.80827,-23.103 30.80831,-23.10237 30.80855,-23.10193 30.80901,-23.10138 30.8094,-23.10119 30.81038,-23.10125 30.81178,-23.10125 30.81246,-23.10117 30.81287,-23.10104 30.81313,-23.10077 30.81362,-23.10015 30.81412,-23.09932 30.81458,-23.0983 30.81467,-23.09773 30.81508,-23.09719 30.8153,-23.09664 30.81548,-23.0961 30.81565,-23.09577 30.816,-23.09551 30.81689,-23.09503 30.8179,-23.09485 30.81857,-23.0949 30.81892,-23.09518 30.81916,-23.09575 30.81966,-23.09583 30.82086,-23.09568 30.82214,-23.09536 30.82382,-23.09499 30.8257,-23.09458 30.82709,-23.09414 30.82825,-23.09392 30.82908,-23.0939 30.82936,-23.09387 30.82971,-23.09384 30.83009,-23.09372 30.8303,-23.09366 30.8311,-23.0936 30.83167,-23.09379 30.83213,-23.09438 30.83219,-23.09484 30.83203,-23.09553 30.83197,-23.09572 30.83151,-23.09623 30.83125,-23.0966 30.8312,-23.09738 30.83131,-23.09812 30.83144,-23.09906 30.83155,-23.09956 30.83153,-23.10024 30.83201,-23.10157 30.83263,-23.10195 30.83294,-23.10202 30.8337,-23.10232 30.83376,-23.10236 30.83407,-23.10256 30.8347,-23.10289 30.83534,-23.10352 30.83597,-23.10418 30.83627,-23.10472 30.83711,-23.10587 30.83744,-23.10624 30.8384,-23.1068 30.83914,-23.10707 30.84025,-23.10742 30.84053,-23.10757 30.84137,-23.10803 30.84196,-23.10851 30.842,-23.10859 30.84222,-23.10905 30.84184,-23.11028 30.8412,-23.11089 30.84046,-23.11144 30.83989,-23.11185 30.83924,-23.11181 30.83826,-23.11137 30.83726,-23.11098 30.83671,-23.11133 30.83597,-23.11205 30.83518,-23.11308 30.83346,-23.11449 30.83272,-23.11552 30.83239,-23.11602 30.83239,-23.11657 30.83246,-23.11683 30.83259,-23.11728 30.83279,-23.11738 30.83331,-23.11763 30.83401,-23.11787 30.8341,-23.1181 30.83478,-23.11834 30.83508,-23.11847 30.83548,-23.11915 30.83567,-23.11943 30.83618,-23.11991 30.83657,-23.1202 30.83665,-23.12027 30.83678,-23.1204 30.83718,-23.12079 30.83762,-23.12113 30.83805,-23.12155 30.83876,-23.12204 30.83902,-23.12224 30.83965,-23.12267 30.84059,-23.12272 30.84085,-23.12285 30.84149,-23.12337 30.8419,-23.12368 30.84295,-23.12435 30.84361,-23.12458 30.84407,-23.12458 30.84477,-23.12438 30.84488,-23.12431 30.84531,-23.12406 30.84561,-23.12401 30.84584,-23.12397 30.84662,-23.12395 30.84815,-23.12404 30.84876,-23.12373 30.84942,-23.12305 30.84952,-23.12279 30.84952,-23.12233 30.84963,-23.12199 30.84996,-23.12168 30.85048,-23.12122 30.85109,-23.12094 30.85157,-23.12092 30.85219,-23.12108 30.8526,-23.12118 30.85285,-23.12131 30.85355,-23.12169 30.85378,-23.12176 30.85392,-23.1218 30.85462,-23.12237 30.8552,-23.12272 30.85536,-23.12282 30.85552,-23.12281 30.85566,-23.1228 30.8563,-23.12259 30.85686,-23.12248 30.85704,-23.12265 30.85713,-23.12296 30.85715,-23.1233 30.8571,-23.12381 30.85732,-23.12422 30.85818,-23.12548 30.8593,-23.12665 30.85952,-23.12691 30.85954,-23.12693 30.85988,-23.12731 30.86047,-23.12805 30.8608,-23.1284 30.86124,-23.12842 30.8615,-23.12831 30.86185,-23.12801 30.86187,-23.12781 30.86189,-23.12763 30.8622,-23.12719 30.86224,-23.12713 30.86292,-23.12648 30.86342,-23.12637 30.86388,-23.12648 30.86462,-23.12683 30.86521,-23.12707 30.86558,-23.127 30.86623,-23.12674 30.86706,-23.1263 30.86814,-23.12573 30.86886,-23.12529 30.86971,-23.12501 30.87058,-23.1245 30.87139,-23.12418 30.87218,-23.12398 30.87278,-23.12395 30.87294,-23.12394 30.87359,-23.1242 30.87412,-23.12468 30.87436,-23.12501 30.87462,-23.1254 30.87499,-23.12558 30.8751,-23.12564 30.87538,-23.12586 30.87547,-23.12601 30.87553,-23.12638 30.87548,-23.12682 30.87547,-23.1269 30.87528,-23.12742 30.87522,-23.12787 30.87521,-23.12828 30.8752,-23.12869 30.8752,-23.12872 30.87523,-23.12888 30.87528,-23.12912 30.87594,-23.13025 30.87616,-23.13073 30.87655,-23.13104 30.87685,-23.13167 30.87712,-23.13241 30.87717,-23.13338 30.87728,-23.13417 30.87793,-23.13572 30.87789,-23.13602 30.87787,-23.13663 30.87804,-23.13755 30.87809,-23.13779 30.87826,-23.13814 30.87833,-23.13881 30.87852,-23.13936 30.87853,-23.13972 30.87866,-23.14072 30.87873,-23.14131 30.87901,-23.14205 30.8793,-23.14297 30.87951,-23.14345 30.87954,-23.14382 30.87947,-23.14441 30.87945,-23.14478 30.87937,-23.14616 30.87918,-23.14682 30.87907,-23.14728 30.87891,-23.14786 30.87902,-23.14832 30.87909,-23.14885 30.87937,-23.14959 30.87979,-23.15005 30.88027,-23.15055 30.88088,-23.15083 30.88153,-23.15096 30.88212,-23.15096 30.88249,-23.15079 30.88262,-23.15055 30.88262,-23.15002 30.88264,-23.14961 30.8828,-23.14946 30.88315,-23.14924 30.88352,-23.14896 30.8838,-23.1485 30.884,-23.14834 30.88427,-23.14814 30.88521,-23.14783 30.88604,-23.14783 30.88713,-23.14792 30.8892,-23.14803 30.89016,-23.14792 30.89062,-23.1477 30.89107,-23.14716 30.89142,-23.14665 30.89217,-23.14641 30.89234,-23.14635 30.89271,-23.14622 30.89294,-23.14613 30.89302,-23.14609 30.89356,-23.14565 30.89427,-23.14499 30.89501,-23.14429 30.89551,-23.14407 30.89564,-23.14385 30.89588,-23.14355 30.89656,-23.14283 30.89687,-23.14226 30.89687,-23.14171 30.8968,-23.14123 30.89652,-23.1403 30.8963,-23.13942 30.8963,-23.13862 30.89663,-23.13825 30.8975,-23.1377 30.89799,-23.13756 30.89885,-23.13731 30.89932,-23.13724 30.89974,-23.13718 30.90033,-23.13716 30.9011,-23.13735 30.90214,-23.13755 30.9026,-23.13775 30.90279,-23.13784 30.90299,-23.13794 30.90357,-23.13823 30.90434,-23.13871 30.90508,-23.13943 30.9053,-23.13981 30.9053,-23.14024 30.90503,-23.14081 30.90503,-23.14109 30.90514,-23.14148 30.90521,-23.14172 30.90524,-23.14179 30.9053,-23.14194 30.90549,-23.14229 30.90569,-23.14264 30.90606,-23.14308 30.90645,-23.14331 30.90656,-23.14338 30.90672,-23.14349 30.90753,-23.14407 30.90856,-23.14467 30.90884,-23.14483 30.90952,-23.14536 30.91028,-23.14599 30.91076,-23.14642 30.91109,-23.14651 30.91182,-23.14672 30.91273,-23.14709 30.91354,-23.14724 30.91441,-23.14702 30.91498,-23.14668 30.91502,-23.14652 30.91502,-23.1462 30.91509,-23.14567 30.91546,-23.14539 30.91686,-23.14434 30.91851,-23.14314 30.91919,-23.14253 30.91978,-23.14188 30.92037,-23.1412 30.92078,-23.14096 30.92124,-23.14103 30.92211,-23.1414 30.92272,-23.14153 30.92322,-23.14151 30.92388,-23.14111 30.92469,-23.14076 30.92549,-23.14057 30.9257,-23.14054 30.92599,-23.1405 30.92637,-23.14018 30.92695,-23.14007 30.92778,-23.13996 30.92813,-23.13983 30.9285,-23.13965 30.9289,-23.13941 30.92922,-23.13937 30.92958,-23.13944 30.92958,-23.13943 30.92958,-23.13943 30.92984,-23.13998 30.93025,-23.14081 30.931,-23.14233 30.93349,-23.14914 30.93897,-23.16412 30.94078,-23.16896 30.94138,-23.17055 30.94243,-23.17344 30.94416,-23.17819 30.9444,-23.17886 30.94458,-23.17941 30.94703,-23.1771 30.94774,-23.17565 30.94798,-23.17444 30.94742,-23.17381 30.9471,-23.17275 30.94784,-23.17189 30.94772,-23.1708 30.94748,-23.16987 30.94744,-23.16846 30.94728,-23.16718 30.94736,-23.1661 30.94772,-23.16553 30.9486,-23.16505 30.94977,-23.16449 30.95069,-23.16473 30.95193,-23.16485 30.95302,-23.16485 30.95394,-23.16445 30.95515,-23.16429 30.95643,-23.16429 30.95768,-23.16529 30.95872,-23.16606 30.95904,-23.1669 30.95985,-23.16798 30.96121,-23.16919 30.96198,-23.17011 30.96177,-23.17088 30.96125,-23.1716 30.96081,-23.17296 30.96121,-23.17397 30.96278,-23.17401 30.96346,-23.17316 30.96411,-23.17236 30.96491,-23.17212 30.96579,-23.173 30.96688,-23.17413 30.96872,-23.17369 30.97166,-23.17288 30.97346,-23.1722 30.97535,-23.17152 30.97668,-23.1708 30.97905,-23.16999 30.98037,-23.16891 30.98214,-23.16927 30.98475,-23.17003 30.98632,-23.17152 30.98748,-23.17264 30.98865,-23.17385 30.99049,-23.17485 30.99202,-23.17541 30.99415,-23.17469 30.99644,-23.17393 30.99845,-23.17344 30.99989,-23.17357 31.00238,-23.17481 31.00419,-23.17477 31.006,-23.17477 31.00797,-23.17441 31.01005,-23.17344 31.01258,-23.17252 31.01491,-23.17216 31.01676,-23.17244 31.01905,-23.17288 31.02058,-23.17312 31.02122,-23.17409 31.0217,-23.17537 31.02263,-23.17582 31.02379,-23.17634 31.02423,-23.1775 31.02407,-23.17935 31.02343,-23.18112 31.02126,-23.18268 31.02062,-23.18409 31.02118,-23.1855 31.02246,-23.18638 31.02331,-23.18847 31.02375,-23.19011 31.0248,-23.19224 31.02608,-23.19357 31.02849,-23.19445 31.03098,-23.19441 31.0319,-23.19449 31.03411,-23.19602 31.03616,-23.1969 31.03765,-23.19618 31.03897,-23.19433 31.0405,-23.19256 31.04042,-23.19044 31.03986,-23.18843 31.03877,-23.1867 31.03765,-23.18473 31.03696,-23.18252 31.0368,-23.18092 31.03737,-23.18023 31.03926,-23.17959 31.0411,-23.17907 31.04182,-23.1779 31.04243,-23.1769 31.04343,-23.17658 31.0442,-23.1771 31.04552,-23.17806 31.04701,-23.17778 31.04849,-23.17726 31.04982,-23.1765 31.05074,-23.17566 31.05187,-23.17481 31.05291,-23.17505 31.05448,-23.1761 31.055,-23.17706 31.0548,-23.1781 31.05524,-23.17947 31.0562,-23.18176 31.05729,-23.18357 31.0589,-23.1853 31.06094,-23.1863 31.06223,-23.18714 31.06303,-23.18863 31.06255,-23.18971 31.06263,-23.1912 31.06432,-23.1924 31.06721,-23.19437 31.07006,-23.19634 31.07243,-23.19767 31.07452,-23.19867 31.0754,-23.19919 31.07621,-23.20052 31.07689,-23.20253 31.07837,-23.20441 31.07954,-23.20566 31.08067,-23.20743 31.08139,-23.20895 31.08364,-23.20919 31.08589,-23.20979 31.08709,-23.21108 31.08797,-23.21249 31.08926,-23.21208 31.09075,-23.21104 31.09159,-23.20931 31.09292,-23.20755 31.0938,-23.2063 31.09484,-23.20461 31.09456,-23.20329 31.0936,-23.20164 31.09368,-23.19923 31.09388,-23.19823 31.0948,-23.19726 31.09605,-23.1963 31.09733,-23.19614 31.09878,-23.1963 31.10023,-23.19642 31.10175,-23.19654 31.10296,-23.19598 31.10352,-23.19481 31.10372,-23.19361 31.10396,-23.19224 31.10489,-23.19112 31.10589,-23.1906 31.10713,-23.19016 31.1079,-23.18951 31.10766,-23.18823 31.10782,-23.18734 31.1081,-23.18674 31.10838,-23.18554 31.10862,-23.18413 31.10914,-23.18325 31.10987,-23.18232 31.11063,-23.18184 31.11195,-23.18164 31.11284,-23.1814 31.1138,-23.18096 31.11513,-23.18003 31.11605,-23.17907 31.11754,-23.17762 31.11838,-23.17646 31.11922,-23.17566 31.12003,-23.17417 31.12067,-23.17336 31.12228,-23.17212 31.12352,-23.1714 31.12469,-23.17075 31.12621,-23.17047 31.12702,-23.17168 31.1277,-23.17264 31.12866,-23.17348 31.13019,-23.17437 31.13079,-23.17541 31.13055,-23.17634 31.12926,-23.17778 31.12902,-23.17959 31.13039,-23.1808 31.13228,-23.182 31.13453,-23.18252 31.13565,-23.18256 31.13722,-23.18252 31.13842,-23.18184 31.14023,-23.18072 31.1418,-23.17987 31.14264,-23.17871 31.14368,-23.17814 31.14505,-23.17839 31.14598,-23.17955 31.14565,-23.1806 31.14581,-23.18168 31.14618,-23.1824 31.1473,-23.18232 31.1483,-23.18264 31.14911,-23.18325 31.14907,-23.18401 31.1475,-23.18513 31.14626,-23.1867 31.14581,-23.18827 31.1461,-23.19011 31.14682,-23.1916 31.14782,-23.19244 31.14911,-23.19228 31.15047,-23.19007 31.15124,-23.18927 31.15276,-23.18891 31.15477,-23.18839 31.15666,-23.18807 31.15847,-23.18815 31.16043,-23.18875 31.16276,-23.18975 31.16457,-23.19104 31.16602,-23.19232 31.16694,-23.19321 31.16754,-23.19473 31.16654,-23.19654 31.16457,-23.19859 31.16333,-23.20068 31.16296,-23.20156 31.16264,-23.20297 31.16252,-23.20457 31.16284,-23.20614 31.16381,-23.20731 31.16545,-23.20759 31.1675,-23.20658 31.16907,-23.20566 31.17128,-23.20526 31.17357,-23.20481 31.1757,-23.20417 31.17763,-23.20389 31.17875,-23.20437 31.18019,-23.2057 31.182,-23.2061 31.18546,-23.20718 31.18795,-23.20787 31.1912,-23.20819 31.19409,-23.20851 31.19562,-23.20867 31.19795,-23.20899 31.19935,-23.21036 31.20052,-23.21225 31.20221,-23.21393 31.20313,-23.21502 31.20445,-23.21727 31.20566,-23.21871 31.20695,-23.21959 31.20911,-23.22036 31.2114,-23.22056 31.21349,-23.22056 31.21578,-23.22004 31.21695,-23.21935 31.21823,-23.21703 31.21912,-23.21622 31.22052,-23.2157 31.22181,-23.2157 31.22305,-23.21646 31.22446,-23.21763 31.22554,-23.21678 31.22735,-23.2153 31.22884,-23.21349 31.2306,-23.21112 31.23261,-23.20911 31.23434,-23.20767 31.23562,-23.20662 31.23711,-23.20618 31.23912,-23.20614 31.24213,-23.2065 31.24587,-23.20686 31.24888,-23.20642 31.25169,-23.20582 31.25522,-23.20473 31.25739,-23.20373 31.2588,-23.20164 31.25972,-23.19935 31.25964,-23.19758 31.25884,-23.19662 31.25764,-23.19558 31.25751,-23.19441 31.25856,-23.19309 31.2594,-23.1922 31.26028,-23.19092 31.26041,-23.18927 31.26069,-23.18803 31.26149,-23.18754 31.26274,-23.18762 31.2637,-23.1879 31.26515,-23.18758 31.26727,-23.1877 31.26936,-23.18754 31.27141,-23.18758 31.27442,-23.1875 31.27683,-23.18718 31.27888,-23.18662 31.28045,-23.1861 31.28226,-23.18521 31.28394,-23.18405 31.28547,-23.183 31.28728,-23.18252 31.28908,-23.18208 31.29121,-23.18124 31.29314,-23.18048 31.29463,-23.17963 31.29515,-23.17847 31.29479,-23.17646 31.29511,-23.17465 31.29563,-23.17316 31.29679,-23.17228 31.2982,-23.17196 31.29929,-23.17196 31.30085,-23.17252 31.30178,-23.17324 31.30294,-23.17377 31.30487,-23.17304 31.30704,-23.17196 31.30861,-23.17092 31.31045,-23.16995 31.31182,-23.16955 31.31339,-23.16975 31.31435,-23.17047 31.31519,-23.17164 31.31628,-23.1724 31.31828,-23.17252 31.32138,-23.17288 31.32258,-23.17344 31.32451,-23.17437 31.3262,-23.17441 31.32804,-23.17316 31.32893,-23.1714 31.33013,-23.16919 31.33138,-23.16826 31.33254,-23.16734 31.33423,-23.1669 31.33636,-23.16738 31.33736,-23.16638 31.33929,-23.16521 31.34082,-23.16457 31.34266,-23.16417 31.34407,-23.16324 31.3458,-23.16212 31.34688,-23.16047 31.34688,-23.1579 31.34704,-23.15533 31.34732,-23.15372 31.34853,-23.15192 31.34941,-23.15067 31.35106,-23.14975 31.35238,-23.14854 31.35323,-23.14722 31.35379,-23.14641 31.35488,-23.14489 31.35504,-23.14352 31.35576,-23.14232 31.3572,-23.14196 31.35986,-23.14163 31.36287,-23.14147 31.36476,-23.14183 31.36632,-23.14155 31.36801,-23.14043 31.36942,-23.13955 31.3709,-23.13894 31.37331,-23.1387 31.37488,-23.13834 31.3756,-23.13742 31.3764,-23.13573 31.376,-23.13408 31.3762,-23.1322 31.37697,-23.13119 31.37781,-23.12922 31.37841,-23.12717 31.37914,-23.12533 31.37934,-23.1236 31.37893,-23.12159 31.37805,-23.12043 31.37588,-23.11999 31.3746,-23.11818 31.3746,-23.11637 31.37556,-23.11444 31.37652,-23.11255 31.37689,-23.11059 31.37664,-23.10874 31.37668,-23.10725 31.37761,-23.10653 31.37966,-23.10633 31.38118,-23.10685 31.38251,-23.10689 31.38367,-23.10605 31.3846,-23.1044 31.38456,-23.10316 31.38444,-23.10179 31.38387,-23.10002 31.38387,-23.09818 31.38408,-23.09705 31.38512,-23.09593 31.38649,-23.09528 31.38761,-23.0952 31.39187,-23.09589 31.39528,-23.09629 31.39697,-23.09625 31.39861,-23.09597 31.40082,-23.09605 31.40203,-23.09637 31.40424,-23.09705 31.40573,-23.09677 31.40745,-23.09552 31.40914,-23.09348 31.41095,-23.09207 31.41187,-23.09111 31.41424,-23.09157 31.41815,-23.09295 31.42018,-23.0952 31.42185,-23.09571 31.42403,-23.09679 31.42613,-23.09839 31.42794,-23.10071 31.42874,-23.10303 31.42983,-23.10462 31.43113,-23.10578 31.43345,-23.1068 31.43628,-23.10723 31.43911,-23.10767 31.44157,-23.10803 31.44418,-23.10839 31.44628,-23.10825 31.44824,-23.10897 31.44976,-23.11006 31.45114,-23.11064 31.45353,-23.11129 31.45513,-23.11195 31.45629,-23.11275 31.45716,-23.11419 31.45709,-23.11593 31.45614,-23.11891 31.45564,-23.12166 31.45527,-23.12391 31.45477,-23.12572 31.45397,-23.12768 31.45339,-23.12884 31.45259,-23.13036 31.45237,-23.13232 31.45339,-23.13486 31.45506,-23.13747 31.45622,-23.13935 31.45832,-23.14182 31.45991,-23.14312 31.4618,-23.14356 31.46419,-23.1429 31.46637,-23.14283 31.46876,-23.14276 31.47086,-23.14327 31.47282,-23.14414 31.47441,-23.14479 31.47565,-23.14639 31.47666,-23.14928 31.47659,-23.15161 31.47659,-23.15342 31.47847,-23.1545 31.48195,-23.15537 31.48493,-23.15624 31.48768,-23.15719 31.49065,-23.15784 31.49442,-23.15762 31.49711,-23.1577 31.49907,-23.15813 31.5008,-23.15915 31.50182,-23.16052 31.50262,-23.16262 31.50254,-23.16466 31.50283,-23.16676 31.50421,-23.16828 31.50653,-23.16929 31.50921,-23.17053 31.51161,-23.17278 31.51393,-23.17509 31.51574,-23.17713 31.51726,-23.1793 31.52009,-23.18147 31.52321,-23.18329 31.52654,-23.1843 31.52951,-23.18532 31.53213,-23.18655 31.53437,-23.18756 31.5372,-23.1901 31.53894,-23.19293 31.54061,-23.19685 31.54148,-23.19924 31.5414,-23.20359 31.54191,-23.20743 31.54235,-23.21084 31.54489,-23.21345 31.54786,-23.21541 31.55351,-23.22012 31.55649,-23.22222 31.56142,-23.22428 31.5612,-23.22693 31.55935,-23.22551 31.55668,-23.22338 31.55488,-23.22238 31.55155,-23.22158 31.54842,-23.22131 31.54495,-23.22071 31.54128,-23.21984 31.53908,-23.21898 31.53675,-23.21945 31.53375,-23.22045 31.53062,-23.21984 31.52795,-23.21891 31.52608,-23.21665 31.52402,-23.21518 31.52222,-23.21525 31.51982,-23.21578 31.51822,-23.21691 31.51615,-23.21858 31.51555,-23.22085 31.51269,-23.22245 31.51055,-23.22358 31.50735,-23.22445 31.50715,-23.22658 31.50669,-23.22951 31.50515,-23.23331 31.50335,-23.23591 31.50062,-23.23791 31.49735,-23.24005 31.49595,-23.24244 31.49389,-23.24565 31.49282,-23.24904 31.49102,-23.25151 31.48729,-23.25184 31.48422,-23.25198 31.48142,-23.25171 31.47835,-23.25338 31.47622,-23.25364 31.47408,-23.25258 31.47075,-23.25231 31.46829,-23.25238 31.46635,-23.25358 31.46469,-23.25458 31.46282,-23.25578 31.46129,-23.25705 31.45849,-23.25758 31.45802,-23.25904 31.45729,-23.26171 31.45575,-23.26304 31.45335,-23.26331 31.45029,-23.26211 31.44742,-23.26071 31.44442,-23.26018 31.44209,-23.26038 31.44055,-23.26211 31.44022,-23.26411 31.44122,-23.26665 31.43955,-23.26898 31.43642,-23.27318 31.43409,-23.27411 31.43095,-23.27464 31.42975,-23.27658 31.42815,-23.27838 31.42495,-23.27964 31.42222,-23.27931 31.41795,-23.27758 31.41475,-23.27871 31.41309,-23.27971 31.40955,-23.28104 31.40535,-23.28191 31.40195,-23.28238 31.39822,-23.28218 31.39275,-23.28358 31.38829,-23.28264 31.38502,-23.28065 31.38202,-23.27711 31.38002,-23.27638 31.37815,-23.27678 31.37589,-23.27791 31.37269,-23.28031 31.36902,-23.28404 31.36682,-23.28704 31.36355,-23.29124 31.35922,-23.29391 31.35322,-23.29664 31.34929,-23.29798 31.34429,-23.29878 31.33916,-23.29918 31.33342,-23.29958 31.33035,-23.30071 31.32749,-23.30138 31.32182,-23.30158 31.31796,-23.30098 31.31796,-23.30564 31.31856,-23.30838 31.31942,-23.31291 31.31996,-23.31551 31.32096,-23.31958 31.32142,-23.32271 31.32215,-23.32558 31.32271,-23.32752 31.3234,-23.33162 31.3233,-23.33465 31.32315,-23.33752 31.32222,-23.34089 31.32058,-23.34455 31.31914,-23.34813 31.31921,-23.35056 31.319,-23.35329 31.31907,-23.3563 31.3195,-23.36053 31.31964,-23.36267 31.31993,-23.36554 31.31986,-23.36726 31.31928,-23.36762 31.31838,-23.3681 31.31821,-23.36819 31.31797,-23.36827 31.31606,-23.36891 31.31477,-23.36941 31.31248,-23.36955 31.31104,-23.36955 31.31026,-23.37041 31.3089,-23.37163 31.30753,-23.37278 31.30639,-23.37371 31.30613,-23.37418 31.30589,-23.37464 31.3053,-23.37508 31.30474,-23.3755 31.30345,-23.37665 31.30194,-23.37808 31.30166,-23.37894 31.3016,-23.37927 31.30144,-23.38016 31.30105,-23.38071 31.30058,-23.38138 31.29972,-23.3826 31.29707,-23.38109 31.29428,-23.37844 31.29234,-23.37486 31.29084,-23.37027 31.28611,-23.36705 31.28267,-23.36805 31.27822,-23.36669 31.274,-23.3621 31.26905,-23.35752 31.26511,-23.35522 31.26067,-23.35415 31.25594,-23.35537 31.25085,-23.35372 31.24476,-23.34863 31.24096,-23.34275 31.23831,-23.34003 31.23394,-23.33781 31.22835,-23.33659 31.22426,-23.33645 31.22018,-23.33659 31.21709,-23.33697 31.21709,-23.33879 31.21745,-23.34069 31.21774,-23.34324 31.21774,-23.34441 31.21745,-23.34579 31.21723,-23.34688 31.21686,-23.34844 31.17354,-23.35019 31.17306,-23.35178 31.17249,-23.35368 31.17147,-23.3565 31.17109,-23.35854 31.17065,-23.36172 31.17028,-23.3643 31.16947,-23.36631 31.16825,-23.36858 31.16648,-23.37184 31.16628,-23.37374 31.16655,-23.37574 31.16617,-23.37811 31.16567,-23.37988 31.16332,-23.38144 31.16132,-23.3829 31.16027,-23.38463 31.15891,-23.38612 31.15684,-23.38555 31.15426,-23.38531 31.15318,-23.38656 31.15236,-23.38863 31.15223,-23.39135 31.1523,-23.39498 31.15301,-23.39654 31.15325,-23.39848 31.15359,-23.39973 31.15491,-23.40095 31.15688,-23.40187 31.15745,-23.40265 31.15722,-23.40397 31.15722,-23.40574 31.15817,-23.40737 31.15881,-23.40872 31.15929,-23.41062 31.15898,-23.41205 31.15851,-23.41436 31.15779,-23.41548 31.15806,-23.41687 31.1583,-23.41829 31.15837,-23.41934 31.15908,-23.4205 31.16017,-23.42158 31.16034,-23.42253 31.16,-23.42359 31.15966,-23.42474 31.15925,-23.42684 31.15898,-23.42881 31.15874,-23.43075 31.1581,-23.43251 31.15681,-23.43383 31.15562,-23.43495 31.15562,-23.43607 31.15674,-23.43767 31.15715,-23.43896 31.15705,-23.44008 31.1565,-23.44089 31.15549,-23.44184 31.15382,-23.44367 31.15369,-23.44476 31.15386,-23.44608 31.15447,-23.44697 31.15521,-23.44758 31.15647,-23.44876 31.15686,-23.4501 31.15688,-23.45016 31.15674,-23.45127 31.15606,-23.45297 31.15491,-23.45433 31.15382,-23.4545 31.1525,-23.45525 31.15172,-23.45623 31.15121,-23.45755 31.15118,-23.45894 31.1507,-23.46023 31.15012,-23.46118 31.1506,-23.4623 31.15138,-23.46332 31.15124,-23.46478 31.15165,-23.46716 31.15155,-23.46899 31.15128,-23.47051 31.15138,-23.47228 31.15121,-23.47432 31.14999,-23.47567 31.14999,-23.477 31.15006,-23.47825 31.15131,-23.47964 31.15114,-23.481 31.15033,-23.48212 31.14866,-23.48283 31.14731,-23.48321 31.14666,-23.48395 31.14571,-23.48568 31.14527,-23.48752 31.14534,-23.48874 31.14595,-23.49013 31.14609,-23.49138 31.14666,-23.49318 31.14704,-23.4942 31.14809,-23.49583 31.14883,-23.49634 31.14989,-23.49688 31.1505,-23.49807 31.15074,-23.49929 31.15138,-23.50082 31.15162,-23.50211 31.15118,-23.50312 31.15043,-23.50441 31.15091,-23.50503 31.15152,-23.50557 31.15264,-23.50618 31.15284,-23.5071 31.15257,-23.50815 31.15192,-23.5091 31.15169,-23.50974 31.15141,-23.51062 31.1507,-23.51205 31.15019,-23.51371 31.14948,-23.5148 31.14846,-23.51602 31.14717,-23.5167 31.14639,-23.51755 31.14609,-23.51856 31.14683,-23.52013 31.14839,-23.52172 31.14921,-23.52318 31.14914,-23.52396 31.14836,-23.52406 31.1469,-23.52413 31.14612,-23.52474 31.14531,-23.52583 31.1452,-23.52701 31.14402,-23.53031 31.14337,-23.53187 31.14191,-23.53261 31.14045,-23.53288 31.13971,-23.53261 31.13893,-23.53166 31.13835,-23.53166 31.13709,-23.5316 31.13496,-23.53176 31.13452,-23.53214 31.13326,-23.53305 31.13248,-23.53363 31.13146,-23.53489 31.13017,-23.53607 31.12888,-23.5377 31.12854,-23.53893 31.12881,-23.54001 31.12963,-23.54076 31.13088,-23.54205 31.13075,-23.54337 31.13044,-23.54486 31.12956,-23.54534 31.12848,-23.54496 31.12783,-23.54344 31.12647,-23.5433 31.12505,-23.54313 31.12352,-23.54354 31.12213,-23.54425 31.12091,-23.54513 31.12064,-23.54636 31.12213,-23.54727 31.12277,-23.549 31.12325,-23.55063 31.12454,-23.55246 31.12559,-23.55324 31.12647,-23.55423 31.12698,-23.55572 31.12753,-23.55803 31.12817,-23.55966 31.12888,-23.56156 31.12922,-23.56366 31.12854,-23.56512 31.12739,-23.56614 31.12624,-23.56688 31.12542,-23.56763 31.12355,-23.56732 31.12369,-23.56765 31.12372,-23.56773 31.12383,-23.56784 31.12465,-23.5687 31.12484,-23.56907 31.1253,-23.5714 31.12521,-23.5728 31.12427,-23.57597 31.1232,-23.57928 31.12303,-23.5805 31.12131,-23.58242 31.12057,-23.58291 31.11858,-23.58423 31.11749,-23.58469 31.11648,-23.58511 31.11446,-23.58541 31.11278,-23.58589 31.11213,-23.58608 31.11117,-23.58623 31.10951,-23.58648 31.10766,-23.58664 31.10652,-23.58674 31.10361,-23.58763 31.10326,-23.58774 31.10301,-23.58785 31.10114,-23.58867 31.10015,-23.5902 31.10015,-23.5915 31.10002,-23.59306 31.10067,-23.59579 31.10079,-23.59622 31.10098,-23.59695 31.1016,-23.59779 31.10203,-23.59836 31.1043,-23.6015 31.10975,-23.60656 31.11153,-23.60842 31.11261,-23.60955 31.11276,-23.61014 31.11307,-23.61141 31.11307,-23.61143 31.11308,-23.61146 31.1135,-23.61187 31.11372,-23.61208 31.11465,-23.61357 31.11499,-23.61412 31.11499,-23.61412 31.11499,-23.61412 31.11585,-23.61604 31.11737,-23.61943 31.1191,-23.62123 31.11992,-23.62254 31.1205,-23.62328 31.12097,-23.62387 31.12155,-23.62477 31.12187,-23.62526 31.12288,-23.62689 31.1246,-23.62847 31.1246,-23.62847 31.1246,-23.62847 31.12503,-23.62894 31.12667,-23.63075 31.13013,-23.63382 31.13143,-23.63496 31.13325,-23.63655 31.1346,-23.63767 31.13579,-23.63897 31.13629,-23.63951 31.1375,-23.64117 31.13869,-23.64246 31.14094,-23.64488 31.14463,-23.64841 31.14463,-23.64841 31.14463,-23.64841 31.14454,-23.64868 31.14448,-23.64885 31.14361,-23.64902 31.14265,-23.6492 31.14165,-23.64934 31.14006,-23.6497 31.1383,-23.64999 31.137,-23.65026 31.13587,-23.65068 31.13476,-23.651 31.13407,-23.65127 31.13319,-23.65137 31.13202,-23.65167 31.13072,-23.65209 31.12963,-23.65234 31.12854,-23.65248 31.12781,-23.65259 31.12714,-23.65269 31.12603,-23.65286 31.1246,-23.65292 31.12374,-23.65296 31.12297,-23.65288 31.12224,-23.65305 31.12131,-23.65305 31.12056,-23.65301 31.11966,-23.65315 31.11886,-23.65324 31.11817,-23.65313 31.11704,-23.65313 31.11627,-23.65345 31.11539,-23.65384 31.1148,-23.65441 31.1144,-23.65514 31.11422,-23.65615 31.11424,-23.65659 31.11461,-23.65751 31.11472,-23.65822 31.11489,-23.65912 31.11484,-23.65996 31.11497,-23.66099 31.11495,-23.66182 31.11491,-23.66312 31.11478,-23.66421 31.11453,-23.66494 31.11417,-23.66587 31.11411,-23.66639 31.11419,-23.66754 31.11405,-23.66842 31.11369,-23.66913 31.11321,-23.66987 31.1129,-23.67028 31.1125,-23.67054 31.11202,-23.67083 31.11143,-23.67135 31.11093,-23.67177 31.10975,-23.67319 31.1095,-23.67372 31.10902,-23.67439 31.10829,-23.67491 31.10785,-23.67541 31.1073,-23.67594 31.10586,-23.6764 31.10441,-23.6769 31.10272,-23.67734 31.10159,-23.67761 31.10052,-23.6778 31.10008,-23.67772 31.09951,-23.67759 31.09868,-23.67699 31.09771,-23.67608 31.09629,-23.67479 31.09518,-23.67366 31.0944,-23.67265 31.09392,-23.67183 31.0935,-23.67095 31.09321,-23.67043 31.09237,-23.66991 31.09177,-23.66934 31.0912,-23.66869 31.09047,-23.66848 31.08996,-23.66846 31.08929,-23.66834 31.08896,-23.66781 31.08871,-23.66718 31.08841,-23.66639 31.08812,-23.66543 31.08781,-23.66419 31.08756,-23.66362 31.08712,-23.66239 31.08697,-23.66191 31.08693,-23.66128 31.08703,-23.66055 31.08705,-23.65985 31.08695,-23.65925 31.08684,-23.65868 31.08661,-23.6581 31.08622,-23.65747 31.08607,-23.65678 31.08599,-23.65619 31.08559,-23.65571 31.0855,-23.65552 31.0854,-23.65498 31.08521,-23.65443 31.08513,-23.6541 31.08488,-23.65361 31.08477,-23.65315 31.08454,-23.65248 31.0841,-23.65173 31.08374,-23.65112 31.08326,-23.65049 31.08259,-23.64974 31.08209,-23.64892 31.08169,-23.64823 31.08117,-23.64798 31.08075,-23.64775 31.08046,-23.64754 31.0801,-23.64716 31.07924,-23.64664 31.0788,-23.64645 31.07861,-23.64626 31.0783,-23.64603 31.07782,-23.64603 31.07685,-23.64605 31.07618,-23.64605 31.0757,-23.64589 31.07526,-23.64578 31.07497,-23.64561 31.07453,-23.64555 31.07376,-23.64578 31.07248,-23.64587 31.0708,-23.64582 31.06766,-23.64597 31.06632,-23.64618 31.06335,-23.64643 31.06081,-23.64647 31.05931,-23.64647 31.05809,-23.64633 31.05688,-23.64601 31.0548,-23.6452 31.0538,-23.64476 31.05254,-23.64417 31.05032,-23.64272 31.04959,-23.64239 31.0485,-23.64226 31.04739,-23.64243 31.04682,-23.64289 31.04647,-23.64339 31.04617,-23.64402 31.0459,-23.64469 31.0454,-23.6466 31.04534,-23.64742 31.04563,-23.64878 31.04576,-23.6493 31.04588,-23.64982 31.0463,-23.65056 31.04739,-23.65244 31.04764,-23.65315 31.04806,-23.65389 31.0489,-23.65504 31.04948,-23.65629 31.04959,-23.65724 31.04965,-23.65889 31.04953,-23.65985 31.04927,-23.66065 31.04873,-23.66163 31.04728,-23.66375 31.04586,-23.66522 31.04455,-23.66659 31.04444,-23.66667 31.0438,-23.66716 31.04327,-23.66756 31.04255,-23.66795 31.04186,-23.66825 31.04115,-23.66849 31.04043,-23.66863 31.03979,-23.66869 31.03971,-23.6687 31.0388,-23.66876 31.03808,-23.66873 31.03763,-23.66865 31.03706,-23.66846 31.0368,-23.66838 31.03587,-23.66803 31.03472,-23.66764 31.03386,-23.66745 31.03322,-23.66726 31.03262,-23.66705 31.0318,-23.66694 31.03104,-23.6667 31.03041,-23.66656 31.02994,-23.66642 31.02934,-23.6663 31.02874,-23.66624 31.02804,-23.66624 31.02735,-23.66632 31.02727,-23.66633 31.02648,-23.66643 31.02564,-23.66661 31.02499,-23.66681 31.02455,-23.66695 31.02406,-23.66722 31.02367,-23.6674 31.02325,-23.66766 31.02286,-23.66785 31.02236,-23.66812 31.02208,-23.66826 31.02167,-23.66847 31.02125,-23.66863 31.02098,-23.66875 31.02059,-23.66893 31.0202,-23.6691 31.01988,-23.66928 31.01931,-23.66966 31.0187,-23.67011 31.01821,-23.67036 31.01762,-23.67063 31.01687,-23.67097 31.01632,-23.6712 31.01582,-23.67149 31.01518,-23.67184 31.01454,-23.67234 31.01408,-23.67265 31.01362,-23.67305 31.01324,-23.67337 31.01277,-23.67376 31.01261,-23.67389 31.01215,-23.6742 31.01184,-23.67441 31.01126,-23.67466 31.01086,-23.67485 31.01042,-23.67496 31.00997,-23.67516 31.00949,-23.67554 31.00889,-23.67597 31.00835,-23.67619 31.00799,-23.6762 31.00727,-23.67614 31.00679,-23.67596 31.00645,-23.67591 31.00615,-23.6758 31.00579,-23.67576 31.00532,-23.67566 31.00494,-23.67562 31.00454,-23.67569 31.00424,-23.67577 31.00386,-23.67586 31.00361,-23.67587 31.00345,-23.67583 31.00335,-23.67574 31.00324,-23.67566 31.00334,-23.67567 31.00332,-23.67565 31.00318,-23.67555 31.00251,-23.67534 31.00215,-23.67541 31.00188,-23.67537 31.00159,-23.67549 31.00113,-23.67574 31.00078,-23.67575 31.00031,-23.67559 31.00014,-23.67546 30.99989,-23.67538 30.99958,-23.67522 30.99913,-23.67504 30.99856,-23.67479 30.9979,-23.67447 30.99725,-23.67416 30.99658,-23.6739 30.99611,-23.67338 30.99542,-23.67302 30.99471,-23.67255 30.99379,-23.67198 30.99333,-23.67188 30.99275,-23.67155 30.99224,-23.67127 30.992,-23.6712 30.99145,-23.67105 30.99096,-23.67105 30.99055,-23.671 30.99016,-23.67087 30.98957,-23.67048 30.98912,-23.6704 30.98803,-23.6702 30.98699,-23.67017 30.98603,-23.6701 30.98502,-23.66991 30.98437,-23.66979 30.98354,-23.66969 30.98295,-23.66958 30.98223,-23.66943 30.98155,-23.66924 30.98081,-23.66905 30.98012,-23.66884 30.97973,-23.6688 30.97971,-23.66879 30.97924,-23.6687 30.97887,-23.66855 30.9786,-23.66844 30.97802,-23.66797 30.97753,-23.66766 30.97703,-23.66735 30.97658,-23.66707 30.97592,-23.66674 30.97559,-23.66663 30.97496,-23.66634 30.9744,-23.66607 30.97418,-23.66563 30.9737,-23.66535 30.97331,-23.66517 30.97266,-23.66513 30.97231,-23.66511 30.97182,-23.66499 30.97137,-23.66487 30.97095,-23.66502 30.97028,-23.66521 30.97008,-23.66526 30.96956,-23.66552 30.96915,-23.66573 30.96873,-23.66577 30.96805,-23.66615 30.96751,-23.66646 30.96689,-23.66694 30.96645,-23.66735 30.96623,-23.66775 30.96609,-23.66803 30.96579,-23.66931 30.96573,-23.66974 30.96569,-23.6702 30.96566,-23.67079 30.96575,-23.67158 30.96597,-23.67236 30.96623,-23.6731 30.96652,-23.67368 30.9668,-23.67431 30.96693,-23.67489 30.96706,-23.67543 30.96724,-23.67623 30.96735,-23.6766 30.96744,-23.67736 30.96742,-23.67822 30.96739,-23.67852 30.96729,-23.67918 30.96709,-23.67975 30.96681,-23.68055 30.96671,-23.68094 30.96657,-23.6813 30.96636,-23.68176 30.96608,-23.68237 30.96569,-23.68298 30.96512,-23.68333 30.96425,-23.68365 30.96309,-23.68404 30.96149,-23.68418 30.96117,-23.68426 30.96014,-23.68436 30.95916,-23.68446 30.95811,-23.68425 30.9568,-23.68405 30.9564,-23.68407 30.95562,-23.68392 30.95417,-23.68356 30.95319,-23.68313 30.95224,-23.68254 30.95094,-23.68169 30.94955,-23.68088 30.94906,-23.68069 30.94809,-23.68018 30.94656,-23.67957 30.94601,-23.67932 30.94553,-23.67911 30.94437,-23.67871 30.94346,-23.6785 30.9427,-23.67818 30.94216,-23.67775 30.94166,-23.6775 30.94101,-23.67754 30.94043,-23.67774 30.93957,-23.67821 30.93897,-23.67863 30.93857,-23.67889 30.93803,-23.67914 30.93744,-23.67944 30.93648,-23.68002 30.93624,-23.68029 30.93602,-23.68069 30.93593,-23.68104 30.93595,-23.68138 30.93589,-23.68185 30.9358,-23.68238 30.93549,-23.68264 30.93497,-23.68278 30.93419,-23.68303 30.9336,-23.68309 30.93311,-23.6833 30.93267,-23.68352 30.9322,-23.68369 30.9313,-23.68351 30.93096,-23.68333 30.93041,-23.6832 30.92993,-23.68299 30.92939,-23.68264 30.92887,-23.68242 30.9282,-23.68198 30.92755,-23.68158 30.92681,-23.68104 30.92595,-23.68044 30.92538,-23.67999 30.92466,-23.67945 30.92341,-23.67854 30.9226,-23.67792 30.92225,-23.67747 30.92196,-23.67715 30.92165,-23.67698 30.92162,-23.67696 30.92118,-23.67661 30.92088,-23.67645 30.92034,-23.6763 30.91964,-23.67606 30.91935,-23.67606 30.91899,-23.67602 30.91877,-23.67588 30.91851,-23.67576 30.91819,-23.67578 30.9177,-23.67585 30.91724,-23.6758 30.91661,-23.67589 30.91614,-23.67599 30.91588,-23.67598 30.91554,-23.67584 30.91524,-23.67578 30.91494,-23.67582 30.91382,-23.67642 30.91345,-23.67659 30.91305,-23.67692 30.91279,-23.6773 30.91263,-23.67754 30.91227,-23.67784 30.91206,-23.67819 30.91181,-23.67846 30.91148,-23.6788 30.91102,-23.67908 30.91061,-23.67926 30.91025,-23.67952 30.90986,-23.67992 30.90964,-23.68032 30.90919,-23.68078 30.90888,-23.68105 30.90848,-23.68138 30.9081,-23.68165 30.90754,-23.68191 30.90722,-23.68203 30.90636,-23.68204 30.906,-23.6818 30.90537,-23.68121 30.90475,-23.68058 30.90409,-23.68017 30.90397,-23.68005 30.9031,-23.6792 30.90204,-23.67796 30.90133,-23.67739 30.90083,-23.67701 30.90052,-23.67678 30.89993,-23.6768 30.89927,-23.67686 30.89816,-23.67685 30.89765,-23.67697 30.89725,-23.67686 30.89698,-23.67669 30.89661,-23.67673 30.89616,-23.67673 30.89542,-23.67692 30.89457,-23.67727 30.89384,-23.67754 30.89309,-23.67763 30.89258,-23.67748 30.89227,-23.6773 30.89209,-23.6768 30.8922,-23.67622 30.89256,-23.67555 30.89281,-23.67512 30.89289,-23.67481 30.89284,-23.6746 30.89275,-23.67436 30.89271,-23.67411 30.89276,-23.67393 30.89284,-23.67374 30.89296,-23.67357 30.89285,-23.67342 30.89258,-23.67317 30.89193,-23.67304 30.89098,-23.67295 30.89001,-23.67277 30.88968,-23.67277 30.88935,-23.67275 30.8889,-23.67266 30.88848,-23.67283 30.88816,-23.67302 30.88766,-23.67316 30.88695,-23.67352 30.88644,-23.6739 30.8861,-23.67424 30.88561,-23.67454 30.8847,-23.67503 30.88428,-23.67527 30.88357,-23.67555 30.88304,-23.67585 30.8826,-23.67609 30.88185,-23.67614 30.88093,-23.67649 30.87969,-23.67693 30.87877,-23.67719 30.87801,-23.67743 30.87689,-23.6779 30.87587,-23.67848 30.8755,-23.67897 30.87505,-23.67952 30.87446,-23.68028 30.87393,-23.68109 30.87367,-23.68162 30.87318,-23.68241 30.87254,-23.68348 30.8716,-23.68469 30.87058,-23.68572 30.87013,-23.68619 30.86953,-23.68677 30.86898,-23.68722 30.86814,-23.68751 30.86752,-23.68744 30.86525,-23.68793 30.86448,-23.68798 30.86299,-23.68811 30.86183,-23.68818 30.86067,-23.68827 30.85985,-23.68842 30.85901,-23.68847 30.85776,-23.68866 30.85661,-23.68881 30.85557,-23.68909 30.85473,-23.68931 30.85329,-23.68962 30.85131,-23.69003 30.84985,-23.69037 30.84898,-23.69064 30.84793,-23.69076 30.84708,-23.69086 30.84648,-23.69087 30.84569,-23.69083 30.84448,-23.69075 30.84318,-23.69074 30.84206,-23.69045 30.84122,-23.69012 30.8394,-23.68929 30.8387,-23.68888 30.83743,-23.68821 30.83629,-23.68764 30.83535,-23.68731 30.83412,-23.68684 30.83282,-23.68638 30.83133,-23.68588 30.83031,-23.68574 30.82915,-23.68556 30.82824,-23.68531 30.82714,-23.68505 30.82632,-23.68468 30.82524,-23.68449 30.82388,-23.68436 30.82274,-23.68429 30.822,-23.68414 30.82141,-23.68408 30.82015,-23.6842 30.81889,-23.68416 30.81855,-23.68428 30.8181,-23.68443 30.81732,-23.6851 30.81639,-23.68609 30.81581,-23.68696 30.81548,-23.68732 30.81502,-23.68801 30.81459,-23.68867 30.81375,-23.68974 30.81305,-23.69055 30.8117,-23.69153 30.81114,-23.69178 30.81054,-23.6922 30.81002,-23.69238 30.80893,-23.69236 30.8083,-23.69261 30.80751,-23.69275 30.80705,-23.69274 30.80635,-23.69295 30.8052,-23.69299 30.80437,-23.69298 30.80363,-23.69288 30.8023,-23.69266 30.80027,-23.69232 30.79932,-23.69211 30.79814,-23.69204 30.79719,-23.6918 30.79558,-23.69151 30.79487,-23.6915 30.79417,-23.69154 30.79332,-23.69163 30.79212,-23.69176 30.79169,-23.69182 30.79095,-23.69192 30.7896,-23.692 30.7881,-23.69201 30.78711,-23.69221 30.78636,-23.69246 30.78575,-23.69283 30.78531,-23.69346 30.78479,-23.69436 30.78442,-23.69482 30.78412,-23.69493 30.78365,-23.69493 30.78303,-23.69482 30.7818,-23.69481 30.78147,-23.69489 30.78116,-23.69485 30.78062,-23.6946 30.78004,-23.69447 30.77935,-23.69431 30.77875,-23.6941 30.77803,-23.69378 30.77736,-23.69374 30.77721,-23.69371 30.77683,-23.69364 30.77644,-23.6936 30.77568,-23.69381 30.77504,-23.69436 30.77448,-23.69489 30.77383,-23.69531 30.7733,-23.69565 30.77286,-23.69585 30.77247,-23.69619 30.77237,-23.69653 30.77207,-23.69667 30.77147,-23.69673 30.77105,-23.69698 30.77073,-23.69734 30.76996,-23.69781 30.76935,-23.69833 30.76889,-23.69875 30.76856,-23.69904 30.76802,-23.69937 30.76781,-23.69955 30.76712,-23.70016 30.76665,-23.70054 30.7661,-23.70066 30.76494,-23.70076 30.76383,-23.7006 30.76317,-23.70039 30.76286,-23.70016 30.76238,-23.69974 30.76172,-23.69931 30.76108,-23.69875 30.76068,-23.69848 30.76019,-23.69796 30.75987,-23.69757 30.75967,-23.69735 30.75919,-23.69644 30.75896,-23.69599 30.75864,-23.69539 30.75813,-23.69468 30.75777,-23.69418 30.75744,-23.69374 30.75716,-23.69317 30.75718,-23.69273 30.75707,-23.69205 30.7569,-23.69121 30.75686,-23.69071 30.75674,-23.69006 30.75662,-23.68968 30.75653,-23.68937 30.75607,-23.68869 30.75574,-23.68742 30.7554,-23.68663 30.75503,-23.68581 30.7546,-23.68494 30.754,-23.68356 30.75358,-23.68258 30.75329,-23.68166 30.75284,-23.68111 30.75257,-23.68057 30.75222,-23.67962 30.75221,-23.67892 30.75224,-23.67847 30.75224,-23.67801 30.75229,-23.67738 30.75229,-23.67626 30.75234,-23.67576 30.75236,-23.67518 30.75236,-23.67476 30.75228,-23.67425 30.75207,-23.67369 30.75197,-23.67315 30.75178,-23.6727 30.75163,-23.67221 30.75154,-23.67175 30.7512,-23.67101 30.75104,-23.6703 30.75074,-23.66981 30.75055,-23.66909 30.75037,-23.66875 30.74975,-23.66775 30.74923,-23.66681 30.74884,-23.66594 30.74836,-23.66539 30.74796,-23.66487 30.74763,-23.66461 30.74723,-23.66444 30.74669,-23.66399 30.7461,-23.66333 30.74552,-23.66275 30.74521,-23.6625 30.74437,-23.66157 30.74353,-23.66082 30.74325,-23.66053 30.74298,-23.66028 30.74282,-23.65971 30.7424,-23.65895 30.74203,-23.65788 30.74129,-23.65653 30.74088,-23.65613 30.74008,-23.65482 30.73966,-23.65395 30.739,-23.65307 30.73821,-23.6514 30.73792,-23.65088 30.73745,-23.65032 30.73702,-23.64958 30.7366,-23.6486 30.73627,-23.64736 30.73591,-23.64588 30.73558,-23.64506 30.73531,-23.64449 30.73522,-23.64424 30.73483,-23.64335 30.73448,-23.64246 30.7341,-23.64165 30.73349,-23.64101 30.73292,-23.64071 30.73245,-23.64058 30.73141,-23.64026 30.73059,-23.64025 30.72962,-23.64045 30.72894,-23.64068 30.72813,-23.64124 30.72747,-23.64175 30.72665,-23.6422 30.72564,-23.64262 30.72437,-23.64327 30.72376,-23.64364 30.72288,-23.64416 30.72163,-23.64483 30.71935,-23.64588 30.71798,-23.6463 30.71675,-23.64707 30.71612,-23.64747 30.71572,-23.64802 30.71566,-23.6481 30.67503,-23.62509 30.67413,-23.62459 30.638,-23.60413 30.62493,-23.5967 30.6314,-23.58241 30.63258,-23.5798 30.66305,-23.51252 30.66311,-23.5124 30.66312,-23.51238 30.66373,-23.51102 30.66433,-23.50971 30.66941,-23.49849 30.68891,-23.45542 30.68361,-23.45049 30.68018,-23.44731 30.6768,-23.44417 30.65031,-23.41956 30.62276,-23.39396 30.61741,-23.38899 30.61622,-23.39055 30.61591,-23.39096 30.58411,-23.43269 30.57939,-23.43889 30.57935,-23.43888 30.57211,-23.43786 30.572,-23.43784 30.5525,-23.43506 30.55024,-23.43473 30.54182,-23.43353 30.54103,-23.43394 30.54089,-23.43402 30.54088,-23.43402 30.54072,-23.43411 30.49652,-23.45722 30.47813,-23.46883 30.47688,-23.46962 30.47002,-23.47396 30.46427,-23.46457 30.46293,-23.46239 30.4526,-23.44554 30.45138,-23.44355 30.47089,-23.43327 30.48003,-23.42846 30.48239,-23.4274 30.48243,-23.42738 30.51108,-23.41451 30.51183,-23.41418 30.51892,-23.41082 30.51896,-23.4108 30.53822,-23.40169 30.53825,-23.40168 30.53824,-23.40167 30.53742,-23.40079 30.52669,-23.38936 30.50908,-23.37058 30.50757,-23.36885 30.50598,-23.36704 30.50411,-23.3649 30.5022,-23.36271 30.495,-23.35467 30.49039,-23.34997 30.48752,-23.34694 30.48538,-23.34468 30.48377,-23.34299 30.48264,-23.34186 30.47719,-23.34685 30.47492,-23.34893 30.45092,-23.37088 30.45083,-23.37096 30.44979,-23.37089 30.44979,-23.37089 30.44978,-23.37089 30.42047,-23.36887</coordinates></LinearRing></outerBoundaryIs></Polygon></MultiGeometry></Placemark></Document></kml>