<?xml version="1.0" encoding="UTF-8"?><kml xmlns="http://www.opengis.net/kml/2.2"><Document><Placemark><name>Mbaula</name><description>Main Place 960079</description><ExtendedData><Data name="code"><value>960079</value></Data><Data name="name"><value>Mbaula</value></Data><Data name="description"><value>Main Place 960079</value></Data></ExtendedData><MultiGeometry><Polygon><outerBoundaryIs><LinearRing><coordinates>31.02527,-23.59792 31.02554,-23.59824 31.03041,-23.60347 31.03038,-23.60355 31.03033,-23.60361 31.03029,-23.60362 31.03024,-23.60376 31.03024,-23.60385 31.03036,-23.6039 31.03042,-23.604 31.03042,-23.60413 31.03039,-23.60422 31.03031,-23.60432 31.03031,-23.60445 31.03032,-23.60458 31.03031,-23.60473 31.03029,-23.6048 31.03028,-23.60491 31.03043,-23.6049 31.03057,-23.60487 31.03092,-23.60488 31.0312,-23.6049 31.03152,-23.6049 31.03191,-23.60493 31.03221,-23.60483 31.03279,-23.60461 31.03283,-23.60459 31.0329,-23.60452 31.03297,-23.60445 31.03306,-23.60439 31.03317,-23.60438 31.03328,-23.60431 31.03337,-23.60428 31.03348,-23.60423 31.03354,-23.60415 31.03364,-23.60408 31.03372,-23.60404 31.03386,-23.60401 31.03391,-23.60397 31.03396,-23.60396 31.03405,-23.60396 31.03416,-23.60397 31.03422,-23.60398 31.0343,-23.60399 31.03441,-23.60396 31.03447,-23.60391 31.03456,-23.60384 31.0346,-23.6038 31.03468,-23.60372 31.03475,-23.60359 31.03477,-23.60352 31.03486,-23.60343 31.0349,-23.60339 31.03495,-23.60332 31.03497,-23.60327 31.03506,-23.60321 31.03512,-23.60319 31.03517,-23.60313 31.03523,-23.60311 31.03527,-23.60308 31.03531,-23.60302 31.03538,-23.60295 31.03544,-23.60291 31.03551,-23.60284 31.03556,-23.60278 31.03569,-23.6027 31.03581,-23.60271 31.03591,-23.60271 31.03599,-23.60271 31.03605,-23.60272 31.03609,-23.60281 31.03618,-23.60283 31.03626,-23.60285 31.03632,-23.60288 31.03636,-23.6029 31.03641,-23.60293 31.03641,-23.60298 31.03645,-23.60299 31.03652,-23.60299 31.03661,-23.603 31.03668,-23.60303 31.03674,-23.60303 31.03684,-23.60303 31.03691,-23.60303 31.03694,-23.60301 31.03703,-23.60301 31.0371,-23.60302 31.03719,-23.60304 31.0373,-23.60298 31.03734,-23.60294 31.03738,-23.6029 31.03744,-23.60286 31.03745,-23.60283 31.03754,-23.60283 31.03763,-23.6028 31.03769,-23.6028 31.03774,-23.6028 31.03779,-23.6028 31.03784,-23.60278 31.03793,-23.60278 31.03799,-23.60274 31.03803,-23.60275 31.03809,-23.60277 31.03814,-23.60279 31.03821,-23.60286 31.03831,-23.6029 31.03839,-23.60293 31.03847,-23.60296 31.03857,-23.60296 31.03863,-23.60297 31.03869,-23.603 31.03878,-23.60301 31.03884,-23.60306 31.03893,-23.60308 31.03898,-23.60311 31.03903,-23.60311 31.03912,-23.60307 31.0392,-23.60311 31.03924,-23.60313 31.03929,-23.60316 31.03936,-23.60316 31.03941,-23.60321 31.0395,-23.60321 31.03962,-23.60321 31.03969,-23.60327 31.03972,-23.60335 31.03972,-23.60341 31.03977,-23.60347 31.03985,-23.60347 31.0399,-23.60349 31.04,-23.60349 31.04005,-23.60351 31.04011,-23.60356 31.04018,-23.60357 31.04028,-23.60359 31.04038,-23.60367 31.04046,-23.60371 31.0406,-23.60371 31.04069,-23.60373 31.04079,-23.60376 31.04087,-23.60382 31.04094,-23.6039 31.0425,-23.60415 31.04254,-23.60443 31.04255,-23.60456 31.04254,-23.60494 31.04251,-23.60521 31.04278,-23.60543 31.04303,-23.60554 31.04326,-23.60557 31.04347,-23.60557 31.04364,-23.60562 31.0438,-23.60566 31.04402,-23.60577 31.04438,-23.60597 31.04438,-23.60607 31.04438,-23.60613 31.04435,-23.60617 31.04424,-23.60623 31.04418,-23.60624 31.04412,-23.60629 31.04409,-23.60636 31.04407,-23.60641 31.04405,-23.60647 31.04398,-23.60651 31.04391,-23.60651 31.04387,-23.6065 31.04378,-23.60652 31.04373,-23.60657 31.04373,-23.60661 31.04383,-23.60669 31.04383,-23.60673 31.04381,-23.6068 31.04376,-23.60684 31.04372,-23.60689 31.04366,-23.60691 31.04361,-23.60691 31.04353,-23.60684 31.04348,-23.60686 31.04346,-23.6069 31.04346,-23.60696 31.04338,-23.60699 31.04332,-23.60702 31.04331,-23.60705 31.04326,-23.60707 31.04322,-23.60711 31.0432,-23.60716 31.04319,-23.6072 31.04314,-23.60722 31.04307,-23.60722 31.04306,-23.60726 31.04298,-23.60726 31.04292,-23.60731 31.0429,-23.60734 31.04289,-23.60738 31.04285,-23.60738 31.04283,-23.60753 31.04273,-23.60758 31.04262,-23.60762 31.0425,-23.60766 31.04244,-23.60777 31.04244,-23.60778 31.04244,-23.60783 31.04241,-23.60791 31.04235,-23.60793 31.04228,-23.60793 31.04224,-23.60798 31.04216,-23.60802 31.04215,-23.6081 31.04207,-23.60815 31.04205,-23.60823 31.04198,-23.60832 31.04193,-23.60834 31.04191,-23.6085 31.04184,-23.60855 31.04177,-23.60867 31.04169,-23.60879 31.04168,-23.60887 31.04163,-23.60894 31.04159,-23.60902 31.04154,-23.60911 31.04147,-23.60915 31.0414,-23.6092 31.04131,-23.60918 31.04127,-23.60922 31.04124,-23.60929 31.04122,-23.60939 31.04119,-23.60948 31.0411,-23.60963 31.0411,-23.60969 31.04114,-23.60982 31.04114,-23.60992 31.04113,-23.61007 31.04115,-23.61016 31.04116,-23.61025 31.04114,-23.61037 31.04114,-23.61043 31.04114,-23.61055 31.04114,-23.61065 31.04122,-23.61081 31.04112,-23.61093 31.04111,-23.61106 31.04108,-23.61121 31.04108,-23.61131 31.04103,-23.61149 31.04099,-23.61166 31.04098,-23.61181 31.04098,-23.61196 31.04101,-23.61206 31.04101,-23.61219 31.04101,-23.61227 31.04093,-23.61239 31.04081,-23.6125 31.04073,-23.61266 31.04064,-23.61286 31.04058,-23.61299 31.04059,-23.61306 31.0406,-23.61313 31.04069,-23.61321 31.04068,-23.61337 31.04068,-23.61348 31.04066,-23.61359 31.04067,-23.61378 31.04069,-23.61389 31.04072,-23.61401 31.04072,-23.61407 31.0407,-23.61415 31.0407,-23.61428 31.04067,-23.61442 31.04064,-23.61453 31.04063,-23.6146 31.04074,-23.61469 31.04078,-23.61472 31.04081,-23.61474 31.0409,-23.61484 31.04097,-23.61492 31.04098,-23.61501 31.04096,-23.61506 31.04087,-23.61526 31.04081,-23.61545 31.04084,-23.6155 31.041,-23.61562 31.041,-23.61568 31.04098,-23.61578 31.04083,-23.616 31.04083,-23.61619 31.04071,-23.61633 31.04049,-23.61658 31.04043,-23.61672 31.0404,-23.61693 31.04042,-23.61713 31.04047,-23.61727 31.04048,-23.61754 31.04038,-23.61765 31.03987,-23.61826 31.03938,-23.61904 31.03919,-23.61895 31.03859,-23.61866 31.03815,-23.61843 31.03757,-23.6181 31.03703,-23.61795 31.0365,-23.61794 31.0361,-23.61802 31.03512,-23.61855 31.03436,-23.61893 31.034,-23.61921 31.03329,-23.61971 31.03231,-23.62024 31.03198,-23.62039 31.03149,-23.62067 31.03122,-23.6207 31.03076,-23.62065 31.03028,-23.62067 31.02994,-23.62072 31.02954,-23.62062 31.02911,-23.62044 31.0286,-23.62018 31.0283,-23.62004 31.02762,-23.61978 31.02751,-23.61971 31.02715,-23.61958 31.02664,-23.61942 31.02639,-23.6193 31.02627,-23.61925 31.02618,-23.61924 31.02607,-23.61924 31.02591,-23.61927 31.02554,-23.61932 31.02517,-23.6193 31.02498,-23.61918 31.02488,-23.61892 31.02487,-23.61863 31.02494,-23.61835 31.02508,-23.61792 31.02521,-23.61756 31.02535,-23.61723 31.02564,-23.61658 31.02604,-23.61579 31.02627,-23.61537 31.02655,-23.61489 31.02677,-23.6145 31.02693,-23.61418 31.0272,-23.61346 31.02723,-23.61342 31.02723,-23.61341 31.02731,-23.61333 31.0273,-23.61319 31.0273,-23.61299 31.02731,-23.61282 31.02731,-23.6127 31.02732,-23.61253 31.02726,-23.61241 31.02717,-23.61234 31.02709,-23.6122 31.02708,-23.61212 31.02708,-23.61208 31.02702,-23.61198 31.02702,-23.6119 31.02702,-23.61188 31.02704,-23.61181 31.02708,-23.6118 31.0271,-23.61176 31.0271,-23.61173 31.02721,-23.6117 31.02721,-23.61164 31.02723,-23.61158 31.0272,-23.6115 31.0271,-23.61131 31.02706,-23.61124 31.02705,-23.61114 31.02697,-23.61109 31.02695,-23.61101 31.02689,-23.61097 31.02688,-23.61087 31.02692,-23.61084 31.02698,-23.61081 31.02699,-23.61073 31.02696,-23.61068 31.02665,-23.61057 31.02627,-23.61053 31.02591,-23.61053 31.02542,-23.61051 31.02509,-23.61049 31.02458,-23.61037 31.02432,-23.61036 31.02413,-23.61032 31.02397,-23.61028 31.02374,-23.6102 31.02358,-23.61015 31.02344,-23.61009 31.02333,-23.61002 31.02317,-23.60984 31.02291,-23.60974 31.02267,-23.60964 31.02219,-23.6094 31.02204,-23.60931 31.02134,-23.60887 31.02121,-23.60883 31.02106,-23.60886 31.02091,-23.6088 31.02087,-23.60873 31.0207,-23.60864 31.0206,-23.60857 31.02054,-23.6085 31.02053,-23.60832 31.02045,-23.60822 31.02038,-23.60823 31.02029,-23.60827 31.02022,-23.60833 31.02009,-23.60819 31.01999,-23.6081 31.01998,-23.60798 31.01995,-23.60787 31.01992,-23.60776 31.01988,-23.60771 31.01986,-23.60762 31.01988,-23.60752 31.01986,-23.60745 31.01984,-23.60736 31.0198,-23.60726 31.0198,-23.60716 31.01981,-23.60709 31.01983,-23.607 31.01979,-23.60684 31.01976,-23.60663 31.01972,-23.60638 31.01969,-23.60635 31.01965,-23.60626 31.0196,-23.60616 31.0196,-23.60605 31.01958,-23.60589 31.01953,-23.60578 31.01953,-23.60569 31.0195,-23.60553 31.01951,-23.60542 31.01953,-23.60532 31.01955,-23.6052 31.01958,-23.60514 31.01966,-23.60508 31.01973,-23.60501 31.01977,-23.60496 31.01981,-23.60488 31.01982,-23.60482 31.01987,-23.60477 31.0199,-23.6047 31.01994,-23.60463 31.02001,-23.60458 31.02008,-23.60457 31.02013,-23.60457 31.02021,-23.60457 31.02025,-23.60456 31.02027,-23.60451 31.02028,-23.60446 31.02036,-23.60443 31.02037,-23.60438 31.02039,-23.6043 31.02044,-23.60428 31.02047,-23.60418 31.02052,-23.60374 31.02055,-23.6037 31.02055,-23.60369 31.02068,-23.6034 31.02071,-23.60329 31.02075,-23.60315 31.02075,-23.60265 31.02079,-23.60207 31.02082,-23.60195 31.02093,-23.60189 31.0212,-23.60171 31.02115,-23.60165 31.02088,-23.60136 31.02068,-23.60114 31.02044,-23.60079 31.02047,-23.60078 31.02056,-23.60068 31.02065,-23.60065 31.02078,-23.60058 31.02092,-23.60052 31.02092,-23.60052 31.02095,-23.60049 31.02125,-23.60023 31.0213,-23.60021 31.02135,-23.60019 31.02149,-23.60015 31.02173,-23.59996 31.0219,-23.59978 31.02201,-23.59972 31.02216,-23.59972 31.02222,-23.59965 31.02232,-23.5995 31.02232,-23.5995 31.02236,-23.5994 31.02241,-23.59929 31.02252,-23.59911 31.02265,-23.59902 31.02281,-23.59894 31.02299,-23.59884 31.0231,-23.59884 31.02315,-23.59887 31.02321,-23.59892 31.02331,-23.59892 31.02334,-23.59884 31.02335,-23.59878 31.02334,-23.59869 31.02341,-23.59863 31.02342,-23.59858 31.02337,-23.59851 31.02334,-23.59846 31.02336,-23.59838 31.02344,-23.59837 31.02355,-23.59839 31.02364,-23.59841 31.02379,-23.59843 31.02386,-23.59848 31.02394,-23.59849 31.024,-23.59848 31.02404,-23.59843 31.02407,-23.59835 31.02408,-23.59823 31.02407,-23.59813 31.02407,-23.59802 31.02409,-23.59796 31.02415,-23.59795 31.02423,-23.59795 31.02431,-23.59796 31.02439,-23.59797 31.02445,-23.59797 31.02448,-23.598 31.02458,-23.59804 31.02469,-23.59803 31.02477,-23.598 31.02483,-23.59795 31.02488,-23.59792 31.02494,-23.59788 31.02495,-23.59786 31.02502,-23.59785 31.02508,-23.59779 31.02511,-23.59775 31.02527,-23.59792</coordinates></LinearRing></outerBoundaryIs></Polygon></MultiGeometry></Placemark></Document></kml>