<?xml version="1.0" encoding="UTF-8"?><kml xmlns="http://www.opengis.net/kml/2.2"><Document><Placemark><name>KaNkomo</name><description>Main Place 960055</description><ExtendedData><Data name="code"><value>960055</value></Data><Data name="name"><value>KaNkomo</value></Data><Data name="description"><value>Main Place 960055</value></Data></ExtendedData><MultiGeometry><Polygon><outerBoundaryIs><LinearRing><coordinates>30.79054,-23.44245 30.79074,-23.44247 30.79089,-23.44247 30.79103,-23.44249 30.79113,-23.44251 30.79121,-23.44252 30.79128,-23.44254 30.79132,-23.44261 30.79134,-23.44267 30.7914,-23.44277 30.79133,-23.44282 30.7913,-23.44284 30.79132,-23.4429 30.79138,-23.44294 30.79142,-23.44295 30.7915,-23.44298 30.7916,-23.44306 30.79166,-23.4431 30.7917,-23.44317 30.79175,-23.44323 30.79182,-23.44327 30.79187,-23.44335 30.79191,-23.4434 30.79196,-23.44349 30.79203,-23.44358 30.79208,-23.44362 30.79211,-23.44368 30.79216,-23.44374 30.79222,-23.44375 30.79224,-23.44382 30.79231,-23.44389 30.79231,-23.44404 30.79237,-23.44407 30.79237,-23.44414 30.79237,-23.44422 30.79237,-23.44429 30.79242,-23.44438 30.7925,-23.44444 30.7925,-23.44451 30.79259,-23.44463 30.79268,-23.44477 30.79277,-23.44487 30.7929,-23.44499 30.79297,-23.44503 30.79295,-23.44512 30.79289,-23.44516 30.79283,-23.4452 30.79283,-23.44529 30.79283,-23.44534 30.79284,-23.44549 30.79289,-23.44555 30.7929,-23.44563 30.79285,-23.44568 30.79281,-23.44574 30.79281,-23.4458 30.79282,-23.44589 30.79286,-23.44597 30.79283,-23.44607 30.79282,-23.44615 30.79278,-23.44621 30.79279,-23.44634 30.79282,-23.44643 30.79282,-23.44647 30.79284,-23.44654 30.79286,-23.44667 30.79286,-23.44679 30.79285,-23.4469 30.79289,-23.44698 30.79299,-23.44705 30.79308,-23.44715 30.79316,-23.4472 30.79324,-23.44728 30.7933,-23.44732 30.79334,-23.44739 30.79336,-23.44747 30.7934,-23.44755 30.79347,-23.44761 30.79347,-23.44772 30.79341,-23.4478 30.79338,-23.44788 30.79342,-23.44796 30.79346,-23.44802 30.79352,-23.44816 30.79356,-23.44828 30.7936,-23.4484 30.79363,-23.44849 30.79363,-23.44859 30.79366,-23.44872 30.79365,-23.44887 30.79361,-23.44897 30.79358,-23.44905 30.79359,-23.44917 30.79358,-23.44927 30.79358,-23.44935 30.79361,-23.44941 30.79364,-23.44946 30.79371,-23.44947 30.7938,-23.44947 30.79385,-23.44947 30.7939,-23.44949 30.79386,-23.4496 30.79385,-23.44968 30.7938,-23.44975 30.79377,-23.44981 30.79371,-23.44991 30.79369,-23.44999 30.79361,-23.44999 30.79356,-23.44997 30.7935,-23.44994 30.79344,-23.45003 30.79337,-23.45019 30.79337,-23.45025 30.7933,-23.4503 30.79326,-23.45036 30.79318,-23.45045 30.79311,-23.45053 30.79301,-23.45059 30.79293,-23.45062 30.79284,-23.45068 30.7928,-23.45074 30.79193,-23.45113 30.79186,-23.45113 30.79177,-23.45116 30.79165,-23.45122 30.79157,-23.45126 30.79153,-23.45131 30.79144,-23.45136 30.79135,-23.45144 30.79059,-23.45054 30.7899,-23.45076 30.78976,-23.45043 30.79029,-23.45016 30.78959,-23.44923 30.78932,-23.44896 30.78903,-23.4485 30.78885,-23.44818 30.78875,-23.44795 30.78861,-23.44767 30.78848,-23.44732 30.78838,-23.44703 30.7882,-23.44649 30.78795,-23.44609 30.78785,-23.44569 30.78766,-23.44476 30.78719,-23.44244 30.78992,-23.44193 30.7899,-23.44204 30.78989,-23.44207 30.78991,-23.44215 30.79,-23.4422 30.79012,-23.4423 30.79024,-23.44239 30.79036,-23.44242 30.79054,-23.44245</coordinates></LinearRing></outerBoundaryIs></Polygon><Polygon><outerBoundaryIs><LinearRing><coordinates>30.76111,-23.43499 30.76143,-23.4358 30.76155,-23.43605 30.76176,-23.4365 30.76191,-23.43695 30.76203,-23.43712 30.76215,-23.43722 30.76223,-23.43734 30.76228,-23.43748 30.7623,-23.43752 30.76234,-23.4379 30.76254,-23.43887 30.7626,-23.4393 30.76228,-23.4394 30.76256,-23.4404 30.76222,-23.44054 30.76219,-23.44056 30.76242,-23.44127 30.76246,-23.44143 30.76102,-23.44224 30.761,-23.44225 30.75952,-23.44305 30.75973,-23.44335 30.75993,-23.4437 30.7601,-23.44403 30.76031,-23.44463 30.76036,-23.44487 30.76057,-23.44534 30.7608,-23.44575 30.76113,-23.4462 30.76096,-23.44637 30.76086,-23.44647 30.76077,-23.44654 30.76064,-23.4466 30.76053,-23.44665 30.76043,-23.44659 30.76034,-23.44659 30.76021,-23.44655 30.75995,-23.44702 30.75975,-23.44725 30.75963,-23.44764 30.75946,-23.44796 30.75926,-23.4481 30.75912,-23.44813 30.75895,-23.4483 30.75894,-23.44844 30.7588,-23.44853 30.75859,-23.44853 30.75846,-23.44863 30.7585,-23.44873 30.75828,-23.44891 30.75803,-23.44912 30.75784,-23.44958 30.75741,-23.44937 30.75724,-23.44937 30.75714,-23.44943 30.75712,-23.44952 30.75707,-23.44964 30.7566,-23.44976 30.75641,-23.4498 30.75629,-23.44983 30.75606,-23.44984 30.7559,-23.44984 30.75571,-23.44988 30.75553,-23.44989 30.75517,-23.44983 30.75489,-23.44972 30.75461,-23.44971 30.75461,-23.44972 30.75456,-23.44971 30.75442,-23.44972 30.75427,-23.44969 30.7541,-23.44963 30.75391,-23.44955 30.75379,-23.44947 30.75365,-23.44942 30.75344,-23.44948 30.75329,-23.4495 30.75315,-23.44951 30.75306,-23.44948 30.75299,-23.44945 30.75292,-23.44935 30.7528,-23.44932 30.75277,-23.44926 30.75311,-23.44889 30.7534,-23.44834 30.75336,-23.44822 30.75331,-23.44807 30.75328,-23.448 30.75326,-23.44788 30.75325,-23.44779 30.75324,-23.44768 30.75328,-23.44743 30.75324,-23.44723 30.75326,-23.44707 30.75335,-23.4468 30.75337,-23.44659 30.75339,-23.44652 30.75332,-23.4464 30.75321,-23.44621 30.75304,-23.44607 30.75293,-23.44588 30.75285,-23.44576 30.75275,-23.44567 30.75265,-23.44558 30.75257,-23.44547 30.75249,-23.44534 30.75234,-23.44525 30.75227,-23.44521 30.75216,-23.44511 30.75207,-23.44501 30.75191,-23.44493 30.75181,-23.44481 30.75166,-23.44472 30.75153,-23.44464 30.75143,-23.44455 30.75134,-23.44446 30.75125,-23.4444 30.75094,-23.44373 30.75088,-23.44359 30.75095,-23.44329 30.75096,-23.44321 30.75085,-23.44272 30.75056,-23.4418 30.75026,-23.44079 30.75011,-23.44041 30.7499,-23.43995 30.74988,-23.43992 30.7489,-23.44017 30.74877,-23.44021 30.74873,-23.44014 30.74866,-23.43994 30.74862,-23.4398 30.74851,-23.43963 30.74846,-23.43953 30.74838,-23.43935 30.7484,-23.43916 30.74827,-23.43892 30.7483,-23.43867 30.74831,-23.43848 30.7483,-23.43826 30.74827,-23.43805 30.74813,-23.43773 30.74822,-23.43763 30.74853,-23.43752 30.74869,-23.43744 30.74873,-23.4374 30.7488,-23.43732 30.74894,-23.4372 30.74882,-23.43686 30.74873,-23.43656 30.74866,-23.43646 30.74862,-23.43637 30.74862,-23.43625 30.7489,-23.43603 30.74911,-23.43583 30.7493,-23.43604 30.74941,-23.43601 30.74965,-23.43594 30.74981,-23.43594 30.75018,-23.43586 30.75044,-23.43581 30.75063,-23.43576 30.75033,-23.43489 30.75061,-23.43494 30.75096,-23.43509 30.75148,-23.43528 30.75188,-23.43544 30.75202,-23.43549 30.75305,-23.4354 30.75319,-23.43542 30.75334,-23.43546 30.75347,-23.43546 30.75361,-23.4355 30.7537,-23.43553 30.75383,-23.43553 30.75399,-23.43557 30.75413,-23.43561 30.75432,-23.43561 30.75448,-23.43562 30.75469,-23.43571 30.75534,-23.43548 30.75586,-23.43522 30.75647,-23.43506 30.75648,-23.4351 30.75744,-23.43474 30.7585,-23.43434 30.75856,-23.43426 30.75872,-23.4342 30.75886,-23.43419 30.75909,-23.43416 30.75921,-23.43416 30.76,-23.43385 30.76016,-23.43379 30.76049,-23.43373 30.76079,-23.43423 30.76111,-23.43499</coordinates></LinearRing></outerBoundaryIs></Polygon><Polygon><outerBoundaryIs><LinearRing><coordinates>30.78982,-23.39569 30.79057,-23.39589 30.79179,-23.39625 30.79206,-23.39594 30.79305,-23.39616 30.79377,-23.3964 30.794,-23.39601 30.79408,-23.39603 30.79444,-23.3962 30.79457,-23.39631 30.79433,-23.3965 30.79417,-23.39667 30.79404,-23.39679 30.79329,-23.39812 30.79305,-23.39895 30.79357,-23.39903 30.79354,-23.39912 30.79308,-23.40051 30.79384,-23.40075 30.79368,-23.40121 30.79344,-23.40114 30.79333,-23.40144 30.79307,-23.40273 30.79294,-23.40337 30.79316,-23.40351 30.79366,-23.40395 30.79378,-23.40396 30.79398,-23.40396 30.79414,-23.40396 30.79439,-23.40401 30.79512,-23.40446 30.79513,-23.40446 30.79515,-23.40447 30.79534,-23.40457 30.79557,-23.4047 30.79558,-23.40471 30.79556,-23.40472 30.79413,-23.4066 30.79447,-23.40682 30.79407,-23.40751 30.79365,-23.40726 30.79271,-23.40848 30.79272,-23.40855 30.79212,-23.40924 30.79256,-23.40951 30.7927,-23.4097 30.79225,-23.41035 30.79225,-23.41035 30.79223,-23.41038 30.79178,-23.41117 30.79126,-23.41177 30.79122,-23.41183 30.79113,-23.41198 30.79112,-23.41198 30.78994,-23.41339 30.78898,-23.41452 30.78846,-23.41506 30.78743,-23.41667 30.78671,-23.41783 30.7862,-23.4175 30.78452,-23.41631 30.7827,-23.41837 30.78133,-23.4201 30.78161,-23.42043 30.78199,-23.4202 30.78222,-23.42014 30.78239,-23.42009 30.78284,-23.4208 30.78221,-23.42128 30.78127,-23.42201 30.78024,-23.42368 30.78046,-23.4238 30.78034,-23.42403 30.77981,-23.42494 30.77998,-23.42501 30.77965,-23.42561 30.77844,-23.42511 30.7784,-23.42515 30.77821,-23.42549 30.77722,-23.42503 30.7769,-23.42478 30.77669,-23.42449 30.77633,-23.42446 30.77602,-23.42425 30.77572,-23.42382 30.77572,-23.42374 30.77582,-23.42366 30.77518,-23.42328 30.77615,-23.42095 30.77651,-23.42039 30.77611,-23.41954 30.7758,-23.41885 30.77537,-23.41758 30.77459,-23.41773 30.7745,-23.41722 30.77458,-23.41703 30.77496,-23.41671 30.77469,-23.41588 30.77454,-23.41563 30.77443,-23.41558 30.77436,-23.41509 30.77437,-23.41497 30.7744,-23.41488 30.77443,-23.41473 30.77444,-23.4146 30.77442,-23.41441 30.7757,-23.41389 30.77707,-23.41343 30.77659,-23.41228 30.77636,-23.41175 30.77624,-23.41142 30.7762,-23.41129 30.77617,-23.41123 30.77592,-23.41051 30.77577,-23.41008 30.77572,-23.40985 30.77522,-23.40991 30.77421,-23.41007 30.77405,-23.40917 30.77544,-23.40891 30.77548,-23.4089 30.77533,-23.4081 30.77522,-23.40749 30.77518,-23.40722 30.77506,-23.40636 30.77494,-23.4055 30.77477,-23.40422 30.77467,-23.40332 30.77462,-23.40302 30.77452,-23.40224 30.77443,-23.40141 30.77426,-23.39958 30.77419,-23.39887 30.7741,-23.39814 30.774,-23.39753 30.77633,-23.3973 30.77723,-23.39716 30.77789,-23.39726 30.77878,-23.39739 30.77931,-23.39743 30.78034,-23.39772 30.78125,-23.39763 30.78193,-23.39749 30.78286,-23.39734 30.78313,-23.39738 30.78365,-23.39739 30.78413,-23.39745 30.78454,-23.39749 30.785,-23.39747 30.78547,-23.39748 30.78588,-23.39765 30.78628,-23.39779 30.78668,-23.39796 30.78717,-23.39719 30.78752,-23.3967 30.78759,-23.39657 30.78774,-23.39642 30.78789,-23.39634 30.788,-23.39626 30.78811,-23.3962 30.7882,-23.39614 30.78825,-23.39605 30.78833,-23.39577 30.78842,-23.39576 30.78853,-23.39571 30.78864,-23.3957 30.78874,-23.3957 30.78879,-23.39572 30.78883,-23.39574 30.78895,-23.39543 30.78982,-23.39569</coordinates></LinearRing></outerBoundaryIs></Polygon></MultiGeometry></Placemark></Document></kml>