<?xml version="1.0" encoding="UTF-8"?><kml xmlns="http://www.opengis.net/kml/2.2"><Document><Placemark><name>Greater Letaba</name><description>Local Municipality 961</description><ExtendedData><Data name="code"><value>961</value></Data><Data name="name"><value>Greater Letaba</value></Data><Data name="description"><value>Local Municipality 961</value></Data></ExtendedData><MultiGeometry><Polygon><outerBoundaryIs><LinearRing><coordinates>30.014,-23.63159 30.01136,-23.63321 30.00332,-23.63805 30.00234,-23.63864 30.00211,-23.63878 29.9998,-23.64017 29.99554,-23.64357 29.99551,-23.64359 29.98591,-23.64959 29.98429,-23.65061 29.98131,-23.65247 29.96112,-23.66007 29.95397,-23.64923 29.95181,-23.64596 29.94788,-23.64 29.94902,-23.6277 29.95374,-23.62384 29.95513,-23.62269 29.95651,-23.62155 29.95787,-23.62042 29.96502,-23.61451 29.96984,-23.61052 29.97496,-23.60725 29.9757,-23.60677 29.9848,-23.60096 29.98661,-23.59981 29.99915,-23.59179 29.99941,-23.5917 29.9998,-23.59156 30.0002,-23.59142 30.00338,-23.59033 30.00717,-23.58902 30.01478,-23.5864 30.01987,-23.58324 30.02688,-23.5789 30.03096,-23.57637 30.03644,-23.57297 30.0397,-23.55637 30.04272,-23.54101 30.04704,-23.53565 30.04735,-23.53524 30.03409,-23.5222 30.01309,-23.50156 30.01411,-23.50071 30.02698,-23.48987 30.01795,-23.46341 29.99729,-23.46989 29.99738,-23.46964 29.99825,-23.46725 30.0017,-23.45872 30.00226,-23.45735 30.00303,-23.45547 30.00424,-23.45255 30.00608,-23.44802 30.00615,-23.44786 30.006,-23.44781 30.01474,-23.43703 30.01937,-23.43131 30.03076,-23.43632 30.04326,-23.42565 30.04068,-23.4068 30.03919,-23.39598 30.04331,-23.38252 30.0432,-23.38242 30.03559,-23.37512 30.0355,-23.37504 30.03655,-23.35789 30.0366,-23.35701 30.0377,-23.33871 30.0579,-23.33725 30.06174,-23.33697 30.06352,-23.33684 30.06359,-23.33684 30.06357,-23.33686 30.05408,-23.35595 30.05373,-23.35665 30.0472,-23.36977 30.04718,-23.36981 30.04726,-23.36979 30.07156,-23.36367 30.07175,-23.36351 30.09055,-23.34766 30.09093,-23.34734 30.09132,-23.34727 30.09338,-23.34691 30.09353,-23.34688 30.11877,-23.3424 30.13544,-23.3418 30.14676,-23.3414 30.14681,-23.34115 30.1516,-23.3138 30.15334,-23.31371 30.15335,-23.31371 30.15336,-23.31371 30.16692,-23.313 30.18593,-23.31201 30.18596,-23.31201 30.19118,-23.31162 30.20153,-23.31086 30.21856,-23.30961 30.23431,-23.30845 30.26703,-23.32369 30.26703,-23.32369 30.26706,-23.3237 30.26708,-23.32371 30.26795,-23.32412 30.26856,-23.32441 30.2714,-23.34136 30.27313,-23.3517 30.2898,-23.37882 30.28986,-23.37892 30.29402,-23.38568 30.31114,-23.40078 30.33738,-23.42394 30.33741,-23.42395 30.35456,-23.40988 30.35985,-23.40553 30.36519,-23.40077 30.36542,-23.40057 30.3721,-23.39462 30.37384,-23.39307 30.37391,-23.39301 30.38981,-23.38047 30.39105,-23.37949 30.39106,-23.37949 30.39113,-23.37944 30.40584,-23.36786 30.40725,-23.36796 30.42047,-23.36887 30.44978,-23.37089 30.44979,-23.37089 30.44979,-23.37089 30.45083,-23.37096 30.45092,-23.37088 30.47492,-23.34893 30.47719,-23.34685 30.48264,-23.34186 30.48377,-23.34299 30.48538,-23.34468 30.48752,-23.34694 30.49039,-23.34997 30.495,-23.35467 30.5022,-23.36271 30.50411,-23.3649 30.50598,-23.36704 30.50757,-23.36885 30.50908,-23.37058 30.52669,-23.38936 30.53742,-23.40079 30.53824,-23.40167 30.53825,-23.40168 30.53822,-23.40169 30.51896,-23.4108 30.51892,-23.41082 30.51183,-23.41418 30.51108,-23.41451 30.48243,-23.42738 30.48239,-23.4274 30.48003,-23.42846 30.47089,-23.43327 30.45138,-23.44355 30.4526,-23.44554 30.46293,-23.46239 30.46427,-23.46457 30.47002,-23.47396 30.47688,-23.46962 30.47813,-23.46883 30.49652,-23.45722 30.54072,-23.43411 30.54088,-23.43402 30.54089,-23.43402 30.54103,-23.43394 30.54182,-23.43353 30.55024,-23.43473 30.5525,-23.43506 30.572,-23.43784 30.57211,-23.43786 30.57935,-23.43888 30.57939,-23.43889 30.58411,-23.43269 30.61591,-23.39096 30.61622,-23.39055 30.61741,-23.38899 30.62276,-23.39396 30.65031,-23.41956 30.6768,-23.44417 30.68018,-23.44731 30.68361,-23.45049 30.68891,-23.45542 30.66941,-23.49849 30.66433,-23.50971 30.66373,-23.51102 30.66312,-23.51238 30.66311,-23.5124 30.66305,-23.51252 30.63258,-23.5798 30.6314,-23.58241 30.62493,-23.5967 30.61852,-23.58708 30.61788,-23.58612 30.60188,-23.5621 30.56534,-23.55308 30.56531,-23.55307 30.56408,-23.55277 30.56362,-23.55266 30.56278,-23.55245 30.54751,-23.5561 30.53124,-23.55999 30.52689,-23.56104 30.51299,-23.56436 30.50473,-23.56538 30.50339,-23.56555 30.5033,-23.56556 30.47479,-23.56908 30.45032,-23.54856 30.43896,-23.53904 30.43237,-23.53351 30.41864,-23.52199 30.41792,-23.52139 30.40456,-23.54028 30.40157,-23.54451 30.39833,-23.5491 30.3977,-23.54999 30.39648,-23.55172 30.39288,-23.55399 30.37384,-23.56599 30.37367,-23.5661 30.37251,-23.56683 30.36916,-23.57229 30.37118,-23.57334 30.37231,-23.57587 30.37231,-23.58121 30.37301,-23.58345 30.37454,-23.58734 30.37456,-23.58739 30.3768,-23.58963 30.37975,-23.59132 30.38341,-23.59385 30.38518,-23.5951 30.38678,-23.59624 30.38804,-23.59764 30.38748,-23.59834 30.38724,-23.5984 30.38509,-23.5989 30.38284,-23.60017 30.37891,-23.60073 30.37722,-23.60073 30.37638,-23.60157 30.37638,-23.6027 30.37572,-23.60335 30.37512,-23.60382 30.37357,-23.60438 30.37203,-23.60466 30.37161,-23.60493 30.37034,-23.60607 30.3702,-23.60775 30.37027,-23.60928 30.37034,-23.61 30.36997,-23.61109 30.3695,-23.61253 30.36837,-23.61421 30.36725,-23.61632 30.36725,-23.61801 30.36866,-23.62025 30.36866,-23.62124 30.3686,-23.62152 30.36837,-23.62264 30.36767,-23.62405 30.36727,-23.62421 30.36599,-23.62475 30.36247,-23.62587 30.35981,-23.627 30.35587,-23.62854 30.35391,-23.63023 30.35272,-23.63087 30.35053,-23.63205 30.34672,-23.63377 30.34618,-23.63402 30.3426,-23.63563 30.34211,-23.63585 30.33912,-23.6362 30.33494,-23.63669 30.32834,-23.63669 30.32622,-23.63665 30.32146,-23.63655 30.31612,-23.63584 30.31475,-23.63537 30.31204,-23.63444 30.31152,-23.63415 30.30797,-23.63219 30.30607,-23.63156 30.30241,-23.63451 30.30113,-23.63554 30.29906,-23.63722 30.29697,-23.63891 30.29575,-23.63989 30.29572,-23.63992 30.29488,-23.64059 30.29487,-23.6406 30.29354,-23.64168 30.29159,-23.64326 30.28982,-23.64468 30.28758,-23.64649 30.29074,-23.65715 30.29036,-23.65741 30.28703,-23.65967 30.28625,-23.6602 30.28622,-23.66022 30.28576,-23.66053 30.28476,-23.66121 30.28016,-23.66433 30.28013,-23.66435 30.27775,-23.66597 30.2796,-23.66686 30.27352,-23.67004 30.26722,-23.67078 30.26703,-23.6708 30.26609,-23.66965 30.25983,-23.67151 30.25965,-23.67172 30.25822,-23.67341 30.25155,-23.67937 30.24389,-23.68904 30.23379,-23.7014 30.23358,-23.70165 30.23294,-23.70729 30.23263,-23.71007 30.23237,-23.71235 30.23215,-23.71437 30.23214,-23.7144 30.23206,-23.71459 30.22773,-23.7235 30.22118,-23.73091 30.22009,-23.73215 30.21821,-23.73427 30.21742,-23.73516 30.21376,-23.7393 30.20859,-23.74524 30.20125,-23.75367 30.19962,-23.75264 30.19555,-23.75005 30.1899,-23.74646 30.18842,-23.7455 30.18834,-23.74545 30.18797,-23.74521 30.18449,-23.74297 30.1804,-23.7543 30.17089,-23.7527 30.1561,-23.76004 30.15464,-23.76077 30.15572,-23.75505 30.1563,-23.75198 30.15731,-23.74694 30.15937,-23.73579 30.15213,-23.7388 30.14476,-23.74186 30.14232,-23.74287 30.14021,-23.7386 30.13854,-23.73521 30.13384,-23.72568 30.12592,-23.73188 30.12491,-23.73577 30.1216,-23.73438 30.11589,-23.73198 30.11576,-23.73192 30.11497,-23.73159 30.1134,-23.73093 30.11315,-23.73079 30.11294,-23.731 30.11282,-23.73124 30.1127,-23.73137 30.11227,-23.73159 30.11189,-23.73175 30.11178,-23.73185 30.11154,-23.73206 30.11119,-23.73233 30.11104,-23.73259 30.1109,-23.73285 30.11083,-23.73313 30.11066,-23.73334 30.11061,-23.73341 30.11045,-23.73317 30.10964,-23.73213 30.10919,-23.73156 30.10888,-23.73116 30.10863,-23.73072 30.10844,-23.73038 30.10839,-23.7301 30.10808,-23.72977 30.10765,-23.72934 30.10707,-23.72884 30.10661,-23.72851 30.10623,-23.72827 30.10579,-23.72761 30.10524,-23.72671 30.10491,-23.72621 30.10491,-23.72577 30.10467,-23.72548 30.10441,-23.72527 30.10401,-23.72539 30.10365,-23.72551 30.10339,-23.72562 30.10318,-23.72562 30.1028,-23.7255 30.10235,-23.72541 30.10181,-23.72546 30.10121,-23.72555 30.10093,-23.72544 30.1001,-23.72468 30.09961,-23.72432 30.09937,-23.7242 30.09899,-23.7242 30.09877,-23.72408 30.09851,-23.72382 30.09816,-23.72378 30.09799,-23.72368 30.09788,-23.72338 30.09782,-23.72325 30.092,-23.70545 30.09042,-23.7033 30.08897,-23.70134 30.08181,-23.69144 30.07325,-23.69788 30.06331,-23.6869 30.05386,-23.70073 30.0499,-23.70624 30.03326,-23.67574 30.02914,-23.66806 30.02863,-23.6672 30.02876,-23.66718 30.02912,-23.66709 30.02927,-23.66697 30.02951,-23.66673 30.0298,-23.66652 30.03001,-23.66635 30.03022,-23.6664 30.03084,-23.66631 30.03118,-23.66631 30.0313,-23.66613 30.03148,-23.66589 30.03168,-23.66554 30.03192,-23.66515 30.03204,-23.66498 30.03221,-23.66485 30.03242,-23.6647 30.03292,-23.66451 30.03371,-23.66426 30.03418,-23.66411 30.03491,-23.66412 30.0351,-23.66409 30.03536,-23.66393 30.03608,-23.66326 30.03639,-23.66293 30.03642,-23.66269 30.03645,-23.66253 30.03642,-23.66228 30.03639,-23.66206 30.03637,-23.66181 30.0362,-23.66149 30.03617,-23.66122 30.03617,-23.661 30.03626,-23.66082 30.03655,-23.66064 30.03688,-23.66064 30.03764,-23.66074 30.0383,-23.66093 30.03855,-23.66117 30.03894,-23.66142 30.03926,-23.66163 30.03958,-23.66166 30.03994,-23.66169 30.04019,-23.66162 30.04045,-23.66142 30.04064,-23.66121 30.04074,-23.66092 30.04091,-23.66084 30.04113,-23.6607 30.04143,-23.66041 30.04153,-23.6601 30.04164,-23.65986 30.04169,-23.65969 30.04169,-23.65937 30.04172,-23.65908 30.04184,-23.65878 30.04193,-23.65853 30.04208,-23.65803 30.04209,-23.65762 30.0421,-23.65719 30.04217,-23.65686 30.04226,-23.65643 30.04238,-23.65607 30.04245,-23.65578 30.0425,-23.6556 30.04259,-23.65546 30.04275,-23.65531 30.04294,-23.65509 30.04337,-23.6548 30.04395,-23.65446 30.04448,-23.65412 30.04498,-23.65386 30.04518,-23.65375 30.04523,-23.65363 30.04529,-23.65353 30.04546,-23.65342 30.04567,-23.65328 30.04584,-23.65316 30.04613,-23.65302 30.04621,-23.65282 30.04624,-23.65264 30.04627,-23.65244 30.0464,-23.65227 30.04652,-23.65211 30.04657,-23.65192 30.04656,-23.65182 30.04644,-23.65166 30.04634,-23.65142 30.04638,-23.65118 30.04652,-23.65102 30.04682,-23.65087 30.04704,-23.65075 30.0473,-23.65067 30.04747,-23.65054 30.04755,-23.65032 30.04765,-23.65013 30.0478,-23.64986 30.04789,-23.6497 30.04798,-23.64953 30.048,-23.64921 30.04797,-23.64871 30.04797,-23.64834 30.04809,-23.64795 30.04826,-23.64771 30.0485,-23.64721 30.04913,-23.64606 30.04192,-23.63959 30.0266,-23.62576 30.02542,-23.62472 30.0254,-23.62474 30.02467,-23.62517 30.02369,-23.62576 30.01765,-23.62935 30.01574,-23.63052 30.014,-23.63159</coordinates></LinearRing></outerBoundaryIs></Polygon></MultiGeometry></Placemark></Document></kml>