<?xml version="1.0" encoding="UTF-8"?><kml xmlns="http://www.opengis.net/kml/2.2"><Document><Placemark><name>Ba-Phalaborwa</name><description>Local Municipality 963</description><ExtendedData><Data name="code"><value>963</value></Data><Data name="name"><value>Ba-Phalaborwa</value></Data><Data name="description"><value>Local Municipality 963</value></Data></ExtendedData><MultiGeometry><Polygon><outerBoundaryIs><LinearRing><coordinates>30.99374,-24.04265 30.98334,-24.04467 30.97815,-24.04568 30.97295,-24.04669 30.96775,-24.04769 30.96256,-24.0487 30.95216,-24.05072 30.94619,-24.05188 30.94021,-24.05304 30.93904,-24.05188 30.93787,-24.05071 30.9363,-24.04916 30.93473,-24.0476 30.93315,-24.04605 30.93158,-24.0445 30.93001,-24.04294 30.92687,-24.03984 30.9253,-24.03828 30.92373,-24.03673 30.92237,-24.04023 30.92101,-24.04372 30.91829,-24.05072 30.91551,-24.05786 30.91411,-24.06143 30.91272,-24.065 30.91132,-24.06857 30.90993,-24.07214 30.90853,-24.07571 30.90845,-24.07593 30.90499,-24.07717 30.90327,-24.0778 30.89981,-24.07904 30.89807,-24.0796 30.89459,-24.0807 30.89285,-24.08126 30.8911,-24.08181 30.88936,-24.08237 30.88764,-24.083 30.88591,-24.08364 30.88419,-24.08427 30.88247,-24.08491 30.88074,-24.08554 30.87902,-24.08618 30.87729,-24.08681 30.87385,-24.08809 30.87212,-24.08872 30.86954,-24.08968 30.86436,-24.0916 30.86178,-24.09256 30.8566,-24.09448 30.85402,-24.09544 30.85143,-24.0964 30.84885,-24.09736 30.84626,-24.09832 30.84624,-24.09782 30.84595,-24.09683 30.84567,-24.09583 30.84514,-24.0944 30.84436,-24.09306 30.84355,-24.09191 30.84273,-24.09076 30.84192,-24.08961 30.8411,-24.08846 30.84029,-24.08731 30.83946,-24.08633 30.83908,-24.08587 30.83897,-24.08594 30.83886,-24.08602 30.83876,-24.08609 30.83865,-24.08617 30.83855,-24.08624 30.83844,-24.08632 30.83833,-24.08639 30.83823,-24.08647 30.83812,-24.08654 30.83801,-24.08662 30.83463,-24.08126 30.8306,-24.07487 30.82956,-24.07322 30.82787,-24.07054 30.82449,-24.06518 30.82279,-24.0625 30.8211,-24.05982 30.81997,-24.05679 30.81885,-24.05375 30.81772,-24.05071 30.81612,-24.04761 30.81292,-24.04139 30.81132,-24.03829 30.80972,-24.03518 30.80812,-24.03208 30.80652,-24.02897 30.80493,-24.02587 30.79983,-24.03091 30.77199,-24.05839 30.77221,-24.05886 30.77249,-24.05946 30.77218,-24.06115 30.77287,-24.06246 30.77439,-24.06289 30.77627,-24.06236 30.77787,-24.06312 30.77876,-24.06599 30.77832,-24.06718 30.77711,-24.0683 30.77655,-24.072 30.77705,-24.07334 30.779,-24.07522 30.77915,-24.0757 30.77963,-24.0772 30.7788,-24.08036 30.77952,-24.08317 30.77871,-24.08584 30.7784,-24.0869 30.7787,-24.0896 30.77843,-24.09016 30.77815,-24.09072 30.77766,-24.091 30.77718,-24.09129 30.77669,-24.09157 30.77669,-24.09165 30.77667,-24.09178 30.77618,-24.0918 30.77605,-24.09232 30.77605,-24.09239 30.77602,-24.09241 30.7759,-24.09247 30.76896,-24.09619 30.76548,-24.09805 30.76201,-24.09991 30.75853,-24.10177 30.75159,-24.10549 30.74811,-24.10735 30.74464,-24.10922 30.74117,-24.11108 30.73979,-24.11181 30.73842,-24.11255 30.73704,-24.11328 30.73567,-24.11402 30.73429,-24.11475 30.73292,-24.11548 30.73154,-24.11622 30.73017,-24.11695 30.72879,-24.11769 30.72742,-24.11842 30.72552,-24.11941 30.72363,-24.1204 30.72174,-24.12138 30.71985,-24.12237 30.71796,-24.12335 30.71606,-24.12434 30.71417,-24.12532 30.71039,-24.1273 30.7085,-24.12828 30.70739,-24.12887 30.70628,-24.12947 30.70517,-24.13006 30.70407,-24.13065 30.70296,-24.13125 30.69963,-24.13302 30.69853,-24.13362 30.69742,-24.13421 30.69085,-24.13772 30.68865,-24.1389 30.68208,-24.14241 30.67989,-24.14359 30.67551,-24.14593 30.65051,-24.12453 30.59096,-24.07532 30.58334,-24.06885 30.58329,-24.0688 30.5775,-24.0639 30.57391,-24.06085 30.56622,-24.05445 30.55793,-24.04654 30.55447,-24.04363 30.53213,-24.02479 30.52914,-24.02226 30.52068,-24.01513 30.50722,-24.00376 30.49858,-23.99647 30.49526,-23.99367 30.4944,-23.99294 30.49434,-23.9929 30.49264,-23.99146 30.48156,-23.9821 30.48058,-23.98128 30.48012,-23.98088 30.52663,-23.97601 30.52338,-23.9494 30.52711,-23.94853 30.55738,-23.94148 30.55649,-23.92237 30.55611,-23.91434 30.5559,-23.90965 30.55502,-23.89091 30.55499,-23.89092 30.52944,-23.88832 30.51315,-23.88666 30.50786,-23.86573 30.52772,-23.86105 30.53957,-23.85826 30.58572,-23.84737 30.5748,-23.83883 30.5315,-23.80495 30.53555,-23.79923 30.5356,-23.79817 30.53603,-23.78877 30.53623,-23.78494 30.53635,-23.78266 30.53636,-23.78261 30.53637,-23.78104 30.53654,-23.77713 30.5366,-23.77555 30.53678,-23.77374 30.53682,-23.77294 30.53704,-23.76827 30.53374,-23.76855 30.53389,-23.76648 30.53425,-23.76393 30.53454,-23.75956 30.53483,-23.75604 30.53539,-23.75577 30.5352,-23.75535 30.53516,-23.75526 30.5348,-23.75444 30.53465,-23.75392 30.53461,-23.75348 30.53459,-23.75311 30.5346,-23.75282 30.53462,-23.7525 30.53463,-23.75216 30.53463,-23.75147 30.53459,-23.75117 30.5344,-23.75079 30.53413,-23.75021 30.53393,-23.74956 30.53383,-23.74916 30.53358,-23.74878 30.53321,-23.74811 30.53288,-23.74735 30.53268,-23.74676 30.53257,-23.74648 30.53247,-23.74635 30.53225,-23.7459 30.53206,-23.74555 30.53185,-23.74515 30.53175,-23.74497 30.53158,-23.74485 30.5315,-23.7447 30.53139,-23.74446 30.53114,-23.74416 30.53091,-23.74393 30.53075,-23.74378 30.53047,-23.74337 30.53033,-23.74311 30.53007,-23.74231 30.52986,-23.74194 30.5297,-23.74154 30.52949,-23.74103 30.52934,-23.74041 30.52917,-23.73975 30.52901,-23.73932 30.52883,-23.7387 30.52868,-23.73811 30.52845,-23.73761 30.52822,-23.73715 30.5277,-23.73629 30.52723,-23.73545 30.52687,-23.73472 30.52632,-23.73314 30.52615,-23.73242 30.52625,-23.73157 30.52648,-23.73062 30.52662,-23.73017 30.52665,-23.72972 30.52649,-23.72915 30.52617,-23.72813 30.52585,-23.72746 30.52559,-23.7271 30.52525,-23.72687 30.52498,-23.72684 30.52433,-23.72691 30.52405,-23.72701 30.52293,-23.72742 30.52193,-23.72793 30.52095,-23.72857 30.52025,-23.72912 30.51989,-23.72938 30.51952,-23.72965 30.51922,-23.72982 30.51899,-23.72993 30.51757,-23.73028 30.51657,-23.73039 30.5155,-23.7305 30.5144,-23.73065 30.51317,-23.73084 30.51288,-23.73095 30.51221,-23.73109 30.51138,-23.73112 30.51071,-23.73125 30.51027,-23.73144 30.5101,-23.73151 30.51004,-23.73158 30.50475,-23.72635 30.50468,-23.72628 30.50467,-23.72627 30.50466,-23.72626 30.49205,-23.71376 30.5071,-23.69875 30.51638,-23.68957 30.51988,-23.68611 30.52425,-23.68483 30.52724,-23.68396 30.53138,-23.68275 30.54031,-23.68015 30.54392,-23.67837 30.55607,-23.67239 30.5561,-23.67238 30.56038,-23.66968 30.56721,-23.66537 30.57875,-23.65808 30.58875,-23.65092 30.58982,-23.65016 30.59027,-23.64984 30.59033,-23.64979 30.59033,-23.64979 30.60367,-23.64025 30.60883,-23.63656 30.61352,-23.63321 30.62416,-23.59918 30.62486,-23.59693 30.62493,-23.5967 30.638,-23.60413 30.67413,-23.62459 30.67503,-23.62509 30.71566,-23.6481 30.71572,-23.64802 30.71612,-23.64747 30.71675,-23.64707 30.71798,-23.6463 30.71935,-23.64588 30.72163,-23.64483 30.72288,-23.64416 30.72376,-23.64364 30.72437,-23.64327 30.72564,-23.64262 30.72665,-23.6422 30.72747,-23.64175 30.72813,-23.64124 30.72894,-23.64068 30.72962,-23.64045 30.73059,-23.64025 30.73141,-23.64026 30.73245,-23.64058 30.73292,-23.64071 30.73349,-23.64101 30.7341,-23.64165 30.73448,-23.64246 30.73483,-23.64335 30.73522,-23.64424 30.73531,-23.64449 30.73558,-23.64506 30.73591,-23.64588 30.73627,-23.64736 30.7366,-23.6486 30.73702,-23.64958 30.73745,-23.65032 30.73792,-23.65088 30.73821,-23.6514 30.739,-23.65307 30.73966,-23.65395 30.74008,-23.65482 30.74088,-23.65613 30.74129,-23.65653 30.74203,-23.65788 30.7424,-23.65895 30.74282,-23.65971 30.74298,-23.66028 30.74325,-23.66053 30.74353,-23.66082 30.74437,-23.66157 30.74521,-23.6625 30.74552,-23.66275 30.7461,-23.66333 30.74669,-23.66399 30.74723,-23.66444 30.74763,-23.66461 30.74796,-23.66487 30.74836,-23.66539 30.74884,-23.66594 30.74923,-23.66681 30.74975,-23.66775 30.75037,-23.66875 30.75055,-23.66909 30.75074,-23.66981 30.75104,-23.6703 30.7512,-23.67101 30.75154,-23.67175 30.75163,-23.67221 30.75178,-23.6727 30.75197,-23.67315 30.75207,-23.67369 30.75228,-23.67425 30.75236,-23.67476 30.75236,-23.67518 30.75234,-23.67576 30.75229,-23.67626 30.75229,-23.67738 30.75224,-23.67801 30.75224,-23.67847 30.75221,-23.67892 30.75222,-23.67962 30.75257,-23.68057 30.75284,-23.68111 30.75329,-23.68166 30.75358,-23.68258 30.754,-23.68356 30.7546,-23.68494 30.75503,-23.68581 30.7554,-23.68663 30.75574,-23.68742 30.75607,-23.68869 30.75653,-23.68937 30.75662,-23.68968 30.75674,-23.69006 30.75686,-23.69071 30.7569,-23.69121 30.75707,-23.69205 30.75718,-23.69273 30.75716,-23.69317 30.75744,-23.69374 30.75777,-23.69418 30.75813,-23.69468 30.75864,-23.69539 30.75896,-23.69599 30.75919,-23.69644 30.75967,-23.69735 30.75987,-23.69757 30.76019,-23.69796 30.76068,-23.69848 30.76108,-23.69875 30.76172,-23.69931 30.76238,-23.69974 30.76286,-23.70016 30.76317,-23.70039 30.76383,-23.7006 30.76494,-23.70076 30.7661,-23.70066 30.76665,-23.70054 30.76712,-23.70016 30.76781,-23.69955 30.76802,-23.69937 30.76856,-23.69904 30.76889,-23.69875 30.76935,-23.69833 30.76996,-23.69781 30.77073,-23.69734 30.77105,-23.69698 30.77147,-23.69673 30.77207,-23.69667 30.77237,-23.69653 30.77247,-23.69619 30.77286,-23.69585 30.7733,-23.69565 30.77383,-23.69531 30.77448,-23.69489 30.77504,-23.69436 30.77568,-23.69381 30.77644,-23.6936 30.77683,-23.69364 30.77721,-23.69371 30.77736,-23.69374 30.77803,-23.69378 30.77875,-23.6941 30.77935,-23.69431 30.78004,-23.69447 30.78062,-23.6946 30.78116,-23.69485 30.78147,-23.69489 30.7818,-23.69481 30.78303,-23.69482 30.78365,-23.69493 30.78412,-23.69493 30.78442,-23.69482 30.78479,-23.69436 30.78531,-23.69346 30.78575,-23.69283 30.78636,-23.69246 30.78711,-23.69221 30.7881,-23.69201 30.7896,-23.692 30.79095,-23.69192 30.79169,-23.69182 30.79212,-23.69176 30.79332,-23.69163 30.79417,-23.69154 30.79487,-23.6915 30.79558,-23.69151 30.79719,-23.6918 30.79814,-23.69204 30.79932,-23.69211 30.80027,-23.69232 30.8023,-23.69266 30.80363,-23.69288 30.80437,-23.69298 30.8052,-23.69299 30.80635,-23.69295 30.80705,-23.69274 30.80751,-23.69275 30.8083,-23.69261 30.80893,-23.69236 30.81002,-23.69238 30.81054,-23.6922 30.81114,-23.69178 30.8117,-23.69153 30.81305,-23.69055 30.81375,-23.68974 30.81459,-23.68867 30.81502,-23.68801 30.81548,-23.68732 30.81581,-23.68696 30.81639,-23.68609 30.81732,-23.6851 30.8181,-23.68443 30.81855,-23.68428 30.81889,-23.68416 30.82015,-23.6842 30.82141,-23.68408 30.822,-23.68414 30.82274,-23.68429 30.82388,-23.68436 30.82524,-23.68449 30.82632,-23.68468 30.82714,-23.68505 30.82824,-23.68531 30.82915,-23.68556 30.83031,-23.68574 30.83133,-23.68588 30.83282,-23.68638 30.83412,-23.68684 30.83535,-23.68731 30.83629,-23.68764 30.83743,-23.68821 30.8387,-23.68888 30.8394,-23.68929 30.84122,-23.69012 30.84206,-23.69045 30.84318,-23.69074 30.84448,-23.69075 30.84569,-23.69083 30.84648,-23.69087 30.84708,-23.69086 30.84793,-23.69076 30.84898,-23.69064 30.84985,-23.69037 30.85131,-23.69003 30.85329,-23.68962 30.85473,-23.68931 30.85557,-23.68909 30.85661,-23.68881 30.85776,-23.68866 30.85901,-23.68847 30.85985,-23.68842 30.86067,-23.68827 30.86183,-23.68818 30.86299,-23.68811 30.86448,-23.68798 30.86525,-23.68793 30.86752,-23.68744 30.86814,-23.68751 30.86898,-23.68722 30.86953,-23.68677 30.87013,-23.68619 30.87058,-23.68572 30.8716,-23.68469 30.87254,-23.68348 30.87318,-23.68241 30.87367,-23.68162 30.87393,-23.68109 30.87446,-23.68028 30.87505,-23.67952 30.8755,-23.67897 30.87587,-23.67848 30.87689,-23.6779 30.87801,-23.67743 30.87877,-23.67719 30.87969,-23.67693 30.88093,-23.67649 30.88185,-23.67614 30.8826,-23.67609 30.88304,-23.67585 30.88357,-23.67555 30.88428,-23.67527 30.8847,-23.67503 30.88561,-23.67454 30.8861,-23.67424 30.88644,-23.6739 30.88695,-23.67352 30.88766,-23.67316 30.88816,-23.67302 30.88848,-23.67283 30.8889,-23.67266 30.88935,-23.67275 30.88968,-23.67277 30.89001,-23.67277 30.89098,-23.67295 30.89193,-23.67304 30.89258,-23.67317 30.89285,-23.67342 30.89296,-23.67357 30.89284,-23.67374 30.89276,-23.67393 30.89271,-23.67411 30.89275,-23.67436 30.89284,-23.6746 30.89289,-23.67481 30.89281,-23.67512 30.89256,-23.67555 30.8922,-23.67622 30.89209,-23.6768 30.89227,-23.6773 30.89258,-23.67748 30.89309,-23.67763 30.89384,-23.67754 30.89457,-23.67727 30.89542,-23.67692 30.89616,-23.67673 30.89661,-23.67673 30.89698,-23.67669 30.89725,-23.67686 30.89765,-23.67697 30.89816,-23.67685 30.89927,-23.67686 30.89993,-23.6768 30.90052,-23.67678 30.90083,-23.67701 30.90133,-23.67739 30.90204,-23.67796 30.9031,-23.6792 30.90397,-23.68005 30.90409,-23.68017 30.90475,-23.68058 30.90537,-23.68121 30.906,-23.6818 30.90636,-23.68204 30.90722,-23.68203 30.90754,-23.68191 30.9081,-23.68165 30.90848,-23.68138 30.90888,-23.68105 30.90919,-23.68078 30.90964,-23.68032 30.90986,-23.67992 30.91025,-23.67952 30.91061,-23.67926 30.91102,-23.67908 30.91148,-23.6788 30.91181,-23.67846 30.91206,-23.67819 30.91227,-23.67784 30.91263,-23.67754 30.91279,-23.6773 30.91305,-23.67692 30.91345,-23.67659 30.91382,-23.67642 30.91494,-23.67582 30.91524,-23.67578 30.91554,-23.67584 30.91588,-23.67598 30.91614,-23.67599 30.91661,-23.67589 30.91724,-23.6758 30.9177,-23.67585 30.91819,-23.67578 30.91851,-23.67576 30.91877,-23.67588 30.91899,-23.67602 30.91935,-23.67606 30.91964,-23.67606 30.92034,-23.6763 30.92088,-23.67645 30.92118,-23.67661 30.92162,-23.67696 30.92165,-23.67698 30.92196,-23.67715 30.92225,-23.67747 30.9226,-23.67792 30.92341,-23.67854 30.92466,-23.67945 30.92538,-23.67999 30.92595,-23.68044 30.92681,-23.68104 30.92755,-23.68158 30.9282,-23.68198 30.92887,-23.68242 30.92939,-23.68264 30.92993,-23.68299 30.93041,-23.6832 30.93096,-23.68333 30.9313,-23.68351 30.9322,-23.68369 30.93267,-23.68352 30.93311,-23.6833 30.9336,-23.68309 30.93419,-23.68303 30.93497,-23.68278 30.93549,-23.68264 30.9358,-23.68238 30.93589,-23.68185 30.93595,-23.68138 30.93593,-23.68104 30.93602,-23.68069 30.93624,-23.68029 30.93648,-23.68002 30.93744,-23.67944 30.93803,-23.67914 30.93857,-23.67889 30.93897,-23.67863 30.93957,-23.67821 30.94043,-23.67774 30.94101,-23.67754 30.94166,-23.6775 30.94216,-23.67775 30.9427,-23.67818 30.94346,-23.6785 30.94437,-23.67871 30.94553,-23.67911 30.94601,-23.67932 30.94656,-23.67957 30.94809,-23.68018 30.94906,-23.68069 30.94955,-23.68088 30.95094,-23.68169 30.95224,-23.68254 30.95319,-23.68313 30.95417,-23.68356 30.95562,-23.68392 30.9564,-23.68407 30.9568,-23.68405 30.95811,-23.68425 30.95916,-23.68446 30.96014,-23.68436 30.96117,-23.68426 30.96149,-23.68418 30.96309,-23.68404 30.96425,-23.68365 30.96512,-23.68333 30.96569,-23.68298 30.96608,-23.68237 30.96636,-23.68176 30.96657,-23.6813 30.96671,-23.68094 30.96681,-23.68055 30.96709,-23.67975 30.96729,-23.67918 30.96739,-23.67852 30.96742,-23.67822 30.96744,-23.67736 30.96735,-23.6766 30.96724,-23.67623 30.96706,-23.67543 30.96693,-23.67489 30.9668,-23.67431 30.96652,-23.67368 30.96623,-23.6731 30.96597,-23.67236 30.96575,-23.67158 30.96566,-23.67079 30.96569,-23.6702 30.96573,-23.66974 30.96579,-23.66931 30.96609,-23.66803 30.96623,-23.66775 30.96645,-23.66735 30.96689,-23.66694 30.96751,-23.66646 30.96805,-23.66615 30.96873,-23.66577 30.96915,-23.66573 30.96956,-23.66552 30.97008,-23.66526 30.97028,-23.66521 30.97095,-23.66502 30.97137,-23.66487 30.97182,-23.66499 30.97231,-23.66511 30.97266,-23.66513 30.97331,-23.66517 30.9737,-23.66535 30.97418,-23.66563 30.9744,-23.66607 30.97496,-23.66634 30.97559,-23.66663 30.97592,-23.66674 30.97658,-23.66707 30.97703,-23.66735 30.97753,-23.66766 30.97802,-23.66797 30.9786,-23.66844 30.97887,-23.66855 30.97924,-23.6687 30.97971,-23.66879 30.97973,-23.6688 30.98012,-23.66884 30.98081,-23.66905 30.98155,-23.66924 30.98223,-23.66943 30.98295,-23.66958 30.98354,-23.66969 30.98437,-23.66979 30.98502,-23.66991 30.98603,-23.6701 30.98699,-23.67017 30.98803,-23.6702 30.98912,-23.6704 30.98957,-23.67048 30.99016,-23.67087 30.99055,-23.671 30.99096,-23.67105 30.99145,-23.67105 30.992,-23.6712 30.99224,-23.67127 30.99275,-23.67155 30.99333,-23.67188 30.99379,-23.67198 30.99471,-23.67255 30.99542,-23.67302 30.99611,-23.67338 30.99658,-23.6739 30.99725,-23.67416 30.9979,-23.67447 30.99856,-23.67479 30.99913,-23.67504 30.99958,-23.67522 30.99989,-23.67538 31.00014,-23.67546 31.00031,-23.67559 31.00078,-23.67575 31.00113,-23.67574 31.00159,-23.67549 31.00188,-23.67537 31.00215,-23.67541 31.00251,-23.67534 31.00318,-23.67555 31.00332,-23.67565 31.00334,-23.67567 31.00324,-23.67566 31.00335,-23.67574 31.00345,-23.67583 31.00361,-23.67587 31.00386,-23.67586 31.00424,-23.67577 31.00454,-23.67569 31.00494,-23.67562 31.00532,-23.67566 31.00579,-23.67576 31.00615,-23.6758 31.00645,-23.67591 31.00679,-23.67596 31.00727,-23.67614 31.00799,-23.6762 31.00835,-23.67619 31.00889,-23.67597 31.00949,-23.67554 31.00997,-23.67516 31.01042,-23.67496 31.01086,-23.67485 31.01126,-23.67466 31.01184,-23.67441 31.01215,-23.6742 31.01261,-23.67389 31.01277,-23.67376 31.01324,-23.67337 31.01362,-23.67305 31.01408,-23.67265 31.01454,-23.67234 31.01518,-23.67184 31.01582,-23.67149 31.01632,-23.6712 31.01687,-23.67097 31.01762,-23.67063 31.01821,-23.67036 31.0187,-23.67011 31.01931,-23.66966 31.01988,-23.66928 31.0202,-23.6691 31.02059,-23.66893 31.02098,-23.66875 31.02125,-23.66863 31.02167,-23.66847 31.02208,-23.66826 31.02236,-23.66812 31.02286,-23.66785 31.02325,-23.66766 31.02367,-23.6674 31.02406,-23.66722 31.02455,-23.66695 31.02499,-23.66681 31.02564,-23.66661 31.02648,-23.66643 31.02727,-23.66633 31.02735,-23.66632 31.02804,-23.66624 31.02874,-23.66624 31.02934,-23.6663 31.02994,-23.66642 31.03041,-23.66656 31.03104,-23.6667 31.0318,-23.66694 31.03262,-23.66705 31.03322,-23.66726 31.03386,-23.66745 31.03472,-23.66764 31.03587,-23.66803 31.0368,-23.66838 31.03706,-23.66846 31.03763,-23.66865 31.03808,-23.66873 31.0388,-23.66876 31.03971,-23.6687 31.03979,-23.66869 31.04043,-23.66863 31.04115,-23.66849 31.04186,-23.66825 31.04255,-23.66795 31.04327,-23.66756 31.0438,-23.66716 31.04444,-23.66667 31.04455,-23.66659 31.04586,-23.66522 31.04728,-23.66375 31.04873,-23.66163 31.04927,-23.66065 31.04953,-23.65985 31.04965,-23.65889 31.04959,-23.65724 31.04948,-23.65629 31.0489,-23.65504 31.04806,-23.65389 31.04764,-23.65315 31.04739,-23.65244 31.0463,-23.65056 31.04588,-23.64982 31.04576,-23.6493 31.04563,-23.64878 31.04534,-23.64742 31.0454,-23.6466 31.0459,-23.64469 31.04617,-23.64402 31.04647,-23.64339 31.04682,-23.64289 31.04739,-23.64243 31.0485,-23.64226 31.04959,-23.64239 31.05032,-23.64272 31.05254,-23.64417 31.0538,-23.64476 31.0548,-23.6452 31.05688,-23.64601 31.05809,-23.64633 31.05931,-23.64647 31.06081,-23.64647 31.06335,-23.64643 31.06632,-23.64618 31.06766,-23.64597 31.0708,-23.64582 31.07248,-23.64587 31.07376,-23.64578 31.07453,-23.64555 31.07497,-23.64561 31.07526,-23.64578 31.0757,-23.64589 31.07618,-23.64605 31.07685,-23.64605 31.07782,-23.64603 31.0783,-23.64603 31.07861,-23.64626 31.0788,-23.64645 31.07924,-23.64664 31.0801,-23.64716 31.08046,-23.64754 31.08075,-23.64775 31.08117,-23.64798 31.08169,-23.64823 31.08209,-23.64892 31.08259,-23.64974 31.08326,-23.65049 31.08374,-23.65112 31.0841,-23.65173 31.08454,-23.65248 31.08477,-23.65315 31.08488,-23.65361 31.08513,-23.6541 31.08521,-23.65443 31.0854,-23.65498 31.0855,-23.65552 31.08559,-23.65571 31.08599,-23.65619 31.08607,-23.65678 31.08622,-23.65747 31.08661,-23.6581 31.08684,-23.65868 31.08695,-23.65925 31.08705,-23.65985 31.08703,-23.66055 31.08693,-23.66128 31.08697,-23.66191 31.08712,-23.66239 31.08756,-23.66362 31.08781,-23.66419 31.08812,-23.66543 31.08841,-23.66639 31.08871,-23.66718 31.08896,-23.66781 31.08929,-23.66834 31.08996,-23.66846 31.09047,-23.66848 31.0912,-23.66869 31.09177,-23.66934 31.09237,-23.66991 31.09321,-23.67043 31.0935,-23.67095 31.09392,-23.67183 31.0944,-23.67265 31.09518,-23.67366 31.09629,-23.67479 31.09771,-23.67608 31.09868,-23.67699 31.09951,-23.67759 31.10008,-23.67772 31.10052,-23.6778 31.10159,-23.67761 31.10272,-23.67734 31.10441,-23.6769 31.10586,-23.6764 31.1073,-23.67594 31.10785,-23.67541 31.10829,-23.67491 31.10902,-23.67439 31.1095,-23.67372 31.10975,-23.67319 31.11093,-23.67177 31.11143,-23.67135 31.11202,-23.67083 31.1125,-23.67054 31.1129,-23.67028 31.11321,-23.66987 31.11369,-23.66913 31.11405,-23.66842 31.11419,-23.66754 31.11411,-23.66639 31.11417,-23.66587 31.11453,-23.66494 31.11478,-23.66421 31.11491,-23.66312 31.11495,-23.66182 31.11497,-23.66099 31.11484,-23.65996 31.11489,-23.65912 31.11472,-23.65822 31.11461,-23.65751 31.11424,-23.65659 31.11422,-23.65615 31.1144,-23.65514 31.1148,-23.65441 31.11539,-23.65384 31.11627,-23.65345 31.11704,-23.65313 31.11817,-23.65313 31.11886,-23.65324 31.11966,-23.65315 31.12056,-23.65301 31.12131,-23.65305 31.12224,-23.65305 31.12297,-23.65288 31.12374,-23.65296 31.1246,-23.65292 31.12603,-23.65286 31.12714,-23.65269 31.12781,-23.65259 31.12854,-23.65248 31.12963,-23.65234 31.13072,-23.65209 31.13202,-23.65167 31.13319,-23.65137 31.13407,-23.65127 31.13476,-23.651 31.13587,-23.65068 31.137,-23.65026 31.1383,-23.64999 31.14006,-23.6497 31.14165,-23.64934 31.14265,-23.6492 31.14361,-23.64902 31.14448,-23.64885 31.14454,-23.64868 31.14463,-23.64841 31.14463,-23.64841 31.14463,-23.64841 31.14094,-23.64488 31.13869,-23.64246 31.1375,-23.64117 31.13629,-23.63951 31.13579,-23.63897 31.1346,-23.63767 31.13325,-23.63655 31.13143,-23.63496 31.13013,-23.63382 31.12667,-23.63075 31.12503,-23.62894 31.1246,-23.62847 31.1246,-23.62847 31.1246,-23.62847 31.12288,-23.62689 31.12187,-23.62526 31.12155,-23.62477 31.12097,-23.62387 31.1205,-23.62328 31.11992,-23.62254 31.1191,-23.62123 31.11737,-23.61943 31.11585,-23.61604 31.11499,-23.61412 31.11499,-23.61412 31.11499,-23.61412 31.11465,-23.61357 31.11372,-23.61208 31.1135,-23.61187 31.11308,-23.61146 31.11307,-23.61143 31.11307,-23.61141 31.11276,-23.61014 31.11261,-23.60955 31.11153,-23.60842 31.10975,-23.60656 31.1043,-23.6015 31.10203,-23.59836 31.1016,-23.59779 31.10098,-23.59695 31.10079,-23.59622 31.10067,-23.59579 31.10002,-23.59306 31.10015,-23.5915 31.10015,-23.5902 31.10114,-23.58867 31.10301,-23.58785 31.10326,-23.58774 31.10361,-23.58763 31.10652,-23.58674 31.10766,-23.58664 31.10951,-23.58648 31.11117,-23.58623 31.11213,-23.58608 31.11278,-23.58589 31.11446,-23.58541 31.11648,-23.58511 31.11749,-23.58469 31.11858,-23.58423 31.12057,-23.58291 31.12131,-23.58242 31.12303,-23.5805 31.1232,-23.57928 31.12427,-23.57597 31.12521,-23.5728 31.1253,-23.5714 31.12484,-23.56907 31.12465,-23.5687 31.12383,-23.56784 31.12372,-23.56773 31.12369,-23.56765 31.12355,-23.56732 31.12542,-23.56763 31.12624,-23.56688 31.12739,-23.56614 31.12854,-23.56512 31.12922,-23.56366 31.12888,-23.56156 31.12817,-23.55966 31.12753,-23.55803 31.12698,-23.55572 31.12647,-23.55423 31.12559,-23.55324 31.12454,-23.55246 31.12325,-23.55063 31.12277,-23.549 31.12213,-23.54727 31.12064,-23.54636 31.12091,-23.54513 31.12213,-23.54425 31.12352,-23.54354 31.12505,-23.54313 31.12647,-23.5433 31.12783,-23.54344 31.12848,-23.54496 31.12956,-23.54534 31.13044,-23.54486 31.13075,-23.54337 31.13088,-23.54205 31.12963,-23.54076 31.12881,-23.54001 31.12854,-23.53893 31.12888,-23.5377 31.13017,-23.53607 31.13146,-23.53489 31.13248,-23.53363 31.13326,-23.53305 31.13452,-23.53214 31.13496,-23.53176 31.13709,-23.5316 31.13835,-23.53166 31.13893,-23.53166 31.13971,-23.53261 31.14045,-23.53288 31.14191,-23.53261 31.14337,-23.53187 31.14402,-23.53031 31.1452,-23.52701 31.14531,-23.52583 31.14612,-23.52474 31.1469,-23.52413 31.14836,-23.52406 31.14914,-23.52396 31.14921,-23.52318 31.14839,-23.52172 31.14683,-23.52013 31.14609,-23.51856 31.14639,-23.51755 31.14717,-23.5167 31.14846,-23.51602 31.14948,-23.5148 31.15019,-23.51371 31.1507,-23.51205 31.15141,-23.51062 31.15169,-23.50974 31.15192,-23.5091 31.15257,-23.50815 31.15284,-23.5071 31.15264,-23.50618 31.15152,-23.50557 31.15091,-23.50503 31.15043,-23.50441 31.15118,-23.50312 31.15162,-23.50211 31.15138,-23.50082 31.15074,-23.49929 31.1505,-23.49807 31.14989,-23.49688 31.14883,-23.49634 31.14809,-23.49583 31.14704,-23.4942 31.14666,-23.49318 31.14609,-23.49138 31.14595,-23.49013 31.14534,-23.48874 31.14527,-23.48752 31.14571,-23.48568 31.14666,-23.48395 31.14731,-23.48321 31.14866,-23.48283 31.15033,-23.48212 31.15114,-23.481 31.15131,-23.47964 31.15006,-23.47825 31.14999,-23.477 31.14999,-23.47567 31.15121,-23.47432 31.15138,-23.47228 31.15128,-23.47051 31.15155,-23.46899 31.15165,-23.46716 31.15124,-23.46478 31.15138,-23.46332 31.1506,-23.4623 31.15012,-23.46118 31.1507,-23.46023 31.15118,-23.45894 31.15121,-23.45755 31.15172,-23.45623 31.1525,-23.45525 31.15382,-23.4545 31.15491,-23.45433 31.15606,-23.45297 31.15674,-23.45127 31.15688,-23.45016 31.15686,-23.4501 31.15647,-23.44876 31.15521,-23.44758 31.15447,-23.44697 31.15386,-23.44608 31.15369,-23.44476 31.15382,-23.44367 31.15549,-23.44184 31.1565,-23.44089 31.15705,-23.44008 31.15715,-23.43896 31.15674,-23.43767 31.15562,-23.43607 31.15562,-23.43495 31.15681,-23.43383 31.1581,-23.43251 31.15874,-23.43075 31.15898,-23.42881 31.15925,-23.42684 31.15966,-23.42474 31.16,-23.42359 31.16034,-23.42253 31.16017,-23.42158 31.15908,-23.4205 31.15837,-23.41934 31.1583,-23.41829 31.15806,-23.41687 31.15779,-23.41548 31.15851,-23.41436 31.15898,-23.41205 31.15929,-23.41062 31.15881,-23.40872 31.15817,-23.40737 31.15722,-23.40574 31.15722,-23.40397 31.15745,-23.40265 31.15688,-23.40187 31.15491,-23.40095 31.15359,-23.39973 31.15325,-23.39848 31.15301,-23.39654 31.1523,-23.39498 31.15223,-23.39135 31.15236,-23.38863 31.15318,-23.38656 31.15426,-23.38531 31.15684,-23.38555 31.15891,-23.38612 31.16027,-23.38463 31.16132,-23.3829 31.16332,-23.38144 31.16567,-23.37988 31.16617,-23.37811 31.16655,-23.37574 31.16628,-23.37374 31.16648,-23.37184 31.16825,-23.36858 31.16947,-23.36631 31.17028,-23.3643 31.17065,-23.36172 31.17109,-23.35854 31.17147,-23.3565 31.17249,-23.35368 31.17306,-23.35178 31.17354,-23.35019 31.21686,-23.34844 31.21723,-23.34688 31.21745,-23.34579 31.21774,-23.34441 31.21774,-23.34324 31.21745,-23.34069 31.21709,-23.33879 31.21709,-23.33697 31.22018,-23.33659 31.22426,-23.33645 31.22835,-23.33659 31.23394,-23.33781 31.23831,-23.34003 31.24096,-23.34275 31.24476,-23.34863 31.25085,-23.35372 31.25594,-23.35537 31.26067,-23.35415 31.26511,-23.35522 31.26905,-23.35752 31.274,-23.3621 31.27822,-23.36669 31.28267,-23.36805 31.28611,-23.36705 31.29084,-23.37027 31.29234,-23.37486 31.29428,-23.37844 31.29707,-23.38109 31.29972,-23.3826 31.30058,-23.38138 31.30105,-23.38071 31.30144,-23.38016 31.3016,-23.37927 31.30166,-23.37894 31.30194,-23.37808 31.30345,-23.37665 31.30474,-23.3755 31.3053,-23.37508 31.30589,-23.37464 31.30613,-23.37418 31.30639,-23.37371 31.30753,-23.37278 31.3089,-23.37163 31.31026,-23.37041 31.31104,-23.36955 31.31248,-23.36955 31.31477,-23.36941 31.31606,-23.36891 31.31797,-23.36827 31.31821,-23.36819 31.31838,-23.3681 31.31928,-23.36762 31.31986,-23.36726 31.31993,-23.36554 31.31964,-23.36267 31.3195,-23.36053 31.31907,-23.3563 31.319,-23.35329 31.31921,-23.35056 31.31914,-23.34813 31.32058,-23.34455 31.32222,-23.34089 31.32315,-23.33752 31.3233,-23.33465 31.3234,-23.33162 31.32271,-23.32752 31.32215,-23.32558 31.32142,-23.32271 31.32096,-23.31958 31.31996,-23.31551 31.31942,-23.31291 31.31856,-23.30838 31.31796,-23.30564 31.31796,-23.30098 31.32182,-23.30158 31.32749,-23.30138 31.33035,-23.30071 31.33342,-23.29958 31.33916,-23.29918 31.34429,-23.29878 31.34929,-23.29798 31.35322,-23.29664 31.35922,-23.29391 31.36355,-23.29124 31.36682,-23.28704 31.36902,-23.28404 31.37269,-23.28031 31.37589,-23.27791 31.37815,-23.27678 31.38002,-23.27638 31.38202,-23.27711 31.38502,-23.28065 31.38829,-23.28264 31.39275,-23.28358 31.39822,-23.28218 31.40195,-23.28238 31.40535,-23.28191 31.40955,-23.28104 31.41309,-23.27971 31.41475,-23.27871 31.41795,-23.27758 31.42222,-23.27931 31.42495,-23.27964 31.42815,-23.27838 31.42975,-23.27658 31.43095,-23.27464 31.43409,-23.27411 31.43642,-23.27318 31.43955,-23.26898 31.44122,-23.26665 31.44022,-23.26411 31.44055,-23.26211 31.44209,-23.26038 31.44442,-23.26018 31.44742,-23.26071 31.45029,-23.26211 31.45335,-23.26331 31.45575,-23.26304 31.45729,-23.26171 31.45802,-23.25904 31.45849,-23.25758 31.46129,-23.25705 31.46282,-23.25578 31.46469,-23.25458 31.46635,-23.25358 31.46829,-23.25238 31.47075,-23.25231 31.47408,-23.25258 31.47622,-23.25364 31.47835,-23.25338 31.48142,-23.25171 31.48422,-23.25198 31.48729,-23.25184 31.49102,-23.25151 31.49282,-23.24904 31.49389,-23.24565 31.49595,-23.24244 31.49735,-23.24005 31.50062,-23.23791 31.50335,-23.23591 31.50515,-23.23331 31.50669,-23.22951 31.50715,-23.22658 31.50735,-23.22445 31.51055,-23.22358 31.51269,-23.22245 31.51555,-23.22085 31.51615,-23.21858 31.51822,-23.21691 31.51982,-23.21578 31.52222,-23.21525 31.52402,-23.21518 31.52608,-23.21665 31.52795,-23.21891 31.53062,-23.21984 31.53375,-23.22045 31.53675,-23.21945 31.53908,-23.21898 31.54128,-23.21984 31.54495,-23.22071 31.54842,-23.22131 31.55155,-23.22158 31.55488,-23.22238 31.55668,-23.22338 31.55935,-23.22551 31.5612,-23.22693 31.56105,-23.22875 31.55924,-23.23117 31.55586,-23.26905 31.55073,-23.41028 31.55362,-23.43038 31.56102,-23.48196 31.57973,-23.50142 31.66584,-23.59144 31.69055,-23.62944 31.69739,-23.72189 31.76918,-23.8878 31.88072,-23.95505 31.88073,-23.95518 31.88074,-23.95571 31.88076,-23.95714 31.88078,-23.9586 31.88079,-23.95951 31.88084,-23.96264 31.88088,-23.96493 31.88089,-23.96551 31.88092,-23.96751 31.88092,-23.96792 31.88383,-23.98459 31.85268,-23.98685 31.84793,-23.98617 31.84488,-23.98593 31.84014,-23.98672 31.83266,-23.9869 31.82891,-23.98597 31.82497,-23.98616 31.82298,-23.98826 31.82161,-23.99085 31.82238,-23.99298 31.82212,-23.99651 31.82036,-23.99838 31.81796,-23.99908 31.81254,-23.99931 31.80952,-23.99884 31.8047,-23.99718 31.80121,-23.99409 31.79847,-23.99337 31.79461,-23.99193 31.79161,-23.98837 31.78747,-23.98649 31.78269,-23.98208 31.78054,-23.98141 31.7764,-23.98124 31.76997,-23.98319 31.76748,-23.98462 31.76398,-23.98791 31.75906,-23.99164 31.75467,-23.9958 31.75177,-23.99765 31.74888,-24.00072 31.74656,-24.00348 31.74486,-24.00464 31.7417,-24.00627 31.73708,-24.00882 31.73491,-24.01134 31.7335,-24.01452 31.73357,-24.01836 31.73543,-24.02555 31.73598,-24.02892 31.73727,-24.03206 31.73764,-24.03905 31.73581,-24.04608 31.7317,-24.04975 31.72605,-24.05305 31.7187,-24.05684 31.70877,-24.05869 31.70191,-24.05992 31.69036,-24.0601 31.68372,-24.05953 31.67998,-24.05665 31.67872,-24.05509 31.67818,-24.05239 31.6774,-24.04992 31.67613,-24.04791 31.67534,-24.04521 31.67432,-24.04297 31.67379,-24.04073 31.67196,-24.03511 31.6714,-24.03106 31.6706,-24.02746 31.66957,-24.02499 31.66876,-24.02095 31.66598,-24.0167 31.663,-24.01494 31.6593,-24.01409 31.65242,-24.0142 31.63944,-24.01643 31.63258,-24.01789 31.62672,-24.01978 31.62089,-24.02325 31.6139,-24.03103 31.6115,-24.03423 31.60957,-24.03629 31.60915,-24.04013 31.60924,-24.04509 31.6083,-24.04759 31.6059,-24.05056 31.60318,-24.05281 31.60009,-24.05539 31.59814,-24.05632 31.5947,-24.05637 31.58687,-24.05278 31.58028,-24.04711 31.57651,-24.0422 31.57372,-24.03728 31.57096,-24.03439 31.56824,-24.03307 31.56112,-24.03363 31.55206,-24.03557 31.54865,-24.0372 31.54624,-24.03972 31.54457,-24.04245 31.54387,-24.04494 31.54373,-24.05081 31.54256,-24.05399 31.53792,-24.05586 31.53155,-24.05685 31.52909,-24.05667 31.52094,-24.0543 31.51903,-24.05261 31.51344,-24.04696 31.50993,-24.04318 31.50547,-24.04076 31.50029,-24.03948 31.49757,-24.03839 31.49336,-24.03687 31.48197,-24.03162 31.47114,-24.0302 31.46253,-24.02964 31.45956,-24.02833 31.45259,-24.02324 31.45035,-24.02124 31.44762,-24.01992 31.44094,-24.02098 31.44058,-24.02476 31.4407,-24.03176 31.44056,-24.0383 31.43866,-24.04217 31.43603,-24.04672 31.43386,-24.04946 31.4312,-24.05235 31.42805,-24.0545 31.41997,-24.05642 31.41583,-24.05851 31.40902,-24.06289 31.39902,-24.06755 31.39558,-24.06759 31.3926,-24.06583 31.39009,-24.06225 31.38778,-24.05664 31.38644,-24.0522 31.38352,-24.05129 31.37911,-24.05225 31.37355,-24.05751 31.3682,-24.0639 31.36512,-24.06846 31.36001,-24.07124 31.34946,-24.07274 31.34237,-24.07486 31.33652,-24.07765 31.33114,-24.07953 31.32672,-24.08004 31.32062,-24.0826 31.31767,-24.08287 31.31323,-24.08135 31.31001,-24.07981 31.30478,-24.0756 31.30156,-24.07383 31.29885,-24.07342 31.29639,-24.07323 31.29345,-24.07439 31.28764,-24.07966 31.28356,-24.08581 31.27508,-24.09382 31.2724,-24.09543 31.26411,-24.09983 31.25725,-24.10105 31.25702,-24.10097 31.25481,-24.10015 31.25428,-24.09996 31.25228,-24.09773 31.2497,-24.08964 31.24811,-24.08266 31.24783,-24.08018 31.24701,-24.075 31.24524,-24.07142 31.24247,-24.06717 31.23847,-24.06293 31.2347,-24.05757 31.22834,-24.05158 31.22002,-24.04557 31.21606,-24.04381 31.21257,-24.04279 31.21133,-24.04243 31.21134,-24.04269 31.21129,-24.04268 31.21043,-24.04263 31.2089,-24.04216 31.20681,-24.04133 31.20603,-24.04103 31.20532,-24.04052 31.20395,-24.03971 31.20332,-24.03934 31.20288,-24.03903 31.20226,-24.03844 31.20148,-24.03783 31.20094,-24.03727 31.20055,-24.03675 31.20012,-24.03635 31.19908,-24.03517 31.19802,-24.03412 31.19767,-24.03366 31.19676,-24.03271 31.19527,-24.0317 31.19448,-24.03131 31.19425,-24.03115 31.19339,-24.03104 31.19187,-24.03107 31.19081,-24.03113 31.18977,-24.0314 31.18816,-24.03169 31.18705,-24.03206 31.18576,-24.03252 31.18391,-24.03309 31.18201,-24.03381 31.18107,-24.03411 31.18028,-24.03433 31.17905,-24.0347 31.17853,-24.03487 31.1781,-24.03499 31.17753,-24.03521 31.17705,-24.03548 31.1765,-24.03578 31.17611,-24.03606 31.17566,-24.03638 31.17513,-24.03685 31.17468,-24.03751 31.17432,-24.03792 31.17395,-24.03831 31.17368,-24.03869 31.17336,-24.03913 31.17308,-24.03984 31.17282,-24.04044 31.1727,-24.04089 31.17197,-24.04255 31.17173,-24.04304 31.17151,-24.0435 31.17131,-24.04418 31.17126,-24.04538 31.17123,-24.04612 31.17105,-24.04652 31.17104,-24.04816 31.17082,-24.04859 31.17067,-24.04913 31.17053,-24.04977 31.17063,-24.05104 31.17079,-24.05166 31.17076,-24.05228 31.17097,-24.05342 31.17098,-24.05388 31.17097,-24.05522 31.17095,-24.05619 31.17063,-24.05697 31.17041,-24.05747 31.17027,-24.05787 31.17008,-24.0583 31.16985,-24.05863 31.16948,-24.05889 31.16899,-24.05904 31.16822,-24.05904 31.16774,-24.05899 31.16709,-24.05908 31.16628,-24.05915 31.16503,-24.05933 31.16451,-24.05932 31.16428,-24.05937 31.16367,-24.05959 31.16263,-24.06005 31.16109,-24.0609 31.16053,-24.06125 31.15947,-24.06195 31.15706,-24.06338 31.1562,-24.06381 31.15533,-24.06443 31.15459,-24.06477 31.15424,-24.06494 31.15359,-24.06535 31.15296,-24.06568 31.15267,-24.06592 31.15212,-24.06662 31.15173,-24.06696 31.15127,-24.06724 31.15083,-24.06765 31.15025,-24.06801 31.1499,-24.06815 31.14856,-24.06868 31.14826,-24.06895 31.14771,-24.06931 31.14708,-24.06968 31.14605,-24.06999 31.14585,-24.07004 31.14506,-24.07025 31.14385,-24.07071 31.14247,-24.07112 31.14141,-24.07141 31.14047,-24.07177 31.13901,-24.07213 31.13783,-24.07235 31.13689,-24.07278 31.136,-24.07315 31.13475,-24.07351 31.13417,-24.07364 31.13378,-24.0737 31.13253,-24.07366 31.13117,-24.07354 31.13058,-24.07326 31.12934,-24.07292 31.1278,-24.07191 31.12712,-24.07136 31.12635,-24.07073 31.12561,-24.07016 31.12425,-24.0692 31.12357,-24.06889 31.12306,-24.06866 31.12214,-24.06846 31.12156,-24.06834 31.12055,-24.0682 31.11991,-24.06821 31.11944,-24.06823 31.1188,-24.06824 31.11825,-24.06832 31.11715,-24.0685 31.11632,-24.06864 31.11582,-24.0688 31.11495,-24.06899 31.11347,-24.06924 31.11249,-24.06942 31.11118,-24.0696 31.10994,-24.0698 31.10901,-24.06987 31.10769,-24.07012 31.10636,-24.07029 31.10549,-24.0703 31.1045,-24.07048 31.10311,-24.07052 31.10288,-24.07054 31.10187,-24.07061 31.10155,-24.07064 31.10094,-24.07077 31.10021,-24.07102 31.09954,-24.07132 31.09897,-24.07164 31.09826,-24.07219 31.09748,-24.07293 31.09683,-24.07355 31.09613,-24.0743 31.09559,-24.07484 31.09514,-24.07508 31.09491,-24.0752 31.09425,-24.07552 31.09381,-24.07569 31.09336,-24.0758 31.09274,-24.07596 31.09185,-24.07611 31.09145,-24.07618 31.09013,-24.07651 31.08879,-24.07686 31.08787,-24.0772 31.0876,-24.07726 31.08707,-24.07742 31.08646,-24.07767 31.08563,-24.07801 31.08511,-24.07821 31.0842,-24.07851 31.08372,-24.07868 31.08266,-24.07899 31.08175,-24.07929 31.08101,-24.07954 31.0806,-24.07966 31.08027,-24.0798 31.0794,-24.0801 31.07857,-24.08043 31.07769,-24.08074 31.077,-24.08097 31.07642,-24.08119 31.07554,-24.08158 31.07474,-24.08195 31.07406,-24.08226 31.07352,-24.08256 31.07309,-24.08271 31.07262,-24.08305 31.07214,-24.08333 31.07187,-24.08353 31.07163,-24.08378 31.07144,-24.08405 31.07111,-24.08448 31.07086,-24.08482 31.07056,-24.0852 31.07035,-24.0855 31.07011,-24.08587 31.06976,-24.0862 31.06938,-24.08659 31.0692,-24.08676 31.06897,-24.08713 31.06878,-24.08747 31.06857,-24.08775 31.06823,-24.08804 31.06787,-24.08843 31.06729,-24.08917 31.0669,-24.08963 31.06652,-24.08996 31.06608,-24.09026 31.06566,-24.09061 31.0651,-24.09095 31.06477,-24.09114 31.06444,-24.09126 31.06374,-24.09142 31.06343,-24.09146 31.06337,-24.09148 31.06329,-24.09151 31.06266,-24.09175 31.06222,-24.09201 31.06175,-24.09227 31.06113,-24.09253 31.06044,-24.09301 31.05987,-24.09335 31.05926,-24.09363 31.05841,-24.09368 31.05761,-24.09369 31.05695,-24.09366 31.05606,-24.09367 31.05507,-24.09364 31.05452,-24.09367 31.05399,-24.09368 31.05345,-24.09372 31.05235,-24.09386 31.05174,-24.09388 31.05108,-24.09375 31.05035,-24.09358 31.04959,-24.09354 31.04853,-24.09351 31.04782,-24.09354 31.04715,-24.09363 31.04666,-24.09376 31.04614,-24.09371 31.04531,-24.0937 31.04483,-24.09383 31.0441,-24.09367 31.04365,-24.09364 31.04325,-24.09386 31.04297,-24.09404 31.04259,-24.09424 31.04226,-24.09451 31.042,-24.09475 31.04156,-24.09504 31.04102,-24.09526 31.04051,-24.09531 31.03971,-24.09529 31.0389,-24.09537 31.03799,-24.09546 31.0371,-24.09542 31.03624,-24.09566 31.03551,-24.09601 31.03494,-24.0963 31.03432,-24.09658 31.03391,-24.09696 31.03349,-24.09735 31.033,-24.09772 31.03252,-24.09804 31.03191,-24.09813 31.031,-24.09896 31.03082,-24.09927 31.03067,-24.09966 31.03056,-24.09996 31.03051,-24.10022 31.03037,-24.10048 31.03014,-24.10088 31.02998,-24.10119 31.02997,-24.10184 31.0301,-24.10248 31.03021,-24.10332 31.03055,-24.10416 31.03071,-24.10434 31.03086,-24.10492 31.03101,-24.10539 31.03162,-24.10654 31.03192,-24.10717 31.03241,-24.10817 31.03255,-24.10892 31.03276,-24.10948 31.03287,-24.11028 31.03317,-24.11132 31.03303,-24.11228 31.03275,-24.11334 31.03248,-24.1141 31.03205,-24.1149 31.03177,-24.11536 31.03143,-24.11582 31.03103,-24.11626 31.03029,-24.11695 31.02908,-24.11802 31.02818,-24.11863 31.0273,-24.11917 31.02669,-24.11946 31.02562,-24.12011 31.02439,-24.12093 31.02371,-24.12147 31.0229,-24.12203 31.02196,-24.12275 31.02116,-24.12341 31.02056,-24.12393 31.01985,-24.12459 31.01861,-24.1256 31.01774,-24.12622 31.0171,-24.12667 31.01652,-24.12703 31.01557,-24.1277 31.01454,-24.12836 31.01385,-24.12884 31.0134,-24.1291 31.01276,-24.12939 31.01267,-24.12942 31.0104,-24.12695 31.00268,-24.11857 30.99883,-24.11438 30.99582,-24.11119 30.99312,-24.10833 30.99042,-24.10546 30.99039,-24.10543 30.98805,-24.10295 30.98686,-24.10169 30.98609,-24.10087 30.98438,-24.09904 30.98135,-24.0958 30.98048,-24.09487 30.97842,-24.09265 30.97828,-24.09251 30.97619,-24.09027 30.97616,-24.09023 30.97624,-24.09019 30.97895,-24.0886 30.98167,-24.08702 30.98968,-24.08234 30.99234,-24.08078 30.99466,-24.07943 30.99697,-24.07808 31.00037,-24.0761 31.00236,-24.07494 31.00435,-24.07379 31.00579,-24.07296 31.00702,-24.07225 31.00738,-24.07204 31.00736,-24.07201 31.00631,-24.06975 31.00525,-24.06749 31.0042,-24.06523 31.00314,-24.06297 31.00209,-24.06071 31.00103,-24.05845 30.99998,-24.05619 30.99982,-24.05585 30.99899,-24.05414 30.99816,-24.05242 30.99733,-24.05071 30.99704,-24.05002 30.99671,-24.04928 30.99638,-24.04855 30.99572,-24.04707 30.99539,-24.04634 30.99473,-24.04486 30.9944,-24.04413 30.99374,-24.04265</coordinates></LinearRing></outerBoundaryIs></Polygon></MultiGeometry></Placemark></Document></kml>