<?xml version="1.0" encoding="UTF-8"?><kml xmlns="http://www.opengis.net/kml/2.2"><Document><Placemark><name>Ga-Mashishimale</name><description>Main Place 963014</description><ExtendedData><Data name="code"><value>963014</value></Data><Data name="name"><value>Ga-Mashishimale</value></Data><Data name="description"><value>Main Place 963014</value></Data></ExtendedData><MultiGeometry><Polygon><outerBoundaryIs><LinearRing><coordinates>30.99171,-23.98495 30.99218,-23.98508 30.99255,-23.98508 30.99297,-23.98512 30.99329,-23.98523 30.99378,-23.98525 30.99434,-23.9855 30.9947,-23.98557 30.99547,-23.98563 30.99613,-23.98595 30.9966,-23.98604 30.99726,-23.98615 30.99767,-23.98636 30.99788,-23.98638 30.99839,-23.98646 30.99865,-23.98651 30.99903,-23.98655 30.99935,-23.98657 30.99948,-23.98662 30.99971,-23.98662 30.99981,-23.98663 31.00058,-23.98666 31.00055,-23.9868 31.0005,-23.98709 31.00042,-23.98731 31.00077,-23.9875 31.00112,-23.98788 31.00131,-23.98813 31.00146,-23.98835 31.00124,-23.9884 31.00113,-23.98845 31.00115,-23.9887 31.00139,-23.98905 31.00188,-23.98957 31.00203,-23.98981 31.00203,-23.99002 31.00193,-23.99017 31.00182,-23.99028 31.00178,-23.99034 31.00178,-23.9905 31.00198,-23.99074 31.00231,-23.99096 31.00246,-23.99118 31.00243,-23.99137 31.00226,-23.99162 31.0022,-23.9918 31.0023,-23.9921 31.00237,-23.9923 31.00243,-23.99262 31.00243,-23.99292 31.0024,-23.9932 31.00238,-23.99343 31.00232,-23.99367 31.00231,-23.99384 31.00236,-23.99414 31.00257,-23.99444 31.00273,-23.99458 31.00292,-23.99473 31.0031,-23.99486 31.0032,-23.99505 31.00331,-23.99524 31.0032,-23.99571 31.00303,-23.9962 31.00299,-23.99667 31.00293,-23.99703 31.0031,-23.99769 31.00307,-23.99796 31.00299,-23.99822 30.9999,-23.99924 30.99891,-23.99962 30.99881,-23.99909 30.99873,-23.99868 30.99849,-23.99901 30.99786,-23.99933 30.99731,-23.99911 30.99678,-23.99864 30.99567,-23.99783 30.99431,-23.99682 30.9935,-23.99637 30.99313,-23.99637 30.99289,-23.99653 30.99261,-23.997 30.9925,-23.99749 30.99175,-23.99787 30.99058,-23.99858 30.99035,-23.99869 30.99044,-23.99911 30.99066,-23.99956 30.99081,-23.99977 30.99063,-23.99996 30.99045,-24.0001 30.99029,-24.00024 30.99003,-24.00037 30.99019,-24.00063 30.99064,-24.00124 30.99081,-24.00152 30.99065,-24.00166 30.99028,-24.00163 30.98987,-24.00147 30.98966,-24.00147 30.98943,-24.00165 30.98904,-24.00175 30.98884,-24.00172 30.98828,-24.00182 30.988,-24.00174 30.98787,-24.00195 30.9877,-24.00214 30.98764,-24.00226 30.9874,-24.00252 30.98718,-24.00278 30.98691,-24.00312 30.98643,-24.00287 30.98582,-24.0026 30.98557,-24.00242 30.98534,-24.00219 30.9834,-24.00138 30.98085,-24.00073 30.97999,-24.00051 30.97975,-24.00069 30.97908,-24.00047 30.97865,-24.00045 30.97801,-24.00098 30.97807,-23.99304 30.98008,-23.99212 30.98118,-23.99166 30.98172,-23.99089 30.98228,-23.99 30.98272,-23.9891 30.98272,-23.98847 30.98285,-23.98779 30.98322,-23.98687 30.9837,-23.98608 30.98429,-23.98481 30.98466,-23.9838 30.98474,-23.98285 30.98476,-23.98205 30.98466,-23.98157 30.98466,-23.98105 30.98485,-23.98062 30.98516,-23.98032 30.98672,-23.97946 30.98694,-23.97979 30.98724,-23.98015 30.98724,-23.98035 30.98719,-23.98073 30.98719,-23.98101 30.98717,-23.98131 30.98724,-23.98186 30.98741,-23.98216 30.98764,-23.98231 30.98783,-23.98235 30.98803,-23.98261 30.98817,-23.98284 30.98835,-23.98295 30.98852,-23.98303 30.98884,-23.9832 30.98914,-23.9834 30.98935,-23.98365 30.98977,-23.98386 30.99003,-23.98399 30.99035,-23.98408 30.99075,-23.98448 30.99107,-23.98474 30.99136,-23.9848 30.99144,-23.98482 30.99171,-23.98495</coordinates></LinearRing></outerBoundaryIs></Polygon><Polygon><outerBoundaryIs><LinearRing><coordinates>30.99587,-23.92814 30.99618,-23.92816 30.99657,-23.92816 30.99698,-23.92832 30.99745,-23.92843 30.99782,-23.92861 30.99813,-23.92861 30.99841,-23.92855 30.99895,-23.92853 30.99964,-23.92849 30.99983,-23.92841 31.00005,-23.92841 31.0002,-23.92845 31.0004,-23.92826 31.00067,-23.92822 31.00108,-23.92834 31.00128,-23.92836 31.00134,-23.92841 31.00143,-23.92847 31.00159,-23.92865 31.00182,-23.92894 31.00206,-23.92935 31.00219,-23.92955 31.00245,-23.92966 31.00291,-23.92996 31.00321,-23.93046 31.00348,-23.93089 31.00383,-23.93126 31.00412,-23.93187 31.0043,-23.93238 31.00463,-23.93269 31.00492,-23.933 31.00395,-23.93421 31.00262,-23.93577 31.00162,-23.93704 31.00125,-23.93752 31.00295,-23.93772 31.0038,-23.93782 31.00421,-23.9379 31.00427,-23.93792 31.00489,-23.93804 31.00492,-23.93869 31.00493,-23.93898 31.00493,-23.93901 31.00505,-23.93991 31.00411,-23.9408 31.0032,-23.94126 31.00334,-23.94155 31.00353,-23.94193 31.00353,-23.94194 31.00353,-23.942 31.00358,-23.94285 31.00183,-23.94439 31.00182,-23.94475 31.00232,-23.9449 31.00318,-23.9449 31.00503,-23.94509 31.00543,-23.94609 31.00697,-23.94736 31.00701,-23.94768 31.00613,-23.94798 31.00603,-23.94801 31.00434,-23.94858 31.0029,-23.94903 31.00268,-23.9491 31.00065,-23.94973 31.00057,-23.94975 31.00049,-23.94977 31.00031,-23.94985 31.00013,-23.94993 30.99995,-23.95 30.99969,-23.95011 30.99949,-23.9502 30.9994,-23.95024 30.99915,-23.95035 30.999,-23.95041 30.99895,-23.95043 30.99851,-23.95062 30.99832,-23.9507 30.99792,-23.95102 30.99791,-23.95103 30.99773,-23.95135 30.99743,-23.95158 30.99703,-23.95192 30.99625,-23.95244 30.99625,-23.9525 30.99648,-23.95596 30.99646,-23.95643 30.99645,-23.9567 30.99644,-23.95692 30.9964,-23.95721 30.99653,-23.95749 30.99662,-23.95881 30.99665,-23.9594 30.99683,-23.95993 30.99687,-23.96009 30.99694,-23.96034 30.99726,-23.96088 30.998,-23.96203 30.99876,-23.96153 30.99923,-23.96229 30.99845,-23.9628 30.99896,-23.96372 30.99897,-23.96373 30.99924,-23.9644 30.99987,-23.96563 31.00022,-23.96633 31.00037,-23.96669 31.00046,-23.96687 31.00046,-23.96708 31.00033,-23.96742 31.00018,-23.96763 30.99989,-23.96814 30.99954,-23.96874 30.99944,-23.96902 30.99921,-23.96953 30.99889,-23.96993 30.99905,-23.97027 30.99905,-23.9706 30.99905,-23.97105 30.99919,-23.97134 30.99946,-23.97155 30.99956,-23.97176 30.99982,-23.97217 30.99999,-23.97257 30.99992,-23.97284 30.99982,-23.9729 30.99995,-23.97327 31.00007,-23.9734 31.00014,-23.974 30.99976,-23.97431 30.99978,-23.9748 30.99948,-23.97552 30.99912,-23.97602 30.99803,-23.97675 30.99803,-23.97675 30.99803,-23.97675 30.99713,-23.97736 30.99696,-23.97747 30.9969,-23.97751 30.99646,-23.97779 30.99575,-23.97824 30.99578,-23.97827 30.99536,-23.97853 30.99484,-23.97885 30.99458,-23.97901 30.9942,-23.97924 30.99392,-23.97901 30.99357,-23.97872 30.99304,-23.97829 30.99275,-23.97804 30.99236,-23.97773 30.99225,-23.97763 30.99166,-23.97813 30.99131,-23.97842 30.98997,-23.97709 30.99025,-23.97683 30.99097,-23.97613 30.99023,-23.97478 30.98996,-23.97428 30.98886,-23.97225 30.98775,-23.96952 30.98707,-23.96783 30.98677,-23.96709 30.98651,-23.96639 30.98645,-23.96621 30.98632,-23.96587 30.98617,-23.96544 30.98617,-23.96495 30.98607,-23.96492 30.98595,-23.96501 30.98582,-23.96507 30.98571,-23.96506 30.98535,-23.96479 30.98495,-23.96459 30.98461,-23.96433 30.98431,-23.96414 30.98412,-23.96409 30.98389,-23.96413 30.98357,-23.9642 30.98341,-23.96424 30.98321,-23.96423 30.98305,-23.96424 30.98288,-23.96423 30.9829,-23.96417 30.98297,-23.96406 30.98233,-23.96359 30.98222,-23.96335 30.98211,-23.96321 30.98224,-23.96294 30.98246,-23.96273 30.98226,-23.96256 30.98201,-23.96175 30.98142,-23.96158 30.98059,-23.96141 30.98013,-23.96125 30.97987,-23.96107 30.97966,-23.96092 30.97919,-23.96072 30.97869,-23.96044 30.97868,-23.9603 30.97861,-23.95979 30.97866,-23.95957 30.97883,-23.95911 30.97895,-23.95889 30.97923,-23.95864 30.97943,-23.95856 30.97963,-23.95822 30.9798,-23.95802 30.97989,-23.9579 30.98008,-23.95748 30.98036,-23.9566 30.98044,-23.95642 30.98051,-23.95617 30.98063,-23.95552 30.98077,-23.95524 30.98102,-23.95453 30.98115,-23.95422 30.98109,-23.95405 30.9808,-23.95376 30.98055,-23.95338 30.98042,-23.95307 30.98021,-23.95289 30.97984,-23.95255 30.9801,-23.95196 30.98078,-23.95149 30.98081,-23.95147 30.98169,-23.9502 30.98195,-23.95026 30.9821,-23.95028 30.98228,-23.95033 30.98253,-23.95043 30.98278,-23.95056 30.98291,-23.95041 30.98298,-23.95025 30.98305,-23.95008 30.98301,-23.94994 30.98297,-23.94981 30.98292,-23.94952 30.98278,-23.94931 30.98274,-23.94917 30.9827,-23.94904 30.98261,-23.94871 30.98246,-23.94837 30.98235,-23.94826 30.98221,-23.94813 30.98203,-23.94804 30.98186,-23.94797 30.98166,-23.94795 30.98152,-23.94798 30.98125,-23.94788 30.98105,-23.94781 30.98082,-23.94779 30.98056,-23.94773 30.98049,-23.94707 30.98038,-23.94687 30.98029,-23.94672 30.98003,-23.94654 30.97984,-23.9465 30.97953,-23.94599 30.97923,-23.94592 30.97912,-23.94592 30.97882,-23.94591 30.97811,-23.94587 30.97788,-23.94586 30.97758,-23.94585 30.97741,-23.94581 30.97728,-23.94575 30.97699,-23.94572 30.97668,-23.9457 30.9765,-23.94568 30.97639,-23.94568 30.97623,-23.94571 30.97602,-23.94577 30.9758,-23.94583 30.9757,-23.94583 30.97532,-23.94583 30.97504,-23.94582 30.97484,-23.94577 30.97442,-23.9456 30.97431,-23.94553 30.974,-23.94528 30.97383,-23.94504 30.97355,-23.94463 30.97335,-23.94448 30.97313,-23.94428 30.97301,-23.94408 30.97253,-23.94347 30.97318,-23.94077 30.97359,-23.94067 30.97455,-23.94037 30.97549,-23.94059 30.97653,-23.94147 30.97701,-23.94177 30.97754,-23.94208 30.97797,-23.94222 30.97839,-23.94233 30.97855,-23.94223 30.97866,-23.94199 30.97878,-23.94168 30.97879,-23.9416 30.97884,-23.94131 30.97901,-23.94092 30.97923,-23.94057 30.9794,-23.94049 30.97966,-23.94018 30.97989,-23.93989 30.98018,-23.93985 30.98038,-23.93985 30.98063,-23.93989 30.98085,-23.93983 30.98104,-23.93977 30.98143,-23.93963 30.98176,-23.93958 30.98198,-23.9394 30.98217,-23.93913 30.98241,-23.93883 30.9827,-23.93846 30.98315,-23.93801 30.98377,-23.93743 30.98428,-23.93714 30.98465,-23.93702 30.98487,-23.93702 30.98522,-23.93702 30.98557,-23.9369 30.98602,-23.93673 30.98635,-23.93647 30.98645,-23.93616 30.98654,-23.93595 30.98653,-23.93569 30.98666,-23.93558 30.98697,-23.93542 30.98713,-23.9353 30.98725,-23.93505 30.98719,-23.93476 30.98711,-23.93458 30.98705,-23.93431 30.98694,-23.93409 30.98678,-23.93401 30.98672,-23.93388 30.9866,-23.93368 30.98643,-23.93359 30.98633,-23.93341 30.98633,-23.93318 30.98633,-23.93288 30.9866,-23.93261 30.9868,-23.93243 30.98719,-23.93234 30.98756,-23.93216 30.98793,-23.932 30.98797,-23.93181 30.9882,-23.93161 30.98877,-23.9315 30.98918,-23.9315 30.98943,-23.93148 30.98957,-23.93128 30.98982,-23.93103 30.99004,-23.93081 30.99025,-23.93062 30.99041,-23.93042 30.99066,-23.93019 30.9907,-23.93001 30.99062,-23.92978 30.99076,-23.92953 30.99088,-23.92945 30.99109,-23.92945 30.99134,-23.92941 30.99148,-23.92937 30.99166,-23.92935 30.99183,-23.92935 30.99203,-23.92945 30.99222,-23.92957 30.99236,-23.92959 30.99255,-23.92949 30.99271,-23.92941 30.99287,-23.92927 30.99289,-23.92926 30.99312,-23.92912 30.99328,-23.92896 30.99355,-23.92882 30.9939,-23.92877 30.99412,-23.92857 30.99435,-23.9284 30.99476,-23.92814 30.99495,-23.92806 30.99527,-23.92806 30.99562,-23.92806 30.99587,-23.92814</coordinates></LinearRing></outerBoundaryIs></Polygon></MultiGeometry></Placemark></Document></kml>