<?xml version="1.0" encoding="UTF-8"?><kml xmlns="http://www.opengis.net/kml/2.2"><Document><Placemark><name>Thulamela</name><description>Local Municipality 966</description><ExtendedData><Data name="code"><value>966</value></Data><Data name="name"><value>Thulamela</value></Data><Data name="description"><value>Local Municipality 966</value></Data></ExtendedData><MultiGeometry><Polygon><outerBoundaryIs><LinearRing><coordinates>30.40351,-22.8115 30.40385,-22.81166 30.40433,-22.8118 30.40468,-22.81191 30.40488,-22.81183 30.40525,-22.81197 30.40561,-22.81215 30.40594,-22.81232 30.40621,-22.81257 30.40632,-22.81271 30.40653,-22.81283 30.40687,-22.81303 30.40723,-22.81325 30.40756,-22.81317 30.40793,-22.81311 30.40811,-22.8129 30.40821,-22.81274 30.40854,-22.81254 30.4088,-22.81229 30.40913,-22.81206 30.4094,-22.81198 30.4097,-22.81193 30.41004,-22.81163 30.41024,-22.81139 30.41062,-22.81111 30.41085,-22.81085 30.41122,-22.81062 30.41157,-22.81002 30.4119,-22.80966 30.41235,-22.80914 30.41286,-22.80841 30.41321,-22.80812 30.41344,-22.80788 30.41368,-22.80759 30.41395,-22.80736 30.4142,-22.8072 30.41459,-22.80697 30.41488,-22.80682 30.41525,-22.8066 30.41553,-22.80648 30.41587,-22.8063 30.41614,-22.80615 30.41663,-22.80584 30.41682,-22.80563 30.41689,-22.8056 30.4172,-22.80549 30.41761,-22.80535 30.41764,-22.80534 30.41797,-22.80543 30.41816,-22.8055 30.41858,-22.8056 30.41889,-22.80562 30.41918,-22.80579 30.41961,-22.80596 30.42014,-22.80616 30.42047,-22.80624 30.42086,-22.80637 30.42124,-22.80646 30.42163,-22.80641 30.42203,-22.80637 30.42205,-22.80625 30.42209,-22.80606 30.42221,-22.80591 30.42261,-22.80579 30.42312,-22.80555 30.42367,-22.8053 30.42388,-22.80523 30.42412,-22.80503 30.42441,-22.80478 30.42467,-22.80466 30.42475,-22.80446 30.42507,-22.80429 30.42555,-22.80397 30.42602,-22.80363 30.42617,-22.80339 30.42654,-22.80319 30.42683,-22.80318 30.42722,-22.80292 30.42777,-22.80272 30.42821,-22.80253 30.42882,-22.80227 30.42941,-22.80212 30.4299,-22.80203 30.43028,-22.80196 30.43084,-22.80188 30.43122,-22.80186 30.43171,-22.80176 30.43201,-22.80169 30.43256,-22.80157 30.43279,-22.80146 30.43302,-22.80125 30.43345,-22.80119 30.43366,-22.80118 30.43387,-22.8012 30.43421,-22.80121 30.43481,-22.80136 30.43542,-22.80159 30.43546,-22.8016 30.4357,-22.80166 30.43614,-22.80185 30.43639,-22.80193 30.43656,-22.80206 30.43682,-22.80215 30.43721,-22.80227 30.43757,-22.80229 30.43803,-22.80217 30.43839,-22.80199 30.43875,-22.80185 30.43917,-22.80181 30.43928,-22.8017 30.43968,-22.80148 30.43997,-22.80129 30.44024,-22.80104 30.44044,-22.80077 30.44057,-22.80052 30.44069,-22.80026 30.44063,-22.7999 30.44064,-22.7996 30.4407,-22.7993 30.44082,-22.7989 30.4412,-22.79854 30.44168,-22.79816 30.44224,-22.79769 30.44273,-22.79733 30.44315,-22.79693 30.44365,-22.79665 30.44399,-22.79644 30.44435,-22.79614 30.44463,-22.79582 30.44488,-22.79546 30.44512,-22.7951 30.44553,-22.79456 30.44591,-22.79412 30.44638,-22.79368 30.44675,-22.79338 30.44705,-22.79317 30.44745,-22.79296 30.44766,-22.79278 30.44785,-22.79272 30.44813,-22.79273 30.44842,-22.79267 30.44867,-22.79273 30.44924,-22.79303 30.44935,-22.7931 30.44971,-22.79327 30.4499,-22.79333 30.45009,-22.79333 30.45039,-22.79315 30.45049,-22.79309 30.45069,-22.79294 30.45127,-22.79277 30.45169,-22.79262 30.45211,-22.79244 30.45254,-22.79223 30.45289,-22.79196 30.45316,-22.79175 30.45392,-22.79132 30.45478,-22.79097 30.45567,-22.79072 30.4561,-22.79053 30.45656,-22.79038 30.45693,-22.79027 30.45746,-22.7902 30.45801,-22.79012 30.45837,-22.78999 30.45856,-22.78993 30.45909,-22.79005 30.45946,-22.7901 30.45972,-22.79014 30.46001,-22.79026 30.46037,-22.79032 30.46055,-22.79046 30.46089,-22.79077 30.46117,-22.79108 30.46147,-22.79155 30.46163,-22.79178 30.46188,-22.79198 30.46229,-22.79232 30.46267,-22.79252 30.46296,-22.79245 30.46342,-22.79242 30.46378,-22.79231 30.46414,-22.79227 30.46448,-22.79227 30.46492,-22.79224 30.46542,-22.79202 30.46604,-22.79176 30.46639,-22.79156 30.46687,-22.79124 30.46737,-22.79089 30.46773,-22.79065 30.46798,-22.79031 30.46841,-22.78983 30.4689,-22.78921 30.46949,-22.78866 30.46999,-22.78838 30.47031,-22.78811 30.47067,-22.78796 30.47097,-22.78775 30.47136,-22.78749 30.4717,-22.78722 30.47198,-22.78706 30.47215,-22.78697 30.47255,-22.78685 30.47304,-22.78657 30.47362,-22.78641 30.47419,-22.78628 30.47443,-22.78617 30.475,-22.78609 30.47538,-22.78604 30.4757,-22.78596 30.47607,-22.78587 30.47655,-22.78567 30.47705,-22.78562 30.47765,-22.78554 30.47834,-22.78541 30.47913,-22.78525 30.47963,-22.78531 30.48033,-22.78558 30.48073,-22.7858 30.48095,-22.78621 30.48142,-22.78657 30.4819,-22.78699 30.4822,-22.78731 30.48288,-22.78778 30.4833,-22.78796 30.4836,-22.78812 30.48404,-22.78834 30.48467,-22.78863 30.4851,-22.78871 30.48595,-22.78911 30.48659,-22.78945 30.48701,-22.78972 30.48706,-22.78975 30.48799,-22.79011 30.48841,-22.79018 30.48889,-22.79022 30.48912,-22.7902 30.4892,-22.79019 30.48953,-22.78987 30.48984,-22.7894 30.49016,-22.78897 30.49049,-22.78857 30.4908,-22.7882 30.49091,-22.78786 30.49108,-22.7875 30.49146,-22.78706 30.49189,-22.7866 30.4922,-22.78622 30.49236,-22.78596 30.49267,-22.78556 30.49324,-22.78486 30.49369,-22.78446 30.49394,-22.78416 30.49443,-22.78406 30.49477,-22.78388 30.49517,-22.7836 30.49564,-22.78326 30.49605,-22.78294 30.4963,-22.78253 30.4964,-22.78219 30.49641,-22.78215 30.49644,-22.78201 30.4964,-22.78165 30.49635,-22.78136 30.49633,-22.78106 30.49633,-22.7807 30.49659,-22.78025 30.49676,-22.78003 30.49692,-22.77968 30.49705,-22.7795 30.4975,-22.7793 30.49781,-22.77906 30.49815,-22.77891 30.49863,-22.77883 30.49933,-22.77865 30.4999,-22.77842 30.50023,-22.77815 30.50045,-22.77786 30.50086,-22.7774 30.50134,-22.77722 30.50179,-22.77721 30.50257,-22.77711 30.50297,-22.777 30.50367,-22.77694 30.50399,-22.77691 30.50488,-22.77688 30.50566,-22.77693 30.50619,-22.77716 30.50693,-22.77741 30.50748,-22.77768 30.50821,-22.77788 30.50876,-22.77794 30.5089,-22.77799 30.50897,-22.77801 30.50926,-22.77807 30.50971,-22.77827 30.51017,-22.77823 30.51054,-22.77815 30.51107,-22.77803 30.51142,-22.77801 30.51193,-22.77813 30.51209,-22.77807 30.51249,-22.77794 30.51275,-22.77781 30.51308,-22.77768 30.51326,-22.77765 30.51347,-22.77767 30.51396,-22.77773 30.51439,-22.77773 30.51445,-22.77764 30.5148,-22.77751 30.51497,-22.77743 30.51506,-22.77738 30.51542,-22.77728 30.51592,-22.77725 30.51615,-22.77737 30.51646,-22.77756 30.51691,-22.77789 30.5173,-22.77812 30.51763,-22.77832 30.51815,-22.77856 30.51858,-22.77871 30.51918,-22.77896 30.52013,-22.77917 30.52084,-22.77935 30.52152,-22.77956 30.52251,-22.77968 30.52301,-22.77971 30.52381,-22.77967 30.52433,-22.7796 30.52476,-22.7793 30.52531,-22.77878 30.52581,-22.77848 30.52638,-22.77814 30.5268,-22.77805 30.52706,-22.77786 30.52758,-22.77764 30.52821,-22.77741 30.52877,-22.7772 30.52914,-22.777 30.52963,-22.77701 30.53031,-22.77674 30.53077,-22.77645 30.5313,-22.77601 30.53163,-22.77539 30.53203,-22.77472 30.5324,-22.77406 30.53254,-22.77347 30.53248,-22.77289 30.53243,-22.77278 30.53216,-22.77212 30.53201,-22.77153 30.53196,-22.77109 30.53197,-22.77065 30.53223,-22.77025 30.53245,-22.77013 30.53292,-22.76995 30.53345,-22.76997 30.53401,-22.77012 30.53486,-22.77012 30.53538,-22.77013 30.53586,-22.77023 30.53617,-22.77039 30.53629,-22.77063 30.53629,-22.77098 30.53623,-22.77146 30.5361,-22.77179 30.536,-22.77221 30.53599,-22.77254 30.53614,-22.77288 30.5366,-22.77307 30.53694,-22.77323 30.53708,-22.77326 30.53732,-22.7733 30.53775,-22.77324 30.53782,-22.77309 30.53787,-22.77285 30.53815,-22.77256 30.53845,-22.77226 30.53871,-22.77205 30.53878,-22.772 30.53906,-22.77192 30.53918,-22.77148 30.53923,-22.77104 30.53935,-22.77063 30.53951,-22.76987 30.53971,-22.76938 30.53976,-22.76933 30.53983,-22.76925 30.53994,-22.76915 30.54015,-22.76895 30.54045,-22.76859 30.54048,-22.76856 30.54083,-22.7682 30.5411,-22.76791 30.54137,-22.76775 30.54173,-22.76746 30.54177,-22.76742 30.54194,-22.76714 30.54224,-22.76677 30.54263,-22.76633 30.54294,-22.76606 30.54305,-22.76598 30.54325,-22.76582 30.54412,-22.765 30.5445,-22.76476 30.54481,-22.76466 30.54522,-22.76465 30.54579,-22.76457 30.54636,-22.76421 30.54667,-22.76406 30.54705,-22.76383 30.54754,-22.76352 30.54808,-22.76328 30.54856,-22.76307 30.5492,-22.76309 30.54958,-22.76314 30.54973,-22.76316 30.54984,-22.76318 30.55026,-22.76341 30.55066,-22.7637 30.55107,-22.76391 30.55155,-22.76413 30.5522,-22.76443 30.55287,-22.76472 30.55339,-22.76491 30.5538,-22.76504 30.55415,-22.7651 30.55435,-22.76513 30.55454,-22.76515 30.5551,-22.76517 30.55547,-22.76504 30.55593,-22.76498 30.55624,-22.76489 30.5566,-22.76482 30.55681,-22.7648 30.55733,-22.76475 30.55751,-22.76468 30.55793,-22.76455 30.55859,-22.76434 30.55891,-22.76415 30.55917,-22.76399 30.55982,-22.76377 30.56004,-22.76369 30.56022,-22.76372 30.56053,-22.76376 30.56107,-22.76358 30.56167,-22.76342 30.56229,-22.76327 30.56306,-22.76321 30.56365,-22.7631 30.56417,-22.76305 30.5645,-22.76309 30.56519,-22.76305 30.56546,-22.76294 30.56596,-22.76293 30.56625,-22.76291 30.56673,-22.76291 30.56727,-22.76291 30.56783,-22.76298 30.56812,-22.76297 30.56842,-22.76305 30.56895,-22.7631 30.56945,-22.76329 30.56983,-22.76342 30.57036,-22.76347 30.57081,-22.76355 30.57142,-22.76367 30.57185,-22.76369 30.57249,-22.76373 30.57349,-22.76363 30.57409,-22.76349 30.57456,-22.7633 30.57492,-22.76311 30.57556,-22.76295 30.57589,-22.7628 30.57634,-22.76254 30.57675,-22.76221 30.57709,-22.76174 30.57725,-22.76135 30.57753,-22.76106 30.57773,-22.76085 30.57838,-22.7606 30.57885,-22.76044 30.57962,-22.76007 30.58018,-22.7598 30.58047,-22.75964 30.58088,-22.7594 30.58147,-22.75908 30.58207,-22.75867 30.58251,-22.75834 30.58275,-22.758 30.58303,-22.75763 30.58328,-22.75712 30.58355,-22.75669 30.58391,-22.75621 30.58423,-22.75593 30.5846,-22.75559 30.58485,-22.75534 30.58519,-22.75494 30.58548,-22.75452 30.58598,-22.75411 30.58644,-22.75374 30.58691,-22.7535 30.58745,-22.75316 30.5877,-22.75301 30.58805,-22.75297 30.58857,-22.75267 30.589,-22.75249 30.58951,-22.75219 30.58991,-22.75209 30.59134,-22.75136 30.59174,-22.75106 30.59224,-22.75067 30.59271,-22.75033 30.59319,-22.75008 30.59365,-22.74983 30.59396,-22.7496 30.59429,-22.74939 30.59438,-22.74934 30.5948,-22.74911 30.59542,-22.74874 30.59567,-22.74855 30.59578,-22.74847 30.59615,-22.74825 30.5968,-22.7479 30.59719,-22.74764 30.59764,-22.74752 30.59811,-22.74735 30.59883,-22.747 30.5993,-22.74676 30.59978,-22.74664 30.60068,-22.74642 30.60129,-22.74622 30.60241,-22.74602 30.60281,-22.74597 30.60332,-22.74592 30.60366,-22.7458 30.60372,-22.7458 30.60404,-22.74581 30.6043,-22.74585 30.60505,-22.74579 30.60514,-22.74578 30.60575,-22.74576 30.60625,-22.74587 30.60692,-22.74606 30.60822,-22.74637 30.60917,-22.74675 30.61054,-22.74694 30.61126,-22.74705 30.61191,-22.74702 30.61292,-22.74674 30.61299,-22.74672 30.61302,-22.74672 30.61302,-22.7467 30.61302,-22.7467 30.61302,-22.7467 30.61298,-22.74627 30.61262,-22.74028 30.61523,-22.73465 30.61529,-22.73454 30.61546,-22.73417 30.61549,-22.73416 30.62615,-22.73155 30.6282,-22.73212 30.63207,-22.72798 30.63156,-22.72039 30.63855,-22.71513 30.64293,-22.7141 30.64731,-22.71375 30.65161,-22.71341 30.66604,-22.71326 30.67943,-22.71148 30.69051,-22.7067 30.69401,-22.70284 30.69584,-22.70082 30.69709,-22.69503 30.6971,-22.69498 30.69535,-22.68615 30.69793,-22.68468 30.69826,-22.68444 30.69852,-22.68412 30.69979,-22.68255 30.7002,-22.68209 30.70044,-22.68172 30.70055,-22.68156 30.70055,-22.68145 30.70055,-22.68144 30.70055,-22.68123 30.70091,-22.6806 30.70104,-22.68035 30.70118,-22.67969 30.70136,-22.67922 30.70138,-22.67849 30.70118,-22.67773 30.70096,-22.67699 30.70099,-22.67598 30.70143,-22.67561 30.70199,-22.67522 30.70261,-22.67488 30.70296,-22.67445 30.70333,-22.67374 30.70419,-22.67251 30.70475,-22.6717 30.7052,-22.67084 30.70556,-22.67015 30.70618,-22.66949 30.70664,-22.66897 30.70738,-22.66846 30.70824,-22.66814 30.70893,-22.66812 30.71104,-22.66794 30.71212,-22.66804 30.7133,-22.6678 30.71385,-22.66771 30.71481,-22.66747 30.71552,-22.66722 30.71625,-22.66688 30.71709,-22.66643 30.71787,-22.66582 30.71908,-22.66504 30.71979,-22.66442 30.72065,-22.66381 30.72146,-22.66337 30.72227,-22.66297 30.72269,-22.66216 30.72364,-22.6618 30.72418,-22.66155 30.72508,-22.66124 30.72685,-22.66095 30.72698,-22.66089 30.72778,-22.66058 30.72844,-22.65977 30.7292,-22.65913 30.72979,-22.65857 30.73014,-22.65805 30.73053,-22.65732 30.73065,-22.65653 30.73082,-22.65592 30.73075,-22.65516 30.73077,-22.65439 30.73058,-22.65368 30.73055,-22.653 30.73025,-22.65227 30.72983,-22.65149 30.72912,-22.6505 30.72796,-22.64974 30.72719,-22.6492 30.72708,-22.64913 30.72634,-22.64837 30.72534,-22.64753 30.72478,-22.64688 30.72361,-22.64536 30.7233,-22.64499 30.72304,-22.64467 30.72253,-22.64401 30.72228,-22.64337 30.72206,-22.64242 30.72196,-22.64136 30.72218,-22.64043 30.72238,-22.64006 30.72249,-22.63985 30.72335,-22.63921 30.72433,-22.6385 30.72605,-22.63769 30.72678,-22.63732 30.72789,-22.637 30.72948,-22.63705 30.73081,-22.63732 30.73201,-22.63752 30.7325,-22.63754 30.73297,-22.63791 30.73392,-22.63841 30.73433,-22.63891 30.73465,-22.63945 30.73539,-22.63989 30.73637,-22.63989 30.73762,-22.63984 30.73897,-22.63976 30.73993,-22.63954 30.74098,-22.63947 30.74229,-22.63922 30.74346,-22.63846 30.74395,-22.63812 30.74524,-22.63745 30.74593,-22.63683 30.74632,-22.63634 30.74726,-22.63568 30.74816,-22.63529 30.74922,-22.63509 30.75025,-22.63482 30.75126,-22.6344 30.75202,-22.63418 30.75263,-22.63398 30.75347,-22.63374 30.75403,-22.63369 30.75477,-22.63331 30.75489,-22.63325 30.75601,-22.63277 30.75692,-22.63225 30.75738,-22.63198 30.75777,-22.63162 30.75849,-22.63127 30.75898,-22.63088 30.75986,-22.63046 30.76065,-22.62992 30.76141,-22.6295 30.76175,-22.62906 30.76217,-22.62833 30.76224,-22.62774 30.76173,-22.6271 30.76158,-22.62668 30.7616,-22.62599 30.76183,-22.62492 30.76187,-22.62487 30.76214,-22.62445 30.7666,-22.62611 30.77393,-22.63184 30.77493,-22.63607 30.77738,-22.64414 30.78258,-22.65353 30.78793,-22.65893 30.7897,-22.66071 30.79473,-22.66579 30.79651,-22.66748 30.80224,-22.67293 30.80387,-22.67372 30.80607,-22.67524 30.80968,-22.67908 30.81093,-22.6816 30.81311,-22.68568 30.81536,-22.68897 30.81606,-22.68999 30.81803,-22.6917 30.8249,-22.69089 30.83503,-22.68922 30.84751,-22.68611 30.85428,-22.68651 30.86851,-22.68531 30.87231,-22.6843 30.87852,-22.68257 30.88141,-22.68267 30.88683,-22.68286 30.88982,-22.68421 30.8918,-22.68691 30.8941,-22.68905 30.89484,-22.68973 30.89636,-22.69009 30.90126,-22.68646 30.90126,-22.68646 30.90126,-22.68646 30.90161,-22.6866 30.90164,-22.68661 30.90197,-22.68674 30.90212,-22.68679 30.90229,-22.68686 30.90265,-22.68701 30.90273,-22.68705 30.90313,-22.68721 30.90341,-22.68733 30.90343,-22.68749 30.90346,-22.68758 30.90348,-22.68763 30.90367,-22.68775 30.90378,-22.68782 30.90387,-22.68789 30.90409,-22.68804 30.90428,-22.68818 30.90432,-22.68821 30.90434,-22.68823 30.90437,-22.68824 30.9045,-22.68833 30.90458,-22.68838 30.90458,-22.68838 30.90458,-22.68838 30.90464,-22.68853 30.90468,-22.68861 30.90469,-22.6887 30.9047,-22.68878 30.90471,-22.68886 30.90472,-22.68893 30.90473,-22.68905 30.90473,-22.68912 30.90474,-22.68919 30.90486,-22.68938 30.90501,-22.68946 30.90512,-22.68952 30.90541,-22.68964 30.90578,-22.68974 30.90611,-22.68982 30.9063,-22.68982 30.90651,-22.68983 30.90655,-22.68981 30.90668,-22.68974 30.90699,-22.68973 30.90744,-22.6899 30.90764,-22.69003 30.90777,-22.69011 30.9078,-22.69013 30.90785,-22.69016 30.90803,-22.69038 30.90805,-22.69048 30.90809,-22.69063 30.9081,-22.69077 30.90812,-22.69095 30.90812,-22.69127 30.90808,-22.69148 30.90805,-22.69163 30.90797,-22.69194 30.90786,-22.69219 30.90785,-22.69221 30.90772,-22.69255 30.9076,-22.69272 30.90751,-22.69288 30.90728,-22.69325 30.90715,-22.69352 30.90715,-22.69352 30.90715,-22.69353 30.90698,-22.69376 30.90682,-22.69397 30.90667,-22.69412 30.90645,-22.69433 30.90637,-22.6945 30.9063,-22.69465 30.90626,-22.69473 30.90626,-22.69473 30.90626,-22.69473 30.90611,-22.69492 30.90608,-22.69496 30.90598,-22.69507 30.90588,-22.69515 30.90574,-22.69528 30.90571,-22.69533 30.90564,-22.69547 30.90562,-22.6955 30.90548,-22.69575 30.90527,-22.69599 30.90497,-22.69644 30.90497,-22.69644 30.90497,-22.69644 30.90496,-22.69645 30.90479,-22.69663 30.90461,-22.69681 30.90453,-22.69689 30.90429,-22.69705 30.90408,-22.69717 30.90375,-22.69744 30.90347,-22.69766 30.90327,-22.69789 30.90324,-22.69792 30.90324,-22.69792 30.90298,-22.69812 30.90285,-22.69823 30.90278,-22.69828 30.90261,-22.69843 30.90258,-22.69847 30.90248,-22.69861 30.90233,-22.69871 30.90231,-22.69873 30.9021,-22.69889 30.90194,-22.69901 30.90185,-22.69907 30.90173,-22.69919 30.90164,-22.69927 30.90157,-22.69932 30.90147,-22.69941 30.90126,-22.69962 30.90106,-22.6999 30.90103,-22.69995 30.9009,-22.70013 30.90085,-22.70019 30.9007,-22.70036 30.9005,-22.7006 30.90025,-22.70079 30.90025,-22.70079 30.90001,-22.70091 30.89999,-22.70092 30.89979,-22.70107 30.89961,-22.70119 30.89956,-22.70122 30.89942,-22.70128 30.89931,-22.70138 30.89917,-22.70151 30.89894,-22.70166 30.89887,-22.70172 30.89874,-22.70182 30.8985,-22.70185 30.89832,-22.70185 30.89811,-22.70181 30.89811,-22.70181 30.89804,-22.70179 30.89792,-22.70179 30.89748,-22.70177 30.89709,-22.70187 30.89659,-22.70198 30.89653,-22.702 30.89645,-22.70202 30.8962,-22.70208 30.89602,-22.70212 30.896,-22.70212 30.8959,-22.70214 30.89539,-22.70226 30.89525,-22.7023 30.89497,-22.70239 30.89462,-22.70252 30.89445,-22.70259 30.89427,-22.70269 30.8942,-22.70273 30.89406,-22.70284 30.89393,-22.70294 30.89379,-22.70306 30.89372,-22.70312 30.89368,-22.70314 30.89364,-22.70315 30.89349,-22.70321 30.89345,-22.70323 30.8931,-22.70342 30.893,-22.70347 30.893,-22.70347 30.89282,-22.70358 30.89271,-22.70364 30.89259,-22.7037 30.89218,-22.70381 30.89198,-22.70396 30.89196,-22.70397 30.89178,-22.70419 30.89172,-22.70428 30.89157,-22.70451 30.89127,-22.70479 30.8909,-22.70517 30.89079,-22.70528 30.89059,-22.70548 30.89047,-22.7056 30.89037,-22.70571 30.89024,-22.70586 30.89015,-22.70597 30.89009,-22.70608 30.8899,-22.70647 30.88957,-22.70693 30.88924,-22.70743 30.88895,-22.70776 30.8887,-22.70809 30.88863,-22.70818 30.88852,-22.70833 30.88832,-22.70873 30.88782,-22.70954 30.88768,-22.71007 30.88768,-22.71007 30.88768,-22.71009 30.88755,-22.7106 30.88754,-22.71065 30.88754,-22.71068 30.88753,-22.71077 30.88757,-22.7111 30.88762,-22.71148 30.88775,-22.71168 30.88808,-22.71222 30.88846,-22.71251 30.8888,-22.71276 30.88913,-22.7128 30.88948,-22.71284 30.88975,-22.71273 30.88982,-22.71267 30.92505,-22.71804 30.95575,-22.72272 30.95588,-22.72274 30.95649,-22.72283 30.97296,-22.72534 30.98444,-22.72604 31.01247,-22.72776 31.01279,-22.72778 31.01344,-22.72782 31.01344,-22.72782 31.01344,-22.72782 31.01333,-22.72806 31.01329,-22.72814 31.00853,-22.73835 30.99658,-22.76396 30.99368,-22.77018 30.99187,-22.77406 30.9916,-22.77534 30.99129,-22.77685 30.99119,-22.77709 30.99113,-22.77723 30.98788,-22.7878 30.98642,-22.79253 30.98477,-22.7977 30.98229,-22.80545 30.98128,-22.8086 30.97902,-22.81568 30.97787,-22.81937 30.97783,-22.81948 30.97777,-22.81967 31.07034,-22.80212 31.158,-22.69803 31.17854,-22.672 31.25867,-22.60626 31.3114,-22.56277 31.33298,-22.54599 31.3449,-22.53453 31.32684,-22.48037 31.34739,-22.54201 31.47526,-22.92559 31.54579,-23.13719 31.5636,-23.19823 31.56142,-23.22428 31.55649,-23.22222 31.55351,-23.22012 31.54786,-23.21541 31.54489,-23.21345 31.54235,-23.21084 31.54191,-23.20743 31.5414,-23.20359 31.54148,-23.19924 31.54061,-23.19685 31.53894,-23.19293 31.5372,-23.1901 31.53437,-23.18756 31.53213,-23.18655 31.52951,-23.18532 31.52654,-23.1843 31.52321,-23.18329 31.52009,-23.18147 31.51726,-23.1793 31.51574,-23.17713 31.51393,-23.17509 31.51161,-23.17278 31.50921,-23.17053 31.50653,-23.16929 31.50421,-23.16828 31.50283,-23.16676 31.50254,-23.16466 31.50262,-23.16262 31.50182,-23.16052 31.5008,-23.15915 31.49907,-23.15813 31.49711,-23.1577 31.49442,-23.15762 31.49065,-23.15784 31.48768,-23.15719 31.48493,-23.15624 31.48195,-23.15537 31.47847,-23.1545 31.47659,-23.15342 31.47659,-23.15161 31.47666,-23.14928 31.47565,-23.14639 31.47441,-23.14479 31.47282,-23.14414 31.47086,-23.14327 31.46876,-23.14276 31.46637,-23.14283 31.46419,-23.1429 31.4618,-23.14356 31.45991,-23.14312 31.45832,-23.14182 31.45622,-23.13935 31.45506,-23.13747 31.45339,-23.13486 31.45237,-23.13232 31.45259,-23.13036 31.45339,-23.12884 31.45397,-23.12768 31.45477,-23.12572 31.45527,-23.12391 31.45564,-23.12166 31.45614,-23.11891 31.45709,-23.11593 31.45716,-23.11419 31.45629,-23.11275 31.45513,-23.11195 31.45353,-23.11129 31.45114,-23.11064 31.44976,-23.11006 31.44824,-23.10897 31.44628,-23.10825 31.44418,-23.10839 31.44157,-23.10803 31.43911,-23.10767 31.43628,-23.10723 31.43345,-23.1068 31.43113,-23.10578 31.42983,-23.10462 31.42874,-23.10303 31.42794,-23.10071 31.42613,-23.09839 31.42403,-23.09679 31.42185,-23.09571 31.42018,-23.0952 31.41815,-23.09295 31.41424,-23.09157 31.41187,-23.09111 31.41095,-23.09207 31.40914,-23.09348 31.40745,-23.09552 31.40573,-23.09677 31.40424,-23.09705 31.40203,-23.09637 31.40082,-23.09605 31.39861,-23.09597 31.39697,-23.09625 31.39528,-23.09629 31.39187,-23.09589 31.38761,-23.0952 31.38649,-23.09528 31.38512,-23.09593 31.38408,-23.09705 31.38387,-23.09818 31.38387,-23.10002 31.38444,-23.10179 31.38456,-23.10316 31.3846,-23.1044 31.38367,-23.10605 31.38251,-23.10689 31.38118,-23.10685 31.37966,-23.10633 31.37761,-23.10653 31.37668,-23.10725 31.37664,-23.10874 31.37689,-23.11059 31.37652,-23.11255 31.37556,-23.11444 31.3746,-23.11637 31.3746,-23.11818 31.37588,-23.11999 31.37805,-23.12043 31.37893,-23.12159 31.37934,-23.1236 31.37914,-23.12533 31.37841,-23.12717 31.37781,-23.12922 31.37697,-23.13119 31.3762,-23.1322 31.376,-23.13408 31.3764,-23.13573 31.3756,-23.13742 31.37488,-23.13834 31.37331,-23.1387 31.3709,-23.13894 31.36942,-23.13955 31.36801,-23.14043 31.36632,-23.14155 31.36476,-23.14183 31.36287,-23.14147 31.35986,-23.14163 31.3572,-23.14196 31.35576,-23.14232 31.35504,-23.14352 31.35488,-23.14489 31.35379,-23.14641 31.35323,-23.14722 31.35238,-23.14854 31.35106,-23.14975 31.34941,-23.15067 31.34853,-23.15192 31.34732,-23.15372 31.34704,-23.15533 31.34688,-23.1579 31.34688,-23.16047 31.3458,-23.16212 31.34407,-23.16324 31.34266,-23.16417 31.34082,-23.16457 31.33929,-23.16521 31.33736,-23.16638 31.33636,-23.16738 31.33423,-23.1669 31.33254,-23.16734 31.33138,-23.16826 31.33013,-23.16919 31.32893,-23.1714 31.32804,-23.17316 31.3262,-23.17441 31.32451,-23.17437 31.32258,-23.17344 31.32138,-23.17288 31.31828,-23.17252 31.31628,-23.1724 31.31519,-23.17164 31.31435,-23.17047 31.31339,-23.16975 31.31182,-23.16955 31.31045,-23.16995 31.30861,-23.17092 31.30704,-23.17196 31.30487,-23.17304 31.30294,-23.17377 31.30178,-23.17324 31.30085,-23.17252 31.29929,-23.17196 31.2982,-23.17196 31.29679,-23.17228 31.29563,-23.17316 31.29511,-23.17465 31.29479,-23.17646 31.29515,-23.17847 31.29463,-23.17963 31.29314,-23.18048 31.29121,-23.18124 31.28908,-23.18208 31.28728,-23.18252 31.28547,-23.183 31.28394,-23.18405 31.28226,-23.18521 31.28045,-23.1861 31.27888,-23.18662 31.27683,-23.18718 31.27442,-23.1875 31.27141,-23.18758 31.26936,-23.18754 31.26727,-23.1877 31.26515,-23.18758 31.2637,-23.1879 31.26274,-23.18762 31.26149,-23.18754 31.26069,-23.18803 31.26041,-23.18927 31.26028,-23.19092 31.2594,-23.1922 31.25856,-23.19309 31.25751,-23.19441 31.25764,-23.19558 31.25884,-23.19662 31.25964,-23.19758 31.25972,-23.19935 31.2588,-23.20164 31.25739,-23.20373 31.25522,-23.20473 31.25169,-23.20582 31.24888,-23.20642 31.24587,-23.20686 31.24213,-23.2065 31.23912,-23.20614 31.23711,-23.20618 31.23562,-23.20662 31.23434,-23.20767 31.23261,-23.20911 31.2306,-23.21112 31.22884,-23.21349 31.22735,-23.2153 31.22554,-23.21678 31.22446,-23.21763 31.22305,-23.21646 31.22181,-23.2157 31.22052,-23.2157 31.21912,-23.21622 31.21823,-23.21703 31.21695,-23.21935 31.21578,-23.22004 31.21349,-23.22056 31.2114,-23.22056 31.20911,-23.22036 31.20695,-23.21959 31.20566,-23.21871 31.20445,-23.21727 31.20313,-23.21502 31.20221,-23.21393 31.20052,-23.21225 31.19935,-23.21036 31.19795,-23.20899 31.19562,-23.20867 31.19409,-23.20851 31.1912,-23.20819 31.18795,-23.20787 31.18546,-23.20718 31.182,-23.2061 31.18019,-23.2057 31.17875,-23.20437 31.17763,-23.20389 31.1757,-23.20417 31.17357,-23.20481 31.17128,-23.20526 31.16907,-23.20566 31.1675,-23.20658 31.16545,-23.20759 31.16381,-23.20731 31.16284,-23.20614 31.16252,-23.20457 31.16264,-23.20297 31.16296,-23.20156 31.16333,-23.20068 31.16457,-23.19859 31.16654,-23.19654 31.16754,-23.19473 31.16694,-23.19321 31.16602,-23.19232 31.16457,-23.19104 31.16276,-23.18975 31.16043,-23.18875 31.15847,-23.18815 31.15666,-23.18807 31.15477,-23.18839 31.15276,-23.18891 31.15124,-23.18927 31.15047,-23.19007 31.14911,-23.19228 31.14782,-23.19244 31.14682,-23.1916 31.1461,-23.19011 31.14581,-23.18827 31.14626,-23.1867 31.1475,-23.18513 31.14907,-23.18401 31.14911,-23.18325 31.1483,-23.18264 31.1473,-23.18232 31.14618,-23.1824 31.14581,-23.18168 31.14565,-23.1806 31.14598,-23.17955 31.14505,-23.17839 31.14368,-23.17814 31.14264,-23.17871 31.1418,-23.17987 31.14023,-23.18072 31.13842,-23.18184 31.13722,-23.18252 31.13565,-23.18256 31.13453,-23.18252 31.13228,-23.182 31.13039,-23.1808 31.12902,-23.17959 31.12926,-23.17778 31.13055,-23.17634 31.13079,-23.17541 31.13019,-23.17437 31.12866,-23.17348 31.1277,-23.17264 31.12702,-23.17168 31.12621,-23.17047 31.12469,-23.17075 31.12352,-23.1714 31.12228,-23.17212 31.12067,-23.17336 31.12003,-23.17417 31.11922,-23.17566 31.11838,-23.17646 31.11754,-23.17762 31.11605,-23.17907 31.11513,-23.18003 31.1138,-23.18096 31.11284,-23.1814 31.11195,-23.18164 31.11063,-23.18184 31.10987,-23.18232 31.10914,-23.18325 31.10862,-23.18413 31.10838,-23.18554 31.1081,-23.18674 31.10782,-23.18734 31.10766,-23.18823 31.1079,-23.18951 31.10713,-23.19016 31.10589,-23.1906 31.10489,-23.19112 31.10396,-23.19224 31.10372,-23.19361 31.10352,-23.19481 31.10296,-23.19598 31.10175,-23.19654 31.10023,-23.19642 31.09878,-23.1963 31.09733,-23.19614 31.09605,-23.1963 31.0948,-23.19726 31.09388,-23.19823 31.09368,-23.19923 31.0936,-23.20164 31.09456,-23.20329 31.09484,-23.20461 31.0938,-23.2063 31.09292,-23.20755 31.09159,-23.20931 31.09075,-23.21104 31.08926,-23.21208 31.08797,-23.21249 31.08709,-23.21108 31.08589,-23.20979 31.08364,-23.20919 31.08139,-23.20895 31.08067,-23.20743 31.07954,-23.20566 31.07837,-23.20441 31.07689,-23.20253 31.07621,-23.20052 31.0754,-23.19919 31.07452,-23.19867 31.07243,-23.19767 31.07006,-23.19634 31.06721,-23.19437 31.06432,-23.1924 31.06263,-23.1912 31.06255,-23.18971 31.06303,-23.18863 31.06223,-23.18714 31.06094,-23.1863 31.0589,-23.1853 31.05729,-23.18357 31.0562,-23.18176 31.05524,-23.17947 31.0548,-23.1781 31.055,-23.17706 31.05448,-23.1761 31.05291,-23.17505 31.05187,-23.17481 31.05074,-23.17566 31.04982,-23.1765 31.04849,-23.17726 31.04701,-23.17778 31.04552,-23.17806 31.0442,-23.1771 31.04343,-23.17658 31.04243,-23.1769 31.04182,-23.1779 31.0411,-23.17907 31.03926,-23.17959 31.03737,-23.18023 31.0368,-23.18092 31.03696,-23.18252 31.03765,-23.18473 31.03877,-23.1867 31.03986,-23.18843 31.04042,-23.19044 31.0405,-23.19256 31.03897,-23.19433 31.03765,-23.19618 31.03616,-23.1969 31.03411,-23.19602 31.0319,-23.19449 31.03098,-23.19441 31.02849,-23.19445 31.02608,-23.19357 31.0248,-23.19224 31.02375,-23.19011 31.02331,-23.18847 31.02246,-23.18638 31.02118,-23.1855 31.02062,-23.18409 31.02126,-23.18268 31.02343,-23.18112 31.02407,-23.17935 31.02423,-23.1775 31.02379,-23.17634 31.02263,-23.17582 31.0217,-23.17537 31.02122,-23.17409 31.02058,-23.17312 31.01905,-23.17288 31.01676,-23.17244 31.01491,-23.17216 31.01258,-23.17252 31.01005,-23.17344 31.00797,-23.17441 31.006,-23.17477 31.00419,-23.17477 31.00238,-23.17481 30.99989,-23.17357 30.99845,-23.17344 30.99644,-23.17393 30.99415,-23.17469 30.99202,-23.17541 30.99049,-23.17485 30.98865,-23.17385 30.98748,-23.17264 30.98632,-23.17152 30.98475,-23.17003 30.98214,-23.16927 30.98037,-23.16891 30.97905,-23.16999 30.97668,-23.1708 30.97535,-23.17152 30.97346,-23.1722 30.97166,-23.17288 30.96872,-23.17369 30.96688,-23.17413 30.96579,-23.173 30.96491,-23.17212 30.96411,-23.17236 30.96346,-23.17316 30.96278,-23.17401 30.96121,-23.17397 30.96081,-23.17296 30.96125,-23.1716 30.96177,-23.17088 30.96198,-23.17011 30.96121,-23.16919 30.95985,-23.16798 30.95904,-23.1669 30.95872,-23.16606 30.95768,-23.16529 30.95643,-23.16429 30.95515,-23.16429 30.95394,-23.16445 30.95302,-23.16485 30.95193,-23.16485 30.95069,-23.16473 30.94977,-23.16449 30.9486,-23.16505 30.94772,-23.16553 30.94736,-23.1661 30.94728,-23.16718 30.94744,-23.16846 30.94748,-23.16987 30.94772,-23.1708 30.94784,-23.17189 30.9471,-23.17275 30.94742,-23.17381 30.94798,-23.17444 30.94774,-23.17565 30.94703,-23.1771 30.94458,-23.17941 30.9444,-23.17886 30.94416,-23.17819 30.94243,-23.17344 30.94138,-23.17055 30.94078,-23.16896 30.93897,-23.16412 30.93349,-23.14914 30.931,-23.14233 30.93025,-23.14081 30.92984,-23.13998 30.92958,-23.13943 30.92958,-23.13943 30.92958,-23.13944 30.92922,-23.13937 30.9289,-23.13941 30.9285,-23.13965 30.92813,-23.13983 30.92778,-23.13996 30.92695,-23.14007 30.92637,-23.14018 30.92599,-23.1405 30.9257,-23.14054 30.92549,-23.14057 30.92469,-23.14076 30.92388,-23.14111 30.92322,-23.14151 30.92272,-23.14153 30.92211,-23.1414 30.92124,-23.14103 30.92078,-23.14096 30.92037,-23.1412 30.91978,-23.14188 30.91919,-23.14253 30.91851,-23.14314 30.91686,-23.14434 30.91546,-23.14539 30.91509,-23.14567 30.91502,-23.1462 30.91502,-23.14652 30.91498,-23.14668 30.91441,-23.14702 30.91354,-23.14724 30.91273,-23.14709 30.91182,-23.14672 30.91109,-23.14651 30.91076,-23.14642 30.91028,-23.14599 30.90952,-23.14536 30.90884,-23.14483 30.90856,-23.14467 30.90753,-23.14407 30.90672,-23.14349 30.90656,-23.14338 30.90645,-23.14331 30.90606,-23.14308 30.90569,-23.14264 30.90549,-23.14229 30.9053,-23.14194 30.90524,-23.14179 30.90521,-23.14172 30.90514,-23.14148 30.90503,-23.14109 30.90503,-23.14081 30.9053,-23.14024 30.9053,-23.13981 30.90508,-23.13943 30.90434,-23.13871 30.90357,-23.13823 30.90299,-23.13794 30.90279,-23.13784 30.9026,-23.13775 30.90214,-23.13755 30.9011,-23.13735 30.90033,-23.13716 30.89974,-23.13718 30.89932,-23.13724 30.89885,-23.13731 30.89799,-23.13756 30.8975,-23.1377 30.89663,-23.13825 30.8963,-23.13862 30.8963,-23.13942 30.89652,-23.1403 30.8968,-23.14123 30.89687,-23.14171 30.89687,-23.14226 30.89656,-23.14283 30.89588,-23.14355 30.89564,-23.14385 30.89551,-23.14407 30.89501,-23.14429 30.89427,-23.14499 30.89356,-23.14565 30.89302,-23.14609 30.89294,-23.14613 30.89271,-23.14622 30.89234,-23.14635 30.89217,-23.14641 30.89142,-23.14665 30.89107,-23.14716 30.89062,-23.1477 30.89016,-23.14792 30.8892,-23.14803 30.88713,-23.14792 30.88604,-23.14783 30.88521,-23.14783 30.88427,-23.14814 30.884,-23.14834 30.8838,-23.1485 30.88352,-23.14896 30.88315,-23.14924 30.8828,-23.14946 30.88264,-23.14961 30.88262,-23.15002 30.88262,-23.15055 30.88249,-23.15079 30.88212,-23.15096 30.88153,-23.15096 30.88088,-23.15083 30.88027,-23.15055 30.87979,-23.15005 30.87937,-23.14959 30.87909,-23.14885 30.87902,-23.14832 30.87891,-23.14786 30.87907,-23.14728 30.87918,-23.14682 30.87937,-23.14616 30.87945,-23.14478 30.87947,-23.14441 30.87954,-23.14382 30.87951,-23.14345 30.8793,-23.14297 30.87901,-23.14205 30.87873,-23.14131 30.87866,-23.14072 30.87853,-23.13972 30.87852,-23.13936 30.87833,-23.13881 30.87826,-23.13814 30.87809,-23.13779 30.87804,-23.13755 30.87787,-23.13663 30.87789,-23.13602 30.87793,-23.13572 30.87728,-23.13417 30.87717,-23.13338 30.87712,-23.13241 30.87685,-23.13167 30.87655,-23.13104 30.87616,-23.13073 30.87594,-23.13025 30.87528,-23.12912 30.87523,-23.12888 30.8752,-23.12872 30.8752,-23.12869 30.87521,-23.12828 30.87522,-23.12787 30.87528,-23.12742 30.87547,-23.1269 30.87548,-23.12682 30.87553,-23.12638 30.87547,-23.12601 30.87538,-23.12586 30.8751,-23.12564 30.87499,-23.12558 30.87462,-23.1254 30.87436,-23.12501 30.87412,-23.12468 30.87359,-23.1242 30.87294,-23.12394 30.87278,-23.12395 30.87218,-23.12398 30.87139,-23.12418 30.87058,-23.1245 30.86971,-23.12501 30.86886,-23.12529 30.86814,-23.12573 30.86706,-23.1263 30.86623,-23.12674 30.86558,-23.127 30.86521,-23.12707 30.86462,-23.12683 30.86388,-23.12648 30.86342,-23.12637 30.86292,-23.12648 30.86224,-23.12713 30.8622,-23.12719 30.86189,-23.12763 30.86187,-23.12781 30.86185,-23.12801 30.8615,-23.12831 30.86124,-23.12842 30.8608,-23.1284 30.86047,-23.12805 30.85988,-23.12731 30.85954,-23.12693 30.85952,-23.12691 30.8593,-23.12665 30.85818,-23.12548 30.85732,-23.12422 30.8571,-23.12381 30.85715,-23.1233 30.85713,-23.12296 30.85704,-23.12265 30.85686,-23.12248 30.8563,-23.12259 30.85566,-23.1228 30.85552,-23.12281 30.85536,-23.12282 30.8552,-23.12272 30.85462,-23.12237 30.85392,-23.1218 30.85378,-23.12176 30.85355,-23.12169 30.85285,-23.12131 30.8526,-23.12118 30.85219,-23.12108 30.85157,-23.12092 30.85109,-23.12094 30.85048,-23.12122 30.84996,-23.12168 30.84963,-23.12199 30.84952,-23.12233 30.84952,-23.12279 30.84942,-23.12305 30.84876,-23.12373 30.84815,-23.12404 30.84662,-23.12395 30.84584,-23.12397 30.84561,-23.12401 30.84531,-23.12406 30.84488,-23.12431 30.84477,-23.12438 30.84407,-23.12458 30.84361,-23.12458 30.84295,-23.12435 30.8419,-23.12368 30.84149,-23.12337 30.84085,-23.12285 30.84059,-23.12272 30.83965,-23.12267 30.83902,-23.12224 30.83876,-23.12204 30.83805,-23.12155 30.83762,-23.12113 30.83718,-23.12079 30.83678,-23.1204 30.83665,-23.12027 30.83657,-23.1202 30.83618,-23.11991 30.83567,-23.11943 30.83548,-23.11915 30.83508,-23.11847 30.83478,-23.11834 30.8341,-23.1181 30.83401,-23.11787 30.83331,-23.11763 30.83279,-23.11738 30.83259,-23.11728 30.83246,-23.11683 30.83239,-23.11657 30.83239,-23.11602 30.83272,-23.11552 30.83346,-23.11449 30.83518,-23.11308 30.83597,-23.11205 30.83671,-23.11133 30.83726,-23.11098 30.83826,-23.11137 30.83924,-23.11181 30.83989,-23.11185 30.84046,-23.11144 30.8412,-23.11089 30.84184,-23.11028 30.84222,-23.10905 30.842,-23.10859 30.84196,-23.10851 30.84137,-23.10803 30.84053,-23.10757 30.84025,-23.10742 30.83914,-23.10707 30.8384,-23.1068 30.83744,-23.10624 30.83711,-23.10587 30.83627,-23.10472 30.83597,-23.10418 30.83534,-23.10352 30.8347,-23.10289 30.83407,-23.10256 30.83376,-23.10236 30.8337,-23.10232 30.83294,-23.10202 30.83263,-23.10195 30.83201,-23.10157 30.83153,-23.10024 30.83155,-23.09956 30.83144,-23.09906 30.83131,-23.09812 30.8312,-23.09738 30.83125,-23.0966 30.83151,-23.09623 30.83197,-23.09572 30.83203,-23.09553 30.83219,-23.09484 30.83213,-23.09438 30.83167,-23.09379 30.8311,-23.0936 30.8303,-23.09366 30.83009,-23.09372 30.82971,-23.09384 30.82936,-23.09387 30.82908,-23.0939 30.82825,-23.09392 30.82709,-23.09414 30.8257,-23.09458 30.82382,-23.09499 30.82214,-23.09536 30.82086,-23.09568 30.81966,-23.09583 30.81916,-23.09575 30.81892,-23.09518 30.81857,-23.0949 30.8179,-23.09485 30.81689,-23.09503 30.816,-23.09551 30.81565,-23.09577 30.81548,-23.0961 30.8153,-23.09664 30.81508,-23.09719 30.81467,-23.09773 30.81458,-23.0983 30.81412,-23.09932 30.81362,-23.10015 30.81313,-23.10077 30.81287,-23.10104 30.81246,-23.10117 30.81178,-23.10125 30.81038,-23.10125 30.8094,-23.10119 30.80901,-23.10138 30.80855,-23.10193 30.80831,-23.10237 30.80827,-23.103 30.80801,-23.10376 30.80761,-23.1042 30.80731,-23.10446 30.8071,-23.10454 30.80661,-23.10474 30.80634,-23.10489 30.80628,-23.10492 30.80567,-23.10483 30.8046,-23.10442 30.80375,-23.10378 30.80307,-23.10342 30.8023,-23.10297 30.80212,-23.10286 30.80184,-23.1027 30.80136,-23.10235 30.80088,-23.10192 30.80038,-23.10148 30.79992,-23.10111 30.7994,-23.10085 30.7988,-23.10056 30.79768,-23.09963 30.79765,-23.0996 30.79752,-23.0995 30.79673,-23.09889 30.79656,-23.09876 30.7964,-23.09855 30.79569,-23.09758 30.79544,-23.09708 30.79544,-23.09645 30.79556,-23.09577 30.79563,-23.0949 30.79538,-23.09397 30.79507,-23.09285 30.79482,-23.09229 30.79451,-23.0916 30.79419,-23.09114 30.79376,-23.09073 30.79362,-23.09063 30.79277,-23.09005 30.79196,-23.08967 30.79133,-23.08924 30.79046,-23.0893 30.78984,-23.08942 30.78922,-23.08942 30.78866,-23.08886 30.78835,-23.08812 30.78829,-23.08756 30.78799,-23.08716 30.78766,-23.08694 30.78636,-23.08712 30.78586,-23.08756 30.78536,-23.08824 30.785,-23.0885 30.78493,-23.08855 30.78424,-23.08874 30.78374,-23.08874 30.78316,-23.08852 30.78256,-23.0883 30.78245,-23.08822 30.782,-23.08793 30.78076,-23.087 30.77982,-23.08625 30.77877,-23.08594 30.77827,-23.08594 30.77793,-23.08599 30.77768,-23.08602 30.7769,-23.08613 30.77622,-23.08691 30.77631,-23.08763 30.77647,-23.08837 30.77628,-23.08886 30.77466,-23.0893 30.77342,-23.08967 30.77211,-23.09017 30.77075,-23.09046 30.77069,-23.09047 30.77018,-23.09067 30.76964,-23.0907 30.76906,-23.09073 30.76851,-23.09108 30.76837,-23.09117 30.76823,-23.09143 30.76806,-23.09175 30.76816,-23.09193 30.76825,-23.0921 30.76856,-23.09266 30.76825,-23.09334 30.76707,-23.09397 30.7662,-23.09428 30.76576,-23.09496 30.76483,-23.09546 30.76446,-23.09546 30.7639,-23.09533 30.76365,-23.09515 30.76321,-23.09471 30.7629,-23.09443 30.76259,-23.09415 30.76246,-23.09378 30.76234,-23.09341 30.76197,-23.09297 30.76172,-23.0926 30.76166,-23.09191 30.76141,-23.09123 30.76131,-23.09057 30.76135,-23.08986 30.76166,-23.08924 30.76241,-23.08818 30.76265,-23.08756 30.76284,-23.08675 30.76253,-23.08625 30.76147,-23.08619 30.76041,-23.08625 30.75973,-23.08656 30.75858,-23.08677 30.75699,-23.08706 30.75619,-23.08709 30.7555,-23.08712 30.75459,-23.08689 30.75446,-23.08684 30.75433,-23.08678 30.75416,-23.08665 30.75323,-23.08598 30.75301,-23.08582 30.75285,-23.08571 30.75223,-23.08529 30.75192,-23.08522 30.75144,-23.08509 30.75128,-23.08503 30.75107,-23.085 30.75084,-23.08494 30.7506,-23.08486 30.75026,-23.08473 30.75006,-23.08464 30.74986,-23.0847 30.74967,-23.0847 30.74952,-23.08475 30.74932,-23.08475 30.74923,-23.08478 30.74911,-23.08472 30.74887,-23.08461 30.74867,-23.08456 30.7485,-23.08448 30.74837,-23.08442 30.74831,-23.0844 30.7481,-23.0844 30.74802,-23.08439 30.74792,-23.08437 30.74775,-23.08427 30.74765,-23.08427 30.74751,-23.08424 30.74722,-23.08411 30.747,-23.08399 30.74682,-23.08399 30.74651,-23.0839 30.74615,-23.08389 30.7457,-23.08377 30.7452,-23.08372 30.74481,-23.08349 30.74396,-23.08333 30.74367,-23.08324 30.74364,-23.08324 30.74359,-23.08325 30.74353,-23.08328 30.7435,-23.08329 30.74336,-23.08329 30.74302,-23.0832 30.74282,-23.08318 30.74265,-23.08316 30.74246,-23.08311 30.74213,-23.08302 30.74178,-23.08302 30.74158,-23.08298 30.74113,-23.08288 30.74077,-23.08285 30.7399,-23.08269 30.73977,-23.08263 30.73939,-23.08258 30.73911,-23.08252 30.73892,-23.08248 30.73879,-23.08245 30.73864,-23.0824 30.73838,-23.08231 30.73804,-23.08216 30.73779,-23.08196 30.73735,-23.0818 30.73729,-23.08171 30.7371,-23.0815 30.73694,-23.08126 30.73686,-23.08099 30.73673,-23.08079 30.73646,-23.08048 30.73632,-23.08015 30.73627,-23.07975 30.73624,-23.07928 30.73623,-23.07909 30.73612,-23.07881 30.73606,-23.07847 30.73604,-23.07824 30.736,-23.07795 30.73591,-23.07756 30.73573,-23.07715 30.73561,-23.07688 30.73558,-23.07668 30.73556,-23.07653 30.73531,-23.07625 30.7351,-23.07595 30.73488,-23.07554 30.73478,-23.07539 30.73469,-23.07523 30.73466,-23.07518 30.73446,-23.07501 30.73434,-23.07489 30.73418,-23.07468 30.734,-23.0746 30.73381,-23.07432 30.73352,-23.0742 30.73324,-23.07407 30.73292,-23.07386 30.73272,-23.07375 30.73241,-23.07357 30.73201,-23.07348 30.7316,-23.07334 30.7312,-23.07322 30.73089,-23.07323 30.73083,-23.07323 30.73061,-23.07321 30.73025,-23.07316 30.72994,-23.07304 30.72966,-23.07291 30.72939,-23.07285 30.72908,-23.07272 30.72892,-23.07259 30.72889,-23.07257 30.72869,-23.07249 30.72828,-23.07232 30.72815,-23.07221 30.72805,-23.07231 30.72628,-23.07428 30.71275,-23.08933 30.70053,-23.10293 30.69226,-23.11226 30.68003,-23.12606 30.66718,-23.14056 30.66552,-23.14244 30.66494,-23.14309 30.66249,-23.14586 30.65223,-23.15742 30.65212,-23.15753 30.62948,-23.17971 30.62754,-23.18161 30.62751,-23.18164 30.62749,-23.18166 30.62744,-23.18164 30.62732,-23.18159 30.62661,-23.18102 30.62619,-23.18043 30.62588,-23.17984 30.6257,-23.17927 30.62556,-23.17883 30.62546,-23.17857 30.62528,-23.17771 30.6251,-23.17736 30.62503,-23.17724 30.62496,-23.17711 30.62478,-23.17675 30.62467,-23.17644 30.62444,-23.17606 30.6243,-23.1757 30.62406,-23.17533 30.62374,-23.17488 30.62329,-23.17441 30.62287,-23.17407 30.62252,-23.17373 30.62203,-23.17344 30.62188,-23.17335 30.62185,-23.17333 30.62156,-23.17321 30.62143,-23.17319 30.62133,-23.17317 30.62106,-23.17318 30.62087,-23.17319 30.62064,-23.17321 30.62046,-23.17328 30.62038,-23.17331 30.61997,-23.17344 30.61967,-23.17356 30.61934,-23.17362 30.61816,-23.17378 30.61776,-23.17394 30.61723,-23.17401 30.61635,-23.17399 30.61559,-23.17383 30.61528,-23.17374 30.61508,-23.17369 30.61489,-23.17362 30.61451,-23.17347 30.61419,-23.17336 30.61382,-23.17322 30.61332,-23.17295 30.61242,-23.17268 30.61195,-23.17258 30.6118,-23.1726 30.61171,-23.17284 30.61176,-23.17321 30.61188,-23.17343 30.61192,-23.17363 30.61179,-23.17388 30.61158,-23.17407 30.61132,-23.1742 30.61068,-23.17415 30.61027,-23.17412 30.60984,-23.17414 30.60922,-23.17419 30.60836,-23.1743 30.60802,-23.17433 30.60772,-23.17435 30.60731,-23.17439 30.60685,-23.17443 30.60643,-23.17454 30.60593,-23.17469 30.6058,-23.17474 30.60554,-23.17484 30.60528,-23.17494 30.60516,-23.17499 30.60492,-23.17514 30.6048,-23.17531 30.60473,-23.17549 30.60473,-23.17578 30.60485,-23.17592 30.60513,-23.17614 30.60537,-23.17643 30.60545,-23.17662 30.60545,-23.17687 30.60541,-23.17728 30.60534,-23.17759 30.60524,-23.17799 30.60517,-23.17831 30.60524,-23.17861 30.60513,-23.17888 30.60504,-23.17906 30.60493,-23.17926 30.60485,-23.17948 30.60477,-23.17967 30.60467,-23.17985 30.60467,-23.18012 30.6046,-23.18034 30.60459,-23.18071 30.6046,-23.18097 30.60456,-23.18114 30.60448,-23.18134 30.6043,-23.18159 30.60416,-23.18168 30.60387,-23.18174 30.60353,-23.18172 30.60328,-23.18186 30.60308,-23.18199 30.6028,-23.18259 30.60265,-23.18275 30.60252,-23.18292 30.60241,-23.18316 30.6021,-23.18322 30.60171,-23.18323 30.60143,-23.18329 30.60118,-23.18333 30.60089,-23.18331 30.60058,-23.1833 30.60054,-23.1833 30.60033,-23.18327 30.60009,-23.18324 30.59975,-23.18314 30.59932,-23.18297 30.59873,-23.18272 30.59837,-23.18261 30.59803,-23.18263 30.59799,-23.18265 30.59785,-23.18273 30.5976,-23.18301 30.59729,-23.18323 30.59683,-23.18359 30.59641,-23.18381 30.59605,-23.18409 30.59569,-23.18421 30.59528,-23.18447 30.59481,-23.18474 30.5946,-23.18489 30.59449,-23.18487 30.59419,-23.1847 30.59388,-23.18446 30.5936,-23.18427 30.59336,-23.18395 30.59315,-23.18396 30.59289,-23.18412 30.59271,-23.18423 30.5926,-23.18421 30.59242,-23.18408 30.59222,-23.18387 30.59196,-23.18357 30.59167,-23.18331 30.59137,-23.18313 30.59125,-23.18311 30.591,-23.18316 30.59088,-23.18321 30.59077,-23.18329 30.59066,-23.18338 30.59054,-23.18357 30.59045,-23.18374 30.59037,-23.18386 30.59025,-23.18387 30.59014,-23.18377 30.58999,-23.18353 30.5899,-23.18339 30.58983,-23.18321 30.58978,-23.18299 30.58976,-23.18288 30.58976,-23.18265 30.58978,-23.18236 30.5898,-23.18195 30.58984,-23.18167 30.58986,-23.18131 30.5899,-23.18098 30.5899,-23.18053 30.58994,-23.18019 30.58993,-23.17999 30.58992,-23.17972 30.58991,-23.17955 30.58995,-23.17935 30.58996,-23.17912 30.58999,-23.17887 30.59001,-23.17868 30.59011,-23.17842 30.59011,-23.17822 30.59002,-23.1781 30.58991,-23.17802 30.58976,-23.17802 30.5896,-23.17804 30.58931,-23.1781 30.58893,-23.17818 30.58873,-23.17826 30.58841,-23.17836 30.58814,-23.17842 30.58783,-23.1785 30.58766,-23.17854 30.58734,-23.17862 30.58713,-23.17865 30.58689,-23.17873 30.58675,-23.17879 30.58664,-23.1789 30.58641,-23.17898 30.5862,-23.17897 30.58593,-23.17901 30.58558,-23.17897 30.58541,-23.17892 30.58522,-23.17889 30.58502,-23.17886 30.58485,-23.17883 30.58474,-23.17882 30.58461,-23.1788 30.58429,-23.17879 30.58389,-23.17878 30.58362,-23.17876 30.58354,-23.17878 30.58339,-23.17883 30.58328,-23.17894 30.58321,-23.17902 30.58326,-23.17931 30.58326,-23.17942 30.58323,-23.17958 30.58304,-23.17962 30.58288,-23.17962 30.58265,-23.17958 30.58245,-23.17962 30.58228,-23.17963 30.58223,-23.17965 30.5821,-23.1797 30.582,-23.17971 30.58191,-23.17971 30.58173,-23.17975 30.58147,-23.17981 30.58118,-23.17989 30.581,-23.17996 30.58083,-23.18005 30.58062,-23.18012 30.58039,-23.18017 30.58013,-23.1803 30.58008,-23.18032 30.57994,-23.18038 30.57982,-23.18044 30.57978,-23.18046 30.57962,-23.18056 30.57947,-23.18066 30.57938,-23.18078 30.57927,-23.18078 30.57915,-23.18077 30.57888,-23.18076 30.5785,-23.18075 30.57827,-23.18074 30.57815,-23.18073 30.57798,-23.18052 30.57798,-23.18027 30.57795,-23.18 30.57789,-23.17977 30.57781,-23.17965 30.57779,-23.17962 30.57762,-23.17942 30.57748,-23.17929 30.57718,-23.17909 30.57695,-23.17891 30.57677,-23.17877 30.57641,-23.17855 30.57616,-23.17839 30.57604,-23.17827 30.57582,-23.17818 30.57563,-23.17808 30.57552,-23.17805 30.57536,-23.17798 30.57506,-23.17784 30.5749,-23.17777 30.57474,-23.17771 30.57469,-23.17767 30.57458,-23.17757 30.5745,-23.17739 30.57443,-23.17731 30.57431,-23.17725 30.57417,-23.17725 30.57398,-23.17723 30.57378,-23.17724 30.5736,-23.17729 30.57345,-23.17737 30.57321,-23.17751 30.57307,-23.17762 30.57292,-23.17771 30.57279,-23.17776 30.57272,-23.17778 30.57261,-23.17781 30.5725,-23.17784 30.57244,-23.17786 30.5722,-23.17791 30.57212,-23.17804 30.57211,-23.17822 30.57206,-23.17832 30.57191,-23.17851 30.57169,-23.17871 30.5715,-23.1789 30.57132,-23.17901 30.5711,-23.17909 30.57092,-23.17911 30.57083,-23.17912 30.5707,-23.17914 30.57058,-23.17916 30.5705,-23.17917 30.57025,-23.17918 30.57017,-23.17919 30.57006,-23.17921 30.56996,-23.17923 30.5699,-23.17925 30.56968,-23.1793 30.56924,-23.17946 30.56902,-23.17958 30.56895,-23.17961 30.56878,-23.1797 30.56867,-23.17972 30.56858,-23.17973 30.5683,-23.17964 30.5679,-23.17954 30.56772,-23.17955 30.56753,-23.17956 30.56738,-23.17959 30.56718,-23.17967 30.56704,-23.17973 30.56695,-23.17974 30.56683,-23.17976 30.56668,-23.17978 30.56656,-23.17979 30.56636,-23.17986 30.56612,-23.17993 30.5659,-23.18 30.56566,-23.18003 30.56541,-23.18005 30.56521,-23.18004 30.56504,-23.17994 30.56488,-23.17976 30.56472,-23.17954 30.56467,-23.17942 30.56467,-23.17929 30.56466,-23.17917 30.56471,-23.17908 30.56484,-23.17896 30.56533,-23.17885 30.5656,-23.17875 30.56577,-23.17866 30.56585,-23.17861 30.56588,-23.17852 30.56585,-23.17841 30.56572,-23.17832 30.56537,-23.17815 30.56504,-23.17805 30.56433,-23.1778 30.56411,-23.17777 30.56396,-23.17771 30.56386,-23.17765 30.56381,-23.17755 30.56381,-23.17738 30.56382,-23.17726 30.56383,-23.17715 30.56386,-23.17703 30.56387,-23.17692 30.56385,-23.17679 30.56381,-23.17668 30.56379,-23.17652 30.56377,-23.17633 30.56375,-23.17616 30.56373,-23.17604 30.56373,-23.17592 30.56368,-23.1758 30.56348,-23.17546 30.56351,-23.1754 30.56353,-23.17536 30.56355,-23.17531 30.56356,-23.17526 30.56356,-23.17519 30.56357,-23.17514 30.56356,-23.17506 30.56352,-23.17501 30.56349,-23.17497 30.56346,-23.17495 30.56341,-23.1749 30.56338,-23.17487 30.56334,-23.17483 30.5633,-23.17481 30.56303,-23.17512 30.563,-23.1751 30.56283,-23.17501 30.56267,-23.17486 30.56252,-23.17482 30.56242,-23.1748 30.56224,-23.17473 30.56214,-23.17467 30.56179,-23.1746 30.56162,-23.17459 30.56125,-23.17457 30.56063,-23.17455 30.56035,-23.17451 30.56005,-23.17449 30.55971,-23.17449 30.55936,-23.17445 30.55921,-23.17445 30.55894,-23.17449 30.55878,-23.1745 30.55864,-23.17453 30.55846,-23.17452 30.55815,-23.17446 30.55788,-23.17443 30.5576,-23.17435 30.55728,-23.17429 30.5571,-23.17427 30.5572,-23.17422 30.5572,-23.17415 30.55716,-23.17414 30.55707,-23.17415 30.55685,-23.17412 30.55674,-23.17407 30.55666,-23.17402 30.55651,-23.17397 30.55628,-23.17393 30.55612,-23.17384 30.55596,-23.17385 30.55573,-23.17395 30.5555,-23.17412 30.55526,-23.17416 30.5551,-23.17423 30.55499,-23.17433 30.55498,-23.17444 30.55501,-23.17453 30.55485,-23.17465 30.55466,-23.17468 30.55451,-23.17467 30.55427,-23.17446 30.55411,-23.17438 30.5538,-23.17419 30.55344,-23.17408 30.55281,-23.17389 30.5524,-23.17369 30.55203,-23.17351 30.55162,-23.1734 30.55139,-23.17328 30.55122,-23.17307 30.5512,-23.17288 30.55129,-23.17251 30.55133,-23.17235 30.55134,-23.17224 30.55129,-23.17205 30.55107,-23.17171 30.55089,-23.17138 30.55072,-23.17119 30.55027,-23.17091 30.54983,-23.17078 30.54974,-23.17077 30.54956,-23.17076 30.54919,-23.17067 30.54892,-23.17058 30.54881,-23.17041 30.54881,-23.17011 30.54884,-23.1698 30.54885,-23.16953 30.5489,-23.16931 30.54893,-23.16911 30.54898,-23.16895 30.54892,-23.1687 30.54886,-23.16848 30.54887,-23.16823 30.54885,-23.16806 30.5487,-23.16774 30.5484,-23.16761 30.54779,-23.16744 30.5474,-23.16742 30.5469,-23.16747 30.54653,-23.16764 30.54611,-23.16782 30.54592,-23.16797 30.5457,-23.16799 30.54555,-23.16796 30.54522,-23.16784 30.54505,-23.16779 30.54478,-23.16775 30.54444,-23.16762 30.54431,-23.16745 30.54409,-23.16749 30.54384,-23.16768 30.54349,-23.16793 30.54329,-23.16815 30.54318,-23.1683 30.54287,-23.16849 30.54266,-23.16863 30.54253,-23.16857 30.54242,-23.16843 30.54234,-23.16828 30.54227,-23.16814 30.54221,-23.16798 30.54212,-23.16787 30.54191,-23.16776 30.54174,-23.16775 30.54152,-23.16772 30.54129,-23.16763 30.54095,-23.16756 30.54077,-23.16749 30.54063,-23.16731 30.54031,-23.1668 30.54009,-23.1664 30.5398,-23.16625 30.53967,-23.16641 30.53953,-23.1666 30.53936,-23.16659 30.53916,-23.16654 30.53885,-23.16637 30.53861,-23.16601 30.53851,-23.1657 30.53839,-23.16542 30.53817,-23.1652 30.53787,-23.16513 30.53743,-23.16498 30.53713,-23.16491 30.53696,-23.16492 30.53674,-23.16487 30.53653,-23.16465 30.53632,-23.1644 30.53621,-23.16421 30.53614,-23.16406 30.53607,-23.16386 30.53606,-23.16372 30.53606,-23.16357 30.53605,-23.16338 30.536,-23.16323 30.53574,-23.16305 30.53544,-23.16291 30.53534,-23.16272 30.53539,-23.1625 30.53539,-23.1623 30.53524,-23.16214 30.53495,-23.16193 30.53471,-23.16182 30.53458,-23.16184 30.53448,-23.16185 30.53418,-23.16194 30.53358,-23.16224 30.53343,-23.16229 30.5333,-23.16238 30.53311,-23.16243 30.53284,-23.16241 30.5322,-23.16233 30.53193,-23.16233 30.53165,-23.16229 30.5315,-23.16217 30.53145,-23.16195 30.53129,-23.16182 30.53087,-23.16183 30.5304,-23.16191 30.5296,-23.16217 30.52932,-23.16227 30.52906,-23.16244 30.52875,-23.16251 30.52864,-23.16258 30.52829,-23.16289 30.52812,-23.16317 30.52786,-23.16342 30.52762,-23.16367 30.52756,-23.16387 30.5275,-23.16408 30.52735,-23.16423 30.52709,-23.16434 30.52683,-23.16446 30.52655,-23.16447 30.52632,-23.16452 30.52613,-23.16449 30.52593,-23.16439 30.52569,-23.1645 30.52552,-23.16459 30.52522,-23.16474 30.52466,-23.16489 30.52394,-23.16502 30.52337,-23.16524 30.52278,-23.16556 30.52239,-23.16581 30.52224,-23.16591 30.52204,-23.16584 30.52182,-23.16559 30.52167,-23.16541 30.52163,-23.16524 30.52159,-23.16501 30.52159,-23.16476 30.52158,-23.16453 30.52149,-23.16455 30.52144,-23.16443 30.52151,-23.16427 30.52156,-23.16409 30.52161,-23.16389 30.52152,-23.1638 30.52132,-23.16367 30.52113,-23.16366 30.52093,-23.1636 30.52077,-23.16356 30.52075,-23.1634 30.52078,-23.16317 30.52076,-23.16297 30.52071,-23.16285 30.52061,-23.16282 30.52053,-23.16287 30.52046,-23.16301 30.52042,-23.16313 30.52033,-23.16313 30.52021,-23.16296 30.52013,-23.16287 30.52001,-23.1627 30.51996,-23.16258 30.52,-23.1625 30.52015,-23.1624 30.52024,-23.1623 30.52027,-23.16222 30.52013,-23.16199 30.51983,-23.16202 30.51966,-23.162 30.51953,-23.16191 30.51945,-23.16172 30.51934,-23.16139 30.51917,-23.16115 30.51909,-23.16102 30.51897,-23.16089 30.51876,-23.16077 30.51861,-23.16069 30.51846,-23.16059 30.51843,-23.16056 30.51827,-23.16049 30.51816,-23.1604 30.5181,-23.1603 30.51804,-23.16013 30.51809,-23.15988 30.51823,-23.1597 30.51831,-23.15968 30.51854,-23.15967 30.51875,-23.15978 30.51888,-23.15978 30.51889,-23.15974 30.51887,-23.15961 30.51879,-23.15946 30.51885,-23.15932 30.51893,-23.1592 30.51894,-23.15915 30.51888,-23.15907 30.51876,-23.15901 30.51868,-23.15903 30.51853,-23.15898 30.51843,-23.15895 30.51823,-23.15891 30.51815,-23.15876 30.51807,-23.15855 30.51804,-23.15841 30.51809,-23.15833 30.51821,-23.15833 30.51835,-23.15829 30.51846,-23.15827 30.51851,-23.15818 30.51841,-23.15798 30.51825,-23.1578 30.51813,-23.1577 30.51807,-23.15768 30.51796,-23.1576 30.51788,-23.15758 30.5179,-23.15736 30.51786,-23.15716 30.51786,-23.15705 30.5179,-23.15693 30.5179,-23.15676 30.51786,-23.15657 30.5178,-23.15639 30.51781,-23.15625 30.51785,-23.15615 30.51785,-23.15605 30.51771,-23.15594 30.51756,-23.15583 30.51742,-23.15567 30.51733,-23.15557 30.51742,-23.15546 30.5174,-23.15533 30.51729,-23.15515 30.51723,-23.15509 30.51709,-23.15508 30.51692,-23.15486 30.51687,-23.1548 30.51685,-23.15474 30.5169,-23.1546 30.5169,-23.15444 30.51686,-23.15426 30.51673,-23.15411 30.51653,-23.15392 30.51639,-23.15376 30.51628,-23.15368 30.51618,-23.15368 30.51613,-23.15359 30.51609,-23.15339 30.51615,-23.1533 30.51628,-23.15314 30.51632,-23.15301 30.51629,-23.15283 30.51629,-23.15271 30.51637,-23.15261 30.51654,-23.15251 30.51662,-23.15244 30.51667,-23.1523 30.51676,-23.15223 30.51692,-23.15217 30.51704,-23.15211 30.51705,-23.15203 30.51706,-23.15187 30.51711,-23.15166 30.5172,-23.15155 30.51735,-23.15152 30.51753,-23.15144 30.51772,-23.15141 30.5178,-23.15135 30.51776,-23.15127 30.5176,-23.15107 30.51753,-23.1509 30.51752,-23.15072 30.5176,-23.15054 30.51769,-23.15037 30.51771,-23.15023 30.51772,-23.15005 30.51764,-23.14994 30.51755,-23.14988 30.51742,-23.14979 30.51724,-23.14958 30.51723,-23.14941 30.51723,-23.14922 30.51719,-23.14904 30.51715,-23.14898 30.51706,-23.14893 30.51695,-23.14891 30.51688,-23.14884 30.51684,-23.14871 30.51693,-23.14858 30.51695,-23.1485 30.5169,-23.14838 30.51673,-23.14827 30.5166,-23.14826 30.51649,-23.14825 30.51631,-23.14816 30.5162,-23.14808 30.51612,-23.14804 30.51602,-23.14807 30.51593,-23.14812 30.51589,-23.14812 30.51582,-23.14804 30.51572,-23.14787 30.51562,-23.14774 30.51545,-23.14767 30.51524,-23.14757 30.51518,-23.14754 30.51507,-23.14761 30.51493,-23.1477 30.51481,-23.14779 30.51469,-23.14778 30.51449,-23.14773 30.51438,-23.14768 30.51422,-23.14767 30.51415,-23.14769 30.51407,-23.14767 30.51396,-23.14763 30.51378,-23.14753 30.51358,-23.14746 30.51343,-23.14746 30.51327,-23.14752 30.51285,-23.14745 30.51272,-23.14746 30.51233,-23.14733 30.51223,-23.14737 30.51224,-23.14746 30.51232,-23.14758 30.51228,-23.14762 30.51214,-23.14757 30.51204,-23.14749 30.51192,-23.14741 30.51184,-23.14735 30.51167,-23.14728 30.51136,-23.14726 30.5112,-23.14727 30.51099,-23.14724 30.51073,-23.14721 30.51062,-23.14714 30.51062,-23.14693 30.51051,-23.14691 30.51037,-23.14697 30.51021,-23.14713 30.51,-23.14705 30.50987,-23.14694 30.50969,-23.14678 30.50956,-23.14672 30.50946,-23.14654 30.5094,-23.14647 30.50923,-23.14654 30.50905,-23.14661 30.50895,-23.1467 30.50861,-23.14653 30.50843,-23.14636 30.50829,-23.14634 30.50821,-23.14628 30.50802,-23.14631 30.50791,-23.14631 30.50787,-23.14637 30.50784,-23.14636 30.50752,-23.14638 30.50725,-23.14625 30.5068,-23.14596 30.50638,-23.14561 30.50569,-23.14513 30.50521,-23.14467 30.50489,-23.14444 30.50434,-23.14424 30.50385,-23.14414 30.50305,-23.14355 30.50256,-23.14328 30.50192,-23.14304 30.5015,-23.14285 30.5011,-23.14274 30.5005,-23.14243 30.50019,-23.14229 30.50009,-23.14225 30.49983,-23.14216 30.49957,-23.14201 30.49914,-23.1416 30.49909,-23.14146 30.4989,-23.14116 30.49869,-23.14085 30.49838,-23.14054 30.4983,-23.14029 30.49822,-23.14007 30.49812,-23.1398 30.49808,-23.13944 30.49799,-23.13916 30.49793,-23.13899 30.49798,-23.13881 30.49801,-23.13869 30.49783,-23.13836 30.49775,-23.13824 30.4974,-23.13791 30.49724,-23.13777 30.49729,-23.13733 30.49735,-23.13707 30.49738,-23.13692 30.49737,-23.13668 30.49725,-23.13629 30.49711,-23.13604 30.49708,-23.13586 30.49708,-23.13569 30.49681,-23.1354 30.49662,-23.13511 30.49652,-23.13483 30.49653,-23.1347 30.49653,-23.13463 30.49638,-23.13434 30.4961,-23.13433 30.496,-23.13434 30.49579,-23.13435 30.49553,-23.13437 30.49526,-23.13439 30.49501,-23.1344 30.49467,-23.13435 30.49448,-23.13432 30.49413,-23.13428 30.49388,-23.13422 30.49353,-23.13409 30.49328,-23.13403 30.49324,-23.13383 30.49319,-23.13369 30.49319,-23.13342 30.49304,-23.1332 30.49278,-23.13322 30.49233,-23.13324 30.49208,-23.1333 30.49177,-23.13326 30.49128,-23.13312 30.49101,-23.1331 30.4908,-23.13316 30.49053,-23.13323 30.49033,-23.13329 30.49021,-23.13331 30.48988,-23.13348 30.48951,-23.13357 30.48925,-23.13355 30.48905,-23.13339 30.48895,-23.13325 30.48902,-23.1331 30.48922,-23.13299 30.48929,-23.13279 30.48917,-23.13259 30.48902,-23.13241 30.48872,-23.13232 30.48837,-23.13242 30.48814,-23.13251 30.48793,-23.13253 30.48765,-23.13252 30.48694,-23.13226 30.48652,-23.13208 30.48622,-23.13192 30.48575,-23.13182 30.48552,-23.13184 30.48515,-23.13173 30.48458,-23.13166 30.48415,-23.13162 30.48396,-23.13154 30.48388,-23.13144 30.48361,-23.13129 30.48357,-23.13127 30.48322,-23.13112 30.48287,-23.1308 30.48267,-23.13055 30.48245,-23.13036 30.48223,-23.13025 30.48217,-23.13004 30.48214,-23.12986 30.48218,-23.12972 30.48221,-23.12957 30.48221,-23.12933 30.48186,-23.129 30.48165,-23.12888 30.48146,-23.12871 30.48142,-23.12842 30.48137,-23.12816 30.48118,-23.12788 30.48095,-23.12759 30.48063,-23.12739 30.48037,-23.12731 30.48004,-23.12719 30.4798,-23.12717 30.4793,-23.12705 30.47896,-23.12701 30.47843,-23.12704 30.47806,-23.12702 30.47793,-23.12692 30.47792,-23.12673 30.47806,-23.1266 30.47827,-23.1264 30.47841,-23.1263 30.4785,-23.12614 30.47857,-23.12596 30.47849,-23.12587 30.47803,-23.12572 30.47765,-23.12562 30.47723,-23.12554 30.47678,-23.12538 30.47661,-23.12528 30.47627,-23.12516 30.47603,-23.12508 30.47569,-23.12487 30.47569,-23.12487 30.47539,-23.12437 30.47537,-23.12435 30.4753,-23.12425 30.47535,-23.12399 30.47545,-23.12376 30.47547,-23.12348 30.4755,-23.12321 30.47554,-23.12296 30.47558,-23.12267 30.47558,-23.12234 30.47554,-23.12216 30.47548,-23.12202 30.47524,-23.12182 30.47509,-23.12171 30.47492,-23.12175 30.47484,-23.12186 30.47474,-23.12209 30.47461,-23.12225 30.47444,-23.12241 30.47428,-23.12253 30.47411,-23.12259 30.47386,-23.1226 30.47361,-23.12252 30.47327,-23.12242 30.47301,-23.12234 30.47286,-23.12221 30.47273,-23.12201 30.47277,-23.1219 30.4729,-23.12186 30.47301,-23.12176 30.47303,-23.12166 30.47303,-23.12149 30.47306,-23.12134 30.47312,-23.12114 30.47318,-23.12096 30.4732,-23.12081 30.47311,-23.12072 30.47297,-23.12066 30.47277,-23.12066 30.47264,-23.12076 30.47243,-23.12097 30.47234,-23.12105 30.4722,-23.12114 30.4721,-23.12121 30.47195,-23.12132 30.47183,-23.12146 30.47165,-23.12165 30.47142,-23.12182 30.4713,-23.12194 30.47124,-23.12202 30.47109,-23.12214 30.47088,-23.12216 30.47063,-23.12207 30.47041,-23.12196 30.4704,-23.12172 30.47047,-23.1216 30.47052,-23.12144 30.47049,-23.12128 30.47047,-23.12108 30.47037,-23.12089 30.47036,-23.12066 30.47032,-23.12035 30.47032,-23.12025 30.47036,-23.12008 30.47034,-23.11991 30.47028,-23.11972 30.47033,-23.11952 30.47034,-23.11932 30.47039,-23.11915 30.47039,-23.11898 30.47033,-23.11875 30.47012,-23.11851 30.4699,-23.11826 30.46963,-23.11806 30.46947,-23.11792 30.46937,-23.11782 30.46921,-23.11764 30.4691,-23.11749 30.46883,-23.11719 30.46871,-23.117 30.46858,-23.11685 30.46837,-23.1166 30.46816,-23.11628 30.46818,-23.11602 30.46823,-23.1159 30.4684,-23.11582 30.46862,-23.11583 30.46892,-23.11578 30.46916,-23.11575 30.46944,-23.11571 30.46976,-23.11568 30.46997,-23.11564 30.47035,-23.11563 30.47059,-23.11559 30.47068,-23.11549 30.47075,-23.11532 30.47078,-23.11495 30.47078,-23.11473 30.47081,-23.11456 30.47086,-23.11427 30.47091,-23.11401 30.4709,-23.11381 30.47094,-23.11356 30.4711,-23.11331 30.47121,-23.11313 30.47128,-23.113 30.47126,-23.1127 30.47125,-23.11252 30.47117,-23.1123 30.47102,-23.11198 30.47088,-23.11166 30.47074,-23.11144 30.47055,-23.11117 30.47035,-23.11107 30.47015,-23.11085 30.46987,-23.11055 30.46968,-23.11039 30.46951,-23.11011 30.46941,-23.10996 30.46942,-23.10975 30.46951,-23.10957 30.46964,-23.1094 30.46978,-23.10928 30.46989,-23.10923 30.47001,-23.10908 30.47016,-23.109 30.47031,-23.10896 30.47048,-23.10889 30.47066,-23.10878 30.47082,-23.10867 30.47097,-23.10853 30.47107,-23.10831 30.47114,-23.10805 30.47123,-23.10792 30.47141,-23.10774 30.47165,-23.10753 30.47193,-23.1072 30.47227,-23.10693 30.47267,-23.10661 30.47289,-23.10635 30.47313,-23.10614 30.47317,-23.10599 30.47319,-23.10574 30.4732,-23.10554 30.4732,-23.10523 30.47319,-23.10502 30.47312,-23.10488 30.47306,-23.10484 30.47292,-23.10482 30.47278,-23.10485 30.47253,-23.10486 30.47235,-23.10492 30.47205,-23.10487 30.47199,-23.10483 30.47193,-23.10467 30.47179,-23.10455 30.47169,-23.10449 30.47142,-23.10438 30.47129,-23.1043 30.47116,-23.10419 30.47085,-23.10402 30.4706,-23.10388 30.47047,-23.10375 30.47019,-23.10358 30.47007,-23.10338 30.47011,-23.10324 30.47022,-23.10319 30.47042,-23.10304 30.47065,-23.10292 30.47057,-23.1027 30.47044,-23.10245 30.47024,-23.10214 30.46999,-23.10176 30.46981,-23.10145 30.4695,-23.10101 30.46922,-23.10064 30.46904,-23.10029 30.46878,-23.10004 30.46849,-23.09976 30.46826,-23.09943 30.4678,-23.09893 30.46752,-23.09866 30.46725,-23.09832 30.46712,-23.09816 30.46699,-23.09795 30.46688,-23.09765 30.46675,-23.09735 30.46663,-23.0971 30.46648,-23.09673 30.46648,-23.09668 30.46648,-23.09643 30.46657,-23.09614 30.46672,-23.09596 30.46682,-23.09577 30.4669,-23.09555 30.46693,-23.09547 30.46692,-23.09527 30.46691,-23.09497 30.46687,-23.09486 30.46676,-23.09452 30.46651,-23.09433 30.46597,-23.09413 30.46534,-23.09384 30.46511,-23.09368 30.46507,-23.09347 30.4651,-23.09325 30.4653,-23.09297 30.46542,-23.09282 30.46567,-23.09253 30.46588,-23.09227 30.46617,-23.092 30.46621,-23.09195 30.46643,-23.09166 30.4667,-23.09132 30.46706,-23.09095 30.4674,-23.09058 30.4676,-23.09019 30.46744,-23.08996 30.46693,-23.08945 30.46683,-23.08928 30.46677,-23.089 30.46675,-23.08871 30.46672,-23.08848 30.46666,-23.08816 30.46667,-23.08791 30.46664,-23.08745 30.46673,-23.08707 30.46691,-23.08683 30.46714,-23.0866 30.4674,-23.0864 30.46761,-23.08628 30.46793,-23.08627 30.46827,-23.08625 30.46868,-23.0862 30.46893,-23.08595 30.46891,-23.08581 30.46906,-23.08558 30.46934,-23.08528 30.46964,-23.08499 30.46988,-23.0848 30.47013,-23.08451 30.47017,-23.08442 30.47007,-23.08435 30.46982,-23.08429 30.46968,-23.08423 30.46929,-23.08408 30.46822,-23.08381 30.46789,-23.08376 30.46771,-23.08383 30.46736,-23.08378 30.46713,-23.08361 30.46671,-23.08337 30.46653,-23.08306 30.4664,-23.08265 30.46636,-23.08224 30.46636,-23.08183 30.46639,-23.08154 30.46655,-23.08139 30.46661,-23.08121 30.46662,-23.08102 30.46661,-23.08081 30.46657,-23.08063 30.46643,-23.08051 30.46613,-23.08032 30.46576,-23.08025 30.46529,-23.08022 30.46503,-23.08028 30.46486,-23.08036 30.46473,-23.08044 30.46458,-23.08047 30.46417,-23.08047 30.46399,-23.08044 30.46382,-23.08041 30.46357,-23.08038 30.46337,-23.08031 30.46327,-23.08026 30.46315,-23.08018 30.46305,-23.08009 30.46297,-23.08011 30.46285,-23.08013 30.46276,-23.08019 30.46271,-23.08019 30.4627,-23.08015 30.46271,-23.0801 30.46269,-23.08006 30.46265,-23.08003 30.46233,-23.07981 30.46185,-23.07956 30.46155,-23.07944 30.46148,-23.07938 30.46141,-23.07934 30.46127,-23.07926 30.4608,-23.07878 30.46076,-23.07867 30.4604,-23.07858 30.46004,-23.0785 30.4594,-23.07826 30.45852,-23.07798 30.4577,-23.07782 30.45678,-23.07758 30.45648,-23.07745 30.45603,-23.07724 30.45542,-23.07699 30.45505,-23.07685 30.45463,-23.07673 30.45382,-23.07632 30.45338,-23.07611 30.45284,-23.07583 30.4522,-23.07548 30.45182,-23.07524 30.4514,-23.07498 30.45103,-23.07482 30.45068,-23.0748 30.45017,-23.07471 30.44972,-23.07473 30.4494,-23.07482 30.44911,-23.07493 30.44882,-23.07513 30.44861,-23.07528 30.44856,-23.07538 30.44857,-23.07561 30.4486,-23.07576 30.44855,-23.07604 30.44844,-23.07627 30.44841,-23.07641 30.44837,-23.07675 30.44837,-23.07704 30.44843,-23.0772 30.4484,-23.07738 30.44839,-23.07745 30.44831,-23.07787 30.4483,-23.07816 30.44833,-23.07842 30.44831,-23.07855 30.44827,-23.07885 30.44818,-23.07915 30.44804,-23.07939 30.44803,-23.07955 30.448,-23.07968 30.44795,-23.07989 30.44788,-23.08012 30.44773,-23.08038 30.44763,-23.08055 30.44751,-23.08068 30.44745,-23.08083 30.44722,-23.08117 30.447,-23.08152 30.4468,-23.08174 30.44662,-23.08186 30.44643,-23.082 30.44597,-23.08225 30.44563,-23.08241 30.44527,-23.0825 30.44475,-23.0827 30.44446,-23.08279 30.44414,-23.0829 30.44388,-23.083 30.44376,-23.08314 30.44355,-23.08333 30.4432,-23.08353 30.44304,-23.08367 30.44292,-23.0838 30.44279,-23.08386 30.44251,-23.08391 30.44224,-23.08403 30.44192,-23.08411 30.44167,-23.08412 30.44124,-23.08413 30.441,-23.08414 30.44071,-23.0842 30.44036,-23.08425 30.44015,-23.08438 30.44002,-23.08453 30.43989,-23.08473 30.43983,-23.0849 30.43942,-23.08505 30.439,-23.08521 30.43866,-23.08528 30.43847,-23.08526 30.4383,-23.08519 30.43811,-23.08503 30.43788,-23.08487 30.43769,-23.08471 30.43722,-23.08424 30.43716,-23.084 30.43708,-23.08382 30.43698,-23.08372 30.43677,-23.08358 30.43667,-23.08352 30.43653,-23.08335 30.43643,-23.08315 30.43626,-23.08308 30.43587,-23.08299 30.43552,-23.08292 30.43538,-23.08295 30.43518,-23.08302 30.4349,-23.08304 30.43469,-23.08301 30.43445,-23.08304 30.43428,-23.08306 30.43415,-23.08312 30.43403,-23.08317 30.43378,-23.08322 30.43371,-23.08316 30.43363,-23.08318 30.43344,-23.08313 30.43336,-23.08306 30.43322,-23.08303 30.43316,-23.08303 30.43301,-23.08303 30.43279,-23.08309 30.4326,-23.08304 30.4325,-23.08298 30.43223,-23.08284 30.43196,-23.08259 30.43185,-23.08244 30.43174,-23.08236 30.43149,-23.08236 30.43099,-23.08222 30.43092,-23.08219 30.43078,-23.08212 30.43058,-23.08203 30.43029,-23.08186 30.43013,-23.08186 30.42975,-23.08182 30.42942,-23.0819 30.42922,-23.08199 30.42902,-23.08197 30.42882,-23.08199 30.42865,-23.08203 30.42851,-23.08222 30.42832,-23.08251 30.42818,-23.08262 30.42815,-23.08265 30.4279,-23.0828 30.42776,-23.08292 30.42766,-23.08297 30.42755,-23.08306 30.42738,-23.08313 30.42722,-23.08321 30.42708,-23.08329 30.42682,-23.08337 30.42656,-23.08347 30.42636,-23.0835 30.42626,-23.08358 30.42616,-23.08369 30.42602,-23.08381 30.42582,-23.0839 30.4256,-23.08395 30.42544,-23.08394 30.42531,-23.08406 30.42519,-23.08426 30.42503,-23.08435 30.42482,-23.08438 30.42451,-23.08444 30.42437,-23.08443 30.42423,-23.08452 30.42408,-23.08456 30.42397,-23.08457 30.42381,-23.08454 30.42353,-23.08453 30.42325,-23.08456 30.42294,-23.08462 30.42268,-23.08465 30.42251,-23.08463 30.42225,-23.08463 30.42223,-23.08463 30.42161,-23.08466 30.42099,-23.08466 30.42043,-23.08477 30.42009,-23.08483 30.41996,-23.08485 30.41965,-23.08491 30.41928,-23.08491 30.41879,-23.08493 30.41833,-23.08489 30.4181,-23.08489 30.41789,-23.08497 30.41768,-23.08513 30.41747,-23.08525 30.41723,-23.08528 30.41713,-23.08528 30.41694,-23.08542 30.4168,-23.08557 30.41666,-23.08578 30.41652,-23.08604 30.41635,-23.08629 30.41627,-23.08647 30.4163,-23.08656 30.4165,-23.08674 30.41674,-23.08692 30.41689,-23.08719 30.41709,-23.08726 30.41721,-23.08721 30.41743,-23.08722 30.41766,-23.08732 30.4179,-23.08737 30.41801,-23.08746 30.41804,-23.08764 30.41802,-23.08791 30.41791,-23.08816 30.41775,-23.08836 30.41764,-23.08856 30.41751,-23.08868 30.41726,-23.0888 30.41694,-23.0889 30.41665,-23.08895 30.41631,-23.08905 30.41581,-23.08911 30.41534,-23.08918 30.41499,-23.08916 30.41489,-23.08918 30.41483,-23.0893 30.41481,-23.08935 30.41466,-23.08936 30.4145,-23.08937 30.41435,-23.08939 30.41423,-23.08941 30.41396,-23.08941 30.4138,-23.08947 30.41363,-23.0897 30.41339,-23.08988 30.41307,-23.0902 30.41286,-23.09028 30.41268,-23.09034 30.41252,-23.09062 30.41249,-23.09073 30.41247,-23.09097 30.41239,-23.09115 30.41234,-23.09135 30.41231,-23.09156 30.41226,-23.09174 30.41217,-23.09194 30.41216,-23.09206 30.41216,-23.09213 30.41203,-23.09227 30.41195,-23.09232 30.41186,-23.09237 30.41169,-23.09244 30.41162,-23.09261 30.41154,-23.09285 30.41141,-23.09301 30.4113,-23.09316 30.41122,-23.09327 30.41099,-23.09337 30.41089,-23.09347 30.41072,-23.0936 30.41064,-23.0938 30.41061,-23.09398 30.41048,-23.09422 30.41042,-23.0943 30.41031,-23.09448 30.4102,-23.09463 30.41008,-23.09472 30.40996,-23.09444 30.40988,-23.09427 30.40971,-23.09391 30.40968,-23.09385 30.40711,-23.08805 30.40639,-23.08643 30.40384,-23.08069 30.40368,-23.08032 30.40368,-23.08032 30.40367,-23.0803 30.40365,-23.08026 30.3991,-23.07 30.3967,-23.06461 30.39507,-23.0622 30.39504,-23.06215 30.39483,-23.06184 30.39453,-23.06138 30.39211,-23.05776 30.39207,-23.05776 30.39202,-23.05778 30.39183,-23.05783 30.39163,-23.05786 30.3915,-23.05765 30.39143,-23.05741 30.39133,-23.05722 30.39121,-23.05731 30.39114,-23.05752 30.39108,-23.05778 30.39079,-23.05801 30.39071,-23.0582 30.39073,-23.05842 30.39062,-23.05858 30.39044,-23.0588 30.39033,-23.05899 30.39018,-23.05909 30.38987,-23.05912 30.38968,-23.05917 30.38941,-23.0591 30.38902,-23.05905 30.38876,-23.05897 30.38856,-23.0588 30.38842,-23.05866 30.38832,-23.05865 30.38816,-23.05893 30.38803,-23.05912 30.38787,-23.05919 30.38771,-23.05919 30.38757,-23.05909 30.38742,-23.0591 30.38732,-23.05903 30.38732,-23.05887 30.38731,-23.05865 30.38716,-23.05866 30.38697,-23.05867 30.38685,-23.05882 30.38678,-23.05895 30.38668,-23.05901 30.38661,-23.05891 30.38663,-23.05874 30.38664,-23.05852 30.38659,-23.05837 30.3864,-23.05831 30.38633,-23.05841 30.38636,-23.0586 30.38636,-23.0587 30.38625,-23.05888 30.38613,-23.05888 30.38606,-23.05885 30.38586,-23.05877 30.38561,-23.05866 30.38551,-23.05869 30.38537,-23.05877 30.3852,-23.05863 30.38507,-23.05848 30.3849,-23.05834 30.3848,-23.05826 30.38488,-23.05815 30.38491,-23.05798 30.3849,-23.05785 30.38477,-23.05764 30.3847,-23.0577 30.38446,-23.05763 30.38455,-23.05747 30.38468,-23.05731 30.38477,-23.05719 30.38468,-23.05702 30.38459,-23.05691 30.3844,-23.05697 30.38422,-23.05693 30.38413,-23.05683 30.38412,-23.05666 30.38412,-23.05659 30.38399,-23.05659 30.38387,-23.05641 30.38377,-23.05623 30.38362,-23.0561 30.38352,-23.05615 30.3834,-23.05636 30.38323,-23.05656 30.38308,-23.05671 30.38299,-23.05688 30.38288,-23.057 30.38271,-23.05706 30.38251,-23.05702 30.38239,-23.05702 30.38221,-23.05699 30.38214,-23.05705 30.38205,-23.05715 30.3819,-23.0572 30.38183,-23.0573 30.38201,-23.05749 30.38205,-23.05762 30.38215,-23.05785 30.38214,-23.05798 30.38204,-23.05803 30.38187,-23.05805 30.38175,-23.05801 30.38161,-23.0578 30.38154,-23.05771 30.38141,-23.05754 30.38134,-23.05768 30.38123,-23.0578 30.38111,-23.05779 30.38105,-23.0577 30.38103,-23.0576 30.381,-23.05747 30.38082,-23.05739 30.38082,-23.05749 30.38071,-23.05759 30.38051,-23.05748 30.38046,-23.05746 30.38038,-23.05739 30.38029,-23.05731 30.38018,-23.05727 30.3801,-23.05727 30.38007,-23.05734 30.38005,-23.05745 30.37993,-23.05745 30.37983,-23.05756 30.37985,-23.05767 30.37995,-23.05773 30.38006,-23.0578 30.37997,-23.05787 30.37985,-23.05792 30.37978,-23.05799 30.37975,-23.05809 30.37968,-23.05811 30.37965,-23.05801 30.37952,-23.05782 30.37948,-23.05771 30.37945,-23.05762 30.37937,-23.0575 30.37928,-23.05754 30.37918,-23.05765 30.37909,-23.05767 30.37904,-23.05778 30.37899,-23.05787 30.37891,-23.05789 30.37878,-23.05786 30.37876,-23.0578 30.37858,-23.05779 30.37853,-23.05788 30.37849,-23.05796 30.37841,-23.05804 30.37828,-23.05813 30.3782,-23.05804 30.3782,-23.05793 30.3783,-23.05786 30.37834,-23.05776 30.37831,-23.05764 30.37834,-23.05747 30.37825,-23.05746 30.37816,-23.05761 30.37809,-23.05771 30.37805,-23.05774 30.37792,-23.05762 30.37775,-23.05768 30.37767,-23.05782 30.37762,-23.05797 30.37755,-23.05796 30.37749,-23.0579 30.37744,-23.0577 30.37724,-23.05748 30.37711,-23.05754 30.37703,-23.05762 30.37699,-23.05752 30.37691,-23.05735 30.37684,-23.05737 30.37672,-23.05731 30.37659,-23.05737 30.37646,-23.05746 30.37646,-23.05769 30.37645,-23.05782 30.37633,-23.05796 30.37626,-23.05801 30.37601,-23.05804 30.37593,-23.05798 30.37598,-23.05795 30.37616,-23.0578 30.37614,-23.05765 30.37599,-23.05759 30.3758,-23.0577 30.37564,-23.0577 30.37555,-23.05762 30.3756,-23.05752 30.37569,-23.05728 30.37571,-23.05708 30.37556,-23.05699 30.37543,-23.057 30.37526,-23.05712 30.37508,-23.05723 30.37493,-23.05736 30.37479,-23.05739 30.37479,-23.05727 30.37472,-23.05697 30.37457,-23.05697 30.37416,-23.05683 30.37393,-23.05675 30.3739,-23.05685 30.3739,-23.05714 30.3738,-23.05724 30.37361,-23.05722 30.37358,-23.05712 30.37353,-23.05692 30.37346,-23.05682 30.37316,-23.05673 30.37311,-23.05656 30.37311,-23.05639 30.37301,-23.05625 30.37289,-23.05638 30.37282,-23.05627 30.37287,-23.05613 30.37282,-23.056 30.37269,-23.0558 30.37272,-23.05569 30.3727,-23.05552 30.37256,-23.05549 30.37242,-23.05561 30.37224,-23.0557 30.3721,-23.05554 30.37195,-23.05537 30.37178,-23.05531 30.37177,-23.0551 30.3719,-23.05501 30.37205,-23.055 30.37209,-23.05491 30.37211,-23.05476 30.37215,-23.05465 30.37236,-23.05451 30.37249,-23.05445 30.37257,-23.05436 30.37269,-23.05421 30.37285,-23.05417 30.37295,-23.05414 30.37304,-23.05399 30.37293,-23.05396 30.37277,-23.054 30.37258,-23.05407 30.37244,-23.05413 30.37233,-23.05411 30.3722,-23.05397 30.37203,-23.05403 30.37193,-23.05411 30.37182,-23.05424 30.37169,-23.0543 30.37158,-23.05428 30.37156,-23.05417 30.37152,-23.05402 30.37147,-23.05386 30.37155,-23.05378 30.37157,-23.05367 30.37158,-23.05351 30.37158,-23.05327 30.37169,-23.05323 30.37182,-23.0533 30.37204,-23.05335 30.37216,-23.0533 30.37219,-23.05318 30.37219,-23.05305 30.37208,-23.053 30.37194,-23.05285 30.37186,-23.05269 30.37191,-23.05261 30.37188,-23.05254 30.37176,-23.05248 30.37174,-23.05236 30.37166,-23.05226 30.37158,-23.05215 30.37158,-23.05205 30.37162,-23.05192 30.37174,-23.05179 30.37184,-23.0517 30.37202,-23.05176 30.37205,-23.05169 30.37205,-23.05163 30.37191,-23.05152 30.37179,-23.0513 30.37177,-23.05127 30.37178,-23.05113 30.37189,-23.0509 30.37188,-23.05069 30.37176,-23.05059 30.37157,-23.05052 30.37154,-23.05034 30.37162,-23.05021 30.37162,-23.05011 30.37142,-23.04989 30.37136,-23.04986 30.37132,-23.04984 30.37118,-23.04982 30.37113,-23.04976 30.37094,-23.04972 30.37091,-23.04983 30.37071,-23.04999 30.3706,-23.05006 30.37057,-23.05001 30.37042,-23.04987 30.37039,-23.04984 30.37033,-23.04977 30.37024,-23.04972 30.3701,-23.04956 30.36995,-23.0494 30.36972,-23.04945 30.36946,-23.04938 30.36949,-23.04918 30.36964,-23.0491 30.3698,-23.04899 30.3698,-23.04892 30.36973,-23.04879 30.3696,-23.04879 30.36944,-23.04871 30.36945,-23.04847 30.36942,-23.04826 30.36955,-23.04808 30.36971,-23.04803 30.36991,-23.04812 30.36991,-23.04838 30.37016,-23.04842 30.37027,-23.04819 30.37027,-23.04811 30.37022,-23.04808 30.37005,-23.04803 30.37003,-23.04799 30.3699,-23.04783 30.36969,-23.04785 30.36964,-23.04778 30.36976,-23.04766 30.36994,-23.04757 30.37003,-23.04751 30.3701,-23.04756 30.3702,-23.0476 30.37023,-23.04756 30.37031,-23.04744 30.37041,-23.04732 30.37036,-23.04718 30.36988,-23.04718 30.36972,-23.04706 30.36974,-23.04687 30.36974,-23.04683 30.36978,-23.04672 30.36977,-23.04658 30.36966,-23.04655 30.3695,-23.04652 30.36948,-23.04641 30.36943,-23.04625 30.36921,-23.04606 30.36919,-23.04586 30.36919,-23.04573 30.3692,-23.0456 30.36916,-23.0455 30.36903,-23.04545 30.36893,-23.04535 30.36881,-23.04528 30.36871,-23.04522 30.3687,-23.04519 30.36881,-23.04511 30.369,-23.04506 30.3691,-23.045 30.36919,-23.04492 30.3692,-23.04481 30.36918,-23.04463 30.36911,-23.04463 30.36895,-23.04475 30.36882,-23.04481 30.3687,-23.04475 30.36873,-23.04461 30.36875,-23.04442 30.36877,-23.04429 30.36877,-23.04419 30.36885,-23.04407 30.3689,-23.04401 30.36897,-23.04379 30.36902,-23.04362 30.36903,-23.04349 30.36902,-23.04333 30.36896,-23.04307 30.3689,-23.0429 30.3688,-23.04279 30.36888,-23.04269 30.36899,-23.04252 30.36911,-23.04246 30.36927,-23.04251 30.36935,-23.04249 30.36936,-23.04237 30.36934,-23.04235 30.36923,-23.04229 30.36911,-23.04221 30.36895,-23.0422 30.36896,-23.04203 30.36902,-23.04186 30.36901,-23.04173 30.36893,-23.04164 30.36891,-23.04162 30.3689,-23.0415 30.3689,-23.04142 30.36886,-23.0413 30.36884,-23.04125 30.3687,-23.04107 30.36859,-23.04092 30.36843,-23.04081 30.36821,-23.04071 30.36792,-23.04053 30.3679,-23.04028 30.3681,-23.03998 30.36813,-23.03983 30.36809,-23.03971 30.36809,-23.03944 30.36815,-23.03936 30.36829,-23.03925 30.3683,-23.03911 30.36824,-23.03897 30.3681,-23.03883 30.36779,-23.03876 30.36751,-23.03881 30.36719,-23.03891 30.36697,-23.03878 30.36681,-23.0387 30.36639,-23.03838 30.36611,-23.03809 30.36603,-23.03791 30.3659,-23.0377 30.36561,-23.03746 30.36541,-23.03741 30.36514,-23.03736 30.3649,-23.03737 30.36472,-23.03743 30.36455,-23.03737 30.36445,-23.03714 30.36442,-23.03694 30.3644,-23.03679 30.36434,-23.0367 30.36431,-23.03659 30.36433,-23.0365 30.36431,-23.03632 30.36428,-23.03623 30.36427,-23.0361 30.36417,-23.03605 30.36408,-23.03613 30.36394,-23.0363 30.36382,-23.03623 30.3637,-23.03618 30.36363,-23.03608 30.36363,-23.03595 30.36369,-23.03587 30.3638,-23.03572 30.3638,-23.03557 30.36368,-23.03557 30.36357,-23.0355 30.3634,-23.03545 30.36332,-23.0355 30.36322,-23.03554 30.36307,-23.0355 30.36299,-23.03543 30.36297,-23.03529 30.36298,-23.03521 30.36305,-23.03509 30.36303,-23.03505 30.36298,-23.03503 30.36276,-23.03501 30.36264,-23.03493 30.36254,-23.03485 30.36237,-23.03476 30.36221,-23.03474 30.36212,-23.03482 30.36203,-23.03481 30.36186,-23.03478 30.36182,-23.03484 30.36175,-23.03484 30.36165,-23.03476 30.36169,-23.0347 30.36175,-23.03462 30.36171,-23.0346 30.36159,-23.03453 30.36157,-23.03442 30.36154,-23.03433 30.36149,-23.03425 30.36145,-23.0342 30.36148,-23.0341 30.36159,-23.0341 30.36169,-23.03423 30.3618,-23.03434 30.36184,-23.03428 30.36191,-23.03422 30.36191,-23.03412 30.3619,-23.03406 30.36187,-23.03394 30.36184,-23.03383 30.36182,-23.03362 30.36188,-23.03359 30.36197,-23.03364 30.36202,-23.0337 30.36203,-23.03367 30.36204,-23.03355 30.36206,-23.03345 30.36201,-23.03334 30.36188,-23.0333 30.36175,-23.03332 30.36157,-23.03331 30.36147,-23.03331 30.36148,-23.03325 30.36157,-23.03314 30.3617,-23.03308 30.36186,-23.03315 30.36198,-23.03317 30.36202,-23.03311 30.36198,-23.033 30.36186,-23.03295 30.36167,-23.03288 30.36157,-23.03278 30.36147,-23.03269 30.36135,-23.03266 30.36119,-23.03265 30.36106,-23.03252 30.36086,-23.03237 30.36072,-23.0323 30.36056,-23.03245 30.3604,-23.03242 30.36028,-23.03237 30.36024,-23.03225 30.36025,-23.03214 30.36037,-23.03211 30.36053,-23.0321 30.36065,-23.03198 30.36074,-23.03181 30.36086,-23.03169 30.36091,-23.03158 30.36085,-23.03158 30.36048,-23.0316 30.36024,-23.03166 30.36019,-23.03146 30.36027,-23.03134 30.36031,-23.03125 30.36028,-23.0312 30.36011,-23.03117 30.35995,-23.03105 30.35987,-23.03096 30.35981,-23.03076 30.35983,-23.03058 30.35989,-23.03048 30.35989,-23.03027 30.35999,-23.03019 30.3601,-23.03012 30.3601,-23.03004 30.35999,-23.02984 30.35996,-23.02968 30.3598,-23.02957 30.35973,-23.02942 30.35958,-23.02934 30.3594,-23.0294 30.35916,-23.0293 30.35905,-23.0291 30.35905,-23.02887 30.35911,-23.0287 30.35914,-23.02864 30.35902,-23.02852 30.35885,-23.0284 30.35881,-23.02832 30.35877,-23.0282 30.35873,-23.02803 30.35868,-23.02793 30.35856,-23.028 30.35836,-23.02811 30.35814,-23.02811 30.35791,-23.02805 30.35777,-23.02805 30.35766,-23.02823 30.3576,-23.02835 30.35756,-23.02841 30.35748,-23.02832 30.35747,-23.02817 30.35745,-23.02808 30.35737,-23.02803 30.3573,-23.02797 30.35722,-23.0279 30.35716,-23.02785 30.35705,-23.02785 30.35687,-23.02793 30.35675,-23.02799 30.35654,-23.02794 30.35643,-23.02782 30.35629,-23.02768 30.35606,-23.02751 30.35594,-23.02742 30.35573,-23.02741 30.35555,-23.02739 30.35533,-23.02719 30.3518,-23.02692 30.34972,-23.02677 30.31229,-23.02394 30.32212,-23.0154 30.31013,-23.00707 30.30912,-23.00638 30.28845,-22.99202 30.3077,-22.97398 30.30767,-22.97398 30.30752,-22.97395 30.28131,-22.9694 30.24975,-22.96392 30.23543,-22.96143 30.2221,-22.96013 30.21742,-22.95677 30.20538,-22.94812 30.20005,-22.94429 30.19721,-22.94225 30.18483,-22.93566 30.17994,-22.93306 30.17954,-22.93285 30.1648,-22.92501 30.165,-22.92481 30.1846,-22.90556 30.18494,-22.90522 30.18503,-22.90523 30.18523,-22.90531 30.18538,-22.90545 30.18537,-22.90557 30.18537,-22.90569 30.18549,-22.90591 30.18561,-22.90608 30.18574,-22.90618 30.18596,-22.90629 30.18614,-22.90636 30.1863,-22.9064 30.18644,-22.90639 30.18656,-22.90639 30.18681,-22.90637 30.18689,-22.90637 30.18693,-22.90642 30.18706,-22.90649 30.18724,-22.90656 30.18748,-22.9065 30.18764,-22.90644 30.18781,-22.90643 30.18796,-22.90644 30.18835,-22.90652 30.18861,-22.90652 30.1889,-22.9065 30.18918,-22.90645 30.18937,-22.90644 30.18962,-22.90643 30.18978,-22.90638 30.1899,-22.90634 30.19006,-22.90633 30.19023,-22.90639 30.19032,-22.90643 30.19041,-22.90636 30.19059,-22.90639 30.19065,-22.90643 30.19077,-22.9065 30.19093,-22.90655 30.1911,-22.90661 30.19123,-22.90669 30.19144,-22.90672 30.19166,-22.90671 30.19183,-22.90665 30.19195,-22.90661 30.19207,-22.90662 30.19225,-22.90667 30.19239,-22.90667 30.19242,-22.90672 30.19252,-22.9068 30.19268,-22.90689 30.19283,-22.90689 30.19286,-22.90682 30.19303,-22.90678 30.19322,-22.90675 30.19331,-22.90675 30.19342,-22.9068 30.19352,-22.90688 30.19362,-22.90693 30.19369,-22.90693 30.19373,-22.90702 30.19378,-22.9071 30.19389,-22.90717 30.19398,-22.90731 30.19408,-22.90734 30.19425,-22.9074 30.19435,-22.90749 30.1945,-22.90753 30.19475,-22.90753 30.19485,-22.90752 30.19493,-22.90747 30.19497,-22.90744 30.19509,-22.90745 30.1952,-22.90745 30.19532,-22.90744 30.19544,-22.90747 30.19558,-22.90753 30.19565,-22.90755 30.1957,-22.90754 30.19579,-22.90765 30.1958,-22.90773 30.19582,-22.90782 30.19591,-22.90788 30.19603,-22.90797 30.19612,-22.90805 30.1962,-22.90812 30.19637,-22.90812 30.19658,-22.90809 30.19671,-22.90812 30.19689,-22.90818 30.197,-22.90816 30.1971,-22.90811 30.19714,-22.90805 30.19718,-22.908 30.19725,-22.90799 30.19739,-22.90807 30.19745,-22.90814 30.19753,-22.90818 30.19763,-22.90824 30.19774,-22.90834 30.19781,-22.90842 30.19792,-22.90854 30.19799,-22.90863 30.19809,-22.90877 30.19817,-22.90893 30.19827,-22.90904 30.19831,-22.90919 30.1983,-22.90928 30.19825,-22.90937 30.19833,-22.90953 30.19846,-22.90959 30.19857,-22.90965 30.19873,-22.90972 30.19894,-22.90993 30.19908,-22.90997 30.19927,-22.90996 30.19944,-22.9101 30.19953,-22.91028 30.19959,-22.91039 30.19962,-22.91056 30.19973,-22.91062 30.19985,-22.9107 30.19997,-22.9107 30.20011,-22.91067 30.20022,-22.91068 30.20035,-22.91077 30.20046,-22.91085 30.20054,-22.91057 30.20172,-22.90656 30.20341,-22.90082 30.20355,-22.90035 30.20418,-22.89825 30.20704,-22.88862 30.19978,-22.88716 30.19592,-22.88639 30.18737,-22.88469 30.18741,-22.88432 30.18932,-22.86761 30.19024,-22.85951 30.19024,-22.85948 30.1936,-22.8419 30.19482,-22.83626 30.19866,-22.81677 30.20536,-22.7827 30.20539,-22.78258 30.20432,-22.77966 30.20416,-22.7792 30.20427,-22.7792 30.20467,-22.77951 30.20537,-22.77997 30.20576,-22.78025 30.20651,-22.78058 30.2079,-22.78086 30.20888,-22.7809 30.20946,-22.78055 30.20991,-22.7802 30.21061,-22.77988 30.2113,-22.77953 30.21189,-22.77918 30.21256,-22.77897 30.21347,-22.77871 30.21413,-22.77885 30.21443,-22.77903 30.21484,-22.77911 30.21505,-22.7793 30.21511,-22.78256 30.21568,-22.78805 30.21961,-22.80441 30.21819,-22.81611 30.21839,-22.81692 30.22201,-22.83135 30.22425,-22.84214 30.22694,-22.84951 30.22616,-22.8548 30.22574,-22.85763 30.22964,-22.86094 30.24563,-22.85638 30.26228,-22.85163 30.26232,-22.85162 30.27257,-22.8487 30.28661,-22.84936 30.28831,-22.84634 30.30028,-22.82505 30.3004,-22.82483 30.31539,-22.83748 30.32032,-22.84111 30.32042,-22.84102 30.32044,-22.84099 30.3205,-22.84097 30.32053,-22.84095 30.32057,-22.84093 30.32068,-22.84089 30.32078,-22.84087 30.32084,-22.84087 30.32098,-22.84085 30.32108,-22.8408 30.32119,-22.84075 30.32133,-22.8407 30.3214,-22.84066 30.3215,-22.84058 30.32165,-22.84048 30.32177,-22.84038 30.32187,-22.84032 30.32199,-22.84018 30.32211,-22.84009 30.32217,-22.84002 30.32224,-22.83993 30.32234,-22.83982 30.32236,-22.83979 30.32246,-22.83968 30.32264,-22.8395 30.32279,-22.83936 30.32292,-22.83925 30.32319,-22.83905 30.32337,-22.83893 30.32351,-22.83884 30.32371,-22.83869 30.32384,-22.83863 30.32392,-22.83858 30.32404,-22.8385 30.32412,-22.83845 30.32422,-22.8384 30.32441,-22.8383 30.32456,-22.83824 30.32472,-22.83818 30.32507,-22.83807 30.32522,-22.83804 30.32534,-22.838 30.32553,-22.83798 30.3259,-22.83824 30.3261,-22.83847 30.32645,-22.83881 30.32658,-22.83891 30.32688,-22.83902 30.3272,-22.8391 30.32754,-22.83905 30.32791,-22.83889 30.32817,-22.8387 30.32834,-22.83861 30.32859,-22.83854 30.32894,-22.83846 30.32924,-22.83841 30.32939,-22.83825 30.32969,-22.83813 30.32995,-22.8381 30.3302,-22.83809 30.33036,-22.83811 30.33055,-22.83813 30.33089,-22.83823 30.33113,-22.83826 30.33124,-22.83826 30.3314,-22.83809 30.33152,-22.83793 30.33178,-22.8378 30.33195,-22.8377 30.33223,-22.83769 30.33237,-22.83759 30.33253,-22.83745 30.33266,-22.83729 30.33295,-22.83719 30.33322,-22.83719 30.3335,-22.8372 30.33376,-22.8372 30.33389,-22.83706 30.33403,-22.83694 30.33406,-22.83676 30.33411,-22.83661 30.33437,-22.83657 30.3344,-22.83655 30.33457,-22.83644 30.33453,-22.83628 30.33459,-22.83617 30.33478,-22.83617 30.33492,-22.83616 30.33496,-22.83599 30.33504,-22.83588 30.3352,-22.83574 30.33536,-22.83558 30.33555,-22.83543 30.33572,-22.83537 30.3359,-22.83533 30.33611,-22.83524 30.33626,-22.83529 30.33646,-22.83534 30.33651,-22.83557 30.33662,-22.83573 30.33686,-22.83576 30.33715,-22.83567 30.33728,-22.83553 30.33756,-22.8353 30.33764,-22.83514 30.3378,-22.83487 30.33814,-22.83476 30.33852,-22.83474 30.33886,-22.83475 30.33901,-22.83483 30.33918,-22.83484 30.33926,-22.83468 30.33945,-22.83462 30.33967,-22.83453 30.33997,-22.83437 30.34023,-22.8344 30.34037,-22.83436 30.34046,-22.83428 30.34056,-22.83412 30.34076,-22.83393 30.34087,-22.83375 30.34098,-22.83367 30.34107,-22.83365 30.34122,-22.83368 30.34158,-22.83363 30.34169,-22.83352 30.34184,-22.83353 30.34192,-22.83361 30.34201,-22.83363 30.34206,-22.83364 30.34221,-22.83376 30.34238,-22.83394 30.3426,-22.8341 30.34281,-22.83424 30.34307,-22.83439 30.34333,-22.83443 30.34346,-22.83437 30.34365,-22.83428 30.34384,-22.83424 30.34416,-22.83416 30.34442,-22.8341 30.34455,-22.83398 30.3447,-22.83381 30.34484,-22.83361 30.34492,-22.83337 30.34496,-22.83314 30.34502,-22.83291 30.34517,-22.83266 30.34536,-22.83243 30.34552,-22.83231 30.34575,-22.83222 30.34596,-22.83213 30.34604,-22.83199 30.34612,-22.8318 30.34628,-22.8317 30.34635,-22.83179 30.3464,-22.8319 30.34652,-22.8319 30.34673,-22.83212 30.34686,-22.83223 30.34711,-22.83212 30.34737,-22.83197 30.34765,-22.83192 30.3477,-22.83192 30.34784,-22.8319 30.34796,-22.83207 30.34804,-22.83227 30.34816,-22.83238 30.34837,-22.83244 30.34859,-22.83246 30.34886,-22.83246 30.34914,-22.83248 30.34948,-22.83237 30.34961,-22.83224 30.34971,-22.83209 30.34999,-22.8321 30.35029,-22.83229 30.35043,-22.8323 30.35092,-22.83239 30.3511,-22.83241 30.35142,-22.83244 30.3519,-22.83239 30.35218,-22.83231 30.35246,-22.83219 30.35276,-22.83211 30.35344,-22.83202 30.35396,-22.83183 30.35459,-22.83153 30.3551,-22.83137 30.3554,-22.8312 30.35583,-22.83087 30.35612,-22.83062 30.35647,-22.83039 30.35666,-22.83018 30.35735,-22.82973 30.35765,-22.82951 30.35798,-22.82934 30.35831,-22.82919 30.35858,-22.8291 30.35884,-22.8291 30.35912,-22.82906 30.35951,-22.82902 30.35971,-22.82892 30.35989,-22.82874 30.36011,-22.82853 30.36033,-22.82836 30.36061,-22.82826 30.36091,-22.8283 30.36125,-22.82833 30.36162,-22.82824 30.36188,-22.82815 30.36213,-22.82814 30.36239,-22.82807 30.36281,-22.82813 30.36309,-22.82813 30.36338,-22.82817 30.36383,-22.8281 30.36413,-22.82799 30.36428,-22.82786 30.3645,-22.82767 30.36466,-22.82737 30.36481,-22.82716 30.36494,-22.82683 30.36513,-22.82661 30.36533,-22.82641 30.36559,-22.82623 30.36588,-22.82597 30.3662,-22.82571 30.36641,-22.82554 30.36672,-22.82542 30.36687,-22.82532 30.36709,-22.82527 30.36732,-22.82519 30.36773,-22.82508 30.36794,-22.825 30.36807,-22.82489 30.36821,-22.82484 30.36838,-22.8249 30.36857,-22.82502 30.36882,-22.82502 30.36908,-22.82497 30.36934,-22.82486 30.36947,-22.82473 30.36972,-22.82465 30.37,-22.82456 30.37026,-22.82446 30.37049,-22.82432 30.37075,-22.82411 30.37097,-22.8239 30.37117,-22.8237 30.37162,-22.82348 30.37183,-22.82326 30.37206,-22.82301 30.37264,-22.82238 30.37288,-22.82224 30.37303,-22.82204 30.37327,-22.82178 30.37363,-22.82148 30.37394,-22.8213 30.37424,-22.82118 30.3746,-22.82107 30.37497,-22.82104 30.37537,-22.82097 30.37576,-22.82089 30.37617,-22.82075 30.37643,-22.82066 30.37664,-22.82055 30.37685,-22.82035 30.37715,-22.82033 30.37757,-22.82007 30.37791,-22.81981 30.37825,-22.81966 30.37869,-22.81957 30.37908,-22.81951 30.37951,-22.81947 30.38007,-22.81935 30.3805,-22.81929 30.38109,-22.81926 30.38149,-22.8191 30.38187,-22.81872 30.38233,-22.81858 30.38258,-22.81836 30.38285,-22.8183 30.3832,-22.81816 30.38362,-22.81807 30.38405,-22.81784 30.38462,-22.81764 30.385,-22.8175 30.38556,-22.81747 30.38588,-22.8174 30.38615,-22.81733 30.38648,-22.81718 30.38679,-22.81712 30.38685,-22.81711 30.38732,-22.81707 30.38769,-22.81708 30.38808,-22.81724 30.38837,-22.81741 30.38869,-22.81746 30.38902,-22.81747 30.38953,-22.81756 30.38971,-22.81756 30.39008,-22.81757 30.39039,-22.81739 30.39064,-22.81721 30.39088,-22.81721 30.39105,-22.81705 30.39146,-22.81696 30.39191,-22.81678 30.39223,-22.81675 30.39257,-22.81663 30.39293,-22.81671 30.39331,-22.81679 30.39366,-22.81693 30.39401,-22.81691 30.39431,-22.81668 30.39455,-22.81645 30.3948,-22.81626 30.39507,-22.81608 30.39526,-22.81602 30.39526,-22.81583 30.39535,-22.81552 30.39544,-22.81551 30.39567,-22.81548 30.39583,-22.81539 30.39573,-22.8152 30.39564,-22.81504 30.39553,-22.81472 30.39555,-22.81444 30.39576,-22.81409 30.39592,-22.81384 30.39608,-22.81368 30.39623,-22.81347 30.39638,-22.81317 30.39651,-22.81288 30.39667,-22.81266 30.39677,-22.81243 30.39689,-22.81223 30.39714,-22.81206 30.39739,-22.81195 30.39768,-22.81179 30.39805,-22.81163 30.39839,-22.81149 30.39866,-22.81157 30.39895,-22.81159 30.39907,-22.81138 30.39929,-22.81124 30.39962,-22.81102 30.39993,-22.81093 30.40018,-22.81078 30.40069,-22.81066 30.40098,-22.81062 30.40138,-22.81069 30.40201,-22.81086 30.40231,-22.81106 30.4026,-22.81125 30.40299,-22.81139 30.40351,-22.8115</coordinates></LinearRing></outerBoundaryIs></Polygon></MultiGeometry></Placemark></Document></kml>