<?xml version="1.0" encoding="UTF-8"?><kml xmlns="http://www.opengis.net/kml/2.2"><Document><Placemark><name>Tshilapfene</name><description>Main Place 966078</description><ExtendedData><Data name="code"><value>966078</value></Data><Data name="name"><value>Tshilapfene</value></Data><Data name="description"><value>Main Place 966078</value></Data></ExtendedData><MultiGeometry><Polygon><outerBoundaryIs><LinearRing><coordinates>30.45376,-22.88699 30.45403,-22.88722 30.45434,-22.88747 30.45488,-22.88785 30.45545,-22.88832 30.45576,-22.88854 30.45616,-22.88888 30.45638,-22.8891 30.4564,-22.88913 30.45653,-22.8894 30.45664,-22.88963 30.45691,-22.89029 30.457,-22.89072 30.45702,-22.89107 30.45703,-22.89127 30.45704,-22.89133 30.45708,-22.89178 30.45713,-22.892 30.45714,-22.89203 30.45719,-22.89232 30.45742,-22.89268 30.45793,-22.89314 30.45841,-22.89349 30.45845,-22.89356 30.458,-22.89374 30.45747,-22.8939 30.45709,-22.89402 30.45654,-22.89422 30.45639,-22.89428 30.45578,-22.89456 30.45562,-22.89464 30.45552,-22.8947 30.45402,-22.89549 30.4524,-22.89641 30.45246,-22.8965 30.4528,-22.89701 30.45221,-22.89735 30.45184,-22.8975 30.45185,-22.89765 30.45169,-22.89771 30.45166,-22.89787 30.45173,-22.89804 30.45195,-22.89815 30.4522,-22.89814 30.45248,-22.89831 30.45289,-22.89845 30.453,-22.89847 30.45332,-22.89855 30.4536,-22.89871 30.45347,-22.89888 30.45332,-22.89902 30.4532,-22.89908 30.4531,-22.89921 30.45301,-22.89933 30.45287,-22.89955 30.45284,-22.89968 30.45284,-22.89995 30.45278,-22.90026 30.45256,-22.90038 30.4525,-22.9005 30.45254,-22.90081 30.45242,-22.901 30.45223,-22.90121 30.45205,-22.90133 30.45189,-22.90149 30.45188,-22.90162 30.45186,-22.90169 30.45181,-22.90181 30.45174,-22.90197 30.45162,-22.90217 30.4514,-22.90239 30.45127,-22.90247 30.45083,-22.90259 30.45064,-22.90259 30.45051,-22.9026 30.4503,-22.90276 30.4502,-22.90288 30.45004,-22.90303 30.44987,-22.90304 30.44964,-22.90298 30.44951,-22.90296 30.44932,-22.90304 30.4491,-22.90326 30.44903,-22.90342 30.44905,-22.90362 30.44905,-22.9038 30.44887,-22.90412 30.44885,-22.90424 30.4482,-22.90338 30.44759,-22.90274 30.44741,-22.90275 30.447,-22.90258 30.44658,-22.90242 30.44598,-22.9024 30.44595,-22.90175 30.446,-22.90145 30.44605,-22.90133 30.44616,-22.90111 30.4464,-22.90068 30.44653,-22.90038 30.44659,-22.90028 30.44554,-22.89981 30.44515,-22.89964 30.44548,-22.89907 30.44518,-22.89877 30.44456,-22.8988 30.44375,-22.89829 30.44269,-22.89737 30.44252,-22.89714 30.44239,-22.8971 30.44232,-22.89702 30.44224,-22.89693 30.44214,-22.89683 30.44203,-22.8967 30.44222,-22.8966 30.4424,-22.89654 30.44257,-22.8965 30.44274,-22.89647 30.44293,-22.89646 30.44305,-22.89642 30.44327,-22.89639 30.44345,-22.89639 30.44361,-22.89643 30.44382,-22.89643 30.44397,-22.89643 30.44422,-22.89641 30.44439,-22.89638 30.4448,-22.89629 30.44548,-22.89601 30.4459,-22.89577 30.44648,-22.89544 30.44705,-22.89507 30.44733,-22.89487 30.44733,-22.89481 30.4473,-22.89451 30.44731,-22.89427 30.44728,-22.89397 30.44731,-22.89382 30.44733,-22.89363 30.44734,-22.89348 30.44735,-22.89337 30.44735,-22.8932 30.44734,-22.89305 30.44732,-22.89292 30.4473,-22.89281 30.44727,-22.89266 30.44726,-22.89246 30.4472,-22.89227 30.4472,-22.89227 30.44705,-22.89226 30.44688,-22.89222 30.44672,-22.89217 30.44651,-22.89213 30.44622,-22.89209 30.44601,-22.89206 30.4459,-22.89201 30.44562,-22.89193 30.44548,-22.89189 30.44532,-22.89177 30.44516,-22.89169 30.44502,-22.89165 30.44487,-22.89157 30.44465,-22.89153 30.44444,-22.89151 30.44419,-22.8915 30.44396,-22.89148 30.44383,-22.89146 30.44367,-22.89141 30.44357,-22.89139 30.44333,-22.89147 30.44321,-22.89148 30.44304,-22.89152 30.44267,-22.89163 30.44253,-22.89167 30.44242,-22.89172 30.44217,-22.89172 30.44188,-22.89177 30.44165,-22.89163 30.44147,-22.89143 30.44135,-22.89161 30.44113,-22.89192 30.44091,-22.89224 30.44031,-22.89249 30.43996,-22.89234 30.43985,-22.89232 30.43955,-22.89231 30.43922,-22.89231 30.43895,-22.89234 30.4388,-22.89232 30.43854,-22.89224 30.43835,-22.89219 30.43795,-22.89212 30.4377,-22.8921 30.43748,-22.89206 30.43727,-22.89192 30.43708,-22.89177 30.437,-22.89171 30.43689,-22.89161 30.43667,-22.89135 30.4366,-22.8913 30.43657,-22.89124 30.43651,-22.89113 30.43646,-22.89105 30.43641,-22.89097 30.43637,-22.89088 30.43624,-22.89074 30.43637,-22.89069 30.43653,-22.89063 30.43664,-22.89059 30.43671,-22.89056 30.43679,-22.89056 30.43694,-22.89055 30.43704,-22.89055 30.4372,-22.89056 30.43721,-22.89009 30.43764,-22.88999 30.4381,-22.88983 30.43805,-22.88975 30.43757,-22.88928 30.43748,-22.88929 30.43767,-22.88904 30.43799,-22.88869 30.43819,-22.8889 30.43843,-22.88914 30.43857,-22.88925 30.43893,-22.88952 30.43909,-22.8895 30.43923,-22.88949 30.43937,-22.88945 30.43966,-22.88935 30.43987,-22.88927 30.43998,-22.88919 30.44023,-22.88906 30.4404,-22.88898 30.44052,-22.88892 30.44058,-22.88885 30.44082,-22.88874 30.44106,-22.88863 30.4413,-22.88849 30.44158,-22.88832 30.44179,-22.88821 30.44197,-22.88812 30.44217,-22.88804 30.44274,-22.88786 30.44303,-22.88773 30.44329,-22.88764 30.44348,-22.88756 30.44385,-22.88739 30.44398,-22.8873 30.44408,-22.88726 30.44427,-22.88698 30.44458,-22.88707 30.44482,-22.88705 30.4451,-22.887 30.44526,-22.88697 30.4454,-22.88693 30.44559,-22.8869 30.44636,-22.8868 30.44662,-22.8868 30.44692,-22.8868 30.44724,-22.8868 30.44743,-22.88676 30.44758,-22.88673 30.44786,-22.8867 30.45037,-22.88623 30.45054,-22.88618 30.45068,-22.88607 30.45074,-22.88595 30.45096,-22.8859 30.45116,-22.88581 30.45132,-22.88576 30.45157,-22.88567 30.4519,-22.88559 30.45213,-22.88598 30.45218,-22.88612 30.45233,-22.88625 30.45254,-22.88626 30.4527,-22.8863 30.45277,-22.88634 30.4531,-22.88643 30.45334,-22.88658 30.45349,-22.88666 30.45368,-22.88683 30.45376,-22.88699</coordinates></LinearRing></outerBoundaryIs></Polygon></MultiGeometry></Placemark></Document></kml>