<?xml version="1.0" encoding="UTF-8"?><kml xmlns="http://www.opengis.net/kml/2.2"><Document><Placemark><name>Nghomunghom</name><description>Main Place 966157</description><ExtendedData><Data name="code"><value>966157</value></Data><Data name="name"><value>Nghomunghom</value></Data><Data name="description"><value>Main Place 966157</value></Data></ExtendedData><MultiGeometry><Polygon><outerBoundaryIs><LinearRing><coordinates>30.8676,-22.96098 30.86752,-22.96132 30.86676,-22.96128 30.86676,-22.96145 30.86676,-22.96164 30.86679,-22.96177 30.8668,-22.96185 30.86683,-22.96196 30.86685,-22.96204 30.86683,-22.96222 30.86678,-22.96237 30.86682,-22.96257 30.86682,-22.96267 30.86679,-22.96291 30.86668,-22.96312 30.86663,-22.96326 30.86663,-22.96352 30.86653,-22.96383 30.86643,-22.96421 30.86635,-22.96457 30.86627,-22.96458 30.86611,-22.96458 30.8658,-22.9646 30.86557,-22.96461 30.8653,-22.96461 30.86469,-22.96466 30.86445,-22.96468 30.86434,-22.96468 30.86423,-22.9647 30.86402,-22.96472 30.8639,-22.96472 30.86378,-22.96472 30.86366,-22.96473 30.86354,-22.96472 30.86347,-22.96467 30.86348,-22.96454 30.86354,-22.96431 30.86362,-22.96396 30.86368,-22.96375 30.86367,-22.96366 30.86364,-22.96355 30.86358,-22.96341 30.86352,-22.96334 30.86349,-22.96327 30.86347,-22.96315 30.86345,-22.963 30.8634,-22.9627 30.86332,-22.96263 30.86322,-22.96254 30.86322,-22.96249 30.86319,-22.96234 30.86317,-22.96222 30.86312,-22.96173 30.86309,-22.96164 30.86309,-22.96156 30.86309,-22.96147 30.86308,-22.9613 30.86307,-22.96121 30.86306,-22.96105 30.86304,-22.96075 30.86302,-22.96063 30.86207,-22.96062 30.86206,-22.9604 30.86203,-22.95969 30.86198,-22.9582 30.86284,-22.95815 30.86283,-22.9579 30.86283,-22.95776 30.86279,-22.95762 30.86279,-22.95745 30.86277,-22.95725 30.86273,-22.95707 30.86274,-22.95699 30.86269,-22.95688 30.86267,-22.95677 30.86267,-22.95666 30.86266,-22.95653 30.86266,-22.95645 30.86266,-22.95638 30.86265,-22.95627 30.86265,-22.95614 30.8626,-22.95589 30.86255,-22.95548 30.86256,-22.95519 30.86252,-22.95472 30.86249,-22.9545 30.86249,-22.95439 30.86245,-22.95427 30.86244,-22.95412 30.86241,-22.95398 30.8624,-22.95353 30.8624,-22.95338 30.86239,-22.95321 30.8623,-22.95268 30.86229,-22.95222 30.86229,-22.95199 30.86223,-22.95155 30.86223,-22.95137 30.86222,-22.95108 30.86222,-22.95094 30.86221,-22.95078 30.86217,-22.95035 30.86215,-22.95007 30.86213,-22.9499 30.86211,-22.94966 30.86211,-22.94952 30.86209,-22.94931 30.86209,-22.94924 30.86203,-22.94919 30.86199,-22.94906 30.86198,-22.94891 30.86195,-22.94878 30.86195,-22.94869 30.86197,-22.94857 30.86268,-22.94851 30.86309,-22.94846 30.86333,-22.94844 30.86358,-22.94842 30.86383,-22.9484 30.86404,-22.94839 30.86435,-22.94838 30.86471,-22.94835 30.86526,-22.94832 30.86561,-22.94829 30.86554,-22.94751 30.86547,-22.94483 30.86538,-22.94241 30.86538,-22.94237 30.86538,-22.94237 30.86817,-22.94229 30.86846,-22.94642 30.86856,-22.94817 30.86734,-22.94827 30.86736,-22.94842 30.86737,-22.94863 30.86735,-22.94876 30.86737,-22.94891 30.86723,-22.949 30.86715,-22.94913 30.86706,-22.94923 30.86707,-22.94934 30.86699,-22.9495 30.86703,-22.94976 30.86711,-22.95021 30.86716,-22.95054 30.86719,-22.95065 30.8673,-22.95104 30.86737,-22.95167 30.86739,-22.9519 30.86745,-22.95268 30.86754,-22.95305 30.86763,-22.95369 30.86772,-22.95389 30.86783,-22.95396 30.86792,-22.95403 30.86797,-22.95415 30.86806,-22.95419 30.86811,-22.95425 30.86819,-22.95429 30.86827,-22.95435 30.86838,-22.95444 30.86847,-22.95451 30.86857,-22.95459 30.86869,-22.95463 30.86879,-22.95468 30.86893,-22.95474 30.86907,-22.95479 30.86926,-22.95486 30.86945,-22.95487 30.86978,-22.95887 30.86962,-22.95908 30.86951,-22.95926 30.86941,-22.95954 30.86941,-22.9597 30.86928,-22.95983 30.86887,-22.96008 30.86871,-22.96018 30.86854,-22.96027 30.86837,-22.96038 30.8681,-22.96047 30.86791,-22.96056 30.8679,-22.96056 30.86784,-22.96059 30.86774,-22.96065 30.8676,-22.96098</coordinates></LinearRing></outerBoundaryIs></Polygon></MultiGeometry></Placemark></Document></kml>