<?xml version="1.0" encoding="UTF-8"?><kml xmlns="http://www.opengis.net/kml/2.2"><Document><Placemark><name>Tswinga</name><description>Main Place 966179</description><ExtendedData><Data name="code"><value>966179</value></Data><Data name="name"><value>Tswinga</value></Data><Data name="description"><value>Main Place 966179</value></Data></ExtendedData><MultiGeometry><Polygon><outerBoundaryIs><LinearRing><coordinates>30.50319,-23.00045 30.50336,-23.00051 30.50345,-23.00048 30.50355,-23.00039 30.50377,-23.00023 30.50392,-23.00005 30.50421,-22.99994 30.50436,-22.99975 30.50443,-22.99964 30.50451,-22.99946 30.50469,-22.99963 30.50496,-23.00027 30.5052,-23.00103 30.50456,-23.00244 30.50343,-23.00421 30.50222,-23.00559 30.5012,-23.00766 30.50015,-23.00913 30.49949,-23.01032 30.49951,-23.01045 30.49951,-23.01057 30.49944,-23.01076 30.49942,-23.01095 30.49933,-23.01123 30.49918,-23.0114 30.49904,-23.01147 30.49892,-23.01167 30.49885,-23.01191 30.49877,-23.01209 30.4986,-23.01226 30.49848,-23.01232 30.49833,-23.01232 30.49818,-23.01243 30.49818,-23.01257 30.4982,-23.01271 30.49816,-23.01279 30.49809,-23.01297 30.49802,-23.01318 30.4979,-23.0134 30.49787,-23.01353 30.49781,-23.01365 30.49781,-23.01394 30.49788,-23.01419 30.49796,-23.01437 30.49803,-23.01455 30.49806,-23.01477 30.49796,-23.01501 30.49789,-23.0152 30.49778,-23.01529 30.49772,-23.0154 30.49773,-23.01556 30.49772,-23.01574 30.49773,-23.01595 30.49754,-23.01668 30.49741,-23.01698 30.49696,-23.01807 30.49659,-23.01984 30.49623,-23.02197 30.49586,-23.0241 30.49578,-23.02438 30.49541,-23.02562 30.49498,-23.02732 30.49474,-23.02836 30.49468,-23.02933 30.49283,-23.02958 30.49273,-23.02959 30.49273,-23.02958 30.49266,-23.02954 30.49258,-23.02949 30.49251,-23.02951 30.49244,-23.0296 30.49243,-23.02966 30.49236,-23.02977 30.49232,-23.02985 30.49229,-23.02993 30.49223,-23.03006 30.49221,-23.03016 30.49215,-23.03026 30.4921,-23.03037 30.49211,-23.03045 30.49211,-23.03052 30.49195,-23.03073 30.49177,-23.0308 30.49161,-23.03078 30.4914,-23.03074 30.49119,-23.03074 30.49088,-23.03086 30.49075,-23.03091 30.49058,-23.03107 30.49041,-23.03122 30.49018,-23.03131 30.49002,-23.03131 30.48979,-23.03136 30.48965,-23.03133 30.48947,-23.03132 30.48916,-23.03134 30.48899,-23.03137 30.4889,-23.03144 30.48884,-23.03158 30.48883,-23.03167 30.48879,-23.03176 30.48865,-23.03167 30.48855,-23.03163 30.48841,-23.03156 30.48835,-23.03152 30.48828,-23.03147 30.48817,-23.03144 30.48804,-23.03144 30.48796,-23.03145 30.48784,-23.03148 30.48773,-23.03149 30.48765,-23.03151 30.48758,-23.03154 30.48754,-23.03159 30.4875,-23.03165 30.48743,-23.03177 30.48737,-23.03184 30.48728,-23.03189 30.48719,-23.03195 30.48713,-23.03201 30.48705,-23.03207 30.48696,-23.03208 30.48683,-23.03208 30.48674,-23.03207 30.48665,-23.0321 30.48658,-23.03216 30.4865,-23.03226 30.48643,-23.03231 30.48639,-23.0324 30.48643,-23.03248 30.48645,-23.03253 30.48641,-23.03258 30.48632,-23.03262 30.48622,-23.03262 30.48612,-23.03257 30.48611,-23.03251 30.48604,-23.03249 30.48592,-23.0325 30.4859,-23.0325 30.48583,-23.03251 30.48575,-23.03256 30.48566,-23.03258 30.4856,-23.03263 30.48546,-23.03273 30.48537,-23.03281 30.48528,-23.03293 30.48517,-23.033 30.4851,-23.03301 30.48503,-23.03298 30.48494,-23.03294 30.48487,-23.03289 30.48477,-23.03285 30.48468,-23.03277 30.48462,-23.03271 30.48458,-23.03265 30.48456,-23.03256 30.48447,-23.03251 30.48432,-23.0326 30.48405,-23.03291 30.48384,-23.03309 30.48357,-23.03332 30.48343,-23.03341 30.48323,-23.03352 30.48319,-23.03357 30.48288,-23.03385 30.48075,-23.03404 30.48041,-23.03412 30.48008,-23.03419 30.47965,-23.03417 30.47922,-23.03415 30.47876,-23.03411 30.47856,-23.03413 30.47834,-23.03409 30.47792,-23.03401 30.4775,-23.03391 30.47729,-23.03386 30.47711,-23.03383 30.47688,-23.03384 30.4766,-23.03348 30.47649,-23.03339 30.47639,-23.03326 30.47625,-23.03307 30.47599,-23.03271 30.47577,-23.03267 30.47557,-23.03261 30.47543,-23.0325 30.47534,-23.03233 30.47529,-23.03218 30.47523,-23.032 30.47513,-23.03192 30.47504,-23.03181 30.47499,-23.03175 30.47496,-23.03165 30.47496,-23.03155 30.47496,-23.03143 30.47496,-23.03135 30.47496,-23.03128 30.47488,-23.03119 30.47478,-23.03114 30.4747,-23.03109 30.47462,-23.031 30.47444,-23.03092 30.47423,-23.03075 30.4741,-23.03058 30.47398,-23.03045 30.47385,-23.03028 30.4737,-23.03012 30.4735,-23.03001 30.47331,-23.02995 30.47317,-23.02994 30.47304,-23.02992 30.47292,-23.02989 30.47297,-23.02985 30.47333,-23.02961 30.47364,-23.02942 30.47384,-23.02929 30.47407,-23.02908 30.47432,-23.02889 30.47473,-23.02855 30.47509,-23.02822 30.47546,-23.02787 30.47575,-23.02757 30.47595,-23.02734 30.47604,-23.02722 30.47604,-23.02721 30.4761,-23.02704 30.47618,-23.02682 30.47631,-23.02647 30.47638,-23.02618 30.47641,-23.02595 30.47641,-23.02576 30.47639,-23.02545 30.47636,-23.02517 30.47632,-23.02478 30.47631,-23.02447 30.47627,-23.02391 30.47619,-23.0234 30.47614,-23.02305 30.47612,-23.02295 30.47414,-23.0231 30.47424,-23.02135 30.47571,-23.02115 30.47563,-23.02067 30.47557,-23.02044 30.47554,-23.02017 30.47546,-23.01983 30.47543,-23.01953 30.47535,-23.01908 30.47534,-23.01893 30.47532,-23.01853 30.47529,-23.01829 30.47527,-23.01785 30.47524,-23.01747 30.47523,-23.01718 30.47521,-23.01704 30.47518,-23.01685 30.47518,-23.01659 30.47518,-23.01632 30.47524,-23.01594 30.47529,-23.01574 30.47534,-23.01554 30.4754,-23.01532 30.47549,-23.01506 30.47564,-23.01464 30.47575,-23.0143 30.47584,-23.01409 30.47591,-23.01388 30.47601,-23.01364 30.47607,-23.01347 30.47617,-23.0132 30.47632,-23.01282 30.47648,-23.0124 30.4766,-23.01206 30.47677,-23.01152 30.47702,-23.01087 30.47721,-23.01049 30.47737,-23.01058 30.47767,-23.01074 30.47797,-23.01086 30.47798,-23.01086 30.47821,-23.01094 30.47852,-23.01102 30.47882,-23.01101 30.47903,-23.01091 30.47922,-23.0108 30.47927,-23.01048 30.47933,-23.01032 30.47937,-23.01011 30.47945,-23.01 30.4796,-23.00994 30.47976,-23.00994 30.47992,-23.00992 30.4801,-23.00984 30.48031,-23.00982 30.48055,-23.00982 30.48071,-23.00973 30.48092,-23.00962 30.48105,-23.00962 30.48124,-23.00957 30.48142,-23.00965 30.48168,-23.00962 30.4819,-23.00953 30.48203,-23.00951 30.48237,-23.00951 30.48257,-23.00958 30.48277,-23.00974 30.48298,-23.00994 30.48322,-23.01025 30.48344,-23.01041 30.48371,-23.01053 30.48401,-23.01069 30.48434,-23.01074 30.48456,-23.01073 30.48467,-23.0106 30.48478,-23.01044 30.48493,-23.01036 30.48509,-23.01033 30.48534,-23.01024 30.48545,-23.01039 30.48595,-23.01023 30.48636,-23.00988 30.48686,-23.00943 30.48748,-23.00924 30.4882,-23.00919 30.48868,-23.00884 30.48903,-23.00833 30.48932,-23.00777 30.48965,-23.0071 30.48989,-23.00678 30.49042,-23.00665 30.4908,-23.00686 30.49106,-23.00691 30.49133,-23.00649 30.49152,-23.00574 30.49181,-23.00536 30.4924,-23.00507 30.49328,-23.00501 30.49411,-23.00469 30.49492,-23.00413 30.49564,-23.00317 30.49666,-23.00253 30.4973,-23.00194 30.49754,-23.00146 30.49778,-23.00107 30.49791,-23.00107 30.49805,-23.00104 30.49815,-23.00099 30.49836,-23.00094 30.49848,-23.00088 30.49876,-23.00086 30.49886,-23.00084 30.49897,-23.00083 30.49909,-23.00082 30.49923,-23.00074 30.49934,-23.00064 30.49948,-23.00051 30.49972,-23.00038 30.49989,-23.00028 30.49999,-23.00019 30.50013,-23.00012 30.50032,-23.00004 30.50061,-22.99992 30.50074,-22.99981 30.50088,-22.99975 30.50104,-22.99968 30.50118,-22.99957 30.50135,-22.99937 30.5014,-22.99923 30.50137,-22.99912 30.50134,-22.99903 30.5014,-22.99888 30.50153,-22.99883 30.5017,-22.99882 30.50185,-22.99878 30.50198,-22.99878 30.50214,-22.99883 30.5022,-22.99903 30.50214,-22.99909 30.5021,-22.99933 30.5021,-22.99941 30.50203,-22.99946 30.50206,-22.99956 30.50213,-22.99969 30.50232,-22.99986 30.50246,-22.99989 30.50268,-23.00002 30.50277,-23.00008 30.50286,-23.00021 30.50293,-23.00034 30.50306,-23.00043 30.50319,-23.00045</coordinates></LinearRing></outerBoundaryIs></Polygon></MultiGeometry></Placemark></Document></kml>