<?xml version="1.0" encoding="UTF-8"?><kml xmlns="http://www.opengis.net/kml/2.2"><Document><Placemark><name>Musina</name><description>Local Municipality 967</description><ExtendedData><Data name="code"><value>967</value></Data><Data name="name"><value>Musina</value></Data><Data name="description"><value>Local Municipality 967</value></Data></ExtendedData><MultiGeometry><Polygon><outerBoundaryIs><LinearRing><coordinates>30.21424,-22.68522 30.22666,-22.69257 30.18848,-22.69361 30.18045,-22.69302 30.13417,-22.68963 30.13827,-22.7196 30.10562,-22.70398 30.10527,-22.70393 30.10443,-22.70381 30.06255,-22.6981 30.05856,-22.7113 30.04127,-22.69921 30.03344,-22.69373 30.02584,-22.68261 30.02128,-22.67592 30.02123,-22.67594 29.98595,-22.69296 29.96201,-22.67771 29.95944,-22.67912 29.94916,-22.6848 29.94658,-22.68621 29.93887,-22.69047 29.9363,-22.69188 29.93548,-22.68918 29.93386,-22.68376 29.93305,-22.68106 29.93223,-22.67835 29.93061,-22.67293 29.92979,-22.67023 29.92817,-22.66481 29.92812,-22.66482 29.92561,-22.66544 29.92049,-22.66668 29.91794,-22.66731 29.91392,-22.66828 29.91282,-22.66855 29.91026,-22.66918 29.9077,-22.6698 29.90515,-22.67042 29.90259,-22.67105 29.89476,-22.67627 29.89215,-22.67802 29.88797,-22.6808 29.88693,-22.6815 29.88432,-22.68324 29.8817,-22.68499 29.87648,-22.68847 29.8773,-22.69065 29.87812,-22.69282 29.87894,-22.695 29.87976,-22.69717 29.88058,-22.69935 29.8814,-22.70152 29.88222,-22.7037 29.88304,-22.70587 29.88386,-22.70805 29.88468,-22.71022 29.87964,-22.7132 29.87713,-22.71469 29.86957,-22.71916 29.86706,-22.72066 29.8595,-22.72513 29.85567,-22.7267 29.85184,-22.72828 29.84801,-22.72985 29.84418,-22.73143 29.84035,-22.733 29.83269,-22.73616 29.82886,-22.73773 29.82503,-22.73931 29.8212,-22.74088 29.81439,-22.74604 29.81213,-22.74776 29.80305,-22.75464 29.80078,-22.75635 29.79851,-22.75807 29.79689,-22.75251 29.79608,-22.74972 29.79527,-22.74694 29.79446,-22.74415 29.79365,-22.74137 29.79284,-22.73858 29.79203,-22.7358 29.79122,-22.73301 29.7904,-22.73023 29.79036,-22.72969 29.79031,-22.72914 29.79027,-22.7286 29.79022,-22.72805 29.79018,-22.72751 29.79013,-22.72697 29.79009,-22.72642 29.78999,-22.72534 29.78995,-22.72479 29.78981,-22.7231 29.78967,-22.72142 29.78952,-22.71973 29.78882,-22.71128 29.78867,-22.70959 29.78853,-22.70791 29.78829,-22.70764 29.78815,-22.70523 29.78801,-22.70283 29.78788,-22.70042 29.78629,-22.69849 29.7847,-22.69655 29.78311,-22.69462 29.78152,-22.69268 29.77834,-22.68882 29.77675,-22.68688 29.77546,-22.68531 29.77417,-22.68375 29.77159,-22.68061 29.77029,-22.67904 29.76771,-22.6759 29.76642,-22.67434 29.76384,-22.6712 29.76072,-22.67298 29.75916,-22.67388 29.75761,-22.67477 29.75605,-22.67566 29.75449,-22.67656 29.75137,-22.67834 29.74981,-22.67924 29.74825,-22.68013 29.74472,-22.6794 29.73764,-22.67794 29.73402,-22.67721 29.73041,-22.67648 29.72679,-22.67575 29.72326,-22.67504 29.71974,-22.67434 29.71621,-22.67363 29.71196,-22.67278 29.7077,-22.67193 29.70733,-22.67177 29.70599,-22.67286 29.70593,-22.67285 29.70589,-22.67285 29.70537,-22.6728 29.7048,-22.67275 29.70424,-22.6727 29.70367,-22.67265 29.70311,-22.6726 29.70254,-22.67255 29.70198,-22.67251 29.70141,-22.67246 29.70085,-22.67241 29.70028,-22.67236 29.69901,-22.67225 29.69517,-22.67192 29.6939,-22.67181 29.69148,-22.6716 29.68878,-22.67137 29.68751,-22.67126 29.68067,-22.67068 29.67726,-22.67038 29.67384,-22.67009 29.67043,-22.6698 29.66701,-22.6695 29.66359,-22.66921 29.66018,-22.66891 29.65676,-22.66862 29.65335,-22.66833 29.652,-22.66798 29.65066,-22.66764 29.64932,-22.66729 29.64798,-22.66695 29.64664,-22.6666 29.6453,-22.66626 29.64395,-22.66591 29.64261,-22.66557 29.64127,-22.66522 29.63993,-22.66488 29.63782,-22.66433 29.63149,-22.66271 29.62939,-22.66216 29.62306,-22.66054 29.62095,-22.65999 29.61884,-22.65945 29.61826,-22.65909 29.61708,-22.65835 29.6165,-22.65799 29.61591,-22.65762 29.61533,-22.65726 29.61474,-22.65689 29.61415,-22.65653 29.61357,-22.65616 29.61298,-22.65579 29.60951,-22.65363 29.60605,-22.65147 29.60258,-22.6493 29.59912,-22.64714 29.59565,-22.64497 29.59218,-22.64281 29.58872,-22.64065 29.58525,-22.63848 29.58178,-22.63632 29.57832,-22.63416 29.57444,-22.6323 29.57251,-22.63137 29.57057,-22.63045 29.56863,-22.62952 29.5667,-22.62859 29.56476,-22.62766 29.56282,-22.62674 29.56088,-22.62581 29.55895,-22.62488 29.55691,-22.6239 29.55486,-22.62292 29.55282,-22.62195 29.5467,-22.61901 29.54465,-22.61803 29.54261,-22.61705 29.54057,-22.61608 29.53853,-22.6151 29.53722,-22.61478 29.53591,-22.61447 29.53459,-22.61415 29.53328,-22.61384 29.53197,-22.61352 29.53066,-22.61321 29.52935,-22.61289 29.52804,-22.61258 29.52673,-22.61226 29.52542,-22.61195 29.52506,-22.61186 29.52471,-22.61178 29.52435,-22.61169 29.524,-22.6116 29.52364,-22.61152 29.52328,-22.61143 29.52293,-22.61135 29.52257,-22.61126 29.52222,-22.61118 29.52186,-22.61109 29.51709,-22.60994 29.51231,-22.60879 29.50754,-22.60765 29.50276,-22.6065 29.49322,-22.6042 29.48844,-22.60305 29.48367,-22.6019 29.47889,-22.60075 29.47412,-22.59961 29.47492,-22.60277 29.47573,-22.60594 29.47733,-22.61228 29.47814,-22.61545 29.47894,-22.61861 29.47975,-22.62178 29.48055,-22.62495 29.48136,-22.62812 29.48216,-22.63129 29.48044,-22.63111 29.47873,-22.63092 29.47701,-22.63074 29.4753,-22.63056 29.47186,-22.6302 29.47015,-22.63002 29.46843,-22.62983 29.46672,-22.62965 29.465,-22.62947 29.45198,-22.62809 29.44765,-22.62763 29.42161,-22.62487 29.42315,-22.63495 29.42336,-22.63639 29.4238,-22.63927 29.42129,-22.63985 29.41625,-22.64101 29.41374,-22.64159 29.4087,-22.64275 29.40619,-22.64333 29.40115,-22.64449 29.39864,-22.64507 29.39564,-22.64576 29.39265,-22.64645 29.38665,-22.64783 29.38366,-22.64852 29.38066,-22.64921 29.37767,-22.6499 29.37167,-22.65128 29.36868,-22.65197 29.36746,-22.65091 29.36625,-22.64986 29.36504,-22.6488 29.36382,-22.64774 29.36261,-22.64669 29.36261,-22.64669 29.36139,-22.64563 29.36018,-22.64458 29.35896,-22.64352 29.35775,-22.64247 29.35654,-22.64141 29.34394,-22.63012 29.3347,-22.62273 29.30878,-22.60204 29.30878,-22.60204 29.30802,-22.61285 29.30613,-22.61297 29.30464,-22.61307 29.30076,-22.61318 29.29526,-22.61303 29.29126,-22.61284 29.28431,-22.61222 29.28277,-22.61222 29.27885,-22.61153 29.27743,-22.61153 29.277,-22.6118 29.2768,-22.61194 29.2768,-22.61194 29.27721,-22.61268 29.27721,-22.61268 29.27754,-22.61234 29.28363,-22.61944 29.27726,-22.62383 29.25967,-22.63593 29.24167,-22.6469 29.20936,-22.66278 29.20936,-22.66278 29.20682,-22.65193 29.20395,-22.63961 29.19995,-22.62248 29.17559,-22.57679 29.17192,-22.56784 29.16588,-22.55312 29.12565,-22.54359 29.10734,-22.53925 29.08679,-22.54337 29.06168,-22.54841 29.03877,-22.55726 29.01394,-22.57055 28.99977,-22.57486 28.97911,-22.58113 28.97909,-22.58108 28.96112,-22.56099 28.94385,-22.5349 28.93291,-22.52106 28.90351,-22.51268 28.90217,-22.51211 28.90197,-22.51202 28.90239,-22.51194 28.90282,-22.51177 28.90366,-22.51135 28.90429,-22.511 28.90475,-22.51033 28.90531,-22.50952 28.90547,-22.50914 28.90582,-22.50829 28.90588,-22.50736 28.90592,-22.5066 28.90587,-22.50533 28.90546,-22.50359 28.90534,-22.50305 28.90526,-22.50267 28.90515,-22.5021 28.905,-22.50129 28.9049,-22.50012 28.9049,-22.49869 28.90475,-22.49756 28.9049,-22.49705 28.9051,-22.49588 28.90531,-22.49486 28.90546,-22.49348 28.90597,-22.4922 28.90715,-22.49184 28.90893,-22.49194 28.91067,-22.49215 28.91333,-22.49189 28.91522,-22.49159 28.9167,-22.49108 28.91741,-22.49046 28.91792,-22.48898 28.91808,-22.48735 28.91844,-22.48586 28.91853,-22.48491 28.91864,-22.48372 28.91879,-22.48253 28.9189,-22.48168 28.91925,-22.48004 28.91951,-22.47769 28.91987,-22.47549 28.91981,-22.47268 28.91956,-22.47182 28.91946,-22.47064 28.91951,-22.46911 28.91961,-22.46799 28.92012,-22.46676 28.92058,-22.46564 28.92114,-22.46461 28.9214,-22.46369 28.92191,-22.46288 28.92257,-22.46201 28.92319,-22.46058 28.92344,-22.45976 28.92365,-22.45843 28.92329,-22.45721 28.92328,-22.45704 28.9235,-22.45662 28.92374,-22.45618 28.92394,-22.45576 28.92413,-22.45532 28.92416,-22.45512 28.92435,-22.4548 28.92443,-22.45434 28.92452,-22.45409 28.92472,-22.45384 28.92486,-22.45343 28.92511,-22.45293 28.92543,-22.45242 28.92576,-22.45201 28.92605,-22.45156 28.92628,-22.45116 28.92649,-22.45095 28.92675,-22.45061 28.92711,-22.45012 28.92737,-22.44982 28.92773,-22.44938 28.92816,-22.44903 28.92857,-22.44867 28.92897,-22.44837 28.9292,-22.44803 28.9297,-22.44748 28.9304,-22.44678 28.9308,-22.44634 28.93118,-22.44597 28.93159,-22.4456 28.93199,-22.44518 28.93231,-22.44483 28.93246,-22.44459 28.93257,-22.44425 28.93266,-22.44384 28.93293,-22.4434 28.93314,-22.44311 28.93347,-22.44273 28.93369,-22.4424 28.93388,-22.44197 28.93412,-22.44166 28.93457,-22.44133 28.93504,-22.44107 28.93559,-22.44076 28.93606,-22.44055 28.93643,-22.44015 28.93701,-22.43977 28.93763,-22.43919 28.93812,-22.43873 28.93852,-22.43828 28.9389,-22.43796 28.93924,-22.43752 28.93947,-22.43708 28.93967,-22.43662 28.94012,-22.43621 28.9407,-22.43587 28.94121,-22.43567 28.9416,-22.43532 28.94205,-22.43499 28.94243,-22.43459 28.9428,-22.43428 28.94312,-22.43389 28.94348,-22.4333 28.94373,-22.43294 28.944,-22.43248 28.94434,-22.43201 28.94439,-22.43182 28.94459,-22.43148 28.94466,-22.43101 28.9447,-22.43049 28.9447,-22.4301 28.94475,-22.42956 28.94473,-22.42928 28.94456,-22.42879 28.9445,-22.42857 28.94444,-22.42822 28.94434,-22.4278 28.94428,-22.4273 28.94428,-22.42679 28.94449,-22.42624 28.94481,-22.42578 28.94504,-22.4253 28.94531,-22.42473 28.9455,-22.42429 28.94576,-22.42389 28.9462,-22.42354 28.94671,-22.42311 28.94724,-22.4227 28.94765,-22.42215 28.94811,-22.42172 28.94915,-22.42028 28.94926,-22.41998 28.94946,-22.41946 28.94968,-22.41887 28.94997,-22.41837 28.9502,-22.41788 28.95044,-22.41736 28.95074,-22.41664 28.95094,-22.41613 28.95118,-22.41553 28.95125,-22.41504 28.95133,-22.41458 28.95136,-22.41417 28.95137,-22.41375 28.95149,-22.41317 28.95144,-22.41281 28.95147,-22.41251 28.95147,-22.41222 28.95144,-22.41185 28.95141,-22.41136 28.95143,-22.41097 28.95144,-22.4102 28.95152,-22.40913 28.95153,-22.40868 28.95159,-22.40827 28.95178,-22.40775 28.95182,-22.40756 28.95187,-22.40729 28.95187,-22.40679 28.95188,-22.40635 28.95188,-22.40574 28.95191,-22.40548 28.95199,-22.40509 28.95226,-22.40447 28.95244,-22.40408 28.95269,-22.40377 28.95302,-22.40321 28.95347,-22.4024 28.95373,-22.40204 28.95404,-22.40159 28.95427,-22.4011 28.95468,-22.40041 28.95522,-22.39965 28.95566,-22.39909 28.95591,-22.39863 28.95608,-22.39819 28.95624,-22.39787 28.95661,-22.39747 28.95704,-22.39701 28.95743,-22.39645 28.95754,-22.39633 28.95785,-22.39595 28.95816,-22.39561 28.95847,-22.39523 28.9587,-22.39482 28.95892,-22.39449 28.95929,-22.39412 28.95959,-22.39375 28.95975,-22.39348 28.95993,-22.393 28.96014,-22.39275 28.96043,-22.39236 28.96075,-22.39212 28.96102,-22.39169 28.96149,-22.39117 28.962,-22.39061 28.96241,-22.39024 28.96295,-22.38978 28.96335,-22.3893 28.96365,-22.38902 28.96409,-22.38856 28.9643,-22.38824 28.96466,-22.3878 28.96503,-22.38739 28.96536,-22.38708 28.96555,-22.38685 28.96577,-22.38651 28.96611,-22.38616 28.96645,-22.38582 28.96664,-22.38541 28.96698,-22.38496 28.96721,-22.38453 28.96766,-22.38415 28.96792,-22.38359 28.96826,-22.38323 28.96852,-22.38266 28.96871,-22.38209 28.96889,-22.3816 28.969,-22.38126 28.9694,-22.3807 28.96968,-22.38035 28.96995,-22.38001 28.97036,-22.37931 28.97062,-22.37859 28.97089,-22.37795 28.97108,-22.37748 28.97145,-22.37698 28.97154,-22.37632 28.97167,-22.37606 28.97179,-22.37562 28.97187,-22.37508 28.97196,-22.37469 28.97201,-22.37435 28.97211,-22.37361 28.97217,-22.37272 28.97213,-22.3721 28.97216,-22.37179 28.97213,-22.37115 28.9721,-22.37047 28.97207,-22.37022 28.97202,-22.36979 28.9719,-22.36922 28.97189,-22.36881 28.97183,-22.36836 28.97184,-22.36801 28.97165,-22.36751 28.97141,-22.36692 28.97132,-22.3664 28.97106,-22.36602 28.97096,-22.36572 28.97087,-22.36539 28.97055,-22.36488 28.97037,-22.36451 28.97025,-22.36423 28.9702,-22.36402 28.97011,-22.3635 28.97,-22.36296 28.96997,-22.36259 28.96984,-22.36232 28.96971,-22.36194 28.96966,-22.36145 28.96952,-22.36103 28.96943,-22.36049 28.96942,-22.35994 28.96941,-22.35946 28.96936,-22.35896 28.96922,-22.35849 28.96917,-22.35801 28.96904,-22.35742 28.96886,-22.35704 28.9687,-22.35643 28.96857,-22.35591 28.96839,-22.35533 28.96833,-22.35481 28.96814,-22.35407 28.96792,-22.35357 28.96773,-22.35324 28.96752,-22.35288 28.96725,-22.35243 28.96704,-22.35205 28.96684,-22.35178 28.96659,-22.35144 28.96619,-22.35094 28.96576,-22.35071 28.9654,-22.35055 28.96497,-22.35008 28.96482,-22.34989 28.96447,-22.3495 28.96432,-22.34928 28.96419,-22.34884 28.96398,-22.34847 28.96383,-22.34805 28.96362,-22.34772 28.96353,-22.34718 28.96356,-22.3468 28.96361,-22.34659 28.9637,-22.3461 28.96376,-22.34578 28.96381,-22.34541 28.96387,-22.34506 28.96391,-22.34471 28.96392,-22.34427 28.96401,-22.34354 28.96404,-22.34309 28.96406,-22.34265 28.96407,-22.34218 28.96407,-22.34177 28.96409,-22.34109 28.96403,-22.34056 28.96406,-22.33949 28.96412,-22.33896 28.96416,-22.33835 28.96414,-22.3376 28.9641,-22.33702 28.96395,-22.3366 28.96391,-22.33614 28.96388,-22.33564 28.96384,-22.33537 28.96384,-22.33503 28.96378,-22.33465 28.96362,-22.33409 28.96352,-22.33347 28.96351,-22.33296 28.96344,-22.33237 28.96338,-22.3319 28.96331,-22.33142 28.9632,-22.33127 28.96309,-22.33086 28.96295,-22.33047 28.96291,-22.33014 28.96271,-22.32946 28.96271,-22.32923 28.96273,-22.32879 28.9628,-22.32833 28.9629,-22.32771 28.96293,-22.32721 28.96296,-22.32684 28.963,-22.3265 28.96312,-22.32592 28.96323,-22.3254 28.96323,-22.32479 28.96329,-22.32446 28.96346,-22.32377 28.96354,-22.32332 28.96359,-22.32289 28.96361,-22.32234 28.96366,-22.3219 28.96364,-22.32133 28.96367,-22.32078 28.96372,-22.32017 28.96379,-22.31958 28.96383,-22.31921 28.96378,-22.31888 28.96373,-22.31851 28.96388,-22.31819 28.96392,-22.31795 28.96414,-22.31762 28.96434,-22.31719 28.9644,-22.31678 28.96452,-22.31622 28.96466,-22.31575 28.96476,-22.31519 28.96493,-22.31456 28.96507,-22.31407 28.96522,-22.31371 28.96541,-22.31321 28.96555,-22.31266 28.96556,-22.31211 28.96554,-22.31187 28.96554,-22.31153 28.96564,-22.31101 28.96573,-22.31053 28.96585,-22.31002 28.96601,-22.30949 28.96613,-22.30914 28.96628,-22.30864 28.96636,-22.30816 28.96649,-22.30782 28.96658,-22.30754 28.96683,-22.30711 28.96701,-22.30685 28.96729,-22.3065 28.96765,-22.30602 28.96808,-22.30571 28.96846,-22.30534 28.96869,-22.30504 28.96927,-22.30484 28.96969,-22.30464 28.97007,-22.30433 28.97037,-22.30428 28.97089,-22.30396 28.97137,-22.30368 28.97193,-22.30333 28.97237,-22.30306 28.97279,-22.30272 28.97313,-22.30256 28.97359,-22.3023 28.97419,-22.30198 28.97479,-22.30158 28.97519,-22.30131 28.97567,-22.30088 28.97596,-22.30068 28.97611,-22.30049 28.97628,-22.3002 28.97657,-22.2997 28.9769,-22.29913 28.9771,-22.29876 28.9773,-22.29833 28.97752,-22.29788 28.97756,-22.29742 28.97766,-22.2971 28.97774,-22.29675 28.9779,-22.29634 28.97794,-22.29597 28.97793,-22.29543 28.97781,-22.29499 28.97778,-22.29466 28.97768,-22.29419 28.97763,-22.29381 28.97759,-22.2933 28.97762,-22.29273 28.97761,-22.29229 28.97764,-22.29184 28.97765,-22.29129 28.97773,-22.2911 28.9779,-22.2907 28.97812,-22.29033 28.97839,-22.28997 28.97875,-22.28951 28.97918,-22.2892 28.97978,-22.28904 28.98019,-22.28875 28.98046,-22.28855 28.98074,-22.28823 28.98097,-22.28777 28.98113,-22.28741 28.98135,-22.28689 28.98145,-22.28648 28.98156,-22.28602 28.98173,-22.28559 28.98214,-22.28519 28.9826,-22.28478 28.98309,-22.28458 28.98344,-22.28451 28.98395,-22.2842 28.98455,-22.28408 28.98486,-22.28403 28.98514,-22.28401 28.98557,-22.284 28.98607,-22.28403 28.98664,-22.28405 28.98764,-22.284 28.98842,-22.28384 28.98886,-22.28376 28.98943,-22.28372 28.98968,-22.28355 28.99005,-22.28344 28.99053,-22.28324 28.99098,-22.28295 28.99175,-22.28259 28.99239,-22.28234 28.99285,-22.28208 28.99338,-22.28189 28.99397,-22.28158 28.99441,-22.28146 28.99464,-22.28137 28.99538,-22.28099 28.99598,-22.28068 28.99599,-22.2806 28.99648,-22.28046 28.99693,-22.28014 28.99736,-22.27988 28.99803,-22.27931 28.99852,-22.27887 28.99885,-22.27851 28.99924,-22.27822 28.99961,-22.2778 28.99993,-22.27744 29.00027,-22.27711 29.00075,-22.27659 29.00118,-22.27629 29.00165,-22.27594 29.00197,-22.2756 29.00232,-22.27519 29.00277,-22.27472 29.00309,-22.27417 29.00327,-22.27389 29.00343,-22.27337 29.00343,-22.27286 29.00355,-22.27224 29.00358,-22.2713 29.00361,-22.2709 29.00367,-22.27053 29.00369,-22.27019 29.00381,-22.26982 29.00393,-22.26951 29.00407,-22.26919 29.0042,-22.2689 29.00438,-22.26831 29.00446,-22.26795 29.00455,-22.26747 29.0044,-22.26718 29.00435,-22.26696 29.00428,-22.2666 29.00419,-22.26639 29.00419,-22.26545 29.00429,-22.26509 29.00444,-22.26414 29.00454,-22.26355 29.00469,-22.26311 29.00486,-22.26256 29.00518,-22.26212 29.00564,-22.26183 29.00627,-22.2615 29.00686,-22.26121 29.00749,-22.26107 29.00794,-22.26095 29.00822,-22.26076 29.00884,-22.26037 29.00972,-22.25993 29.01024,-22.25955 29.01072,-22.2593 29.0113,-22.25897 29.01197,-22.25859 29.01269,-22.25811 29.01315,-22.25781 29.01344,-22.25747 29.01367,-22.25691 29.01377,-22.25641 29.0138,-22.25583 29.01378,-22.25542 29.01382,-22.25486 29.01384,-22.25416 29.01385,-22.25377 29.01382,-22.25326 29.01379,-22.25283 29.01376,-22.25205 29.01377,-22.25099 29.01376,-22.25091 29.01374,-22.25061 29.0137,-22.25016 29.0137,-22.24988 29.01366,-22.24928 29.01359,-22.24873 29.01351,-22.24819 29.0134,-22.24778 29.01352,-22.24705 29.01359,-22.24619 29.01355,-22.24596 29.01342,-22.2455 29.01331,-22.24506 29.0132,-22.24459 29.01315,-22.24426 29.0131,-22.2438 29.01307,-22.24321 29.01306,-22.24235 29.01317,-22.24205 29.01317,-22.24179 29.01322,-22.24136 29.01324,-22.24094 29.01321,-22.24033 29.01316,-22.23997 29.01312,-22.23952 29.01303,-22.23915 29.0129,-22.23883 29.01285,-22.23841 29.01279,-22.23795 29.01282,-22.23743 29.01293,-22.23683 29.01305,-22.23628 29.0131,-22.23564 29.01315,-22.23517 29.01321,-22.23494 29.0133,-22.2344 29.0134,-22.2335 29.01353,-22.23277 29.01368,-22.23214 29.01386,-22.23164 29.01393,-22.23141 29.01418,-22.23094 29.01447,-22.23054 29.01465,-22.23028 29.01503,-22.22988 29.01543,-22.22954 29.01576,-22.2294 29.01613,-22.22912 29.01658,-22.22879 29.01703,-22.2283 29.01725,-22.22818 29.01762,-22.22777 29.01788,-22.22743 29.01845,-22.2269 29.01894,-22.22656 29.01942,-22.22621 29.0198,-22.22615 29.0201,-22.22615 29.02066,-22.22612 29.02094,-22.22614 29.02171,-22.22629 29.02243,-22.22667 29.02293,-22.22696 29.02337,-22.22733 29.02399,-22.22758 29.0243,-22.2278 29.02498,-22.22828 29.02578,-22.22868 29.02617,-22.22878 29.02684,-22.22903 29.02738,-22.22902 29.02805,-22.22884 29.02847,-22.22868 29.02887,-22.22844 29.02937,-22.22799 29.02951,-22.22773 29.02968,-22.22742 29.02997,-22.22696 29.03011,-22.22658 29.03024,-22.22627 29.03036,-22.2259 29.0303,-22.22536 29.03033,-22.22483 29.03029,-22.2243 29.03027,-22.22391 29.03029,-22.2233 29.03036,-22.22248 29.03041,-22.22192 29.03045,-22.22139 29.03081,-22.22083 29.03127,-22.22034 29.03157,-22.21995 29.03188,-22.2195 29.03223,-22.219 29.03259,-22.21868 29.03299,-22.21845 29.03344,-22.21808 29.03384,-22.21786 29.03428,-22.21756 29.03478,-22.21725 29.03525,-22.21692 29.03592,-22.21658 29.03694,-22.21631 29.0374,-22.21638 29.03804,-22.21646 29.03872,-22.21657 29.03932,-22.21656 29.04016,-22.21657 29.0408,-22.21668 29.04161,-22.21667 29.0427,-22.21664 29.04375,-22.21665 29.04484,-22.2168 29.04543,-22.21693 29.04593,-22.21726 29.04641,-22.21759 29.04673,-22.21803 29.0471,-22.21834 29.04785,-22.21888 29.04842,-22.21912 29.04903,-22.2192 29.04964,-22.21922 29.05048,-22.21905 29.05076,-22.21896 29.05126,-22.21882 29.05164,-22.21861 29.05221,-22.21846 29.05268,-22.21841 29.05336,-22.21839 29.05381,-22.21834 29.05477,-22.21825 29.05599,-22.21816 29.05672,-22.2182 29.05711,-22.21831 29.05783,-22.21843 29.05895,-22.21858 29.06002,-22.21862 29.06158,-22.21864 29.06306,-22.21876 29.06358,-22.21869 29.06423,-22.21863 29.0649,-22.21859 29.06591,-22.21855 29.06698,-22.21845 29.06723,-22.21845 29.06773,-22.21843 29.06835,-22.21832 29.06891,-22.21828 29.0699,-22.21826 29.07111,-22.21818 29.07149,-22.21822 29.072,-22.21846 29.0725,-22.21868 29.07306,-22.2188 29.07357,-22.21896 29.07421,-22.21932 29.07519,-22.21971 29.07577,-22.21991 29.07628,-22.22004 29.07708,-22.22034 29.07816,-22.22083 29.07879,-22.22097 29.07923,-22.22107 29.07962,-22.2211 29.08011,-22.22109 29.08132,-22.22112 29.08224,-22.221 29.08285,-22.22097 29.08349,-22.22095 29.08397,-22.2209 29.08448,-22.22081 29.08568,-22.22075 29.08639,-22.22056 29.08701,-22.22033 29.08758,-22.22016 29.08824,-22.21994 29.08903,-22.21968 29.08973,-22.2194 29.09037,-22.21918 29.09092,-22.21891 29.0914,-22.21872 29.09174,-22.21872 29.09247,-22.2185 29.0936,-22.21812 29.0945,-22.21778 29.09489,-22.21764 29.09578,-22.21724 29.09665,-22.21689 29.09726,-22.21676 29.09763,-22.21662 29.09821,-22.2165 29.09877,-22.21639 29.09962,-22.21599 29.09998,-22.21584 29.10065,-22.21539 29.10125,-22.2151 29.10169,-22.21474 29.10212,-22.21446 29.10275,-22.21395 29.10339,-22.21351 29.10388,-22.21323 29.10434,-22.21298 29.10469,-22.2128 29.10514,-22.21268 29.10568,-22.21263 29.10676,-22.21254 29.10746,-22.21248 29.10802,-22.21243 29.10868,-22.21239 29.1092,-22.21243 29.11027,-22.21254 29.11105,-22.21263 29.1115,-22.21268 29.11204,-22.21278 29.11262,-22.21291 29.1132,-22.21298 29.11492,-22.21328 29.11539,-22.21342 29.11592,-22.21363 29.11649,-22.21393 29.11684,-22.21399 29.11722,-22.21407 29.11859,-22.21423 29.11964,-22.21431 29.12028,-22.21437 29.12091,-22.21443 29.12181,-22.21448 29.12325,-22.21452 29.12419,-22.21458 29.12492,-22.21462 29.12595,-22.21455 29.1274,-22.21442 29.12796,-22.21422 29.12878,-22.2141 29.12971,-22.21395 29.13061,-22.21364 29.13175,-22.21353 29.13235,-22.21351 29.13327,-22.21358 29.13448,-22.21378 29.13492,-22.21395 29.1357,-22.21417 29.13665,-22.21453 29.1374,-22.21469 29.13818,-22.21491 29.13885,-22.21516 29.13925,-22.21533 29.13981,-22.21556 29.14002,-22.21565 29.14029,-22.21579 29.14073,-22.21598 29.14147,-22.21612 29.14225,-22.21627 29.14256,-22.21634 29.14281,-22.21632 29.1433,-22.21643 29.14442,-22.21648 29.1454,-22.2165 29.14629,-22.21636 29.147,-22.21632 29.14778,-22.21622 29.14857,-22.2161 29.14955,-22.21595 29.15003,-22.21589 29.15053,-22.21574 29.15108,-22.21566 29.15219,-22.21534 29.15307,-22.21514 29.15377,-22.21492 29.15435,-22.21472 29.155,-22.21452 29.15547,-22.21429 29.15577,-22.21407 29.15601,-22.21392 29.15651,-22.2136 29.15707,-22.21334 29.15764,-22.21301 29.15846,-22.21248 29.1591,-22.21189 29.15956,-22.21138 29.15984,-22.21084 29.16038,-22.21018 29.16075,-22.2099 29.16147,-22.20954 29.16183,-22.20934 29.16217,-22.20919 29.1627,-22.20897 29.16321,-22.20873 29.16413,-22.20839 29.16476,-22.20812 29.1653,-22.20785 29.16568,-22.20763 29.16616,-22.20736 29.16643,-22.20713 29.16663,-22.20696 29.16724,-22.20648 29.16807,-22.20582 29.16917,-22.20494 29.16991,-22.20438 29.17041,-22.20396 29.17123,-22.20325 29.17184,-22.20285 29.17253,-22.20237 29.17303,-22.20206 29.17343,-22.20167 29.17389,-22.20118 29.17447,-22.20063 29.17518,-22.19976 29.17556,-22.19923 29.17603,-22.19871 29.17653,-22.19819 29.17719,-22.19759 29.17758,-22.19703 29.17809,-22.19628 29.17833,-22.19579 29.17869,-22.19537 29.17885,-22.19511 29.17918,-22.19466 29.17956,-22.19412 29.18002,-22.19352 29.18027,-22.19317 29.18054,-22.19281 29.181,-22.19245 29.18194,-22.19175 29.1826,-22.19139 29.18317,-22.19117 29.18344,-22.19105 29.18441,-22.19071 29.18536,-22.19033 29.18594,-22.19009 29.18659,-22.18981 29.1873,-22.18944 29.18781,-22.18905 29.18817,-22.18871 29.18849,-22.18817 29.18874,-22.18772 29.18891,-22.18734 29.18916,-22.18696 29.18944,-22.18672 29.18969,-22.1865 29.19006,-22.18624 29.19035,-22.18605 29.19077,-22.1858 29.19106,-22.18566 29.19151,-22.18545 29.19179,-22.18534 29.19294,-22.18488 29.19332,-22.18469 29.19379,-22.18448 29.1941,-22.18434 29.19458,-22.18412 29.19504,-22.18402 29.19572,-22.18382 29.19626,-22.18372 29.19694,-22.18359 29.19739,-22.18352 29.19795,-22.18339 29.19841,-22.18332 29.1988,-22.18325 29.19969,-22.1832 29.20019,-22.18317 29.2008,-22.18312 29.20155,-22.18306 29.20212,-22.18301 29.20322,-22.183 29.20439,-22.18293 29.20489,-22.18291 29.20589,-22.18273 29.20643,-22.18268 29.20751,-22.18268 29.20816,-22.18266 29.20857,-22.1826 29.20892,-22.18255 29.20935,-22.18249 29.20985,-22.18235 29.21031,-22.18224 29.21075,-22.18216 29.21148,-22.18198 29.21173,-22.18188 29.21234,-22.18156 29.21265,-22.18133 29.21324,-22.18099 29.2138,-22.18056 29.21435,-22.18007 29.21487,-22.17951 29.21529,-22.17918 29.21594,-22.17879 29.21662,-22.17847 29.2172,-22.17831 29.21769,-22.17827 29.21824,-22.17817 29.2189,-22.1781 29.21957,-22.17816 29.22004,-22.17818 29.2204,-22.17819 29.22118,-22.17822 29.2219,-22.17825 29.22265,-22.17833 29.22352,-22.17841 29.22446,-22.1785 29.22479,-22.17854 29.2253,-22.1786 29.22562,-22.17864 29.22608,-22.17869 29.22696,-22.17883 29.22754,-22.17897 29.22792,-22.17906 29.22847,-22.17924 29.22888,-22.17934 29.22942,-22.17949 29.22987,-22.1796 29.23019,-22.17968 29.23053,-22.17973 29.23084,-22.17978 29.23122,-22.17986 29.23145,-22.17992 29.23214,-22.18007 29.2327,-22.18021 29.23303,-22.18023 29.23361,-22.18041 29.2342,-22.18062 29.23488,-22.18079 29.23571,-22.18099 29.23683,-22.18131 29.23829,-22.18182 29.23901,-22.18233 29.23948,-22.18269 29.23965,-22.18281 29.24004,-22.18305 29.24041,-22.18318 29.24062,-22.18325 29.24118,-22.18354 29.24156,-22.18367 29.24191,-22.18394 29.2423,-22.18424 29.2426,-22.18449 29.24292,-22.18475 29.24335,-22.18502 29.24373,-22.18526 29.24411,-22.18547 29.24448,-22.18568 29.24514,-22.18614 29.2454,-22.1863 29.24572,-22.18648 29.24617,-22.18671 29.24644,-22.18684 29.24687,-22.18698 29.24732,-22.18713 29.24773,-22.18728 29.24808,-22.18741 29.24849,-22.18769 29.24889,-22.18778 29.24932,-22.18792 29.24983,-22.18809 29.25064,-22.1886 29.25113,-22.18877 29.25172,-22.18906 29.25212,-22.18935 29.2526,-22.18968 29.25295,-22.19005 29.25318,-22.19029 29.25348,-22.19057 29.25371,-22.19094 29.25391,-22.19126 29.25407,-22.19148 29.25427,-22.19177 29.25465,-22.19205 29.25501,-22.19246 29.25541,-22.19277 29.25573,-22.19298 29.25645,-22.19318 29.25693,-22.19328 29.25773,-22.19339 29.25821,-22.1934 29.25902,-22.19333 29.25964,-22.19316 29.2601,-22.19296 29.26051,-22.19278 29.26096,-22.19253 29.2613,-22.19233 29.26173,-22.19206 29.26212,-22.19174 29.26244,-22.19148 29.26285,-22.19105 29.26348,-22.1906 29.26394,-22.19026 29.26429,-22.19001 29.26511,-22.1897 29.26598,-22.1894 29.26656,-22.1894 29.26707,-22.18948 29.26731,-22.18951 29.26762,-22.18959 29.26796,-22.18978 29.26806,-22.18985 29.26833,-22.18999 29.26866,-22.19023 29.26898,-22.19061 29.2692,-22.19088 29.26936,-22.19107 29.26953,-22.19136 29.26965,-22.19156 29.26995,-22.19192 29.27021,-22.1923 29.27039,-22.19248 29.27054,-22.1927 29.27071,-22.19293 29.27116,-22.19317 29.27218,-22.19317 29.27267,-22.19314 29.27325,-22.19308 29.27369,-22.19303 29.27411,-22.193 29.27438,-22.19298 29.27476,-22.19292 29.27506,-22.19288 29.27533,-22.19283 29.2756,-22.19279 29.27598,-22.19276 29.2762,-22.19274 29.27663,-22.19271 29.27716,-22.19263 29.27752,-22.19241 29.27772,-22.19227 29.27794,-22.19198 29.27817,-22.19168 29.27855,-22.19122 29.27869,-22.19101 29.27888,-22.19073 29.27914,-22.19028 29.27935,-22.19001 29.27972,-22.18967 29.28019,-22.1891 29.28052,-22.18876 29.28097,-22.18838 29.28132,-22.18809 29.28162,-22.18783 29.28213,-22.18747 29.28249,-22.18719 29.28274,-22.18698 29.28291,-22.18684 29.28326,-22.18664 29.28348,-22.18652 29.28387,-22.18631 29.28422,-22.18611 29.28453,-22.1861 29.2848,-22.18608 29.28524,-22.18603 29.28557,-22.186 29.28616,-22.18601 29.28649,-22.18611 29.28682,-22.18625 29.28697,-22.18633 29.28733,-22.18654 29.28764,-22.18672 29.28803,-22.18705 29.28833,-22.18723 29.28872,-22.18746 29.28923,-22.18773 29.28987,-22.18788 29.29057,-22.18797 29.29101,-22.18806 29.29141,-22.18805 29.29201,-22.18803 29.29254,-22.18803 29.29289,-22.18797 29.29331,-22.1879 29.29378,-22.18769 29.2944,-22.18741 29.2949,-22.18719 29.2959,-22.18672 29.29644,-22.18656 29.29682,-22.18644 29.29735,-22.18629 29.29781,-22.18618 29.29836,-22.18604 29.29892,-22.186 29.2994,-22.18596 29.29976,-22.18599 29.30035,-22.186 29.30098,-22.18603 29.30144,-22.18606 29.30186,-22.18608 29.30225,-22.18623 29.30251,-22.18632 29.303,-22.1865 29.3035,-22.18668 29.30427,-22.18699 29.30479,-22.18718 29.3054,-22.18746 29.30571,-22.18759 29.30608,-22.18775 29.30663,-22.18789 29.30717,-22.188 29.30792,-22.18815 29.30858,-22.18826 29.30916,-22.18831 29.30958,-22.18828 29.30997,-22.18826 29.31066,-22.18825 29.31123,-22.18818 29.31217,-22.18809 29.31293,-22.18795 29.31336,-22.18785 29.31377,-22.18775 29.31443,-22.18757 29.31511,-22.18739 29.31568,-22.18724 29.31612,-22.18716 29.31652,-22.18712 29.31706,-22.18703 29.31948,-22.18703 29.32006,-22.18696 29.32062,-22.187 29.32121,-22.18725 29.32167,-22.18744 29.32196,-22.18758 29.32224,-22.18772 29.32281,-22.188 29.32315,-22.18824 29.32349,-22.18847 29.32387,-22.18888 29.32412,-22.18912 29.32428,-22.18945 29.32454,-22.18994 29.32479,-22.19059 29.32506,-22.1915 29.32519,-22.19215 29.32523,-22.19248 29.32524,-22.19295 29.32537,-22.1942 29.32542,-22.19538 29.32551,-22.19592 29.32563,-22.19651 29.32579,-22.19706 29.32596,-22.19762 29.32604,-22.19786 29.32652,-22.19881 29.32694,-22.19945 29.32728,-22.19992 29.32751,-22.20025 29.32797,-22.20072 29.32854,-22.2013 29.329,-22.20181 29.32946,-22.2023 29.32986,-22.2026 29.33031,-22.20295 29.33074,-22.2032 29.33123,-22.20359 29.33199,-22.20417 29.33264,-22.2045 29.33313,-22.20465 29.33378,-22.20482 29.33452,-22.20478 29.33517,-22.20473 29.33606,-22.20456 29.33651,-22.20437 29.33695,-22.20414 29.33754,-22.20395 29.33778,-22.20385 29.33806,-22.2037 29.33862,-22.20334 29.33926,-22.20288 29.33976,-22.2025 29.34019,-22.20214 29.34053,-22.20175 29.34089,-22.20136 29.34104,-22.20113 29.34123,-22.20088 29.34145,-22.20056 29.34182,-22.20003 29.34206,-22.19957 29.34255,-22.19866 29.34303,-22.19776 29.34365,-22.1967 29.34393,-22.19619 29.34432,-22.19553 29.34477,-22.19477 29.34518,-22.1942 29.3457,-22.19348 29.34611,-22.19304 29.3466,-22.19276 29.34716,-22.19264 29.34798,-22.19265 29.34817,-22.19265 29.3486,-22.19269 29.34869,-22.19273 29.34875,-22.19276 29.34929,-22.193 29.34975,-22.19337 29.3501,-22.19375 29.35031,-22.19414 29.35041,-22.19442 29.3507,-22.19501 29.35087,-22.19536 29.35113,-22.19594 29.35139,-22.19655 29.35151,-22.19684 29.35165,-22.19711 29.3518,-22.19733 29.35201,-22.19758 29.35234,-22.19775 29.35281,-22.19802 29.35312,-22.19813 29.3533,-22.19815 29.35388,-22.19832 29.35447,-22.19854 29.35503,-22.1988 29.35523,-22.19886 29.35572,-22.1989 29.35594,-22.19899 29.35631,-22.19909 29.35665,-22.19917 29.35707,-22.19925 29.35767,-22.19946 29.35815,-22.19956 29.35851,-22.19956 29.35912,-22.19973 29.35928,-22.19975 29.35969,-22.19978 29.36015,-22.19978 29.36089,-22.1997 29.36123,-22.1997 29.36171,-22.19963 29.36238,-22.19954 29.36288,-22.19955 29.36325,-22.19937 29.3637,-22.19926 29.36419,-22.19913 29.36469,-22.19903 29.36523,-22.1989 29.36587,-22.19868 29.36626,-22.19856 29.36654,-22.19844 29.36706,-22.19828 29.36748,-22.19812 29.36787,-22.19798 29.36829,-22.19782 29.36926,-22.19745 29.37019,-22.19717 29.37053,-22.19698 29.371,-22.1968 29.37137,-22.19666 29.37207,-22.19647 29.37245,-22.19635 29.37295,-22.19614 29.37352,-22.19595 29.37388,-22.19585 29.37422,-22.19578 29.3746,-22.1956 29.37501,-22.19549 29.37533,-22.19535 29.37582,-22.19522 29.3762,-22.19509 29.37679,-22.19489 29.37703,-22.19478 29.37748,-22.19467 29.37796,-22.19453 29.37846,-22.19433 29.37884,-22.19421 29.37929,-22.19404 29.37987,-22.19393 29.38131,-22.19345 29.38174,-22.19329 29.38224,-22.19313 29.38278,-22.19296 29.38351,-22.19277 29.38395,-22.19259 29.38447,-22.19246 29.38493,-22.19231 29.38557,-22.19212 29.38596,-22.19194 29.38636,-22.19177 29.38661,-22.19157 29.38691,-22.19145 29.38724,-22.1913 29.3878,-22.19104 29.3884,-22.19076 29.38882,-22.19049 29.38933,-22.19021 29.3897,-22.18997 29.39008,-22.18968 29.39043,-22.1895 29.39063,-22.18931 29.39117,-22.18898 29.39173,-22.18867 29.3922,-22.18839 29.39267,-22.18815 29.393,-22.18788 29.39349,-22.18762 29.39411,-22.1872 29.39493,-22.18676 29.39542,-22.18645 29.39591,-22.18612 29.39632,-22.18583 29.39675,-22.18557 29.39733,-22.18521 29.39781,-22.18495 29.39819,-22.18464 29.39871,-22.18439 29.39917,-22.18421 29.39933,-22.18419 29.3999,-22.18416 29.40027,-22.18409 29.40065,-22.18401 29.40158,-22.18388 29.40223,-22.18377 29.40286,-22.18362 29.40339,-22.18362 29.40385,-22.18356 29.40451,-22.1835 29.405,-22.18341 29.4055,-22.18337 29.40583,-22.18331 29.4064,-22.18296 29.40675,-22.18271 29.40742,-22.18223 29.40805,-22.18179 29.40833,-22.18143 29.4084,-22.18117 29.40854,-22.18083 29.40857,-22.18066 29.40883,-22.17999 29.40891,-22.17942 29.40907,-22.17895 29.40925,-22.17862 29.40936,-22.17842 29.40964,-22.1782 29.40993,-22.17806 29.41024,-22.17795 29.41075,-22.17774 29.41117,-22.1775 29.41159,-22.17732 29.41215,-22.1771 29.41262,-22.17685 29.41308,-22.17663 29.41335,-22.1765 29.41388,-22.17626 29.41452,-22.17595 29.41476,-22.17582 29.4151,-22.17571 29.41551,-22.17555 29.41598,-22.17536 29.41651,-22.17517 29.41685,-22.17505 29.41749,-22.17484 29.41798,-22.17469 29.41865,-22.17448 29.41925,-22.1743 29.41968,-22.17415 29.41995,-22.17409 29.42071,-22.17389 29.42113,-22.1738 29.42166,-22.17364 29.42206,-22.17359 29.42244,-22.17349 29.42294,-22.17331 29.42345,-22.1732 29.42376,-22.17311 29.42413,-22.17304 29.42465,-22.17289 29.42542,-22.17277 29.42579,-22.17269 29.42635,-22.17256 29.42687,-22.17243 29.42722,-22.17236 29.42783,-22.17224 29.42827,-22.17216 29.4289,-22.17206 29.42912,-22.17202 29.4295,-22.17194 29.42993,-22.17193 29.4302,-22.17188 29.43061,-22.17177 29.43139,-22.17177 29.43198,-22.17175 29.4326,-22.17167 29.43335,-22.17152 29.43404,-22.17143 29.43501,-22.17126 29.43577,-22.17119 29.43663,-22.17105 29.43746,-22.17096 29.43811,-22.17087 29.43959,-22.17047 29.44054,-22.17036 29.44125,-22.17027 29.44195,-22.17016 29.44279,-22.17004 29.44309,-22.16996 29.44415,-22.16979 29.44507,-22.16965 29.4459,-22.16955 29.44622,-22.16949 29.44704,-22.16935 29.44813,-22.16918 29.44893,-22.16911 29.44967,-22.16899 29.4502,-22.1689 29.45062,-22.16875 29.45116,-22.16865 29.45164,-22.16853 29.45264,-22.16837 29.45374,-22.16803 29.45426,-22.1679 29.45485,-22.16778 29.45525,-22.16769 29.45562,-22.16757 29.45693,-22.16738 29.45819,-22.16722 29.45853,-22.16719 29.45938,-22.16709 29.4596,-22.16703 29.46061,-22.16688 29.46155,-22.16675 29.4621,-22.16662 29.463,-22.16635 29.46412,-22.16612 29.46464,-22.16609 29.46568,-22.166 29.46664,-22.16596 29.46756,-22.16585 29.46818,-22.16571 29.46859,-22.16572 29.46901,-22.16566 29.47056,-22.16566 29.47102,-22.16565 29.4714,-22.16565 29.47218,-22.16559 29.47299,-22.16566 29.47383,-22.16572 29.47432,-22.16575 29.47507,-22.16584 29.47566,-22.16592 29.47664,-22.1661 29.47735,-22.16625 29.47783,-22.16632 29.47851,-22.16648 29.47928,-22.16665 29.48028,-22.16684 29.48141,-22.16706 29.48185,-22.16712 29.48234,-22.16717 29.48323,-22.16733 29.48455,-22.1676 29.48617,-22.16807 29.48693,-22.1683 29.48788,-22.16864 29.48871,-22.16891 29.48943,-22.16908 29.48999,-22.16933 29.49052,-22.16961 29.4909,-22.16971 29.49115,-22.1698 29.49208,-22.17006 29.49276,-22.17028 29.49363,-22.17047 29.49469,-22.17077 29.49561,-22.17106 29.496,-22.17116 29.49713,-22.17144 29.49906,-22.17202 29.49972,-22.17252 29.50023,-22.17299 29.50055,-22.17316 29.50108,-22.17339 29.50173,-22.17359 29.50278,-22.17402 29.50341,-22.17432 29.50425,-22.1746 29.50503,-22.17494 29.50528,-22.17505 29.50632,-22.17545 29.50716,-22.17571 29.50768,-22.17585 29.50801,-22.17599 29.50868,-22.17615 29.50976,-22.17653 29.51022,-22.17666 29.51082,-22.17686 29.51115,-22.17691 29.51191,-22.17703 29.51234,-22.17709 29.51261,-22.17715 29.51295,-22.1772 29.51338,-22.17729 29.51459,-22.17754 29.51503,-22.17764 29.51556,-22.17768 29.51613,-22.1778 29.51706,-22.17795 29.51787,-22.17809 29.51827,-22.17804 29.5192,-22.17807 29.51942,-22.17811 29.52025,-22.17814 29.52165,-22.17826 29.52241,-22.17826 29.52291,-22.17824 29.5232,-22.17825 29.52398,-22.17825 29.52442,-22.17826 29.52556,-22.17829 29.52649,-22.17823 29.52689,-22.17813 29.52733,-22.1781 29.52796,-22.178 29.52827,-22.17788 29.5288,-22.17759 29.5293,-22.17726 29.52977,-22.17684 29.53006,-22.1767 29.53063,-22.17636 29.53098,-22.17607 29.53125,-22.17575 29.53164,-22.17541 29.53209,-22.17474 29.53231,-22.17436 29.53266,-22.17376 29.53297,-22.17331 29.53336,-22.17257 29.53363,-22.17207 29.53404,-22.17144 29.53445,-22.17077 29.53479,-22.17032 29.53495,-22.16988 29.5351,-22.16937 29.53518,-22.16877 29.53518,-22.16849 29.53521,-22.16805 29.53521,-22.16753 29.53522,-22.16711 29.53521,-22.16653 29.53518,-22.16622 29.53509,-22.16555 29.53499,-22.165 29.53486,-22.16419 29.53473,-22.16372 29.53468,-22.16328 29.53458,-22.16278 29.53456,-22.16255 29.53449,-22.16215 29.53445,-22.16168 29.5343,-22.1612 29.53421,-22.16065 29.53408,-22.16011 29.53407,-22.15991 29.53404,-22.15944 29.53408,-22.15882 29.53418,-22.15835 29.53439,-22.15762 29.53452,-22.15731 29.5347,-22.15648 29.53507,-22.15582 29.53549,-22.15516 29.53613,-22.15463 29.53665,-22.15425 29.5373,-22.15377 29.53762,-22.15358 29.53807,-22.15337 29.53885,-22.15286 29.53925,-22.15266 29.54031,-22.15244 29.54101,-22.15227 29.54165,-22.15224 29.54204,-22.15212 29.54259,-22.15206 29.54405,-22.15202 29.54505,-22.15194 29.54578,-22.1519 29.54717,-22.1518 29.54794,-22.15174 29.54863,-22.15172 29.54913,-22.15167 29.5502,-22.15159 29.55318,-22.15124 29.55373,-22.15121 29.55558,-22.15107 29.55721,-22.15083 29.5584,-22.15064 29.55859,-22.15065 29.55923,-22.15051 29.55975,-22.15044 29.56048,-22.15033 29.56102,-22.15024 29.56149,-22.15007 29.5621,-22.14993 29.56254,-22.14982 29.56323,-22.14958 29.56376,-22.14937 29.56455,-22.14898 29.56558,-22.14844 29.56586,-22.14825 29.56682,-22.14762 29.56759,-22.14716 29.56803,-22.1468 29.56886,-22.14622 29.56948,-22.14582 29.57017,-22.14536 29.57072,-22.14494 29.57097,-22.14471 29.57162,-22.14426 29.57234,-22.14376 29.57335,-22.14307 29.57381,-22.1429 29.57422,-22.14272 29.57484,-22.14231 29.57556,-22.14196 29.57642,-22.14155 29.57714,-22.14134 29.5776,-22.14118 29.57821,-22.14101 29.57876,-22.14086 29.58022,-22.1409 29.58097,-22.14101 29.58139,-22.14106 29.58181,-22.1411 29.58257,-22.1412 29.58301,-22.14131 29.58388,-22.14152 29.58487,-22.14182 29.58535,-22.142 29.58592,-22.14222 29.58629,-22.14237 29.58666,-22.14253 29.58785,-22.14314 29.58831,-22.14339 29.58913,-22.14392 29.58975,-22.14429 29.59091,-22.14505 29.59144,-22.14549 29.59168,-22.14556 29.59214,-22.146 29.59259,-22.14629 29.59319,-22.14686 29.59389,-22.14748 29.59417,-22.1479 29.59464,-22.1483 29.59497,-22.14872 29.59526,-22.14899 29.59594,-22.14965 29.59636,-22.15002 29.59677,-22.15049 29.59697,-22.15065 29.59751,-22.15119 29.5981,-22.15168 29.59836,-22.15191 29.59925,-22.15274 29.59976,-22.15324 29.60017,-22.15348 29.60049,-22.15368 29.60105,-22.15389 29.60189,-22.15441 29.60256,-22.15471 29.60349,-22.15502 29.60389,-22.15517 29.60424,-22.15531 29.60485,-22.15548 29.60543,-22.15569 29.60623,-22.15582 29.60725,-22.15588 29.60789,-22.1559 29.60882,-22.15596 29.60943,-22.15586 29.61024,-22.15569 29.61093,-22.15551 29.61135,-22.15537 29.61187,-22.15523 29.61259,-22.15506 29.61338,-22.15477 29.61402,-22.1544 29.61433,-22.15413 29.61488,-22.15371 29.61535,-22.15327 29.61585,-22.15283 29.61611,-22.15253 29.61654,-22.15209 29.61676,-22.15162 29.61696,-22.1513 29.61717,-22.15085 29.61741,-22.15051 29.61756,-22.15011 29.61766,-22.14982 29.61819,-22.1486 29.61845,-22.14812 29.61875,-22.14754 29.61897,-22.14713 29.61907,-22.1468 29.61938,-22.1461 29.6198,-22.1453 29.62005,-22.14465 29.62033,-22.14423 29.62055,-22.14382 29.62068,-22.1436 29.62102,-22.14311 29.62135,-22.14267 29.62178,-22.14207 29.62211,-22.14147 29.62241,-22.1412 29.62277,-22.14087 29.62307,-22.14062 29.62332,-22.14036 29.62378,-22.13995 29.62436,-22.13932 29.62478,-22.13873 29.62494,-22.13854 29.62538,-22.13803 29.62603,-22.13754 29.62632,-22.13731 29.62699,-22.13671 29.62741,-22.13621 29.62785,-22.13588 29.6282,-22.13562 29.62875,-22.13528 29.62987,-22.13475 29.63077,-22.1343 29.63166,-22.13394 29.63275,-22.13353 29.63359,-22.13338 29.63473,-22.13327 29.6352,-22.13316 29.63574,-22.13307 29.63645,-22.13291 29.63712,-22.13286 29.63824,-22.13271 29.63874,-22.13268 29.63936,-22.13257 29.63992,-22.13254 29.64073,-22.13227 29.64145,-22.13198 29.64201,-22.1317 29.64262,-22.13138 29.64298,-22.13115 29.64346,-22.13075 29.64401,-22.13048 29.64498,-22.12987 29.6458,-22.12937 29.64605,-22.12909 29.64659,-22.12874 29.64724,-22.12834 29.64819,-22.12791 29.64929,-22.1274 29.64975,-22.12713 29.65014,-22.12696 29.65053,-22.12668 29.65179,-22.12606 29.65269,-22.12571 29.65305,-22.12547 29.65362,-22.12533 29.65443,-22.12503 29.65523,-22.12508 29.65645,-22.12511 29.65671,-22.12511 29.65774,-22.12526 29.65878,-22.12539 29.65977,-22.12573 29.66031,-22.12595 29.66073,-22.12616 29.66191,-22.12696 29.66281,-22.12759 29.66344,-22.12818 29.66369,-22.12839 29.664,-22.12889 29.6642,-22.12925 29.6645,-22.12958 29.6649,-22.13009 29.66559,-22.13094 29.66594,-22.13125 29.66628,-22.13167 29.66646,-22.13199 29.66668,-22.13233 29.66704,-22.13293 29.66778,-22.13392 29.66818,-22.13445 29.66854,-22.13493 29.66879,-22.13537 29.66907,-22.13579 29.6694,-22.13619 29.66959,-22.13655 29.66987,-22.13696 29.67014,-22.13733 29.67056,-22.13769 29.67099,-22.13801 29.67104,-22.13804 29.67134,-22.13829 29.67152,-22.13837 29.67171,-22.13848 29.67204,-22.13866 29.67264,-22.13881 29.6732,-22.13888 29.6737,-22.13894 29.6741,-22.13894 29.67481,-22.13896 29.67528,-22.13901 29.67583,-22.13905 29.67704,-22.13897 29.67773,-22.13885 29.67862,-22.13873 29.67926,-22.13853 29.6809,-22.13827 29.68163,-22.13814 29.68254,-22.13799 29.68306,-22.13788 29.6844,-22.13767 29.68602,-22.13746 29.68692,-22.13724 29.68833,-22.13702 29.68883,-22.13695 29.69008,-22.13682 29.69044,-22.13674 29.69094,-22.13672 29.69137,-22.13664 29.69213,-22.13642 29.69218,-22.13641 29.69279,-22.13651 29.69391,-22.13664 29.6952,-22.13681 29.69607,-22.13692 29.69661,-22.13694 29.6969,-22.13691 29.69868,-22.13698 29.70023,-22.13711 29.70133,-22.13727 29.70199,-22.13751 29.70259,-22.13777 29.70353,-22.13832 29.70402,-22.13865 29.70451,-22.13897 29.70504,-22.13931 29.70576,-22.13965 29.70663,-22.14006 29.70717,-22.14031 29.70758,-22.14048 29.70801,-22.14062 29.7085,-22.1408 29.70903,-22.14097 29.70936,-22.14108 29.7106,-22.14146 29.71134,-22.1417 29.7118,-22.14188 29.71249,-22.14219 29.71333,-22.14249 29.71375,-22.14266 29.71431,-22.14292 29.71489,-22.14306 29.71541,-22.14319 29.71599,-22.14334 29.71656,-22.14343 29.71728,-22.14343 29.71841,-22.14336 29.71896,-22.14334 29.71937,-22.14333 29.7196,-22.14329 29.71986,-22.1432 29.7199,-22.14319 29.72047,-22.14307 29.72075,-22.14299 29.72179,-22.14279 29.72262,-22.14261 29.7232,-22.14249 29.72371,-22.1424 29.7244,-22.14222 29.72508,-22.14214 29.72611,-22.14205 29.72667,-22.14195 29.72777,-22.14178 29.72819,-22.14178 29.72919,-22.14167 29.73044,-22.14155 29.7308,-22.14147 29.73142,-22.14142 29.73192,-22.14134 29.7331,-22.14131 29.7335,-22.14132 29.73433,-22.14136 29.73471,-22.14143 29.73523,-22.14143 29.73614,-22.14153 29.73743,-22.14167 29.73844,-22.14166 29.73896,-22.14172 29.7395,-22.14176 29.74021,-22.14173 29.74146,-22.14167 29.74238,-22.14165 29.74341,-22.14161 29.74402,-22.14153 29.74454,-22.14147 29.74559,-22.14131 29.74642,-22.14128 29.7469,-22.14121 29.74747,-22.14114 29.74805,-22.1411 29.7486,-22.14104 29.74967,-22.14091 29.75032,-22.14087 29.75064,-22.14085 29.75167,-22.14086 29.75265,-22.14087 29.75375,-22.14082 29.75438,-22.14072 29.75575,-22.14068 29.75686,-22.14067 29.75742,-22.14065 29.7582,-22.14063 29.75911,-22.14056 29.76054,-22.1405 29.76172,-22.14051 29.76312,-22.14051 29.76445,-22.1405 29.76599,-22.14047 29.76636,-22.14054 29.76699,-22.14056 29.76806,-22.14052 29.76924,-22.14048 29.76995,-22.14061 29.77037,-22.14071 29.77098,-22.14082 29.77202,-22.14103 29.77253,-22.14115 29.77359,-22.14142 29.77396,-22.14158 29.77444,-22.14182 29.77533,-22.14231 29.77569,-22.14253 29.77654,-22.14302 29.77683,-22.14324 29.77732,-22.14357 29.77772,-22.14389 29.77861,-22.14447 29.77925,-22.14484 29.77964,-22.14508 29.78021,-22.14545 29.78052,-22.14566 29.78157,-22.14634 29.78199,-22.14662 29.7824,-22.14683 29.7828,-22.14716 29.78309,-22.14728 29.78353,-22.14765 29.78384,-22.14792 29.78436,-22.1483 29.78484,-22.14875 29.78519,-22.14901 29.78567,-22.14944 29.78627,-22.14991 29.78669,-22.15025 29.78698,-22.15054 29.78777,-22.1511 29.78816,-22.15144 29.78876,-22.15179 29.78887,-22.15189 29.7893,-22.1522 29.78958,-22.1524 29.79012,-22.15274 29.79074,-22.15314 29.79128,-22.15343 29.79196,-22.15382 29.79255,-22.15413 29.79279,-22.15422 29.79353,-22.15472 29.79438,-22.15517 29.79459,-22.15535 29.79538,-22.15576 29.79562,-22.15597 29.79613,-22.15628 29.79701,-22.15686 29.79756,-22.15721 29.79803,-22.15754 29.79844,-22.15788 29.79886,-22.15845 29.7998,-22.1598 29.79999,-22.16011 29.80023,-22.16041 29.80057,-22.1608 29.80095,-22.16141 29.80114,-22.16153 29.80137,-22.16186 29.80217,-22.16276 29.80248,-22.1632 29.80293,-22.1637 29.80352,-22.16413 29.80377,-22.16436 29.80408,-22.16466 29.80484,-22.1652 29.80523,-22.1655 29.80591,-22.16577 29.80658,-22.16605 29.80722,-22.16629 29.80835,-22.16685 29.80884,-22.16709 29.80938,-22.16737 29.80998,-22.16763 29.81047,-22.16792 29.81153,-22.16841 29.81215,-22.16868 29.81266,-22.16896 29.81348,-22.16922 29.81398,-22.16947 29.81536,-22.16984 29.81607,-22.1701 29.81694,-22.17037 29.81855,-22.17098 29.8192,-22.1712 29.81989,-22.17144 29.82023,-22.17157 29.82092,-22.17181 29.82213,-22.1722 29.8239,-22.17286 29.82446,-22.17306 29.82497,-22.17329 29.82605,-22.17357 29.82644,-22.17369 29.82716,-22.17394 29.82792,-22.17413 29.82848,-22.17433 29.82984,-22.1747 29.83077,-22.1749 29.83107,-22.17496 29.83174,-22.17503 29.83315,-22.17505 29.83393,-22.17512 29.83512,-22.1751 29.8354,-22.17503 29.83741,-22.17498 29.83832,-22.17491 29.83846,-22.17487 29.83918,-22.1748 29.83934,-22.17476 29.84013,-22.17472 29.84306,-22.17465 29.84471,-22.17457 29.84526,-22.17456 29.84585,-22.17453 29.84791,-22.1745 29.84941,-22.17443 29.84969,-22.17449 29.85083,-22.17441 29.85173,-22.17442 29.85312,-22.1744 29.8535,-22.17443 29.85464,-22.17453 29.85495,-22.17456 29.85645,-22.1747 29.85694,-22.17476 29.85776,-22.17477 29.85863,-22.17484 29.85937,-22.17508 29.85993,-22.1752 29.8604,-22.17542 29.8608,-22.17568 29.86115,-22.17589 29.86159,-22.17619 29.8619,-22.17641 29.86214,-22.1766 29.86265,-22.17706 29.86344,-22.17776 29.86378,-22.17804 29.86417,-22.17845 29.86474,-22.17902 29.86502,-22.17938 29.86587,-22.1802 29.86637,-22.18077 29.86655,-22.18093 29.86691,-22.18132 29.86738,-22.1818 29.86754,-22.18196 29.86773,-22.18214 29.8685,-22.1829 29.86885,-22.18333 29.86932,-22.18379 29.86987,-22.18426 29.87032,-22.18467 29.87075,-22.18508 29.87125,-22.18558 29.87174,-22.18597 29.8721,-22.18635 29.87268,-22.18688 29.87307,-22.1872 29.87363,-22.18764 29.87414,-22.18814 29.87465,-22.18859 29.87506,-22.1889 29.8754,-22.18916 29.87596,-22.18962 29.87692,-22.19039 29.87768,-22.19104 29.87822,-22.19143 29.87843,-22.19157 29.8787,-22.19181 29.87908,-22.19209 29.87985,-22.19243 29.88041,-22.19273 29.88078,-22.19297 29.88151,-22.19336 29.88171,-22.19345 29.8822,-22.19362 29.88247,-22.19372 29.88282,-22.19394 29.88372,-22.19429 29.88427,-22.19446 29.88453,-22.19456 29.88529,-22.19467 29.88596,-22.19484 29.88637,-22.19492 29.88665,-22.19499 29.88781,-22.19508 29.88853,-22.19517 29.88865,-22.19517 29.88907,-22.19523 29.88954,-22.19525 29.8898,-22.19524 29.89006,-22.19519 29.89034,-22.19517 29.89075,-22.19505 29.89114,-22.19494 29.89196,-22.19478 29.89244,-22.19469 29.89294,-22.19455 29.89305,-22.19453 29.89367,-22.19444 29.89641,-22.1938 29.89661,-22.19373 29.89743,-22.1935 29.89777,-22.19344 29.8987,-22.19317 29.89949,-22.19295 29.90032,-22.19265 29.9017,-22.19233 29.9025,-22.19209 29.90314,-22.19191 29.90332,-22.19181 29.90399,-22.19167 29.90481,-22.19151 29.90538,-22.1914 29.90688,-22.19106 29.90724,-22.19094 29.90786,-22.19086 29.90862,-22.19074 29.90916,-22.19063 29.91011,-22.19045 29.91216,-22.19014 29.91326,-22.18999 29.91412,-22.18989 29.91462,-22.18984 29.91521,-22.18975 29.916,-22.1896 29.91742,-22.18946 29.91823,-22.18936 29.91895,-22.18927 29.91981,-22.18919 29.92079,-22.18916 29.92167,-22.18919 29.92194,-22.1892 29.9224,-22.18915 29.92312,-22.18918 29.92395,-22.18936 29.92469,-22.18961 29.92572,-22.18993 29.92616,-22.19013 29.92664,-22.19031 29.9273,-22.19086 29.92758,-22.191 29.92835,-22.19154 29.92917,-22.19206 29.92986,-22.19258 29.93062,-22.19315 29.93229,-22.1943 29.93282,-22.19463 29.93333,-22.195 29.9341,-22.19554 29.93516,-22.19624 29.93687,-22.19754 29.93709,-22.19783 29.93788,-22.19862 29.93822,-22.19902 29.9387,-22.19934 29.93929,-22.19988 29.93975,-22.20023 29.94046,-22.20063 29.94137,-22.20115 29.94198,-22.20154 29.94249,-22.2019 29.94312,-22.20227 29.94387,-22.20279 29.94458,-22.20327 29.94613,-22.20419 29.94703,-22.2048 29.94777,-22.20522 29.94825,-22.20551 29.94869,-22.20583 29.94935,-22.20629 29.95039,-22.20699 29.9514,-22.2077 29.95198,-22.20813 29.95222,-22.20832 29.95263,-22.20862 29.95344,-22.2092 29.95404,-22.20955 29.95458,-22.2098 29.95508,-22.20997 29.9563,-22.21052 29.95691,-22.21084 29.95738,-22.21107 29.95791,-22.21137 29.95877,-22.21181 29.95916,-22.21203 29.95986,-22.21251 29.96055,-22.21296 29.96132,-22.21372 29.96171,-22.21413 29.9621,-22.21455 29.9627,-22.21525 29.9633,-22.21585 29.96456,-22.21735 29.9649,-22.21779 29.96557,-22.21847 29.96613,-22.21934 29.9666,-22.21986 29.9668,-22.22001 29.96777,-22.22106 29.96813,-22.22159 29.96864,-22.22227 29.969,-22.22296 29.96954,-22.2237 29.96989,-22.22417 29.97016,-22.22428 29.97064,-22.22437 29.97122,-22.22444 29.97207,-22.22452 29.97271,-22.22448 29.97378,-22.22442 29.97431,-22.22429 29.97479,-22.22423 29.97607,-22.22406 29.97677,-22.22396 29.978,-22.22372 29.97928,-22.22356 29.9812,-22.22355 29.98189,-22.22353 29.98245,-22.22363 29.98319,-22.22378 29.98379,-22.22398 29.98481,-22.22416 29.98574,-22.22435 29.98597,-22.22436 29.98686,-22.2245 29.98761,-22.22459 29.98861,-22.22486 29.98922,-22.22504 29.99064,-22.22552 29.99124,-22.22575 29.99229,-22.22612 29.99303,-22.22642 29.99368,-22.22658 29.99581,-22.22733 29.99648,-22.22759 29.99694,-22.22781 29.99774,-22.22807 29.9982,-22.22818 29.99894,-22.22849 29.9995,-22.22872 29.9998,-22.2288 29.99977,-22.22792 29.99996,-22.22789 30.00136,-22.22778 30.00208,-22.22768 30.00288,-22.22764 30.00459,-22.22758 30.00517,-22.22757 30.00598,-22.22754 30.00644,-22.22752 30.00694,-22.22751 30.00749,-22.22752 30.00952,-22.22746 30.01009,-22.22749 30.01062,-22.22749 30.01125,-22.22744 30.01215,-22.22749 30.01287,-22.22763 30.01468,-22.22791 30.01504,-22.22794 30.01614,-22.22823 30.01687,-22.22855 30.0176,-22.22894 30.01788,-22.22911 30.01828,-22.22941 30.01852,-22.22965 30.01893,-22.23046 30.01945,-22.23195 30.01961,-22.2325 30.01965,-22.23277 30.01985,-22.23344 30.01988,-22.23445 30.01987,-22.2355 30.01976,-22.2361 30.01954,-22.23704 30.01936,-22.23927 30.01928,-22.24004 30.0192,-22.24142 30.01928,-22.24279 30.01934,-22.24331 30.01945,-22.24388 30.01964,-22.24463 30.01994,-22.24555 30.0203,-22.24643 30.02054,-22.24717 30.02081,-22.24779 30.02148,-22.249 30.02187,-22.24976 30.02216,-22.25017 30.02258,-22.2506 30.0232,-22.25133 30.02393,-22.25208 30.02439,-22.25255 30.02472,-22.25289 30.02496,-22.25306 30.02563,-22.25363 30.02623,-22.25402 30.02684,-22.25442 30.02744,-22.25476 30.02785,-22.25504 30.02835,-22.25526 30.02919,-22.25555 30.03034,-22.25581 30.03148,-22.25599 30.03199,-22.25597 30.03272,-22.25601 30.03323,-22.25601 30.03392,-22.25594 30.0349,-22.25592 30.03538,-22.25594 30.03675,-22.25579 30.03793,-22.25572 30.03848,-22.25566 30.03906,-22.25562 30.03969,-22.25563 30.04105,-22.25546 30.04195,-22.25533 30.04259,-22.25527 30.04306,-22.25527 30.04368,-22.25523 30.04421,-22.25513 30.04507,-22.25507 30.04587,-22.25508 30.04652,-22.25506 30.04698,-22.25505 30.04758,-22.255 30.04811,-22.25492 30.04942,-22.25492 30.05046,-22.25494 30.05184,-22.25505 30.05232,-22.25513 30.05392,-22.25545 30.05471,-22.25556 30.05516,-22.25571 30.05589,-22.25599 30.05704,-22.25657 30.05806,-22.25713 30.05861,-22.25749 30.05902,-22.25778 30.05997,-22.25837 30.06108,-22.25915 30.06209,-22.25996 30.06282,-22.26062 30.0633,-22.26117 30.06403,-22.26186 30.06448,-22.26224 30.0649,-22.26281 30.06577,-22.26399 30.06619,-22.2645 30.06651,-22.26489 30.06689,-22.26533 30.06738,-22.26591 30.06818,-22.26679 30.06928,-22.26801 30.07,-22.26871 30.07077,-22.26951 30.07133,-22.27012 30.07281,-22.27152 30.07346,-22.27223 30.07398,-22.27273 30.0742,-22.27301 30.07464,-22.27337 30.0752,-22.27388 30.07576,-22.27433 30.07629,-22.27467 30.07684,-22.27497 30.07723,-22.2752 30.07767,-22.27549 30.0785,-22.27595 30.07959,-22.27641 30.08113,-22.27715 30.0818,-22.27751 30.0826,-22.27789 30.0832,-22.2781 30.08409,-22.27839 30.08465,-22.27862 30.0855,-22.27907 30.08624,-22.27936 30.08697,-22.27964 30.08754,-22.27981 30.08807,-22.27999 30.0886,-22.28027 30.08959,-22.28065 30.09046,-22.28094 30.09108,-22.28117 30.09204,-22.28139 30.09254,-22.28167 30.0932,-22.28196 30.09401,-22.28237 30.0947,-22.28274 30.0952,-22.28298 30.09615,-22.28356 30.09738,-22.2842 30.09793,-22.28454 30.09835,-22.28483 30.09943,-22.28547 30.09998,-22.28584 30.10057,-22.28625 30.10129,-22.28669 30.10165,-22.28701 30.10206,-22.28735 30.10267,-22.28789 30.10317,-22.28832 30.10366,-22.28885 30.10411,-22.28933 30.1048,-22.29008 30.10524,-22.29053 30.10645,-22.29191 30.10658,-22.29212 30.10682,-22.29244 30.10712,-22.29281 30.10773,-22.29344 30.10836,-22.29424 30.10984,-22.296 30.11039,-22.29659 30.11094,-22.29716 30.11135,-22.2977 30.11175,-22.29811 30.11203,-22.2984 30.11324,-22.29975 30.11389,-22.30049 30.11419,-22.30077 30.11453,-22.30112 30.1149,-22.30152 30.11538,-22.302 30.11677,-22.30353 30.11708,-22.30383 30.11779,-22.30459 30.11849,-22.30528 30.11908,-22.30599 30.11935,-22.30629 30.11971,-22.30665 30.12033,-22.30728 30.12057,-22.30752 30.12112,-22.3082 30.12157,-22.30867 30.12196,-22.30899 30.12223,-22.30921 30.12292,-22.30965 30.12336,-22.30993 30.12383,-22.31019 30.12481,-22.31056 30.12569,-22.31088 30.12617,-22.31105 30.12672,-22.31117 30.12772,-22.31131 30.12854,-22.3114 30.12899,-22.31146 30.1291,-22.31148 30.12965,-22.31145 30.13007,-22.31136 30.13092,-22.31129 30.13136,-22.31126 30.13186,-22.31118 30.13244,-22.31111 30.13301,-22.31103 30.13337,-22.31087 30.13406,-22.31056 30.13464,-22.31039 30.13519,-22.31015 30.13625,-22.30964 30.13667,-22.30947 30.13705,-22.30924 30.1379,-22.30879 30.13827,-22.30861 30.13912,-22.30812 30.13974,-22.30764 30.14034,-22.30731 30.14162,-22.30659 30.14228,-22.30621 30.14293,-22.30585 30.14319,-22.30565 30.14366,-22.30542 30.14445,-22.30493 30.14531,-22.30445 30.1467,-22.30367 30.14753,-22.30336 30.14808,-22.303 30.14904,-22.30257 30.14966,-22.30224 30.15023,-22.30192 30.15206,-22.30126 30.15246,-22.30113 30.15327,-22.30088 30.15373,-22.30074 30.15446,-22.30051 30.15524,-22.30025 30.15585,-22.30013 30.15664,-22.30001 30.15735,-22.29982 30.15793,-22.2998 30.15892,-22.29963 30.15994,-22.2995 30.16092,-22.2994 30.16139,-22.29941 30.16189,-22.29932 30.1625,-22.29927 30.16369,-22.29914 30.16469,-22.29908 30.16539,-22.29909 30.16759,-22.29892 30.1687,-22.2989 30.169,-22.2989 30.16961,-22.29881 30.17041,-22.2987 30.17155,-22.29859 30.17243,-22.29849 30.17296,-22.29847 30.17342,-22.29843 30.17404,-22.29833 30.17524,-22.29817 30.17625,-22.29809 30.17678,-22.29805 30.17738,-22.29794 30.17843,-22.29781 30.17941,-22.29767 30.18018,-22.29759 30.18065,-22.29757 30.18144,-22.29744 30.18267,-22.29724 30.18337,-22.29719 30.18398,-22.29706 30.18452,-22.29699 30.18504,-22.29686 30.18575,-22.29674 30.18657,-22.29666 30.18721,-22.29654 30.18782,-22.29642 30.18811,-22.2964 30.18886,-22.29639 30.19061,-22.29625 30.19145,-22.29622 30.19204,-22.29615 30.19322,-22.29606 30.19352,-22.29608 30.19454,-22.29608 30.19556,-22.29612 30.1963,-22.29621 30.19715,-22.29628 30.19851,-22.29642 30.19886,-22.29645 30.19989,-22.29654 30.20039,-22.29656 30.20175,-22.29655 30.20255,-22.29655 30.20319,-22.29653 30.20388,-22.29643 30.20441,-22.29642 30.20489,-22.29639 30.20605,-22.29623 30.20712,-22.29612 30.20754,-22.29613 30.20801,-22.29609 30.20907,-22.29608 30.21026,-22.29598 30.2109,-22.2959 30.21137,-22.29584 30.21212,-22.2958 30.21273,-22.29579 30.21361,-22.2957 30.2143,-22.29561 30.21471,-22.29553 30.21527,-22.29548 30.21595,-22.29535 30.21647,-22.29529 30.21727,-22.29521 30.21805,-22.29512 30.2188,-22.29502 30.21973,-22.29494 30.22002,-22.29493 30.22173,-22.29492 30.22495,-22.29492 30.22682,-22.29496 30.22754,-22.29498 30.22841,-22.29509 30.2296,-22.29532 30.23028,-22.29556 30.23114,-22.29586 30.23216,-22.2963 30.23311,-22.29683 30.23378,-22.29725 30.234,-22.29744 30.23446,-22.29775 30.23503,-22.29833 30.23563,-22.29899 30.23632,-22.29979 30.23655,-22.30014 30.23712,-22.30104 30.23761,-22.30234 30.23781,-22.30314 30.23796,-22.30357 30.23811,-22.30413 30.23824,-22.30451 30.23887,-22.30606 30.2392,-22.30676 30.23949,-22.30717 30.23974,-22.30757 30.24059,-22.3084 30.2414,-22.30909 30.24188,-22.30943 30.24225,-22.30957 30.24274,-22.30994 30.2433,-22.31023 30.24456,-22.31087 30.24551,-22.31135 30.2474,-22.31244 30.24799,-22.31265 30.24883,-22.31295 30.24929,-22.31317 30.24978,-22.31337 30.24974,-22.31408 30.25008,-22.3143 30.25079,-22.31478 30.25266,-22.31599 30.25348,-22.31661 30.25423,-22.31722 30.25464,-22.31759 30.2552,-22.31797 30.25568,-22.31851 30.25695,-22.31992 30.25728,-22.32032 30.25762,-22.32071 30.25795,-22.3212 30.25846,-22.32197 30.25942,-22.32373 30.25964,-22.32411 30.25987,-22.32456 30.26034,-22.32532 30.26153,-22.32753 30.26181,-22.32809 30.26219,-22.32883 30.26265,-22.32972 30.2633,-22.33117 30.2635,-22.33157 30.2637,-22.33191 30.26416,-22.33287 30.26466,-22.334 30.26519,-22.33511 30.26554,-22.33591 30.26595,-22.33669 30.26625,-22.33737 30.26662,-22.33784 30.26691,-22.33834 30.26726,-22.33871 30.26769,-22.33924 30.26821,-22.33997 30.26856,-22.34064 30.26899,-22.34116 30.27012,-22.34257 30.27046,-22.34303 30.2709,-22.34359 30.27112,-22.34393 30.27162,-22.34446 30.27211,-22.34499 30.27344,-22.34655 30.2737,-22.34688 30.27425,-22.34733 30.27483,-22.34789 30.27529,-22.34834 30.27579,-22.34883 30.27779,-22.35051 30.27864,-22.35116 30.27919,-22.35165 30.2796,-22.352 30.27998,-22.35226 30.28058,-22.35263 30.28288,-22.35401 30.28323,-22.35414 30.28489,-22.3547 30.28627,-22.35521 30.28707,-22.35546 30.28813,-22.35572 30.28926,-22.35604 30.29024,-22.35625 30.291,-22.35634 30.29185,-22.35632 30.29309,-22.35629 30.29398,-22.35626 30.29436,-22.35625 30.29527,-22.35614 30.2959,-22.35594 30.29669,-22.35578 30.29757,-22.35559 30.29818,-22.35548 30.29876,-22.35529 30.3,-22.35493 30.3008,-22.35474 30.30138,-22.35454 30.30196,-22.35441 30.30217,-22.35431 30.30266,-22.35407 30.30344,-22.3537 30.30444,-22.35327 30.30509,-22.35291 30.30569,-22.35263 30.30603,-22.35251 30.30655,-22.35211 30.30788,-22.35132 30.3083,-22.35102 30.30876,-22.3507 30.30916,-22.35042 30.31016,-22.34976 30.31137,-22.34921 30.31197,-22.349 30.31326,-22.34846 30.31349,-22.34838 30.31448,-22.34811 30.31527,-22.34793 30.31562,-22.34787 30.31635,-22.34769 30.31678,-22.34768 30.31847,-22.34774 30.31951,-22.34776 30.32033,-22.34787 30.32102,-22.34803 30.3222,-22.34823 30.32304,-22.34841 30.32399,-22.34854 30.32477,-22.3487 30.32614,-22.34902 30.3269,-22.3493 30.32747,-22.34947 30.32791,-22.34954 30.32886,-22.34967 30.33016,-22.34994 30.33098,-22.3501 30.33171,-22.3502 30.33217,-22.35024 30.33292,-22.35031 30.33422,-22.35037 30.33493,-22.35048 30.33551,-22.35056 30.3361,-22.35062 30.33655,-22.35052 30.3372,-22.35056 30.33839,-22.35061 30.33945,-22.35068 30.34149,-22.35057 30.34217,-22.35058 30.34316,-22.35053 30.34356,-22.35043 30.3441,-22.35038 30.34476,-22.3503 30.34541,-22.35015 30.34642,-22.35 30.34718,-22.3499 30.34771,-22.34975 30.34823,-22.34971 30.34869,-22.34951 30.34932,-22.34936 30.35033,-22.34923 30.35137,-22.34903 30.35185,-22.34888 30.35243,-22.34878 30.35325,-22.34863 30.35423,-22.34857 30.35505,-22.34854 30.3555,-22.3485 30.35589,-22.34843 30.3564,-22.34831 30.35717,-22.34824 30.35824,-22.3482 30.35889,-22.34821 30.35948,-22.34821 30.35997,-22.34822 30.36108,-22.34818 30.36221,-22.34824 30.36283,-22.34833 30.36356,-22.34844 30.36426,-22.34853 30.36552,-22.34878 30.36609,-22.3489 30.36683,-22.349 30.36724,-22.34914 30.36783,-22.34928 30.36858,-22.3494 30.36923,-22.3496 30.36993,-22.34975 30.37068,-22.34985 30.37108,-22.35001 30.37145,-22.34998 30.37202,-22.35003 30.37258,-22.3502 30.37337,-22.35036 30.37469,-22.35076 30.37518,-22.35086 30.37618,-22.35095 30.37764,-22.35119 30.37836,-22.35129 30.37901,-22.3513 30.37931,-22.35127 30.37997,-22.35113 30.38062,-22.35103 30.38161,-22.3509 30.38225,-22.35088 30.38295,-22.35067 30.38356,-22.35038 30.38423,-22.35005 30.38525,-22.34964 30.38557,-22.34951 30.38628,-22.34926 30.38686,-22.34907 30.38731,-22.34885 30.38838,-22.34835 30.38914,-22.34805 30.38992,-22.34766 30.39053,-22.34742 30.39098,-22.34724 30.39156,-22.34698 30.39224,-22.34679 30.39299,-22.34648 30.39376,-22.34626 30.39429,-22.34604 30.39522,-22.34577 30.39565,-22.34564 30.39654,-22.34539 30.39747,-22.34523 30.39804,-22.34505 30.39845,-22.34492 30.39917,-22.34467 30.40027,-22.3444 30.40065,-22.34433 30.40071,-22.34432 30.40134,-22.34428 30.40187,-22.34413 30.40244,-22.34394 30.40382,-22.34362 30.40473,-22.34346 30.40528,-22.34323 30.40566,-22.34315 30.40637,-22.34315 30.40712,-22.34299 30.40775,-22.34284 30.40847,-22.34274 30.40915,-22.34256 30.41009,-22.34235 30.41024,-22.34234 30.41074,-22.34228 30.41137,-22.34216 30.41237,-22.34197 30.41301,-22.34183 30.4136,-22.34173 30.4142,-22.34164 30.41462,-22.34157 30.41547,-22.34138 30.41584,-22.3413 30.41633,-22.3412 30.41703,-22.341 30.4176,-22.34098 30.41808,-22.34083 30.41866,-22.34068 30.419,-22.34067 30.42042,-22.34034 30.42054,-22.34037 30.4211,-22.34023 30.42185,-22.34009 30.42255,-22.33989 30.42381,-22.33968 30.425,-22.33948 30.42552,-22.3394 30.42599,-22.33927 30.42643,-22.33919 30.427,-22.33906 30.42799,-22.33889 30.42882,-22.33867 30.42932,-22.33855 30.42991,-22.33837 30.43062,-22.33815 30.43131,-22.33796 30.43236,-22.33771 30.43441,-22.33725 30.43482,-22.33719 30.43552,-22.33697 30.43595,-22.33686 30.43656,-22.33677 30.43741,-22.33649 30.43916,-22.33595 30.4395,-22.33581 30.44002,-22.33569 30.44069,-22.33556 30.44158,-22.33525 30.44204,-22.33506 30.44273,-22.33479 30.44355,-22.33453 30.44438,-22.33432 30.44491,-22.3341 30.44545,-22.33401 30.44658,-22.33352 30.44819,-22.333 30.44873,-22.33281 30.44919,-22.33258 30.44993,-22.3323 30.45112,-22.33184 30.45174,-22.33163 30.45221,-22.33148 30.45267,-22.33113 30.45418,-22.33037 30.45517,-22.32997 30.45565,-22.3297 30.45633,-22.3293 30.45716,-22.32888 30.45804,-22.32848 30.45927,-22.32799 30.45969,-22.32775 30.4601,-22.32741 30.4608,-22.32702 30.46161,-22.32654 30.46202,-22.32626 30.46303,-22.32575 30.46423,-22.32502 30.4649,-22.32466 30.46542,-22.32448 30.4659,-22.32423 30.46641,-22.32391 30.46688,-22.32352 30.46735,-22.32332 30.46836,-22.32276 30.46901,-22.32251 30.46952,-22.32225 30.46997,-22.32205 30.47063,-22.32167 30.47119,-22.32134 30.47184,-22.32103 30.47259,-22.32072 30.47303,-22.32055 30.47337,-22.32031 30.47418,-22.31984 30.47574,-22.31912 30.47636,-22.31903 30.4767,-22.31887 30.47728,-22.31867 30.47781,-22.31834 30.47934,-22.31785 30.47993,-22.31778 30.48048,-22.31765 30.48093,-22.31744 30.48152,-22.31723 30.48305,-22.31691 30.48428,-22.31687 30.4848,-22.31682 30.48551,-22.31661 30.48726,-22.31648 30.48781,-22.31648 30.48839,-22.31651 30.48886,-22.31639 30.48939,-22.31635 30.4897,-22.31643 30.49034,-22.31648 30.4912,-22.31658 30.49189,-22.31659 30.49239,-22.31674 30.49277,-22.31679 30.49383,-22.31717 30.49473,-22.31757 30.4955,-22.31789 30.49627,-22.31823 30.49686,-22.31851 30.4984,-22.31932 30.49937,-22.31983 30.49966,-22.32004 30.49974,-22.32024 30.50001,-22.32034 30.50211,-22.32115 30.50248,-22.32132 30.5031,-22.32155 30.50412,-22.32195 30.50524,-22.3224 30.50585,-22.3226 30.50637,-22.32262 30.50711,-22.32267 30.50763,-22.32272 30.50998,-22.32272 30.5105,-22.32269 30.51121,-22.3226 30.5121,-22.32261 30.5129,-22.32265 30.514,-22.32276 30.51489,-22.32283 30.51588,-22.32285 30.51655,-22.32287 30.51739,-22.32303 30.51808,-22.32321 30.51861,-22.32337 30.51924,-22.32349 30.5198,-22.32365 30.5209,-22.32387 30.52262,-22.32421 30.52368,-22.32438 30.52485,-22.3247 30.52594,-22.32498 30.52747,-22.32549 30.52796,-22.32558 30.5292,-22.32589 30.53027,-22.32621 30.53078,-22.32629 30.53168,-22.32653 30.53265,-22.32689 30.53363,-22.32713 30.53411,-22.3272 30.53468,-22.32728 30.53529,-22.32742 30.53597,-22.32767 30.53746,-22.32801 30.53816,-22.32813 30.53869,-22.32823 30.53962,-22.3284 30.54107,-22.32885 30.54218,-22.32922 30.54274,-22.3294 30.54328,-22.32967 30.54392,-22.32983 30.54522,-22.33022 30.54562,-22.33029 30.54643,-22.33048 30.54713,-22.33066 30.54869,-22.33108 30.54942,-22.33127 30.55025,-22.33138 30.55068,-22.33148 30.55136,-22.33156 30.55281,-22.33164 30.55335,-22.3316 30.55397,-22.33162 30.55461,-22.33151 30.55526,-22.33111 30.55596,-22.33078 30.55672,-22.33044 30.55714,-22.3301 30.55766,-22.3298 30.55827,-22.3291 30.55914,-22.32828 30.55959,-22.32798 30.55984,-22.32765 30.5603,-22.32728 30.56074,-22.32659 30.5613,-22.32594 30.56175,-22.32536 30.5621,-22.32486 30.56255,-22.3242 30.56322,-22.32364 30.5638,-22.3232 30.56428,-22.32296 30.56476,-22.32262 30.56527,-22.32242 30.56577,-22.32206 30.56624,-22.32189 30.56706,-22.32162 30.56812,-22.32143 30.56887,-22.32134 30.5696,-22.32124 30.57075,-22.32113 30.57135,-22.32102 30.57195,-22.32083 30.57255,-22.32073 30.57317,-22.32063 30.57347,-22.3206 30.57417,-22.32057 30.57473,-22.32047 30.5754,-22.3204 30.57582,-22.32024 30.57615,-22.32 30.57666,-22.31971 30.57713,-22.31956 30.57779,-22.3194 30.57843,-22.3192 30.57906,-22.31911 30.57938,-22.31907 30.58006,-22.31901 30.58093,-22.31891 30.58249,-22.31895 30.58305,-22.31898 30.58353,-22.31905 30.5841,-22.31898 30.58477,-22.31892 30.58599,-22.31881 30.58681,-22.31881 30.58737,-22.31882 30.58798,-22.31891 30.58875,-22.31902 30.58932,-22.3191 30.58995,-22.31918 30.59079,-22.31927 30.59118,-22.3193 30.5918,-22.3194 30.59252,-22.31947 30.59397,-22.31963 30.59475,-22.31973 30.59523,-22.31986 30.59593,-22.31996 30.59673,-22.32012 30.59779,-22.3203 30.59842,-22.32042 30.59906,-22.32055 30.59958,-22.32065 30.60079,-22.32094 30.60141,-22.32106 30.60236,-22.32122 30.60282,-22.32136 30.6034,-22.32152 30.60423,-22.32182 30.60511,-22.32213 30.60582,-22.32233 30.60628,-22.32255 30.60674,-22.32285 30.6072,-22.32303 30.60777,-22.32344 30.60853,-22.32387 30.60913,-22.32422 30.60936,-22.32443 30.60967,-22.32489 30.60999,-22.32526 30.61033,-22.32565 30.61068,-22.32602 30.61138,-22.32665 30.61191,-22.32711 30.61219,-22.32735 30.61267,-22.32777 30.61289,-22.32811 30.61363,-22.3287 30.61442,-22.32927 30.61535,-22.32999 30.61568,-22.33032 30.61599,-22.33066 30.61719,-22.33158 30.61772,-22.33191 30.61799,-22.33218 30.61864,-22.33261 30.61909,-22.33297 30.61965,-22.33338 30.62018,-22.3337 30.62082,-22.33412 30.62126,-22.33438 30.62181,-22.33476 30.62243,-22.33508 30.6231,-22.33541 30.62366,-22.33566 30.62438,-22.3359 30.62488,-22.33606 30.62562,-22.33624 30.62609,-22.33634 30.62653,-22.33632 30.62744,-22.33632 30.62822,-22.33629 30.62895,-22.33635 30.62943,-22.33632 30.63019,-22.33627 30.63168,-22.33629 30.63234,-22.33616 30.63312,-22.3359 30.63368,-22.33567 30.63446,-22.33535 30.63578,-22.33481 30.63618,-22.33462 30.63664,-22.33423 30.63669,-22.33416 30.63999,-22.34318 30.63999,-22.34318 30.6502,-22.37138 30.6502,-22.37138 30.6555,-22.386 30.64598,-22.39841 30.64524,-22.39938 30.64139,-22.4044 30.63965,-22.40666 30.63945,-22.40693 30.63313,-22.41515 30.59457,-22.44795 30.58262,-22.46386 30.57602,-22.47265 30.56997,-22.4807 30.56305,-22.48501 30.55385,-22.49074 30.52147,-22.51091 30.48908,-22.53138 30.47327,-22.54184 30.47055,-22.54366 30.45794,-22.5521 30.45752,-22.55162 30.45727,-22.55158 30.4569,-22.55153 30.45641,-22.55172 30.45634,-22.55171 30.45601,-22.55167 30.45552,-22.55158 30.45492,-22.55147 30.45418,-22.55128 30.45369,-22.55125 30.45292,-22.5512 30.4525,-22.55123 30.45171,-22.55128 30.45106,-22.55143 30.45067,-22.55207 30.44992,-22.55284 30.44928,-22.55365 30.44889,-22.55417 30.44812,-22.55484 30.44681,-22.55514 30.44589,-22.55514 30.44517,-22.55511 30.44436,-22.55474 30.44376,-22.5541 30.44324,-22.5539 30.44285,-22.55405 30.44267,-22.55449 30.44213,-22.55482 30.44131,-22.55499 30.44072,-22.55504 30.43995,-22.55533 30.43978,-22.55566 30.43916,-22.55598 30.43839,-22.55628 30.43792,-22.5565 30.43719,-22.55673 30.43601,-22.55705 30.43544,-22.55733 30.43465,-22.5576 30.4342,-22.55777 30.43348,-22.55777 30.43289,-22.55762 30.43234,-22.55693 30.43202,-22.55705 30.43153,-22.5574 30.43123,-22.5579 30.43113,-22.55834 30.43106,-22.55881 30.43091,-22.55936 30.43079,-22.55975 30.43059,-22.56017 30.43022,-22.56039 30.42994,-22.56059 30.42945,-22.56062 30.429,-22.56067 30.42856,-22.56079 30.42796,-22.56111 30.42773,-22.56142 30.42738,-22.56182 30.42669,-22.56224 30.42624,-22.56286 30.42575,-22.56305 30.42533,-22.56268 30.42508,-22.56241 30.42498,-22.56234 30.42434,-22.56224 30.42342,-22.56244 30.42308,-22.56278 30.42281,-22.56328 30.42261,-22.56362 30.42226,-22.5639 30.42196,-22.56419 30.42154,-22.56471 30.42154,-22.56521 30.42157,-22.56583 30.42157,-22.56644 30.42154,-22.56696 30.42169,-22.56783 30.42167,-22.56823 30.42142,-22.56887 30.42167,-22.56922 30.42189,-22.56951 30.42203,-22.5697 30.42205,-22.57022 30.42175,-22.57069 30.42136,-22.57131 30.42118,-22.5716 30.42106,-22.5722 30.42163,-22.57314 30.42203,-22.57343 30.42264,-22.57353 30.42334,-22.57376 30.42363,-22.57403 30.42396,-22.5743 30.42406,-22.57465 30.42391,-22.57529 30.42391,-22.57556 30.42423,-22.57621 30.4248,-22.57727 30.42492,-22.57784 30.425,-22.57814 30.42498,-22.57842 30.42506,-22.57884 30.42503,-22.57934 30.42479,-22.57968 30.42419,-22.57968 30.42397,-22.58033 30.42417,-22.58087 30.42427,-22.58132 30.42419,-22.58169 30.42402,-22.58206 30.4238,-22.58238 30.42389,-22.58265 30.42404,-22.58322 30.42404,-22.58354 30.42384,-22.58401 30.42367,-22.58426 30.42333,-22.58448 30.42318,-22.58466 30.423,-22.58495 30.42295,-22.58525 30.42263,-22.58579 30.42226,-22.58631 30.42187,-22.58673 30.42165,-22.58699 30.42136,-22.58714 30.42106,-22.58744 30.42103,-22.58752 30.42103,-22.58752 30.42101,-22.58757 30.42081,-22.58806 30.42074,-22.58843 30.42074,-22.5887 30.42054,-22.58942 30.42042,-22.58959 30.42029,-22.58986 30.4201,-22.59041 30.41997,-22.59063 30.41977,-22.59083 30.4193,-22.59093 30.41891,-22.59115 30.41869,-22.59123 30.41851,-22.5912 30.41827,-22.59135 30.41804,-22.59137 30.41779,-22.5913 30.41752,-22.59125 30.41715,-22.5913 30.4169,-22.5914 30.41663,-22.5915 30.41648,-22.5916 30.41629,-22.59184 30.41604,-22.59204 30.41596,-22.59202 30.41567,-22.59226 30.41525,-22.59241 30.41473,-22.59236 30.41413,-22.59269 30.41379,-22.59301 30.41349,-22.59375 30.41324,-22.59419 30.41257,-22.59479 30.41183,-22.59523 30.41106,-22.59565 30.41,-22.59615 30.40941,-22.59655 30.40859,-22.59731 30.40829,-22.59783 30.40802,-22.59838 30.40743,-22.59875 30.40688,-22.59897 30.40649,-22.59919 30.40584,-22.59912 30.40545,-22.59907 30.40508,-22.59897 30.40451,-22.59909 30.40416,-22.59919 30.40367,-22.59924 30.40305,-22.59954 30.40233,-22.59998 30.40193,-22.60046 30.40161,-22.6012 30.40171,-22.60194 30.40201,-22.60243 30.40243,-22.60293 30.40278,-22.60325 30.40312,-22.60357 30.40332,-22.60399 30.40333,-22.60438 30.4036,-22.60522 30.4036,-22.60574 30.4037,-22.6067 30.40373,-22.60745 30.40373,-22.60764 30.40368,-22.60794 30.40365,-22.60839 30.40351,-22.60898 30.40331,-22.60938 30.40276,-22.60985 30.40234,-22.61012 30.40162,-22.61041 30.4008,-22.61092 30.4002,-22.61117 30.39956,-22.61169 30.39929,-22.6128 30.39936,-22.61335 30.39939,-22.61377 30.39929,-22.61424 30.39916,-22.61463 30.39899,-22.6151 30.39884,-22.61572 30.39879,-22.61639 30.39872,-22.61691 30.39874,-22.61755 30.39884,-22.61837 30.39873,-22.61873 30.39851,-22.61932 30.39814,-22.62004 30.39774,-22.62066 30.39727,-22.62155 30.39678,-22.62199 30.39645,-22.62269 30.39623,-22.62363 30.39608,-22.6242 30.39605,-22.62489 30.39576,-22.62503 30.38991,-22.62796 30.38458,-22.6306 30.38076,-22.63247 30.37773,-22.63397 30.37276,-22.63645 30.36465,-22.64044 30.36172,-22.64189 30.36026,-22.64261 30.35977,-22.64285 30.35973,-22.64286 30.32372,-22.65322 30.28817,-22.65365 30.25647,-22.6685 30.24119,-22.67479 30.23681,-22.67649 30.23203,-22.67834 30.21424,-22.68522</coordinates></LinearRing></outerBoundaryIs></Polygon></MultiGeometry></Placemark></Document></kml>