<?xml version="1.0" encoding="UTF-8"?><kml xmlns="http://www.opengis.net/kml/2.2"><Document><Placemark><name>Marulaneng</name><description>Main Place 982070</description><ExtendedData><Data name="code"><value>982070</value></Data><Data name="name"><value>Marulaneng</value></Data><Data name="description"><value>Main Place 982070</value></Data></ExtendedData><MultiGeometry><Polygon><outerBoundaryIs><LinearRing><coordinates>28.68746,-23.84491 28.68757,-23.8451 28.68772,-23.84526 28.68782,-23.84533 28.68785,-23.84542 28.68787,-23.84554 28.68789,-23.84561 28.68799,-23.84573 28.68818,-23.84586 28.68832,-23.84593 28.68899,-23.84609 28.68955,-23.84624 28.68942,-23.84652 28.68953,-23.84655 28.68989,-23.84665 28.69069,-23.84692 28.69197,-23.84725 28.69327,-23.84759 28.69535,-23.84813 28.69542,-23.84827 28.69552,-23.8484 28.69586,-23.84845 28.69602,-23.84847 28.6962,-23.8485 28.69624,-23.84851 28.69658,-23.84857 28.69678,-23.84857 28.6968,-23.84857 28.69701,-23.84854 28.69784,-23.84832 28.6981,-23.84823 28.69816,-23.84821 28.69839,-23.84813 28.69865,-23.84804 28.69926,-23.84791 28.69983,-23.84783 28.70009,-23.8478 28.70119,-23.8478 28.70359,-23.84814 28.70415,-23.84819 28.70445,-23.84815 28.70497,-23.84735 28.70585,-23.84688 28.70585,-23.84688 28.70593,-23.84683 28.70612,-23.84657 28.70642,-23.84661 28.70701,-23.84676 28.70735,-23.84683 28.70753,-23.84661 28.70787,-23.84638 28.70857,-23.84642 28.70883,-23.84653 28.7092,-23.8469 28.70965,-23.84702 28.71013,-23.84702 28.71054,-23.84735 28.71095,-23.84757 28.71106,-23.84787 28.71121,-23.8479 28.71141,-23.84785 28.71166,-23.84778 28.71193,-23.84795 28.71205,-23.84807 28.71213,-23.84834 28.71217,-23.84861 28.71236,-23.84988 28.71251,-23.85028 28.71275,-23.85155 28.71236,-23.85163 28.71208,-23.85169 28.71045,-23.85201 28.70853,-23.85241 28.70727,-23.8527 28.70639,-23.85286 28.7059,-23.85295 28.70552,-23.85307 28.70528,-23.85314 28.70482,-23.85336 28.70432,-23.85367 28.70393,-23.85408 28.70358,-23.85445 28.70328,-23.85488 28.70274,-23.85568 28.70243,-23.85614 28.70198,-23.85676 28.70195,-23.85681 28.70065,-23.85861 28.69994,-23.85954 28.69814,-23.86193 28.69624,-23.86448 28.69603,-23.86476 28.69538,-23.86463 28.69417,-23.86415 28.69267,-23.86357 28.69275,-23.8634 28.69276,-23.86332 28.69275,-23.86324 28.69214,-23.86299 28.69194,-23.8629 28.69197,-23.8628 28.692,-23.86274 28.69202,-23.86266 28.69204,-23.86258 28.69202,-23.8625 28.69195,-23.8624 28.69156,-23.862 28.69146,-23.86186 28.69142,-23.86175 28.69133,-23.86165 28.69121,-23.86156 28.69116,-23.86148 28.69112,-23.86128 28.69111,-23.86117 28.69116,-23.86103 28.6913,-23.86077 28.69134,-23.86071 28.69136,-23.86065 28.69135,-23.86061 28.6913,-23.86058 28.69049,-23.8603 28.69089,-23.85932 28.68928,-23.85885 28.68913,-23.85883 28.68898,-23.85882 28.68893,-23.85882 28.68878,-23.85885 28.68842,-23.85891 28.68828,-23.85894 28.68819,-23.85892 28.68812,-23.85888 28.68806,-23.85885 28.68799,-23.85885 28.68765,-23.85897 28.68735,-23.85902 28.68725,-23.85902 28.68712,-23.85899 28.68705,-23.85897 28.68701,-23.85898 28.687,-23.85898 28.68681,-23.85912 28.68672,-23.85921 28.68648,-23.85944 28.68615,-23.85963 28.68601,-23.85965 28.68567,-23.85954 28.68475,-23.85917 28.68482,-23.85869 28.68484,-23.85851 28.68487,-23.8584 28.68493,-23.85825 28.68505,-23.85798 28.68537,-23.85655 28.68541,-23.85613 28.68536,-23.85599 28.68529,-23.85586 28.68506,-23.85569 28.68481,-23.85549 28.6845,-23.85513 28.68423,-23.85486 28.68399,-23.85473 28.68348,-23.85452 28.68332,-23.85444 28.68312,-23.85431 28.68248,-23.85406 28.6816,-23.85379 28.6815,-23.85377 28.6815,-23.85376 28.68094,-23.85358 28.68089,-23.85356 28.67946,-23.85297 28.67883,-23.85281 28.67901,-23.85217 28.67904,-23.85202 28.6792,-23.85148 28.67872,-23.85137 28.67855,-23.85133 28.67836,-23.85129 28.67757,-23.85123 28.6773,-23.85122 28.6772,-23.85118 28.67713,-23.85112 28.6771,-23.85104 28.67711,-23.85096 28.67726,-23.85068 28.67763,-23.85001 28.67778,-23.84974 28.67852,-23.84844 28.67866,-23.84803 28.6789,-23.84754 28.67927,-23.84665 28.67973,-23.84553 28.68002,-23.84482 28.68019,-23.84448 28.68026,-23.84426 28.6807,-23.8444 28.68085,-23.84447 28.68113,-23.84459 28.68133,-23.84474 28.68154,-23.84488 28.68175,-23.84494 28.6821,-23.84504 28.68249,-23.84514 28.68277,-23.84442 28.6841,-23.84481 28.68452,-23.84494 28.68455,-23.8447 28.68461,-23.84415 28.68462,-23.84395 28.68462,-23.84378 28.68463,-23.84355 28.68467,-23.84303 28.68546,-23.84339 28.68571,-23.84349 28.68583,-23.84352 28.68659,-23.84393 28.68691,-23.84406 28.68699,-23.84414 28.68702,-23.84425 28.68707,-23.84445 28.68716,-23.84458 28.68746,-23.84491</coordinates></LinearRing></outerBoundaryIs></Polygon></MultiGeometry></Placemark></Document></kml>