<?xml version="1.0" encoding="UTF-8"?><kml xmlns="http://www.opengis.net/kml/2.2"><Document><Placemark><name>Luckau</name><description>Main Place 984009</description><ExtendedData><Data name="code"><value>984009</value></Data><Data name="name"><value>Luckau</value></Data><Data name="description"><value>Main Place 984009</value></Data></ExtendedData><MultiGeometry><Polygon><outerBoundaryIs><LinearRing><coordinates>29.6031,-24.98955 29.60322,-24.98957 29.60335,-24.98957 29.60345,-24.98954 29.60354,-24.98954 29.60366,-24.98958 29.60376,-24.98964 29.6038,-24.98968 29.60438,-24.98965 29.60449,-24.98965 29.60449,-24.98965 29.6047,-24.99009 29.60485,-24.99035 29.60493,-24.99037 29.60504,-24.99044 29.6051,-24.99051 29.60512,-24.99057 29.60522,-24.99066 29.60534,-24.9907 29.60535,-24.99092 29.60536,-24.99105 29.60551,-24.99117 29.60572,-24.99125 29.60594,-24.99119 29.6063,-24.99135 29.60668,-24.99185 29.60695,-24.9922 29.60697,-24.99224 29.60713,-24.99255 29.60734,-24.99283 29.60772,-24.99297 29.60811,-24.9929 29.60846,-24.99293 29.60875,-24.99288 29.609,-24.99314 29.60923,-24.99335 29.60931,-24.99349 29.60938,-24.99367 29.6094,-24.99394 29.60941,-24.99404 29.60945,-24.99424 29.60974,-24.99453 29.60978,-24.99457 29.61036,-24.99505 29.61093,-24.99554 29.61125,-24.99584 29.6114,-24.99606 29.6116,-24.99629 29.6119,-24.99656 29.61203,-24.99667 29.61232,-24.99676 29.61244,-24.99679 29.61255,-24.99683 29.61269,-24.99696 29.61292,-24.99708 29.61312,-24.99719 29.61329,-24.99738 29.61357,-24.99746 29.61387,-24.99768 29.61399,-24.99805 29.61421,-24.99828 29.61437,-24.99853 29.61447,-24.9988 29.61458,-24.99894 29.61471,-24.99909 29.61504,-24.99928 29.61534,-24.99947 29.61566,-24.99959 29.61596,-24.99975 29.61614,-24.9999 29.61648,-25.00004 29.61676,-25.00033 29.6169,-25.00055 29.61714,-25.00088 29.61711,-25.00125 29.61723,-25.00169 29.61743,-25.00186 29.61755,-25.00199 29.61762,-25.00206 29.61761,-25.0026 29.61761,-25.0029 29.61766,-25.00315 29.6179,-25.00342 29.61812,-25.00362 29.61831,-25.00385 29.61846,-25.00414 29.61858,-25.00437 29.61869,-25.00463 29.61875,-25.00495 29.6189,-25.00524 29.61912,-25.00562 29.61928,-25.00584 29.61939,-25.00621 29.61935,-25.00649 29.61931,-25.00674 29.61931,-25.00701 29.61927,-25.00717 29.61926,-25.00722 29.61933,-25.0074 29.61945,-25.0075 29.6195,-25.00774 29.61949,-25.00776 29.6195,-25.00777 29.61964,-25.00789 29.61978,-25.00801 29.61983,-25.00824 29.61993,-25.00858 29.61989,-25.00889 29.61993,-25.00895 29.61998,-25.00914 29.62003,-25.00925 29.62002,-25.00933 29.62008,-25.00937 29.62008,-25.0094 29.62004,-25.00945 29.6201,-25.00963 29.6201,-25.00968 29.62025,-25.00982 29.62038,-25.00996 29.62032,-25.01 29.6203,-25.01008 29.62039,-25.01014 29.62036,-25.01025 29.62047,-25.01043 29.62044,-25.01063 29.62048,-25.01098 29.62054,-25.0112 29.62053,-25.01144 29.62053,-25.01158 29.61776,-25.01136 29.61789,-25.0122 29.61655,-25.01231 29.6158,-25.01241 29.61557,-25.01223 29.61551,-25.01193 29.61548,-25.01153 29.61545,-25.01135 29.61536,-25.01115 29.61258,-25.01093 29.61039,-25.01075 29.60967,-25.0107 29.60849,-25.0106 29.6057,-25.01039 29.60407,-25.01026 29.60323,-25.0102 29.60146,-25.01018 29.60069,-25.0102 29.59945,-25.01027 29.59942,-25.01028 29.59946,-25.01043 29.59945,-25.01064 29.59945,-25.01067 29.59942,-25.01086 29.59937,-25.01102 29.59936,-25.01107 29.59934,-25.01116 29.59928,-25.01135 29.59925,-25.01154 29.59923,-25.01162 29.5992,-25.01173 29.59916,-25.01197 29.59913,-25.01205 29.59907,-25.01219 29.59898,-25.01263 29.59887,-25.01286 29.5987,-25.01315 29.5986,-25.01329 29.59753,-25.01365 29.59738,-25.01372 29.59723,-25.01378 29.59708,-25.01382 29.59703,-25.01384 29.597,-25.01385 29.59682,-25.01394 29.59669,-25.01399 29.59652,-25.01405 29.59639,-25.0141 29.59634,-25.01411 29.59621,-25.01414 29.59616,-25.01417 29.59563,-25.01437 29.59559,-25.01438 29.59515,-25.01453 29.59502,-25.01455 29.59493,-25.01457 29.5948,-25.01459 29.59468,-25.01466 29.59457,-25.01469 29.59441,-25.01475 29.59425,-25.01481 29.59407,-25.01487 29.59396,-25.01491 29.59387,-25.01495 29.59382,-25.01499 29.59352,-25.01511 29.59325,-25.01522 29.59301,-25.01532 29.59298,-25.01534 29.5929,-25.01539 29.59282,-25.01541 29.59259,-25.01548 29.59245,-25.01555 29.59231,-25.0156 29.59218,-25.01564 29.59217,-25.01565 29.59215,-25.01566 29.59202,-25.01571 29.59195,-25.01571 29.59191,-25.01572 29.59182,-25.01574 29.59172,-25.01576 29.59161,-25.01582 29.59151,-25.01587 29.5914,-25.01593 29.59129,-25.01601 29.59117,-25.01614 29.58939,-25.01082 29.59261,-25.01062 29.59259,-25.01051 29.59238,-25.01004 29.59225,-25.00884 29.59218,-25.00799 29.59217,-25.00752 29.59219,-25.00728 29.59236,-25.00683 29.59258,-25.00639 29.59272,-25.00601 29.59278,-25.00564 29.59282,-25.00511 29.59278,-25.0044 29.5928,-25.00396 29.59292,-25.00322 29.59302,-25.00251 29.59299,-25.00166 29.59298,-25.00077 29.59294,-25.00041 29.59273,-24.99975 29.59167,-24.99934 29.59068,-24.99896 29.5902,-24.99872 29.58952,-24.9985 29.58881,-24.99792 29.58813,-24.99794 29.58763,-24.99784 29.58673,-24.99769 29.58488,-24.99713 29.58481,-24.99712 29.58474,-24.99708 29.58455,-24.997 29.58428,-24.99683 29.58409,-24.99672 29.58372,-24.99653 29.58348,-24.99643 29.58252,-24.99656 29.5815,-24.99692 29.58102,-24.9961 29.58062,-24.99527 29.57994,-24.99499 29.57967,-24.99473 29.57883,-24.99407 29.57976,-24.99316 29.57952,-24.99306 29.57924,-24.99289 29.57891,-24.99269 29.57855,-24.99243 29.57817,-24.99219 29.57779,-24.99192 29.57755,-24.9918 29.57754,-24.99153 29.58266,-24.99064 29.58275,-24.99055 29.58295,-24.9905 29.58313,-24.99048 29.58333,-24.99049 29.58343,-24.99047 29.58365,-24.99039 29.58384,-24.99037 29.58408,-24.99038 29.58419,-24.99037 29.58441,-24.99032 29.58456,-24.99027 29.58466,-24.99026 29.58495,-24.99025 29.58521,-24.99025 29.58549,-24.99021 29.58566,-24.99027 29.58603,-24.99041 29.58632,-24.99053 29.58642,-24.99058 29.5865,-24.9906 29.58671,-24.9906 29.5868,-24.99055 29.58694,-24.99043 29.58697,-24.99041 29.58705,-24.99036 29.58723,-24.99029 29.58731,-24.99026 29.5874,-24.99018 29.58745,-24.99015 29.58756,-24.99014 29.58777,-24.99011 29.58791,-24.9901 29.5881,-24.99037 29.58823,-24.99053 29.5883,-24.99056 29.5884,-24.99057 29.58857,-24.99054 29.5889,-24.99054 29.58905,-24.99056 29.58915,-24.99058 29.58924,-24.99056 29.58942,-24.99051 29.58954,-24.99051 29.58973,-24.99052 29.58993,-24.99055 29.59006,-24.99056 29.59013,-24.99052 29.59023,-24.99046 29.59031,-24.99045 29.59049,-24.99045 29.59071,-24.99044 29.5912,-24.99035 29.59142,-24.99031 29.59162,-24.99029 29.59184,-24.99031 29.59207,-24.99031 29.59222,-24.99033 29.59233,-24.99032 29.59247,-24.99029 29.59259,-24.99026 29.59272,-24.99025 29.59282,-24.99025 29.59303,-24.99023 29.59345,-24.99023 29.59363,-24.99024 29.59396,-24.99024 29.59408,-24.99021 29.59413,-24.99018 29.59424,-24.99017 29.59435,-24.99018 29.59443,-24.9902 29.59451,-24.9902 29.59462,-24.99015 29.59486,-24.99015 29.59503,-24.99014 29.59516,-24.9901 29.59529,-24.99008 29.59546,-24.99007 29.59567,-24.99005 29.5958,-24.99005 29.59587,-24.99006 29.59599,-24.99005 29.59614,-24.99002 29.59638,-24.99 29.59653,-24.99 29.59662,-24.98999 29.59674,-24.98995 29.59684,-24.98994 29.59697,-24.98995 29.59716,-24.98994 29.59768,-24.98989 29.59786,-24.98989 29.59809,-24.98994 29.59815,-24.98995 29.59816,-24.98995 29.5983,-24.9899 29.59877,-24.98985 29.59904,-24.98984 29.59928,-24.98985 29.59943,-24.98983 29.59957,-24.9898 29.60026,-24.9898 29.60052,-24.98981 29.60068,-24.9898 29.60079,-24.98979 29.60095,-24.98973 29.60112,-24.98968 29.60137,-24.98961 29.6016,-24.98955 29.60168,-24.98955 29.60181,-24.98954 29.60194,-24.98954 29.60203,-24.98955 29.60233,-24.98955 29.60237,-24.98954 29.60242,-24.98952 29.60245,-24.9895 29.60253,-24.98946 29.60258,-24.98946 29.60273,-24.98947 29.60285,-24.9895 29.60296,-24.98952 29.6031,-24.98955</coordinates></LinearRing></outerBoundaryIs></Polygon></MultiGeometry></Placemark></Document></kml>